{
  "id": 891118605,
  "type": "Feature",
  "properties": {
    "clustr:alpha":0.05,
    "clustr:area":18.75,
    "clustr:count":12,
    "clustr:density":0.64,
    "clustr:perimeter":0.17,
    "edtf:cessation":"uuuu",
    "edtf:inception":"uuuu",
    "geom:area":0.0,
    "geom:bbox":"5.83314180374,50.9705314636,5.83413314819,50.9710845947",
    "geom:latitude":50.970797,
    "geom:longitude":5.833633,
    "iso:country":"NL",
    "mz:hierarchy_label":1,
    "mz:is_approximate":1,
    "mz:is_clustr":1,
    "src:geom":"oa",
    "wof:belongsto":[
        85687033,
        102191581,
        404474675,
        85633337,
        101839721
    ],
    "wof:breaches":[],
    "wof:country":"NL",
    "wof:created":1469687978,
    "wof:geomhash":"f5035390101121f52128c2e3ad1eddb1",
    "wof:hierarchy":[
        {
            "continent_id":102191581,
            "country_id":85633337,
            "localadmin_id":404474675,
            "locality_id":101839721,
            "postalcode_id":891118605,
            "region_id":85687033
        }
    ],
    "wof:id":891118605,
    "wof:lastmodified":1469687978,
    "wof:name":"6166XX",
    "wof:parent_id":101839721,
    "wof:placetype":"postalcode",
    "wof:repo":"whosonfirst-data-postalcode-nl",
    "wof:superseded_by":[],
    "wof:supersedes":[],
    "wof:tags":[]
},
  "bbox": [
    5.833141803741455,
    50.97053146362305,
    5.834133148193359,
    50.97108459472656
],
  "geometry": {"coordinates":[[[5.83370780944824,50.97073745727539],[5.83356618881226,50.97080993652344],[5.83314180374146,50.97108459472656],[5.83413314819336,50.97053146362305],[5.83384943008423,50.97066497802734],[5.83370780944824,50.97073745727539]]],"type":"Polygon"}
}