{
  "id": 890710467,
  "type": "Feature",
  "properties": {
    "clustr:alpha":0.05,
    "clustr:area":29.81,
    "clustr:count":19,
    "clustr:density":0.64,
    "clustr:perimeter":0.12,
    "edtf:cessation":"uuuu",
    "edtf:inception":"uuuu",
    "geom:area":0.0,
    "geom:bbox":"4.69052553177,52.2965126038,4.6912984848,52.2969284058",
    "geom:latitude":52.296701,
    "geom:longitude":4.69095,
    "iso:country":"NL",
    "mz:hierarchy_label":1,
    "mz:is_approximate":1,
    "mz:is_clustr":1,
    "src:geom":"oa",
    "wof:belongsto":[
        85687053,
        102191581,
        404474065,
        85633337,
        101751899
    ],
    "wof:breaches":[],
    "wof:country":"NL",
    "wof:created":1469671715,
    "wof:geomhash":"cec1987c7f0e3076efee99068396962c",
    "wof:hierarchy":[
        {
            "continent_id":102191581,
            "country_id":85633337,
            "localadmin_id":404474065,
            "locality_id":101751899,
            "postalcode_id":890710467,
            "region_id":85687053
        }
    ],
    "wof:id":890710467,
    "wof:lastmodified":1469671715,
    "wof:name":"2132VV",
    "wof:parent_id":101751899,
    "wof:placetype":"postalcode",
    "wof:repo":"whosonfirst-data-postalcode-nl",
    "wof:superseded_by":[],
    "wof:supersedes":[],
    "wof:tags":[]
},
  "bbox": [
    4.690525531768799,
    52.296512603759766,
    4.691298484802246,
    52.29692840576172
],
  "geometry": {"coordinates":[[[4.690598487854,52.296875],[4.6905255317688,52.29691696166992],[4.69054508209229,52.29692840576172],[4.69129848480225,52.29653930664062],[4.69127941131592,52.29652404785156],[4.69126033782959,52.29651260375977],[4.69109582901001,52.29660034179688],[4.69083261489868,52.29674530029297],[4.690598487854,52.296875]]],"type":"Polygon"}
}