{
  "id": 891111495,
  "type": "Feature",
  "properties": {
    "clustr:alpha":0.05,
    "clustr:area":252.02,
    "clustr:count":26,
    "clustr:density":0.1,
    "clustr:perimeter":0.23,
    "edtf:cessation":"uuuu",
    "edtf:inception":"uuuu",
    "geom:area":0.0,
    "geom:bbox":"5.87733602524,51.1073722839,5.87967157364,51.1083488464",
    "geom:latitude":51.107945,
    "geom:longitude":5.878288,
    "iso:country":"NL",
    "mz:hierarchy_label":1,
    "mz:is_approximate":1,
    "mz:is_clustr":1,
    "src:geom":"oa",
    "wof:belongsto":[
        85687033,
        102191581,
        404474627,
        85633337,
        101839233
    ],
    "wof:breaches":[],
    "wof:country":"NL",
    "wof:created":1469687703,
    "wof:geomhash":"704759cb9d573333df0e52f2190d8474",
    "wof:hierarchy":[
        {
            "continent_id":102191581,
            "country_id":85633337,
            "localadmin_id":404474627,
            "locality_id":101839233,
            "postalcode_id":891111495,
            "region_id":85687033
        }
    ],
    "wof:id":891111495,
    "wof:lastmodified":1469687703,
    "wof:name":"6101KS",
    "wof:parent_id":101839233,
    "wof:placetype":"postalcode",
    "wof:repo":"whosonfirst-data-postalcode-nl",
    "wof:superseded_by":[],
    "wof:supersedes":[],
    "wof:tags":[]
},
  "bbox": [
    5.877336025238037,
    51.10737228393555,
    5.879671573638916,
    51.10834884643555
],
  "geometry": {"coordinates":[[[5.87774896621704,51.10820770263672],[5.87967157363892,51.10737228393555],[5.87939786911011,51.10746383666992],[5.87933015823364,51.10749053955078],[5.87919902801514,51.1075439453125],[5.87814903259277,51.10797500610352],[5.87743186950684,51.10826873779297],[5.87733602523804,51.10831069946289],[5.87737560272217,51.10834884643555],[5.87766599655151,51.10824203491211],[5.87774896621704,51.10820770263672]]],"type":"Polygon"}
}