{
  "id": 891027821,
  "type": "Feature",
  "properties": {
    "clustr:alpha":0.05,
    "clustr:area":121.11,
    "clustr:count":5,
    "clustr:density":0.04,
    "clustr:perimeter":0.33,
    "edtf:cessation":"uuuu",
    "edtf:inception":"uuuu",
    "geom:area":0.000001,
    "geom:bbox":"5.14263391495,51.7352333069,5.14458990097,51.7367553711",
    "geom:latitude":51.736081,
    "geom:longitude":5.143703,
    "iso:country":"NL",
    "mz:hierarchy_label":1,
    "mz:is_approximate":1,
    "mz:is_clustr":1,
    "src:geom":"oa",
    "wof:belongsto":[
        85687035,
        102191581,
        404474395,
        85633337,
        101808211
    ],
    "wof:breaches":[],
    "wof:country":"NL",
    "wof:created":1469684532,
    "wof:geomhash":"0c3841522bcab4fca5c30ff934d803ad",
    "wof:hierarchy":[
        {
            "continent_id":102191581,
            "country_id":85633337,
            "localadmin_id":404474395,
            "locality_id":101808211,
            "postalcode_id":891027821,
            "region_id":85687035
        }
    ],
    "wof:id":891027821,
    "wof:lastmodified":1469684532,
    "wof:name":"5256PL",
    "wof:parent_id":101808211,
    "wof:placetype":"postalcode",
    "wof:repo":"whosonfirst-data-postalcode-nl",
    "wof:superseded_by":[],
    "wof:supersedes":[],
    "wof:tags":[]
},
  "bbox": [
    5.14263391494751,
    51.735233306884766,
    5.144589900970459,
    51.73675537109375
],
  "geometry": {"coordinates":[[[5.14458990097046,51.73583984375],[5.1440281867981,51.73523330688477],[5.14263391494751,51.73651123046875],[5.14369583129883,51.73675537109375],[5.14458990097046,51.73583984375]]],"type":"Polygon"}
}