{
  "id": 907041353,
  "type": "Feature",
  "properties": {
    "clustr:alpha":0.05,
    "clustr:area":3.8,
    "clustr:count":19,
    "clustr:density":5.0,
    "clustr:perimeter":0.26,
    "edtf:cessation":"uuuu",
    "edtf:inception":"uuuu",
    "geom:area":0.0,
    "geom:bbox":"6.12255954742,52.7847633362,6.12322330475,52.7858734131",
    "geom:latitude":52.785287,
    "geom:longitude":6.122867,
    "iso:country":"NL",
    "mz:hierarchy_label":1,
    "mz:is_approximate":1,
    "mz:is_clustr":1,
    "src:geom":"oa",
    "wof:belongsto":[
        85687045,
        102191581,
        404474621,
        85633337,
        101837861
    ],
    "wof:breaches":[],
    "wof:country":"NL",
    "wof:created":1469696349,
    "wof:geomhash":"91cfaef00fc3b1edb397895e7bf3bfe7",
    "wof:hierarchy":[
        {
            "continent_id":102191581,
            "country_id":85633337,
            "localadmin_id":404474621,
            "locality_id":101837861,
            "postalcode_id":907041353,
            "region_id":85687045
        }
    ],
    "wof:id":907041353,
    "wof:lastmodified":1469696349,
    "wof:name":"8331GC",
    "wof:parent_id":101837861,
    "wof:placetype":"postalcode",
    "wof:repo":"whosonfirst-data-postalcode-nl",
    "wof:superseded_by":[],
    "wof:supersedes":[],
    "wof:tags":[]
},
  "bbox": [
    6.122559547424316,
    52.78476333618164,
    6.123223304748535,
    52.78587341308594
],
  "geometry": {"coordinates":[[[6.12293195724487,52.78507232666016],[6.12273073196411,52.78542327880859],[6.12255954742432,52.78582763671875],[6.12256002426147,52.78587341308594],[6.12322330474854,52.78476333618164],[6.12309169769287,52.78488159179688],[6.12299013137817,52.78499984741211],[6.12296104431152,52.7850341796875],[6.12293195724487,52.78507232666016]]],"type":"Polygon"}
}