{
  "id": 890954681,
  "type": "Feature",
  "properties": {
    "clustr:alpha":0.05,
    "clustr:area":9.72,
    "clustr:count":16,
    "clustr:density":1.65,
    "clustr:perimeter":0.33,
    "edtf:cessation":"uuuu",
    "edtf:inception":"uuuu",
    "geom:area":0.0,
    "geom:bbox":"3.60875320435,51.4635810852,3.60956811905,51.4650154114",
    "geom:latitude":51.464384,
    "geom:longitude":3.609124,
    "iso:country":"NL",
    "mz:hierarchy_label":1,
    "mz:is_approximate":1,
    "mz:is_clustr":1,
    "src:geom":"oa",
    "wof:belongsto":[
        85687037,
        102191581,
        404474335,
        85633337,
        101839443
    ],
    "wof:breaches":[],
    "wof:country":"NL",
    "wof:created":1469681386,
    "wof:geomhash":"cd5210144661f470d3f5d84441c71286",
    "wof:hierarchy":[
        {
            "continent_id":102191581,
            "country_id":85633337,
            "localadmin_id":404474335,
            "locality_id":101839443,
            "postalcode_id":890954681,
            "region_id":85687037
        }
    ],
    "wof:id":890954681,
    "wof:lastmodified":1469681386,
    "wof:name":"4388JX",
    "wof:parent_id":101839443,
    "wof:placetype":"postalcode",
    "wof:repo":"whosonfirst-data-postalcode-nl",
    "wof:superseded_by":[],
    "wof:supersedes":[],
    "wof:tags":[]
},
  "bbox": [
    3.608753204345703,
    51.46358108520508,
    3.609568119049072,
    51.46501541137695
],
  "geometry": {"coordinates":[[[3.60889339447021,51.46481323242188],[3.60923099517822,51.46422576904297],[3.60956811904907,51.46358108520508],[3.6087532043457,51.46501541137695],[3.60878419876099,51.46497344970703],[3.60882210731506,51.46492004394531],[3.60889339447021,51.46481323242188]]],"type":"Polygon"}
}