{
  "id": 907077797,
  "type": "Feature",
  "properties": {
    "clustr:alpha":0.05,
    "clustr:area":22.41,
    "clustr:count":8,
    "clustr:density":0.36,
    "clustr:perimeter":0.19,
    "edtf:cessation":"uuuu",
    "edtf:inception":"uuuu",
    "geom:area":0.0,
    "geom:bbox":"6.17197751999,53.1861763,6.17260980606,53.1869392395",
    "geom:latitude":53.186601,
    "geom:longitude":6.172266,
    "iso:country":"NL",
    "mz:hierarchy_label":1,
    "mz:is_approximate":1,
    "mz:is_clustr":1,
    "src:geom":"oa",
    "wof:belongsto":[
        85687055,
        102191581,
        404473757,
        85633337,
        101807467
    ],
    "wof:breaches":[],
    "wof:country":"NL",
    "wof:created":1469698105,
    "wof:geomhash":"0d1057c9119d11ad24fca7b92e464135",
    "wof:hierarchy":[
        {
            "continent_id":102191581,
            "country_id":85633337,
            "localadmin_id":404473757,
            "locality_id":101807467,
            "postalcode_id":907077797,
            "region_id":85687055
        }
    ],
    "wof:id":907077797,
    "wof:lastmodified":1469698105,
    "wof:name":"9231JD",
    "wof:parent_id":101807467,
    "wof:placetype":"postalcode",
    "wof:repo":"whosonfirst-data-postalcode-nl",
    "wof:superseded_by":[],
    "wof:supersedes":[],
    "wof:tags":[]
},
  "bbox": [
    6.171977519989014,
    53.18617630004883,
    6.172609806060791,
    53.18693923950195
],
  "geometry": {"coordinates":[[[6.17260980606079,53.18674850463867],[6.17249631881714,53.18651962280273],[6.17230749130249,53.18626022338867],[6.1721568107605,53.18617630004883],[6.17197751998901,53.18693923950195],[6.17242908477783,53.18681716918945],[6.17260980606079,53.18674850463867]]],"type":"Polygon"}
}