{
  "id": 891037185,
  "type": "Feature",
  "properties": {
    "clustr:alpha":0.05,
    "clustr:area":4.85,
    "clustr:count":14,
    "clustr:density":2.89,
    "clustr:perimeter":0.14,
    "edtf:cessation":"uuuu",
    "edtf:inception":"uuuu",
    "geom:area":0.0,
    "geom:bbox":"5.53632450104,51.7730674744,5.53638601303,51.7737960815",
    "geom:latitude":51.773486,
    "geom:longitude":5.53635,
    "iso:country":"NL",
    "mz:hierarchy_label":1,
    "mz:is_approximate":1,
    "mz:is_clustr":1,
    "src:geom":"oa",
    "wof:belongsto":[
        85687035,
        102191581,
        404474415,
        85633337,
        101751807
    ],
    "wof:breaches":[],
    "wof:country":"NL",
    "wof:created":1469684903,
    "wof:geomhash":"9e91a6527b39d7ef34056146554cbc91",
    "wof:hierarchy":[
        {
            "continent_id":102191581,
            "country_id":85633337,
            "localadmin_id":404474415,
            "locality_id":101751807,
            "postalcode_id":891037185,
            "region_id":85687035
        }
    ],
    "wof:id":891037185,
    "wof:lastmodified":1469684903,
    "wof:name":"5348RP",
    "wof:parent_id":101751807,
    "wof:placetype":"postalcode",
    "wof:repo":"whosonfirst-data-postalcode-nl",
    "wof:superseded_by":[],
    "wof:supersedes":[],
    "wof:tags":[]
},
  "bbox": [
    5.536324501037598,
    51.773067474365234,
    5.536386013031006,
    51.77379608154297
],
  "geometry": {"coordinates":[[[5.53634643554688,51.77352905273438],[5.53632879257202,51.77373886108398],[5.5363245010376,51.77379608154297],[5.53634214401245,51.77358627319336],[5.53637790679932,51.77316284179688],[5.53638601303101,51.77306747436523],[5.5363826751709,51.77310562133789],[5.53637313842773,51.77321624755859],[5.53636360168457,51.7733268737793],[5.53634643554688,51.77352905273438]]],"type":"Polygon"}
}