{
  "id": 890879525,
  "type": "Feature",
  "properties": {
    "clustr:alpha":0.05,
    "clustr:area":9.77,
    "clustr:count":21,
    "clustr:density":2.15,
    "clustr:perimeter":0.22,
    "edtf:cessation":"uuuu",
    "edtf:inception":"uuuu",
    "geom:area":0.0,
    "geom:bbox":"5.09759902954,52.1047859192,5.09862852097,52.1055679321",
    "geom:latitude":52.105182,
    "geom:longitude":5.098123,
    "iso:country":"NL",
    "mz:hierarchy_label":1,
    "mz:is_approximate":1,
    "mz:is_clustr":1,
    "src:geom":"oa",
    "wof:belongsto":[
        85687039,
        102191581,
        404474007,
        85633337,
        101751827
    ],
    "wof:breaches":[],
    "wof:country":"NL",
    "wof:created":1469678239,
    "wof:geomhash":"72c72d517de3821679ab088c43bdd7ef",
    "wof:hierarchy":[
        {
            "continent_id":102191581,
            "country_id":85633337,
            "localadmin_id":404474007,
            "locality_id":101751827,
            "postalcode_id":890879525,
            "region_id":85687039
        }
    ],
    "wof:id":890879525,
    "wof:lastmodified":1469678239,
    "wof:name":"3552RE",
    "wof:parent_id":101751827,
    "wof:placetype":"postalcode",
    "wof:repo":"whosonfirst-data-postalcode-nl",
    "wof:superseded_by":[],
    "wof:supersedes":[],
    "wof:tags":[]
},
  "bbox": [
    5.097599029541016,
    52.10478591918945,
    5.098628520965576,
    52.105567932128906
],
  "geometry": {"coordinates":[[[5.09862852096558,52.10556793212891],[5.0984206199646,52.10540390014648],[5.09823942184448,52.10526275634766],[5.09805822372437,52.10512161254883],[5.09778785705566,52.10491180419922],[5.09773826599121,52.10487747192383],[5.09759902954102,52.10478591918945],[5.09854412078857,52.10551834106445],[5.09862852096558,52.10556793212891]]],"type":"Polygon"}
}