{
  "id": 891237497,
  "type": "Feature",
  "properties": {
    "clustr:alpha":0.05,
    "clustr:area":2.55,
    "clustr:count":24,
    "clustr:density":9.41,
    "clustr:perimeter":0.48,
    "edtf:cessation":"uuuu",
    "edtf:inception":"uuuu",
    "geom:area":0.000001,
    "geom:bbox":"6.91292524338,52.2252426147,6.91380262375,52.2273178101",
    "geom:latitude":52.226372,
    "geom:longitude":6.913505,
    "iso:country":"NL",
    "mz:hierarchy_label":1,
    "mz:is_approximate":1,
    "mz:is_clustr":1,
    "src:geom":"oa",
    "wof:belongsto":[
        85687045,
        102191581,
        404473827,
        85633337,
        101751871
    ],
    "wof:breaches":[],
    "wof:country":"NL",
    "wof:created":1469692914,
    "wof:geomhash":"f22b7f03089b30de5421fb88171f4f0a",
    "wof:hierarchy":[
        {
            "continent_id":102191581,
            "country_id":85633337,
            "localadmin_id":404473827,
            "locality_id":101751871,
            "postalcode_id":891237497,
            "region_id":85687045
        }
    ],
    "wof:id":891237497,
    "wof:lastmodified":1469692914,
    "wof:name":"7531BW",
    "wof:parent_id":101751871,
    "wof:placetype":"postalcode",
    "wof:repo":"whosonfirst-data-postalcode-nl",
    "wof:superseded_by":[],
    "wof:supersedes":[],
    "wof:tags":[]
},
  "bbox": [
    6.912925243377686,
    52.225242614746094,
    6.913802623748779,
    52.227317810058594
],
  "geometry": {"coordinates":[[[6.91349411010742,52.22593307495117],[6.91330862045288,52.22637939453125],[6.91292524337769,52.22731781005859],[6.91379642486572,52.2265739440918],[6.91380262374878,52.22524261474609],[6.9135103225708,52.22589492797852],[6.91349411010742,52.22593307495117]]],"type":"Polygon"}
}