{
  "id": 890902529,
  "type": "Feature",
  "properties": {
    "clustr:alpha":0.05,
    "clustr:area":15.59,
    "clustr:count":15,
    "clustr:density":0.96,
    "clustr:perimeter":0.16,
    "edtf:cessation":"uuuu",
    "edtf:inception":"uuuu",
    "geom:area":0.0,
    "geom:bbox":"5.36759281158,52.15650177,5.36882781982,52.1566390991",
    "geom:latitude":52.156577,
    "geom:longitude":5.368109,
    "iso:country":"NL",
    "mz:hierarchy_label":1,
    "mz:is_approximate":1,
    "mz:is_clustr":1,
    "src:geom":"oa",
    "wof:belongsto":[
        85687039,
        102191581,
        404473971,
        85633337,
        101751821
    ],
    "wof:breaches":[],
    "wof:country":"NL",
    "wof:created":1469679273,
    "wof:geomhash":"3d440f912e1b25ced0673952245e060d",
    "wof:hierarchy":[
        {
            "continent_id":102191581,
            "country_id":85633337,
            "localadmin_id":404473971,
            "locality_id":101751821,
            "postalcode_id":890902529,
            "region_id":85687039
        }
    ],
    "wof:id":890902529,
    "wof:lastmodified":1469679273,
    "wof:name":"3812TS",
    "wof:parent_id":101751821,
    "wof:placetype":"postalcode",
    "wof:repo":"whosonfirst-data-postalcode-nl",
    "wof:superseded_by":[],
    "wof:supersedes":[],
    "wof:tags":[]
},
  "bbox": [
    5.367592811584473,
    52.15650177001953,
    5.368827819824219,
    52.156639099121094
],
  "geometry": {"coordinates":[[[5.3683648109436,52.15654373168945],[5.36777973175049,52.1566047668457],[5.36770915985107,52.1566162109375],[5.36759281158447,52.15663909912109],[5.36862230300903,52.15652465820312],[5.36882781982422,52.15650177001953],[5.36849069595337,52.15653228759766],[5.3683648109436,52.15654373168945]]],"type":"Polygon"}
}