{
  "id": 890617575,
  "type": "Feature",
  "properties": {
    "clustr:alpha":0.05,
    "clustr:area":47.46,
    "clustr:count":44,
    "clustr:density":0.93,
    "clustr:perimeter":0.16,
    "edtf:cessation":"uuuu",
    "edtf:inception":"uuuu",
    "geom:area":0.0,
    "geom:bbox":"5.1722111702,52.2258987427,5.17297554016,52.2264137268",
    "geom:latitude":52.22618,
    "geom:longitude":5.17262,
    "iso:country":"NL",
    "mz:hierarchy_label":1,
    "mz:is_approximate":1,
    "mz:is_clustr":1,
    "src:geom":"oa",
    "wof:belongsto":[
        85687053,
        102191581,
        404474081,
        85633337,
        101751905
    ],
    "wof:breaches":[],
    "wof:country":"NL",
    "wof:created":1469667600,
    "wof:geomhash":"1910765cf18c09d9c91f0d74ab9e1f15",
    "wof:hierarchy":[
        {
            "continent_id":102191581,
            "country_id":85633337,
            "localadmin_id":404474081,
            "locality_id":101751905,
            "postalcode_id":890617575,
            "region_id":85687053
        }
    ],
    "wof:id":890617575,
    "wof:lastmodified":1469667600,
    "wof:name":"1211BD",
    "wof:parent_id":101751905,
    "wof:placetype":"postalcode",
    "wof:repo":"whosonfirst-data-postalcode-nl",
    "wof:superseded_by":[],
    "wof:supersedes":[],
    "wof:tags":[]
},
  "bbox": [
    5.172211170196533,
    52.22589874267578,
    5.172975540161133,
    52.22641372680664
],
  "geometry": {"coordinates":[[[5.17246675491333,52.22589874267578],[5.17221117019653,52.22634887695312],[5.17297554016113,52.22641372680664],[5.17286443710327,52.22597122192383],[5.17246675491333,52.22589874267578]]],"type":"Polygon"}
}