{
  "id": 891243629,
  "type": "Feature",
  "properties": {
    "clustr:alpha":0.05,
    "clustr:area":1.98,
    "clustr:count":15,
    "clustr:density":7.56,
    "clustr:perimeter":0.18,
    "edtf:cessation":"uuuu",
    "edtf:inception":"uuuu",
    "geom:area":0.0,
    "geom:bbox":"6.77465867996,52.2585601807,6.7749042511,52.2593803406",
    "geom:latitude":52.258971,
    "geom:longitude":6.774782,
    "iso:country":"NL",
    "mz:hierarchy_label":1,
    "mz:is_approximate":1,
    "mz:is_clustr":1,
    "src:geom":"oa",
    "wof:belongsto":[
        85687045,
        102191581,
        404473837,
        85633337,
        101751869
    ],
    "wof:breaches":[],
    "wof:country":"NL",
    "wof:created":1469693154,
    "wof:geomhash":"39f4ddd086e79600928bb8997117a7f8",
    "wof:hierarchy":[
        {
            "continent_id":102191581,
            "country_id":85633337,
            "localadmin_id":404473837,
            "locality_id":101751869,
            "postalcode_id":891243629,
            "region_id":85687045
        }
    ],
    "wof:id":891243629,
    "wof:lastmodified":1469693154,
    "wof:name":"7555HG",
    "wof:parent_id":101751869,
    "wof:placetype":"postalcode",
    "wof:repo":"whosonfirst-data-postalcode-nl",
    "wof:superseded_by":[],
    "wof:supersedes":[],
    "wof:tags":[]
},
  "bbox": [
    6.774658679962158,
    52.25856018066406,
    6.774904251098633,
    52.25938034057617
],
  "geometry": {"coordinates":[[[6.774817943573,52.25880432128906],[6.77465867996216,52.25938034057617],[6.7747220993042,52.25921249389648],[6.7747368812561,52.25917053222656],[6.77477025985718,52.25905990600586],[6.77490425109863,52.25856018066406],[6.77482843399048,52.25876617431641],[6.774817943573,52.25880432128906]]],"type":"Polygon"}
}