{
  "id": 890928307,
  "type": "Feature",
  "properties": {
    "clustr:alpha":0.05,
    "clustr:area":2.08,
    "clustr:count":14,
    "clustr:density":6.75,
    "clustr:perimeter":0.1,
    "edtf:cessation":"uuuu",
    "edtf:inception":"uuuu",
    "geom:area":0.0,
    "geom:bbox":"5.17268228531,52.0382919312,5.1731710434,52.0386390686",
    "geom:latitude":52.038449,
    "geom:longitude":5.17293,
    "iso:country":"NL",
    "mz:hierarchy_label":1,
    "mz:is_approximate":1,
    "mz:is_clustr":1,
    "src:geom":"oa",
    "wof:belongsto":[
        85687039,
        102191581,
        404473987,
        85633337,
        101807003
    ],
    "wof:breaches":[],
    "wof:country":"NL",
    "wof:created":1469680390,
    "wof:geomhash":"3dfc0701042d6398b1a3f1ec4ef8db9d",
    "wof:hierarchy":[
        {
            "continent_id":102191581,
            "country_id":85633337,
            "localadmin_id":404473987,
            "locality_id":101807003,
            "postalcode_id":890928307,
            "region_id":85687039
        }
    ],
    "wof:id":890928307,
    "wof:lastmodified":1469680390,
    "wof:name":"3993EP",
    "wof:parent_id":101807003,
    "wof:placetype":"postalcode",
    "wof:repo":"whosonfirst-data-postalcode-nl",
    "wof:superseded_by":[],
    "wof:supersedes":[],
    "wof:tags":[]
},
  "bbox": [
    5.172682285308838,
    52.038291931152344,
    5.173171043395996,
    52.038639068603516
],
  "geometry": {"coordinates":[[[5.1731595993042,52.03838729858398],[5.173171043396,52.03833389282227],[5.1728925704956,52.03829193115234],[5.17268228530884,52.03850173950195],[5.17290830612183,52.03863906860352],[5.17296457290649,52.03860092163086],[5.1731595993042,52.03838729858398]]],"type":"Polygon"}
}