{
  "id": 890610339,
  "type": "Feature",
  "properties": {
    "clustr:alpha":0.05,
    "clustr:area":31.89,
    "clustr:count":22,
    "clustr:density":0.69,
    "clustr:perimeter":0.22,
    "edtf:cessation":"uuuu",
    "edtf:inception":"uuuu",
    "geom:area":0.0,
    "geom:bbox":"5.06592607498,52.4962882996,5.06725072861,52.4969177246",
    "geom:latitude":52.496638,
    "geom:longitude":5.066619,
    "iso:country":"NL",
    "mz:hierarchy_label":1,
    "mz:is_approximate":1,
    "mz:is_clustr":1,
    "src:geom":"oa",
    "wof:belongsto":[
        85687053,
        102191581,
        404474057,
        85633337,
        101837947
    ],
    "wof:breaches":[],
    "wof:country":"NL",
    "wof:created":1469667250,
    "wof:geomhash":"5c8551c2d5850c2157d83a7ae2b3abad",
    "wof:hierarchy":[
        {
            "continent_id":102191581,
            "country_id":85633337,
            "localadmin_id":404474057,
            "locality_id":101837947,
            "postalcode_id":890610339,
            "region_id":85687053
        }
    ],
    "wof:id":890610339,
    "wof:lastmodified":1469667250,
    "wof:name":"1131MX",
    "wof:parent_id":101837947,
    "wof:placetype":"postalcode",
    "wof:repo":"whosonfirst-data-postalcode-nl",
    "wof:superseded_by":[],
    "wof:supersedes":[],
    "wof:tags":[]
},
  "bbox": [
    5.065926074981689,
    52.49628829956055,
    5.067250728607178,
    52.496917724609375
],
  "geometry": {"coordinates":[[[5.06592607498169,52.49658203125],[5.06620454788208,52.49672698974609],[5.06635141372681,52.49679946899414],[5.06642484664917,52.49683380126953],[5.06677770614624,52.49691772460938],[5.06716060638428,52.49691009521484],[5.06722068786621,52.49674606323242],[5.06725072860718,52.49663925170898],[5.06634044647217,52.49628829956055],[5.06628131866455,52.49633026123047],[5.06592607498169,52.49658203125]]],"type":"Polygon"}
}