{
  "id": 907121175,
  "type": "Feature",
  "properties": {
    "clustr:alpha":0.05,
    "clustr:area":2201.91,
    "clustr:count":6,
    "clustr:density":0.0,
    "clustr:perimeter":2.02,
    "edtf:cessation":"uuuu",
    "edtf:inception":"uuuu",
    "geom:area":0.000029,
    "geom:bbox":"6.42499780655,53.276260376,6.44907712936,53.2784881592",
    "geom:latitude":53.277533,
    "geom:longitude":6.436475,
    "iso:country":"NL",
    "mz:hierarchy_label":1,
    "mz:is_approximate":1,
    "mz:is_clustr":1,
    "src:geom":"oa",
    "wof:belongsto":[
        102191581,
        404473753,
        85633337,
        85687059
    ],
    "wof:breaches":[],
    "wof:country":"NL",
    "wof:created":1469700416,
    "wof:geomhash":"e8c779e3da43ffc961a795e4d821d7b9",
    "wof:hierarchy":[
        {
            "continent_id":102191581,
            "country_id":85633337,
            "localadmin_id":404473753,
            "postalcode_id":907121175,
            "region_id":85687059
        }
    ],
    "wof:id":907121175,
    "wof:lastmodified":1469700416,
    "wof:name":"9833TC",
    "wof:parent_id":404473753,
    "wof:placetype":"postalcode",
    "wof:repo":"whosonfirst-data-postalcode-nl",
    "wof:superseded_by":[],
    "wof:supersedes":[],
    "wof:tags":[]
},
  "bbox": [
    6.424997806549072,
    53.27626037597656,
    6.449077129364014,
    53.27848815917969
],
  "geometry": {"coordinates":[[[6.44907712936401,53.27848815917969],[6.4471435546875,53.27790451049805],[6.43563461303711,53.27626037597656],[6.42499780654907,53.27719116210938],[6.43038988113403,53.27823257446289],[6.44907712936401,53.27848815917969]]],"type":"Polygon"}
}