{
  "id": 891273513,
  "type": "Feature",
  "properties": {
    "clustr:alpha":0.05,
    "clustr:area":5.27,
    "clustr:count":11,
    "clustr:density":2.09,
    "clustr:perimeter":0.25,
    "edtf:cessation":"uuuu",
    "edtf:inception":"uuuu",
    "geom:area":0.0,
    "geom:bbox":"6.98400974274,52.7217674255,6.9841375351,52.7230224609",
    "geom:latitude":52.722335,
    "geom:longitude":6.984061,
    "iso:country":"NL",
    "mz:hierarchy_label":1,
    "mz:is_approximate":1,
    "mz:is_clustr":1,
    "src:geom":"oa",
    "wof:belongsto":[
        85687051,
        102191581,
        404473809,
        85633337,
        101837879
    ],
    "wof:breaches":[],
    "wof:country":"NL",
    "wof:created":1469694378,
    "wof:geomhash":"eb7749f1ede235c4e93d7cc00abe0c03",
    "wof:hierarchy":[
        {
            "continent_id":102191581,
            "country_id":85633337,
            "localadmin_id":404473809,
            "locality_id":101837879,
            "postalcode_id":891273513,
            "region_id":85687051
        }
    ],
    "wof:id":891273513,
    "wof:lastmodified":1469694378,
    "wof:name":"7891SP",
    "wof:parent_id":101837879,
    "wof:placetype":"postalcode",
    "wof:repo":"whosonfirst-data-postalcode-nl",
    "wof:superseded_by":[],
    "wof:supersedes":[],
    "wof:tags":[]
},
  "bbox": [
    6.984009742736816,
    52.72176742553711,
    6.984137535095215,
    52.7230224609375
],
  "geometry": {"coordinates":[[[6.98401069641113,52.72207260131836],[6.98400974273682,52.72286224365234],[6.98407506942749,52.7230224609375],[6.98413753509521,52.72190093994141],[6.9840145111084,52.72176742553711],[6.98401069641113,52.72207260131836]]],"type":"Polygon"}
}