{
  "id": 890781739,
  "type": "Feature",
  "properties": {
    "clustr:alpha":0.05,
    "clustr:area":28.65,
    "clustr:count":25,
    "clustr:density":0.87,
    "clustr:perimeter":0.44,
    "edtf:cessation":"uuuu",
    "edtf:inception":"uuuu",
    "geom:area":0.000001,
    "geom:bbox":"4.5198392868,51.9628105164,4.52259540558,51.9640274048",
    "geom:latitude":51.963547,
    "geom:longitude":4.521049,
    "iso:country":"NL",
    "mz:hierarchy_label":1,
    "mz:is_approximate":1,
    "mz:is_clustr":1,
    "src:geom":"oa",
    "wof:belongsto":[
        85687041,
        102191581,
        404474245,
        85633337,
        101855319
    ],
    "wof:breaches":[],
    "wof:country":"NL",
    "wof:created":1469674548,
    "wof:geomhash":"e5b20b038428cfde624a85f62bd662ce",
    "wof:hierarchy":[
        {
            "continent_id":102191581,
            "country_id":85633337,
            "localadmin_id":404474245,
            "locality_id":101855319,
            "postalcode_id":890781739,
            "region_id":85687041
        }
    ],
    "wof:id":890781739,
    "wof:lastmodified":1469674548,
    "wof:name":"2661JW",
    "wof:parent_id":101855319,
    "wof:placetype":"postalcode",
    "wof:repo":"whosonfirst-data-postalcode-nl",
    "wof:superseded_by":[],
    "wof:supersedes":[],
    "wof:tags":[]
},
  "bbox": [
    4.519839286804199,
    51.96281051635742,
    4.522595405578613,
    51.964027404785156
],
  "geometry": {"coordinates":[[[4.52010822296143,51.96321105957031],[4.52037906646729,51.96350860595703],[4.52043628692627,51.96356201171875],[4.52069473266602,51.9637336730957],[4.52164936065674,51.96396636962891],[4.5217456817627,51.9639778137207],[4.52202796936035,51.96400451660156],[4.52259540557861,51.96402740478516],[4.5198392868042,51.96281051635742],[4.52010822296143,51.96321105957031]]],"type":"Polygon"}
}