{
  "id": 907038795,
  "type": "Feature",
  "properties": {
    "edtf:cessation":"uuuu",
    "edtf:inception":"uuuu",
    "geom:area":0.0,
    "geom:bbox":"5.817886,52.641853,5.817886,52.641853",
    "geom:latitude":52.641853,
    "geom:longitude":5.817886,
    "iso:country":"NL",
    "mz:hierarchy_label":1,
    "mz:is_approximate":1,
    "src:geom":"oa",
    "wof:belongsto":[
        85687049,
        102191581,
        404473843,
        85633337,
        101807247
    ],
    "wof:breaches":[],
    "wof:country":"NL",
    "wof:created":1469696230,
    "wof:geomhash":"686fc5dc0a9a6d0463066500ddd62952",
    "wof:hierarchy":[
        {
            "continent_id":102191581,
            "country_id":85633337,
            "localadmin_id":404473843,
            "locality_id":101807247,
            "postalcode_id":907038795,
            "region_id":85687049
        }
    ],
    "wof:id":907038795,
    "wof:lastmodified":1469696230,
    "wof:name":"8307RN",
    "wof:parent_id":101807247,
    "wof:placetype":"postalcode",
    "wof:repo":"whosonfirst-data-postalcode-nl",
    "wof:superseded_by":[],
    "wof:supersedes":[],
    "wof:tags":[]
},
  "bbox": [
    5.817886,
    52.641853,
    5.817886,
    52.641853
],
  "geometry": {"coordinates":[5.817886,52.641853],"type":"Point"}
}