{
  "id": 890802379,
  "type": "Feature",
  "properties": {
    "clustr:alpha":0.05,
    "clustr:area":38.74,
    "clustr:count":32,
    "clustr:density":0.83,
    "clustr:perimeter":0.35,
    "edtf:cessation":"uuuu",
    "edtf:inception":"uuuu",
    "geom:area":0.000001,
    "geom:bbox":"4.59848213196,51.936882019,4.60075426102,51.9377593994",
    "geom:latitude":51.937356,
    "geom:longitude":4.599749,
    "iso:country":"NL",
    "mz:hierarchy_label":1,
    "mz:is_approximate":1,
    "mz:is_clustr":1,
    "src:geom":"oa",
    "wof:belongsto":[
        85687041,
        102191581,
        404474163,
        85633337,
        101754669
    ],
    "wof:breaches":[],
    "wof:country":"NL",
    "wof:created":1469675314,
    "wof:geomhash":"f3548b6f7df1eab193e90a583722439c",
    "wof:hierarchy":[
        {
            "continent_id":102191581,
            "country_id":85633337,
            "localadmin_id":404474163,
            "locality_id":101754669,
            "postalcode_id":890802379,
            "region_id":85687041
        }
    ],
    "wof:id":890802379,
    "wof:lastmodified":1469675314,
    "wof:name":"2905AD",
    "wof:parent_id":101754669,
    "wof:placetype":"postalcode",
    "wof:repo":"whosonfirst-data-postalcode-nl",
    "wof:superseded_by":[],
    "wof:supersedes":[],
    "wof:tags":[]
},
  "bbox": [
    4.598482131958008,
    51.93688201904297,
    4.600754261016846,
    51.93775939941406
],
  "geometry": {"coordinates":[[[4.60075426101685,51.93723297119141],[4.59986877441406,51.93688201904297],[4.59848213195801,51.93775939941406],[4.59861373901367,51.93774795532227],[4.59884738922119,51.93772125244141],[4.5996561050415,51.93762969970703],[4.60006427764893,51.93758392333984],[4.60021114349365,51.93756484985352],[4.60046052932739,51.93749237060547],[4.60075426101685,51.93723297119141]]],"type":"Polygon"}
}