{
  "id": 890996939,
  "type": "Feature",
  "properties": {
    "clustr:alpha":0.05,
    "clustr:area":9.1,
    "clustr:count":20,
    "clustr:density":2.2,
    "clustr:perimeter":0.23,
    "edtf:cessation":"uuuu",
    "edtf:inception":"uuuu",
    "geom:area":0.0,
    "geom:bbox":"4.87242412567,51.6578674316,4.87350654602,51.6585884094",
    "geom:latitude":51.658216,
    "geom:longitude":4.872863,
    "iso:country":"NL",
    "mz:hierarchy_label":1,
    "mz:is_approximate":1,
    "mz:is_clustr":1,
    "src:geom":"oa",
    "wof:belongsto":[
        85687035,
        102191581,
        404474413,
        85633337,
        101808317
    ],
    "wof:breaches":[],
    "wof:country":"NL",
    "wof:created":1469683358,
    "wof:geomhash":"cb633b72954e4a81df59cd1e801be85b",
    "wof:hierarchy":[
        {
            "continent_id":102191581,
            "country_id":85633337,
            "localadmin_id":404474413,
            "locality_id":101808317,
            "postalcode_id":890996939,
            "region_id":85687035
        }
    ],
    "wof:id":890996939,
    "wof:lastmodified":1469683358,
    "wof:name":"4907PX",
    "wof:parent_id":101808317,
    "wof:placetype":"postalcode",
    "wof:repo":"whosonfirst-data-postalcode-nl",
    "wof:superseded_by":[],
    "wof:supersedes":[],
    "wof:tags":[]
},
  "bbox": [
    4.872424125671387,
    51.657867431640625,
    4.873506546020508,
    51.65858840942383
],
  "geometry": {"coordinates":[[[4.87249946594238,51.65858840942383],[4.8725733757019,51.65858840942383],[4.87350654602051,51.65786743164062],[4.87342262268066,51.65787887573242],[4.87325954437256,51.65790557861328],[4.87293672561646,51.65799331665039],[4.8725438117981,51.65823364257812],[4.87242650985718,51.6585578918457],[4.87242412567139,51.65858459472656],[4.87249946594238,51.65858840942383]]],"type":"Polygon"}
}