{
  "id": 890928803,
  "type": "Feature",
  "properties": {
    "clustr:alpha":0.05,
    "clustr:area":11.02,
    "clustr:count":28,
    "clustr:density":2.54,
    "clustr:perimeter":1.05,
    "edtf:cessation":"uuuu",
    "edtf:inception":"uuuu",
    "geom:area":0.000002,
    "geom:bbox":"5.1854391098,52.0193061829,5.18764877319,52.0238838196",
    "geom:latitude":52.02095,
    "geom:longitude":5.186496,
    "iso:country":"NL",
    "mz:hierarchy_label":1,
    "mz:is_approximate":1,
    "mz:is_clustr":1,
    "src:geom":"oa",
    "wof:belongsto":[
        85687039,
        102191581,
        404473987,
        85633337,
        101807003
    ],
    "wof:breaches":[],
    "wof:country":"NL",
    "wof:created":1469680407,
    "wof:geomhash":"76a88a643eb40d7eb653ab9dbca2d50f",
    "wof:hierarchy":[
        {
            "continent_id":102191581,
            "country_id":85633337,
            "localadmin_id":404473987,
            "locality_id":101807003,
            "postalcode_id":890928803,
            "region_id":85687039
        }
    ],
    "wof:id":890928803,
    "wof:lastmodified":1469680407,
    "wof:name":"3994PG",
    "wof:parent_id":101807003,
    "wof:placetype":"postalcode",
    "wof:repo":"whosonfirst-data-postalcode-nl",
    "wof:superseded_by":[],
    "wof:supersedes":[],
    "wof:tags":[]
},
  "bbox": [
    5.185439109802246,
    52.01930618286133,
    5.187648773193359,
    52.02388381958008
],
  "geometry": {"coordinates":[[[5.18639421463013,52.01972579956055],[5.18629264831543,52.01963424682617],[5.18618249893188,52.01955795288086],[5.18557834625244,52.01935195922852],[5.18543910980225,52.01930618286133],[5.18764877319336,52.02388381958008],[5.18651580810547,52.0200309753418],[5.18639421463013,52.01972579956055]]],"type":"Polygon"}
}