{
  "id": 891216511,
  "type": "Feature",
  "properties": {
    "clustr:alpha":0.05,
    "clustr:area":18.58,
    "clustr:count":20,
    "clustr:density":1.08,
    "clustr:perimeter":0.23,
    "edtf:cessation":"uuuu",
    "edtf:inception":"uuuu",
    "geom:area":0.0,
    "geom:bbox":"6.00134038925,52.2378730774,6.0030670166,52.2381744385",
    "geom:latitude":52.238027,
    "geom:longitude":6.002207,
    "iso:country":"NL",
    "mz:hierarchy_label":1,
    "mz:is_approximate":1,
    "mz:is_clustr":1,
    "src:geom":"oa",
    "wof:belongsto":[
        102191581,
        404473867,
        85633337,
        85687043
    ],
    "wof:breaches":[],
    "wof:country":"NL",
    "wof:created":1469692094,
    "wof:geomhash":"9ea2b3d3c6622ee17bd5750e12be9fb4",
    "wof:hierarchy":[
        {
            "continent_id":102191581,
            "country_id":85633337,
            "localadmin_id":404473867,
            "postalcode_id":891216511,
            "region_id":85687043
        }
    ],
    "wof:id":891216511,
    "wof:lastmodified":1469692094,
    "wof:name":"7324CP",
    "wof:parent_id":404473867,
    "wof:placetype":"postalcode",
    "wof:repo":"whosonfirst-data-postalcode-nl",
    "wof:superseded_by":[],
    "wof:supersedes":[],
    "wof:tags":[]
},
  "bbox": [
    6.001340389251709,
    52.23787307739258,
    6.003067016601562,
    52.23817443847656
],
  "geometry": {"coordinates":[[[6.0014967918396,52.23790740966797],[6.00210809707642,52.2380256652832],[6.00306701660156,52.23817443847656],[6.00299263000488,52.2381591796875],[6.00284290313721,52.23812866210938],[6.00253772735596,52.23807144165039],[6.00245475769043,52.23805618286133],[6.00134038925171,52.23787307739258],[6.0014967918396,52.23790740966797]]],"type":"Polygon"}
}