{
  "id": 891239311,
  "type": "Feature",
  "properties": {
    "clustr:alpha":0.05,
    "clustr:area":22.24,
    "clustr:count":6,
    "clustr:density":0.27,
    "clustr:perimeter":0.05,
    "edtf:cessation":"uuuu",
    "edtf:inception":"uuuu",
    "geom:area":0.0,
    "geom:bbox":"6.89538908005,52.1966056824,6.89585018158,52.1966705322",
    "geom:latitude":52.196638,
    "geom:longitude":6.895616,
    "iso:country":"NL",
    "mz:hierarchy_label":1,
    "mz:is_approximate":1,
    "mz:is_clustr":1,
    "src:geom":"oa",
    "wof:belongsto":[
        85687045,
        102191581,
        404473827,
        85633337,
        101751871
    ],
    "wof:breaches":[],
    "wof:country":"NL",
    "wof:created":1469692980,
    "wof:geomhash":"255edb51c9ba7f686918748c7781a80d",
    "wof:hierarchy":[
        {
            "continent_id":102191581,
            "country_id":85633337,
            "localadmin_id":404473827,
            "locality_id":101751871,
            "postalcode_id":891239311,
            "region_id":85687045
        }
    ],
    "wof:id":891239311,
    "wof:lastmodified":1469692980,
    "wof:name":"7542DJ",
    "wof:parent_id":101751871,
    "wof:placetype":"postalcode",
    "wof:repo":"whosonfirst-data-postalcode-nl",
    "wof:superseded_by":[],
    "wof:supersedes":[],
    "wof:tags":[]
},
  "bbox": [
    6.895389080047607,
    52.19660568237305,
    6.89585018157959,
    52.19667053222656
],
  "geometry": {"coordinates":[[[6.89556837081909,52.1966438293457],[6.89538908004761,52.19667053222656],[6.89547681808472,52.19665908813477],[6.89566516876221,52.19663238525391],[6.89585018157959,52.19660568237305],[6.89576005935669,52.19661712646484],[6.89556837081909,52.1966438293457]]],"type":"Polygon"}
}