{
  "id": 891041095,
  "type": "Feature",
  "properties": {
    "clustr:alpha":0.05,
    "clustr:area":79.65,
    "clustr:count":6,
    "clustr:density":0.08,
    "clustr:perimeter":0.64,
    "edtf:cessation":"uuuu",
    "edtf:inception":"uuuu",
    "geom:area":0.000001,
    "geom:bbox":"5.42330741882,51.8101959229,5.42801713943,51.8110466003",
    "geom:latitude":51.810658,
    "geom:longitude":5.42596,
    "iso:country":"NL",
    "mz:hierarchy_label":1,
    "mz:is_approximate":1,
    "mz:is_clustr":1,
    "src:geom":"oa",
    "wof:belongsto":[
        85687035,
        102191581,
        404474399,
        85633337,
        101808185
    ],
    "wof:breaches":[],
    "wof:country":"NL",
    "wof:created":1469685060,
    "wof:geomhash":"d88d97b31ef40b015216ecf51b799d8e",
    "wof:hierarchy":[
        {
            "continent_id":102191581,
            "country_id":85633337,
            "localadmin_id":404474399,
            "locality_id":101808185,
            "postalcode_id":891041095,
            "region_id":85687035
        }
    ],
    "wof:id":891041095,
    "wof:lastmodified":1469685060,
    "wof:name":"5397LK",
    "wof:parent_id":101808185,
    "wof:placetype":"postalcode",
    "wof:repo":"whosonfirst-data-postalcode-nl",
    "wof:superseded_by":[],
    "wof:supersedes":[],
    "wof:tags":[]
},
  "bbox": [
    5.423307418823242,
    51.81019592285156,
    5.428017139434814,
    51.8110466003418
],
  "geometry": {"coordinates":[[[5.42661046981812,51.81069946289062],[5.42697286605835,51.81059265136719],[5.42801713943481,51.81019592285156],[5.42330741882324,51.8110466003418],[5.42597198486328,51.81079483032227],[5.42661046981812,51.81069946289062]]],"type":"Polygon"}
}