{
  "id": 890580931,
  "type": "Feature",
  "properties": {
    "clustr:alpha":0.05,
    "clustr:area":9.22,
    "clustr:count":21,
    "clustr:density":2.28,
    "clustr:perimeter":0.14,
    "edtf:cessation":"uuuu",
    "edtf:inception":"uuuu",
    "geom:area":0.0,
    "geom:bbox":"4.93254137039,52.3977165222,4.93308162689,52.3982200623",
    "geom:latitude":52.397931,
    "geom:longitude":4.932844,
    "iso:country":"NL",
    "mz:hierarchy_label":1,
    "mz:is_approximate":1,
    "mz:is_clustr":1,
    "src:geom":"oa",
    "wof:belongsto":[
        85687053,
        102191581,
        404474029,
        85633337,
        101751893
    ],
    "wof:breaches":[],
    "wof:country":"NL",
    "wof:created":1469665908,
    "wof:geomhash":"3d6d9a3d47acbec3e3ffbf4248e909a4",
    "wof:hierarchy":[
        {
            "continent_id":102191581,
            "country_id":85633337,
            "localadmin_id":404474029,
            "locality_id":101751893,
            "postalcode_id":890580931,
            "region_id":85687053
        }
    ],
    "wof:id":890580931,
    "wof:lastmodified":1469665908,
    "wof:name":"1025JP",
    "wof:parent_id":101751893,
    "wof:placetype":"postalcode",
    "wof:repo":"whosonfirst-data-postalcode-nl",
    "wof:superseded_by":[],
    "wof:supersedes":[],
    "wof:tags":[]
},
  "bbox": [
    4.932541370391846,
    52.3977165222168,
    4.93308162689209,
    52.39822006225586
],
  "geometry": {"coordinates":[[[4.93283653259277,52.39774322509766],[4.93254137039185,52.39785766601562],[4.93308162689209,52.39822006225586],[4.93290996551514,52.3977165222168],[4.93283653259277,52.39774322509766]]],"type":"Polygon"}
}