{
  "id": 907054707,
  "type": "Feature",
  "properties": {
    "clustr:alpha":0.05,
    "clustr:area":19.74,
    "clustr:count":40,
    "clustr:density":2.03,
    "clustr:perimeter":0.39,
    "edtf:cessation":"uuuu",
    "edtf:inception":"uuuu",
    "geom:area":0.000001,
    "geom:bbox":"5.67452049255,53.0473365784,5.67643117905,53.0484085083",
    "geom:latitude":53.047858,
    "geom:longitude":5.675527,
    "iso:country":"NL",
    "mz:hierarchy_label":1,
    "mz:is_approximate":1,
    "mz:is_clustr":1,
    "src:geom":"oa",
    "wof:belongsto":[
        102191581,
        404473793,
        85633337,
        85687055
    ],
    "wof:breaches":[],
    "wof:country":"NL",
    "wof:created":1469697021,
    "wof:geomhash":"5183369127292aa0cdc1924f6df33c35",
    "wof:hierarchy":[
        {
            "continent_id":102191581,
            "country_id":85633337,
            "localadmin_id":404473793,
            "postalcode_id":907054707,
            "region_id":85687055
        }
    ],
    "wof:id":907054707,
    "wof:lastmodified":1469697021,
    "wof:name":"8603EV",
    "wof:parent_id":404473793,
    "wof:placetype":"postalcode",
    "wof:repo":"whosonfirst-data-postalcode-nl",
    "wof:superseded_by":[],
    "wof:supersedes":[],
    "wof:tags":[]
},
  "bbox": [
    5.674520492553711,
    53.04733657836914,
    5.676431179046631,
    53.04840850830078
],
  "geometry": {"coordinates":[[[5.67452049255371,53.04763793945312],[5.67496871948242,53.04840850830078],[5.67525339126587,53.04839706420898],[5.6761884689331,53.04816436767578],[5.67643117904663,53.04781723022461],[5.6763162612915,53.04733657836914],[5.67501735687256,53.04751586914062],[5.67468166351318,53.04759216308594],[5.67452049255371,53.04763793945312]]],"type":"Polygon"}
}