{
  "id": 891014411,
  "type": "Feature",
  "properties": {
    "clustr:alpha":0.05,
    "clustr:area":37.05,
    "clustr:count":27,
    "clustr:density":0.73,
    "clustr:perimeter":0.24,
    "edtf:cessation":"uuuu",
    "edtf:inception":"uuuu",
    "geom:area":0.0,
    "geom:bbox":"4.92783927917,51.5866203308,4.9282913208,51.5876159668",
    "geom:latitude":51.587141,
    "geom:longitude":4.928039,
    "iso:country":"NL",
    "mz:hierarchy_label":1,
    "mz:is_approximate":1,
    "mz:is_clustr":1,
    "src:geom":"oa",
    "wof:belongsto":[
        85687035,
        102191581,
        404474381,
        85633337,
        101839413
    ],
    "wof:breaches":[],
    "wof:country":"NL",
    "wof:created":1469684019,
    "wof:geomhash":"27ce83ed8899947836a2856a4cd69e49",
    "wof:hierarchy":[
        {
            "continent_id":102191581,
            "country_id":85633337,
            "localadmin_id":404474381,
            "locality_id":101839413,
            "postalcode_id":891014411,
            "region_id":85687035
        }
    ],
    "wof:id":891014411,
    "wof:lastmodified":1469684019,
    "wof:name":"5122BR",
    "wof:parent_id":101839413,
    "wof:placetype":"postalcode",
    "wof:repo":"whosonfirst-data-postalcode-nl",
    "wof:superseded_by":[],
    "wof:supersedes":[],
    "wof:tags":[]
},
  "bbox": [
    4.927839279174805,
    51.58662033081055,
    4.928291320800781,
    51.587615966796875
],
  "geometry": {"coordinates":[[[4.92815732955933,51.58761215209961],[4.92829132080078,51.58720779418945],[4.92826271057129,51.58706283569336],[4.92825269699097,51.58701324462891],[4.92824268341065,51.58696365356445],[4.92819786071777,51.58674240112305],[4.9278392791748,51.58662033081055],[4.92785739898682,51.58761596679688],[4.92815732955933,51.58761215209961]]],"type":"Polygon"}
}