{
  "id": 907078469,
  "type": "Feature",
  "properties": {
    "clustr:alpha":0.05,
    "clustr:area":1.36,
    "clustr:count":8,
    "clustr:density":5.87,
    "clustr:perimeter":0.16,
    "edtf:cessation":"uuuu",
    "edtf:inception":"uuuu",
    "geom:area":0.0,
    "geom:bbox":"6.16436862946,53.0958251953,6.16445684433,53.0965919495",
    "geom:latitude":53.096208,
    "geom:longitude":6.164413,
    "iso:country":"NL",
    "mz:hierarchy_label":1,
    "mz:is_approximate":1,
    "mz:is_clustr":1,
    "src:geom":"oa",
    "wof:belongsto":[
        85687055,
        102191581,
        404473787,
        85633337,
        101807437
    ],
    "wof:breaches":[],
    "wof:country":"NL",
    "wof:created":1469698143,
    "wof:geomhash":"c598e11ccde41672d13ad54548127424",
    "wof:hierarchy":[
        {
            "continent_id":102191581,
            "country_id":85633337,
            "localadmin_id":404473787,
            "locality_id":101807437,
            "postalcode_id":907078469,
            "region_id":85687055
        }
    ],
    "wof:id":907078469,
    "wof:lastmodified":1469698143,
    "wof:name":"9247AK",
    "wof:parent_id":101807437,
    "wof:placetype":"postalcode",
    "wof:repo":"whosonfirst-data-postalcode-nl",
    "wof:superseded_by":[],
    "wof:supersedes":[],
    "wof:tags":[]
},
  "bbox": [
    6.164368629455566,
    53.0958251953125,
    6.164456844329834,
    53.09659194946289
],
  "geometry": {"coordinates":[[[6.16437292098999,53.09605026245117],[6.16445684432983,53.09659194946289],[6.1644549369812,53.09647369384766],[6.16445302963257,53.09635543823242],[6.16436862945557,53.0958251953125],[6.1643705368042,53.0959358215332],[6.16437292098999,53.09605026245117]]],"type":"Polygon"}
}