{
  "id": 890973557,
  "type": "Feature",
  "properties": {
    "clustr:alpha":0.05,
    "clustr:area":31.93,
    "clustr:count":18,
    "clustr:density":0.56,
    "clustr:perimeter":0.41,
    "edtf:cessation":"uuuu",
    "edtf:inception":"uuuu",
    "geom:area":0.0,
    "geom:bbox":"4.21829509735,51.5876541138,4.22034788132,51.5892105103",
    "geom:latitude":51.588337,
    "geom:longitude":4.219236,
    "iso:country":"NL",
    "mz:hierarchy_label":1,
    "mz:is_approximate":1,
    "mz:is_clustr":1,
    "src:geom":"oa",
    "wof:belongsto":[
        85687035,
        102191581,
        404474431,
        85633337,
        101808303
    ],
    "wof:breaches":[],
    "wof:country":"NL",
    "wof:created":1469682336,
    "wof:geomhash":"fc7df35bda57bcf210a8bbc6640d5413",
    "wof:hierarchy":[
        {
            "continent_id":102191581,
            "country_id":85633337,
            "localadmin_id":404474431,
            "locality_id":101808303,
            "postalcode_id":890973557,
            "region_id":85687035
        }
    ],
    "wof:id":890973557,
    "wof:lastmodified":1469682336,
    "wof:name":"4681BH",
    "wof:parent_id":101808303,
    "wof:placetype":"postalcode",
    "wof:repo":"whosonfirst-data-postalcode-nl",
    "wof:superseded_by":[],
    "wof:supersedes":[],
    "wof:tags":[]
},
  "bbox": [
    4.218295097351074,
    51.58765411376953,
    4.220347881317139,
    51.589210510253906
],
  "geometry": {"coordinates":[[[4.22006607055664,51.58892822265625],[4.21972846984863,51.58859252929688],[4.21930503845215,51.58823013305664],[4.21829509735107,51.58765411376953],[4.21832132339478,51.5877685546875],[4.21873140335083,51.58808135986328],[4.22034788131714,51.58921051025391],[4.22006607055664,51.58892822265625]]],"type":"Polygon"}
}