{
  "id": 890971019,
  "type": "Feature",
  "properties": {
    "clustr:alpha":0.05,
    "clustr:area":65.04,
    "clustr:count":8,
    "clustr:density":0.12,
    "clustr:perimeter":0.1,
    "edtf:cessation":"uuuu",
    "edtf:inception":"uuuu",
    "geom:area":0.0,
    "geom:bbox":"4.37592029572,51.4347724915,4.37680959702,51.4352416992",
    "geom:latitude":51.435023,
    "geom:longitude":4.376401,
    "iso:country":"NL",
    "mz:hierarchy_label":1,
    "mz:is_approximate":1,
    "mz:is_clustr":1,
    "src:geom":"oa",
    "wof:belongsto":[
        85687035,
        102191581,
        404474455,
        85633337,
        101809725
    ],
    "wof:breaches":[],
    "wof:country":"NL",
    "wof:created":1469682226,
    "wof:geomhash":"2ca8eeed29fff13c1a73363b93574852",
    "wof:hierarchy":[
        {
            "continent_id":102191581,
            "country_id":85633337,
            "localadmin_id":404474455,
            "locality_id":101809725,
            "postalcode_id":890971019,
            "region_id":85687035
        }
    ],
    "wof:id":890971019,
    "wof:lastmodified":1469682226,
    "wof:name":"4635BR",
    "wof:parent_id":101809725,
    "wof:placetype":"postalcode",
    "wof:repo":"whosonfirst-data-postalcode-nl",
    "wof:superseded_by":[],
    "wof:supersedes":[],
    "wof:tags":[]
},
  "bbox": [
    4.375920295715332,
    51.43477249145508,
    4.376809597015381,
    51.43524169921875
],
  "geometry": {"coordinates":[[[4.37648487091065,51.43524169921875],[4.37680959701538,51.4350700378418],[4.37646722793579,51.4349479675293],[4.37610864639282,51.4348258972168],[4.37592029571533,51.43477249145508],[4.37648487091065,51.43524169921875]]],"type":"Polygon"}
}