{
  "id": 890628881,
  "type": "Feature",
  "properties": {
    "clustr:alpha":0.05,
    "clustr:area":5.63,
    "clustr:count":23,
    "clustr:density":4.08,
    "clustr:perimeter":0.33,
    "edtf:cessation":"uuuu",
    "edtf:inception":"uuuu",
    "geom:area":0.0,
    "geom:bbox":"5.18311166763,52.3880615234,5.18430614471,52.389377594",
    "geom:latitude":52.388807,
    "geom:longitude":5.183635,
    "iso:country":"NL",
    "mz:hierarchy_label":1,
    "mz:is_approximate":1,
    "mz:is_clustr":1,
    "src:geom":"oa",
    "wof:belongsto":[
        102191581,
        404473729,
        85633337,
        85687049
    ],
    "wof:breaches":[],
    "wof:country":"NL",
    "wof:created":1469668067,
    "wof:geomhash":"e78581f234e3cfef6a0c61e2fc5a576d",
    "wof:hierarchy":[
        {
            "continent_id":102191581,
            "country_id":85633337,
            "localadmin_id":404473729,
            "postalcode_id":890628881,
            "region_id":85687049
        }
    ],
    "wof:id":890628881,
    "wof:lastmodified":1469668067,
    "wof:name":"1319CG",
    "wof:parent_id":404473729,
    "wof:placetype":"postalcode",
    "wof:repo":"whosonfirst-data-postalcode-nl",
    "wof:superseded_by":[],
    "wof:supersedes":[],
    "wof:tags":[]
},
  "bbox": [
    5.183111667633057,
    52.3880615234375,
    5.184306144714355,
    52.38937759399414
],
  "geometry": {"coordinates":[[[5.18321514129639,52.38928985595703],[5.18426561355591,52.38811111450195],[5.18430614471435,52.3880615234375],[5.18408727645874,52.3882942199707],[5.18311166763306,52.38937759399414],[5.18317174911499,52.38933563232422],[5.18321514129639,52.38928985595703]]],"type":"Polygon"}
}