{
  "id": 890619303,
  "type": "Feature",
  "properties": {
    "clustr:alpha":0.05,
    "clustr:area":5.96,
    "clustr:count":16,
    "clustr:density":2.68,
    "clustr:perimeter":0.19,
    "edtf:cessation":"uuuu",
    "edtf:inception":"uuuu",
    "geom:area":0.0,
    "geom:bbox":"5.14048528671,52.2194671631,5.14133548737,52.2201919556",
    "geom:latitude":52.219754,
    "geom:longitude":5.14083,
    "iso:country":"NL",
    "mz:hierarchy_label":1,
    "mz:is_approximate":1,
    "mz:is_clustr":1,
    "src:geom":"oa",
    "wof:belongsto":[
        85687053,
        102191581,
        404474081,
        85633337,
        101751905
    ],
    "wof:breaches":[],
    "wof:country":"NL",
    "wof:created":1469667680,
    "wof:geomhash":"8141a86c888ef8ce65c292f90be3a566",
    "wof:hierarchy":[
        {
            "continent_id":102191581,
            "country_id":85633337,
            "localadmin_id":404474081,
            "locality_id":101751905,
            "postalcode_id":890619303,
            "region_id":85687053
        }
    ],
    "wof:id":890619303,
    "wof:lastmodified":1469667680,
    "wof:name":"1216HH",
    "wof:parent_id":101751905,
    "wof:placetype":"postalcode",
    "wof:repo":"whosonfirst-data-postalcode-nl",
    "wof:superseded_by":[],
    "wof:supersedes":[],
    "wof:tags":[]
},
  "bbox": [
    5.140485286712646,
    52.21946716308594,
    5.141335487365723,
    52.220191955566406
],
  "geometry": {"coordinates":[[[5.14056062698364,52.21951675415039],[5.14048528671265,52.21946716308594],[5.14133548736572,52.22019195556641],[5.14118194580078,52.22005462646484],[5.14077425003052,52.21969604492188],[5.14061403274536,52.21955871582031],[5.14056062698364,52.21951675415039]]],"type":"Polygon"}
}