{
  "id": 890949115,
  "type": "Feature",
  "properties": {
    "clustr:alpha":0.05,
    "clustr:area":29.81,
    "clustr:count":18,
    "clustr:density":0.6,
    "clustr:perimeter":0.22,
    "edtf:cessation":"uuuu",
    "edtf:inception":"uuuu",
    "geom:area":0.0,
    "geom:bbox":"3.60174465179,51.4822463989,3.60236597061,51.4834632874",
    "geom:latitude":51.482912,
    "geom:longitude":3.602094,
    "iso:country":"NL",
    "mz:hierarchy_label":1,
    "mz:is_approximate":1,
    "mz:is_clustr":1,
    "src:geom":"oa",
    "wof:belongsto":[
        85687037,
        102191581,
        404474335,
        85633337,
        101839443
    ],
    "wof:breaches":[],
    "wof:country":"NL",
    "wof:created":1469681180,
    "wof:geomhash":"3a59a1aa5bda50c5dd65381cabd365b1",
    "wof:hierarchy":[
        {
            "continent_id":102191581,
            "country_id":85633337,
            "localadmin_id":404474335,
            "locality_id":101839443,
            "postalcode_id":890949115,
            "region_id":85687037
        }
    ],
    "wof:id":890949115,
    "wof:lastmodified":1469681180,
    "wof:name":"4335JM",
    "wof:parent_id":101839443,
    "wof:placetype":"postalcode",
    "wof:repo":"whosonfirst-data-postalcode-nl",
    "wof:superseded_by":[],
    "wof:supersedes":[],
    "wof:tags":[]
},
  "bbox": [
    3.601744651794434,
    51.48224639892578,
    3.602365970611572,
    51.483463287353516
],
  "geometry": {"coordinates":[[[3.6019184589386,51.48255920410156],[3.60174465179443,51.48224639892578],[3.6017701625824,51.48230361938477],[3.60182571411133,51.48241424560547],[3.60236597061157,51.48346328735352],[3.60233998298645,51.48338317871094],[3.60219526290894,51.48306655883789],[3.6019184589386,51.48255920410156]]],"type":"Polygon"}
}