{
  "id": 907088599,
  "type": "Feature",
  "properties": {
    "clustr:alpha":0.05,
    "clustr:area":8.42,
    "clustr:count":19,
    "clustr:density":2.26,
    "clustr:perimeter":0.21,
    "edtf:cessation":"uuuu",
    "edtf:inception":"uuuu",
    "geom:area":0.0,
    "geom:bbox":"6.5456495285,53.0045013428,6.54676198959,53.0051612854",
    "geom:latitude":53.004878,
    "geom:longitude":6.546133,
    "iso:country":"NL",
    "mz:hierarchy_label":1,
    "mz:is_approximate":1,
    "mz:is_clustr":1,
    "src:geom":"oa",
    "wof:belongsto":[
        85687051,
        102191581,
        404473805,
        85633337,
        101751879
    ],
    "wof:breaches":[],
    "wof:country":"NL",
    "wof:created":1469698737,
    "wof:geomhash":"577eb06e0fdbb1b78a000d6efc456af2",
    "wof:hierarchy":[
        {
            "continent_id":102191581,
            "country_id":85633337,
            "localadmin_id":404473805,
            "locality_id":101751879,
            "postalcode_id":907088599,
            "region_id":85687051
        }
    ],
    "wof:id":907088599,
    "wof:lastmodified":1469698737,
    "wof:name":"9406LC",
    "wof:parent_id":101751879,
    "wof:placetype":"postalcode",
    "wof:repo":"whosonfirst-data-postalcode-nl",
    "wof:superseded_by":[],
    "wof:supersedes":[],
    "wof:tags":[]
},
  "bbox": [
    6.545649528503418,
    53.00450134277344,
    6.546761989593506,
    53.00516128540039
],
  "geometry": {"coordinates":[[[6.54633045196533,53.00516128540039],[6.54676198959351,53.0051383972168],[6.54595804214478,53.00460052490234],[6.54580640792847,53.00450134277344],[6.54564952850342,53.00476455688477],[6.54587650299072,53.00489807128906],[6.54625463485718,53.00511932373047],[6.54633045196533,53.00516128540039]]],"type":"Polygon"}
}