{
  "id": 891059479,
  "type": "Feature",
  "properties": {
    "clustr:alpha":0.05,
    "clustr:area":1.18,
    "clustr:count":38,
    "clustr:density":32.19,
    "clustr:perimeter":0.22,
    "edtf:cessation":"uuuu",
    "edtf:inception":"uuuu",
    "geom:area":0.0,
    "geom:bbox":"5.57335090637,51.3797988892,5.57413768768,51.3806381226",
    "geom:latitude":51.380269,
    "geom:longitude":5.573738,
    "iso:country":"NL",
    "mz:hierarchy_label":1,
    "mz:is_approximate":1,
    "mz:is_clustr":1,
    "src:geom":"oa",
    "wof:belongsto":[
        85687035,
        102191581,
        404474567,
        85633337,
        101809717
    ],
    "wof:breaches":[],
    "wof:country":"NL",
    "wof:created":1469685714,
    "wof:geomhash":"6ad0230df3f2170f8ee585de096187b2",
    "wof:hierarchy":[
        {
            "continent_id":102191581,
            "country_id":85633337,
            "localadmin_id":404474567,
            "locality_id":101809717,
            "postalcode_id":891059479,
            "region_id":85687035
        }
    ],
    "wof:id":891059479,
    "wof:lastmodified":1469685714,
    "wof:name":"5591GR",
    "wof:parent_id":101809717,
    "wof:placetype":"postalcode",
    "wof:repo":"whosonfirst-data-postalcode-nl",
    "wof:superseded_by":[],
    "wof:supersedes":[],
    "wof:tags":[]
},
  "bbox": [
    5.57335090637207,
    51.379798889160156,
    5.574137687683105,
    51.380638122558594
],
  "geometry": {"coordinates":[[[5.57336807250977,51.38039398193359],[5.5734691619873,51.38050079345703],[5.57364082336426,51.38063812255859],[5.57372999191284,51.380615234375],[5.5741376876831,51.38048553466797],[5.57384872436523,51.37983322143555],[5.57373237609863,51.37979888916016],[5.57352066040039,51.38007736206055],[5.57335090637207,51.38031387329102],[5.57336807250977,51.38039398193359]]],"type":"Polygon"}
}