{
  "id": 891257527,
  "type": "Feature",
  "properties": {
    "clustr:alpha":0.05,
    "clustr:area":111.65,
    "clustr:count":9,
    "clustr:density":0.08,
    "clustr:perimeter":0.28,
    "edtf:cessation":"uuuu",
    "edtf:inception":"uuuu",
    "geom:area":0.000001,
    "geom:bbox":"6.7587852478,52.370716095,6.76102209091,52.3713226318",
    "geom:latitude":52.371054,
    "geom:longitude":6.760016,
    "iso:country":"NL",
    "mz:hierarchy_label":1,
    "mz:is_approximate":1,
    "mz:is_clustr":1,
    "src:geom":"oa",
    "wof:belongsto":[
        85687045,
        102191581,
        404473855,
        85633337,
        101807133
    ],
    "wof:breaches":[],
    "wof:country":"NL",
    "wof:created":1469693702,
    "wof:geomhash":"6341b7524e505ca0da0fba145a046848",
    "wof:hierarchy":[
        {
            "continent_id":102191581,
            "country_id":85633337,
            "localadmin_id":404473855,
            "locality_id":101807133,
            "postalcode_id":891257527,
            "region_id":85687045
        }
    ],
    "wof:id":891257527,
    "wof:lastmodified":1469693702,
    "wof:name":"7665AR",
    "wof:parent_id":101807133,
    "wof:placetype":"postalcode",
    "wof:repo":"whosonfirst-data-postalcode-nl",
    "wof:superseded_by":[],
    "wof:supersedes":[],
    "wof:tags":[]
},
  "bbox": [
    6.758785247802734,
    52.3707160949707,
    6.761022090911865,
    52.37132263183594
],
  "geometry": {"coordinates":[[[6.7597279548645,52.37126159667969],[6.76026916503906,52.37132263183594],[6.76082754135132,52.37087249755859],[6.76102209091187,52.3707160949707],[6.75878524780273,52.37111282348633],[6.7597279548645,52.37126159667969]]],"type":"Polygon"}
}