{
  "id": 890713741,
  "type": "Feature",
  "properties": {
    "clustr:alpha":0.05,
    "clustr:area":87.37,
    "clustr:count":18,
    "clustr:density":0.21,
    "clustr:perimeter":0.29,
    "edtf:cessation":"uuuu",
    "edtf:inception":"uuuu",
    "geom:area":0.0,
    "geom:bbox":"4.63306331635,52.2624740601,4.63486766815,52.2634277344",
    "geom:latitude":52.263084,
    "geom:longitude":4.633905,
    "iso:country":"NL",
    "mz:hierarchy_label":1,
    "mz:is_approximate":1,
    "mz:is_clustr":1,
    "src:geom":"oa",
    "wof:belongsto":[
        85687053,
        102191581,
        404474065,
        85633337,
        101803713
    ],
    "wof:breaches":[],
    "wof:country":"NL",
    "wof:created":1469671877,
    "wof:geomhash":"dc876a6cd8fe69521501d33c6e86fa17",
    "wof:hierarchy":[
        {
            "continent_id":102191581,
            "country_id":85633337,
            "localadmin_id":404474065,
            "locality_id":101803713,
            "postalcode_id":890713741,
            "region_id":85687053
        }
    ],
    "wof:id":890713741,
    "wof:lastmodified":1469671877,
    "wof:name":"2153BJ",
    "wof:parent_id":101803713,
    "wof:placetype":"postalcode",
    "wof:repo":"whosonfirst-data-postalcode-nl",
    "wof:superseded_by":[],
    "wof:supersedes":[],
    "wof:tags":[]
},
  "bbox": [
    4.633063316345215,
    52.262474060058594,
    4.634867668151855,
    52.263427734375
],
  "geometry": {"coordinates":[[[4.63377666473389,52.26335525512695],[4.6348090171814,52.26252365112305],[4.63486766815185,52.26247406005859],[4.63306331634521,52.263427734375],[4.63377666473389,52.26335525512695]]],"type":"Polygon"}
}