{
  "id": 891117843,
  "type": "Feature",
  "properties": {
    "clustr:alpha":0.05,
    "clustr:area":6.45,
    "clustr:count":12,
    "clustr:density":1.86,
    "clustr:perimeter":0.19,
    "edtf:cessation":"uuuu",
    "edtf:inception":"uuuu",
    "geom:area":0.0,
    "geom:bbox":"5.8297586441,50.9523010254,5.83060503006,50.9530067444",
    "geom:latitude":50.952659,
    "geom:longitude":5.830185,
    "iso:country":"NL",
    "mz:hierarchy_label":1,
    "mz:is_approximate":1,
    "mz:is_clustr":1,
    "src:geom":"oa",
    "wof:belongsto":[
        85687033,
        102191581,
        404474675,
        85633337,
        101839271
    ],
    "wof:breaches":[],
    "wof:country":"NL",
    "wof:created":1469687950,
    "wof:geomhash":"9b922f1ca537df16537d1b64f701123a",
    "wof:hierarchy":[
        {
            "continent_id":102191581,
            "country_id":85633337,
            "localadmin_id":404474675,
            "locality_id":101839271,
            "postalcode_id":891117843,
            "region_id":85687033
        }
    ],
    "wof:id":891117843,
    "wof:lastmodified":1469687950,
    "wof:name":"6164EX",
    "wof:parent_id":101839271,
    "wof:placetype":"postalcode",
    "wof:repo":"whosonfirst-data-postalcode-nl",
    "wof:superseded_by":[],
    "wof:supersedes":[],
    "wof:tags":[]
},
  "bbox": [
    5.829758644104004,
    50.952301025390625,
    5.830605030059814,
    50.953006744384766
],
  "geometry": {"coordinates":[[[5.82981586456299,50.95234298706055],[5.829758644104,50.95230102539062],[5.83021783828735,50.95270156860352],[5.83027505874634,50.9527473449707],[5.83033227920532,50.95279312133789],[5.83060503005981,50.95300674438477],[5.83054733276367,50.95295333862305],[5.82987308502197,50.95238876342773],[5.82981586456299,50.95234298706055]]],"type":"Polygon"}
}