{
  "id": 907057115,
  "type": "Feature",
  "properties": {
    "clustr:alpha":0.05,
    "clustr:area":22.05,
    "clustr:count":14,
    "clustr:density":0.63,
    "clustr:perimeter":0.42,
    "edtf:cessation":"uuuu",
    "edtf:inception":"uuuu",
    "geom:area":0.000001,
    "geom:bbox":"5.51982307434,53.0619125366,5.52260303497,53.0629081726",
    "geom:latitude":53.062378,
    "geom:longitude":5.520995,
    "iso:country":"NL",
    "mz:hierarchy_label":1,
    "mz:is_approximate":1,
    "mz:is_clustr":1,
    "src:geom":"oa",
    "wof:belongsto":[
        85687055,
        102191581,
        404473765,
        85633337,
        101806099
    ],
    "wof:breaches":[],
    "wof:country":"NL",
    "wof:created":1469697120,
    "wof:geomhash":"f1b8c8c8cdd64293df60f125513c86ba",
    "wof:hierarchy":[
        {
            "continent_id":102191581,
            "country_id":85633337,
            "localadmin_id":404473765,
            "locality_id":101806099,
            "postalcode_id":907057115,
            "region_id":85687055
        }
    ],
    "wof:id":907057115,
    "wof:lastmodified":1469697120,
    "wof:name":"8701KE",
    "wof:parent_id":101806099,
    "wof:placetype":"postalcode",
    "wof:repo":"whosonfirst-data-postalcode-nl",
    "wof:superseded_by":[],
    "wof:supersedes":[],
    "wof:tags":[]
},
  "bbox": [
    5.51982307434082,
    53.061912536621094,
    5.522603034973145,
    53.06290817260742
],
  "geometry": {"coordinates":[[[5.5200719833374,53.06201171875],[5.51982307434082,53.06220626831055],[5.52246189117432,53.06290817260742],[5.52260303497315,53.06289291381836],[5.52260208129883,53.06287384033203],[5.52024698257446,53.06191253662109],[5.5200719833374,53.06201171875]]],"type":"Polygon"}
}