{
  "id": 890851795,
  "type": "Feature",
  "properties": {
    "clustr:alpha":0.05,
    "clustr:area":2.35,
    "clustr:count":11,
    "clustr:density":4.68,
    "clustr:perimeter":0.52,
    "edtf:cessation":"uuuu",
    "edtf:inception":"uuuu",
    "geom:area":0.0,
    "geom:bbox":"4.67924308777,51.8104972839,4.68025588989,51.8127822876",
    "geom:latitude":51.811697,
    "geom:longitude":4.67977,
    "iso:country":"NL",
    "mz:hierarchy_label":1,
    "mz:is_approximate":1,
    "mz:is_clustr":1,
    "src:geom":"oa",
    "wof:belongsto":[
        85687041,
        102191581,
        404474169,
        85633337,
        101751841
    ],
    "wof:breaches":[],
    "wof:country":"NL",
    "wof:created":1469677188,
    "wof:geomhash":"431fdd0d31354b9ea6e9c2037d9306d1",
    "wof:hierarchy":[
        {
            "continent_id":102191581,
            "country_id":85633337,
            "localadmin_id":404474169,
            "locality_id":101751841,
            "postalcode_id":890851795,
            "region_id":85687041
        }
    ],
    "wof:id":890851795,
    "wof:lastmodified":1469677188,
    "wof:name":"3311DC",
    "wof:parent_id":101751841,
    "wof:placetype":"postalcode",
    "wof:repo":"whosonfirst-data-postalcode-nl",
    "wof:superseded_by":[],
    "wof:supersedes":[],
    "wof:tags":[]
},
  "bbox": [
    4.679243087768555,
    51.81049728393555,
    4.680255889892578,
    51.812782287597656
],
  "geometry": {"coordinates":[[[4.68014478683472,51.81258392333984],[4.68025588989258,51.81278228759766],[4.67942428588867,51.81087112426758],[4.67937803268433,51.81076431274414],[4.67924308776855,51.81049728393555],[4.67926931381226,51.81056213378906],[4.6799111366272,51.81206512451172],[4.68012094497681,51.81253433227539],[4.68014478683472,51.81258392333984]]],"type":"Polygon"}
}