{
  "id": 890701921,
  "type": "Feature",
  "properties": {
    "clustr:alpha":0.05,
    "clustr:area":7.14,
    "clustr:count":25,
    "clustr:density":3.5,
    "clustr:perimeter":0.29,
    "edtf:cessation":"uuuu",
    "edtf:inception":"uuuu",
    "geom:area":0.0,
    "geom:bbox":"4.65400218964,52.4086494446,4.6544303894,52.4099807739",
    "geom:latitude":52.4093,
    "geom:longitude":4.654222,
    "iso:country":"NL",
    "mz:hierarchy_label":1,
    "mz:is_approximate":1,
    "mz:is_clustr":1,
    "src:geom":"oa",
    "wof:belongsto":[
        85687053,
        102191581,
        404474061,
        85633337,
        101751897
    ],
    "wof:breaches":[],
    "wof:country":"NL",
    "wof:created":1469671298,
    "wof:geomhash":"d64b0766a03aae91039ce1c54a6c679c",
    "wof:hierarchy":[
        {
            "continent_id":102191581,
            "country_id":85633337,
            "localadmin_id":404474061,
            "locality_id":101751897,
            "postalcode_id":890701921,
            "region_id":85687053
        }
    ],
    "wof:id":890701921,
    "wof:lastmodified":1469671298,
    "wof:name":"2025CJ",
    "wof:parent_id":101751897,
    "wof:placetype":"postalcode",
    "wof:repo":"whosonfirst-data-postalcode-nl",
    "wof:superseded_by":[],
    "wof:supersedes":[],
    "wof:tags":[]
},
  "bbox": [
    4.65400218963623,
    52.40864944458008,
    4.654430389404297,
    52.40998077392578
],
  "geometry": {"coordinates":[[[4.65427684783935,52.40895080566406],[4.65400218963623,52.40998077392578],[4.65418434143066,52.40959548950195],[4.65430784225464,52.40912246704102],[4.6544303894043,52.40864944458008],[4.65432691574097,52.40884780883789],[4.65427684783935,52.40895080566406]]],"type":"Polygon"}
}