{
  "id": 891099885,
  "type": "Feature",
  "properties": {
    "clustr:alpha":0.05,
    "clustr:area":102.59,
    "clustr:count":21,
    "clustr:density":0.2,
    "clustr:perimeter":0.13,
    "edtf:cessation":"uuuu",
    "edtf:inception":"uuuu",
    "geom:area":0.0,
    "geom:bbox":"5.70522928238,51.2538108826,5.70617246628,51.2543411255",
    "geom:latitude":51.254061,
    "geom:longitude":5.705663,
    "iso:country":"NL",
    "mz:hierarchy_label":1,
    "mz:is_approximate":1,
    "mz:is_clustr":1,
    "src:geom":"oa",
    "wof:belongsto":[
        85687033,
        102191581,
        404474531,
        85633337,
        101839297
    ],
    "wof:breaches":[],
    "wof:country":"NL",
    "wof:created":1469687259,
    "wof:geomhash":"b6a9b94e8b81e3785bef161b2271587e",
    "wof:hierarchy":[
        {
            "continent_id":102191581,
            "country_id":85633337,
            "localadmin_id":404474531,
            "locality_id":101839297,
            "postalcode_id":891099885,
            "region_id":85687033
        }
    ],
    "wof:id":891099885,
    "wof:lastmodified":1469687259,
    "wof:name":"6001EH",
    "wof:parent_id":101839297,
    "wof:placetype":"postalcode",
    "wof:repo":"whosonfirst-data-postalcode-nl",
    "wof:superseded_by":[],
    "wof:supersedes":[],
    "wof:tags":[]
},
  "bbox": [
    5.70522928237915,
    51.25381088256836,
    5.706172466278076,
    51.25434112548828
],
  "geometry": {"coordinates":[[[5.70607137680054,51.25411224365234],[5.70617246627808,51.25397491455078],[5.7059326171875,51.25381088256836],[5.70522928237915,51.25400161743164],[5.70527172088623,51.25434112548828],[5.70607137680054,51.25411224365234]]],"type":"Polygon"}
}