{
  "id": 907110647,
  "type": "Feature",
  "properties": {
    "clustr:alpha":0.05,
    "clustr:area":7.19,
    "clustr:count":10,
    "clustr:density":1.39,
    "clustr:perimeter":0.51,
    "edtf:cessation":"uuuu",
    "edtf:inception":"uuuu",
    "geom:area":0.0,
    "geom:bbox":"6.56218242645,53.1938476562,6.56255578995,53.1962585449",
    "geom:latitude":53.195088,
    "geom:longitude":6.562329,
    "iso:country":"NL",
    "mz:hierarchy_label":1,
    "mz:is_approximate":1,
    "mz:is_clustr":1,
    "src:geom":"oa",
    "wof:belongsto":[
        85687059,
        102191581,
        404473713,
        85633337,
        101751909
    ],
    "wof:breaches":[],
    "wof:country":"NL",
    "wof:created":1469699927,
    "wof:geomhash":"78968d017a273ecb01b491f6b22bec0c",
    "wof:hierarchy":[
        {
            "continent_id":102191581,
            "country_id":85633337,
            "localadmin_id":404473713,
            "locality_id":101751909,
            "postalcode_id":907110647,
            "region_id":85687059
        }
    ],
    "wof:id":907110647,
    "wof:lastmodified":1469699927,
    "wof:name":"9721RV",
    "wof:parent_id":101751909,
    "wof:placetype":"postalcode",
    "wof:repo":"whosonfirst-data-postalcode-nl",
    "wof:superseded_by":[],
    "wof:supersedes":[],
    "wof:tags":[]
},
  "bbox": [
    6.562182426452637,
    53.19384765625,
    6.56255578994751,
    53.196258544921875
],
  "geometry": {"coordinates":[[[6.56220245361328,53.19544982910156],[6.56218242645264,53.19573593139648],[6.56220006942749,53.19600677490234],[6.56222724914551,53.19625854492188],[6.56255578994751,53.19384765625],[6.56246089935303,53.19412231445312],[6.5623893737793,53.19437408447266],[6.56227254867554,53.19491195678711],[6.56223106384277,53.1951904296875],[6.56220245361328,53.19544982910156]]],"type":"Polygon"}
}