{
  "id": 890665009,
  "type": "Feature",
  "properties": {
    "clustr:alpha":0.05,
    "clustr:area":66.63,
    "clustr:count":69,
    "clustr:density":1.04,
    "clustr:perimeter":0.67,
    "edtf:cessation":"uuuu",
    "edtf:inception":"uuuu",
    "geom:area":0.000003,
    "geom:bbox":"5.09593105316,52.7595252991,5.10056304932,52.7606277466",
    "geom:latitude":52.760006,
    "geom:longitude":5.097927,
    "iso:country":"NL",
    "mz:hierarchy_label":1,
    "mz:is_approximate":1,
    "mz:is_clustr":1,
    "src:geom":"oa",
    "wof:belongsto":[
        85687053,
        102191581,
        404474097,
        85633337,
        101837913
    ],
    "wof:breaches":[],
    "wof:country":"NL",
    "wof:created":1469669691,
    "wof:geomhash":"f4ca1d51dbd84f5cee33585cf5266437",
    "wof:hierarchy":[
        {
            "continent_id":102191581,
            "country_id":85633337,
            "localadmin_id":404474097,
            "locality_id":101837913,
            "postalcode_id":890665009,
            "region_id":85687053
        }
    ],
    "wof:id":890665009,
    "wof:lastmodified":1469669691,
    "wof:name":"1671TA",
    "wof:parent_id":101837913,
    "wof:placetype":"postalcode",
    "wof:repo":"whosonfirst-data-postalcode-nl",
    "wof:superseded_by":[],
    "wof:supersedes":[],
    "wof:tags":[]
},
  "bbox": [
    5.095931053161621,
    52.759525299072266,
    5.100563049316406,
    52.76062774658203
],
  "geometry": {"coordinates":[[[5.09797239303589,52.76062774658203],[5.09850883483887,52.76041412353516],[5.10056304931641,52.75953674316406],[5.10048627853394,52.75952529907227],[5.09974956512451,52.75954437255859],[5.09639978408813,52.75965881347656],[5.09593105316162,52.76033020019531],[5.09797239303589,52.76062774658203]]],"type":"Polygon"}
}