{
  "id": 907109177,
  "type": "Feature",
  "properties": {
    "clustr:alpha":0.05,
    "clustr:area":6.91,
    "clustr:count":12,
    "clustr:density":1.74,
    "clustr:perimeter":0.04,
    "edtf:cessation":"uuuu",
    "edtf:inception":"uuuu",
    "geom:area":0.0,
    "geom:bbox":"6.56059074402,53.2344017029,6.56075048447,53.2346076965",
    "geom:latitude":53.234501,
    "geom:longitude":6.56067,
    "iso:country":"NL",
    "mz:hierarchy_label":1,
    "mz:is_approximate":1,
    "mz:is_clustr":1,
    "src:geom":"oa",
    "wof:belongsto":[
        85687059,
        102191581,
        404473713,
        85633337,
        101751909
    ],
    "wof:breaches":[],
    "wof:country":"NL",
    "wof:created":1469699847,
    "wof:geomhash":"3978ef879ae59f798bae99dcd5562d4a",
    "wof:hierarchy":[
        {
            "continent_id":102191581,
            "country_id":85633337,
            "localadmin_id":404473713,
            "locality_id":101751909,
            "postalcode_id":907109177,
            "region_id":85687059
        }
    ],
    "wof:id":907109177,
    "wof:lastmodified":1469699847,
    "wof:name":"9716EH",
    "wof:parent_id":101751909,
    "wof:placetype":"postalcode",
    "wof:repo":"whosonfirst-data-postalcode-nl",
    "wof:superseded_by":[],
    "wof:supersedes":[],
    "wof:tags":[]
},
  "bbox": [
    6.560590744018555,
    53.23440170288086,
    6.560750484466553,
    53.2346076965332
],
  "geometry": {"coordinates":[[[6.56070470809937,53.2346076965332],[6.56075048446655,53.23460388183594],[6.56065273284912,53.23440170288086],[6.56059074401855,53.23440933227539],[6.56061458587646,53.23445892333984],[6.56063318252563,53.2344970703125],[6.56070470809937,53.2346076965332]]],"type":"Polygon"}
}