{
  "id": 890886721,
  "type": "Feature",
  "properties": {
    "clustr:alpha":0.05,
    "clustr:area":40.86,
    "clustr:count":17,
    "clustr:density":0.42,
    "clustr:perimeter":0.38,
    "edtf:cessation":"uuuu",
    "edtf:inception":"uuuu",
    "geom:area":0.000001,
    "geom:bbox":"4.97848129272,52.1892280579,4.97928333282,52.1908340454",
    "geom:latitude":52.189932,
    "geom:longitude":4.978816,
    "iso:country":"NL",
    "mz:hierarchy_label":1,
    "mz:is_approximate":1,
    "mz:is_clustr":1,
    "src:geom":"oa",
    "wof:belongsto":[
        102191581,
        404473979,
        85633337,
        85687039
    ],
    "wof:breaches":[],
    "wof:country":"NL",
    "wof:created":1469678550,
    "wof:geomhash":"25f7f23ffb42b36b208083e9e8a8b47b",
    "wof:hierarchy":[
        {
            "continent_id":102191581,
            "country_id":85633337,
            "localadmin_id":404473979,
            "postalcode_id":890886721,
            "region_id":85687039
        }
    ],
    "wof:id":890886721,
    "wof:lastmodified":1469678550,
    "wof:name":"3626AM",
    "wof:parent_id":404473979,
    "wof:placetype":"postalcode",
    "wof:repo":"whosonfirst-data-postalcode-nl",
    "wof:superseded_by":[],
    "wof:supersedes":[],
    "wof:tags":[]
},
  "bbox": [
    4.978481292724609,
    52.18922805786133,
    4.979283332824707,
    52.190834045410156
],
  "geometry": {"coordinates":[[[4.97883462905884,52.19083404541016],[4.97928333282471,52.18922805786133],[4.97875547409058,52.18923568725586],[4.97854137420654,52.18950653076172],[4.97848129272461,52.19065475463867],[4.97883462905884,52.19083404541016]]],"type":"Polygon"}
}