{
  "id": 907088143,
  "type": "Feature",
  "properties": {
    "clustr:alpha":0.05,
    "clustr:area":33.17,
    "clustr:count":17,
    "clustr:density":0.51,
    "clustr:perimeter":0.21,
    "edtf:cessation":"uuuu",
    "edtf:inception":"uuuu",
    "geom:area":0.0,
    "geom:bbox":"6.53516864777,52.9807434082,6.53595685959,52.9815597534",
    "geom:latitude":52.981152,
    "geom:longitude":6.535534,
    "iso:country":"NL",
    "mz:hierarchy_label":1,
    "mz:is_approximate":1,
    "mz:is_clustr":1,
    "src:geom":"oa",
    "wof:belongsto":[
        85687051,
        102191581,
        404473805,
        85633337,
        101751879
    ],
    "wof:breaches":[],
    "wof:country":"NL",
    "wof:created":1469698696,
    "wof:geomhash":"b7fae352d92f1eecb27b61963c164381",
    "wof:hierarchy":[
        {
            "continent_id":102191581,
            "country_id":85633337,
            "localadmin_id":404473805,
            "locality_id":101751879,
            "postalcode_id":907088143,
            "region_id":85687051
        }
    ],
    "wof:id":907088143,
    "wof:lastmodified":1469698696,
    "wof:name":"9405KK",
    "wof:parent_id":101751879,
    "wof:placetype":"postalcode",
    "wof:repo":"whosonfirst-data-postalcode-nl",
    "wof:superseded_by":[],
    "wof:supersedes":[],
    "wof:tags":[]
},
  "bbox": [
    6.535168647766113,
    52.980743408203125,
    6.535956859588623,
    52.98155975341797
],
  "geometry": {"coordinates":[[[6.53528690338135,52.98074340820312],[6.53516864776611,52.98078155517578],[6.53518772125244,52.98094177246094],[6.53541278839111,52.98155975341797],[6.53560590744019,52.98154830932617],[6.53570938110352,52.98151016235352],[6.53589916229248,52.98137664794922],[6.53595685958862,52.98130416870117],[6.53570890426636,52.98092651367188],[6.53564739227295,52.98086547851562],[6.53557109832764,52.98079299926758],[6.53528690338135,52.98074340820312]]],"type":"Polygon"}
}