{
  "id": 891262619,
  "type": "Feature",
  "properties": {
    "clustr:alpha":0.05,
    "clustr:area":27.75,
    "clustr:count":7,
    "clustr:density":0.25,
    "clustr:perimeter":1.6,
    "edtf:cessation":"uuuu",
    "edtf:inception":"uuuu",
    "geom:area":0.000007,
    "geom:bbox":"6.31561851501,52.5265579224,6.32726383209,52.5278396606",
    "geom:latitude":52.527123,
    "geom:longitude":6.323203,
    "iso:country":"NL",
    "mz:hierarchy_label":1,
    "mz:is_approximate":1,
    "mz:is_clustr":1,
    "src:geom":"oa",
    "wof:belongsto":[
        102191581,
        404473823,
        85633337,
        85687045
    ],
    "wof:breaches":[],
    "wof:country":"NL",
    "wof:created":1469693911,
    "wof:geomhash":"f01f93a01afa2dbce8b447c085a7f0d8",
    "wof:hierarchy":[
        {
            "continent_id":102191581,
            "country_id":85633337,
            "localadmin_id":404473823,
            "postalcode_id":891262619,
            "region_id":85687045
        }
    ],
    "wof:id":891262619,
    "wof:lastmodified":1469693911,
    "wof:name":"7722VH",
    "wof:parent_id":404473823,
    "wof:placetype":"postalcode",
    "wof:repo":"whosonfirst-data-postalcode-nl",
    "wof:superseded_by":[],
    "wof:supersedes":[],
    "wof:tags":[]
},
  "bbox": [
    6.315618515014648,
    52.52655792236328,
    6.327263832092285,
    52.52783966064453
],
  "geometry": {"coordinates":[[[6.32693767547607,52.52704238891602],[6.32670593261719,52.52655792236328],[6.31561851501465,52.52696990966797],[6.32726383209229,52.52783966064453],[6.32693767547607,52.52704238891602]]],"type":"Polygon"}
}