{
  "id": 891042343,
  "type": "Feature",
  "properties": {
    "clustr:alpha":0.05,
    "clustr:area":172.68,
    "clustr:count":17,
    "clustr:density":0.1,
    "clustr:perimeter":0.6,
    "edtf:cessation":"uuuu",
    "edtf:inception":"uuuu",
    "geom:area":0.000004,
    "geom:bbox":"5.62350177765,51.649684906,5.62623977661,51.6521339417",
    "geom:latitude":51.650937,
    "geom:longitude":5.624983,
    "iso:country":"NL",
    "mz:hierarchy_label":1,
    "mz:is_approximate":1,
    "mz:is_clustr":1,
    "src:geom":"oa",
    "wof:belongsto":[
        85687035,
        102191581,
        404474437,
        85633337,
        101839391
    ],
    "wof:breaches":[],
    "wof:country":"NL",
    "wof:created":1469685102,
    "wof:geomhash":"7457858630ddca433a6572cfa00afad4",
    "wof:hierarchy":[
        {
            "continent_id":102191581,
            "country_id":85633337,
            "localadmin_id":404474437,
            "locality_id":101839391,
            "postalcode_id":891042343,
            "region_id":85687035
        }
    ],
    "wof:id":891042343,
    "wof:lastmodified":1469685102,
    "wof:name":"5404KD",
    "wof:parent_id":101839391,
    "wof:placetype":"postalcode",
    "wof:repo":"whosonfirst-data-postalcode-nl",
    "wof:superseded_by":[],
    "wof:supersedes":[],
    "wof:tags":[]
},
  "bbox": [
    5.623501777648926,
    51.64968490600586,
    5.626239776611328,
    51.65213394165039
],
  "geometry": {"coordinates":[[[5.62497043609619,51.65204238891602],[5.62520933151245,51.65213394165039],[5.62567138671875,51.65209579467773],[5.62623977661133,51.65002822875977],[5.62507343292236,51.64968490600586],[5.62360954284668,51.65092468261719],[5.62350177764893,51.65142822265625],[5.62497043609619,51.65204238891602]]],"type":"Polygon"}
}