{
  "id": 891256865,
  "type": "Feature",
  "properties": {
    "clustr:alpha":0.05,
    "clustr:area":52.18,
    "clustr:count":20,
    "clustr:density":0.38,
    "clustr:perimeter":1.26,
    "edtf:cessation":"uuuu",
    "edtf:inception":"uuuu",
    "geom:area":0.000006,
    "geom:bbox":"6.57438087463,52.3479881287,6.57705688477,52.3532905579",
    "geom:latitude":52.351197,
    "geom:longitude":6.576015,
    "iso:country":"NL",
    "mz:hierarchy_label":1,
    "mz:is_approximate":1,
    "mz:is_clustr":1,
    "src:geom":"oa",
    "wof:belongsto":[
        102191581,
        404473859,
        85633337,
        85687045
    ],
    "wof:breaches":[],
    "wof:country":"NL",
    "wof:created":1469693676,
    "wof:geomhash":"e16d30b70d99df28023c19a83cc878ce",
    "wof:hierarchy":[
        {
            "continent_id":102191581,
            "country_id":85633337,
            "localadmin_id":404473859,
            "postalcode_id":891256865,
            "region_id":85687045
        }
    ],
    "wof:id":891256865,
    "wof:lastmodified":1469693676,
    "wof:name":"7642NS",
    "wof:parent_id":404473859,
    "wof:placetype":"postalcode",
    "wof:repo":"whosonfirst-data-postalcode-nl",
    "wof:superseded_by":[],
    "wof:supersedes":[],
    "wof:tags":[]
},
  "bbox": [
    6.574380874633789,
    52.34798812866211,
    6.577056884765625,
    52.35329055786133
],
  "geometry": {"coordinates":[[[6.57668876647949,52.34848785400391],[6.57578563690185,52.3498420715332],[6.57438087463379,52.35329055786133],[6.5744686126709,52.35329055786133],[6.57674360275269,52.35271835327148],[6.57705688476562,52.34798812866211],[6.57668876647949,52.34848785400391]]],"type":"Polygon"}
}