{
  "id": 891018843,
  "type": "Feature",
  "properties": {
    "clustr:alpha":0.05,
    "clustr:area":32.02,
    "clustr:count":7,
    "clustr:density":0.22,
    "clustr:perimeter":0.03,
    "edtf:cessation":"uuuu",
    "edtf:inception":"uuuu",
    "geom:area":0.0,
    "geom:bbox":"5.02624082565,51.656955719,5.02660608292,51.6570129395",
    "geom:latitude":51.656986,
    "geom:longitude":5.026405,
    "iso:country":"NL",
    "mz:hierarchy_label":1,
    "mz:is_approximate":1,
    "mz:is_clustr":1,
    "src:geom":"oa",
    "wof:belongsto":[
        85687035,
        102191581,
        404474401,
        85633337,
        101839371
    ],
    "wof:breaches":[],
    "wof:country":"NL",
    "wof:created":1469684183,
    "wof:geomhash":"6d51fb721657f2ce695331617fcb5f92",
    "wof:hierarchy":[
        {
            "continent_id":102191581,
            "country_id":85633337,
            "localadmin_id":404474401,
            "locality_id":101839371,
            "postalcode_id":891018843,
            "region_id":85687035
        }
    ],
    "wof:id":891018843,
    "wof:lastmodified":1469684183,
    "wof:name":"5171EV",
    "wof:parent_id":101839371,
    "wof:placetype":"postalcode",
    "wof:repo":"whosonfirst-data-postalcode-nl",
    "wof:superseded_by":[],
    "wof:supersedes":[],
    "wof:tags":[]
},
  "bbox": [
    5.026240825653076,
    51.65695571899414,
    5.02660608291626,
    51.657012939453125
],
  "geometry": {"coordinates":[[[5.02649641036987,51.65697479248047],[5.02660608291626,51.65695571899414],[5.02638530731201,51.65698623657227],[5.02630805969238,51.65699768066406],[5.02624082565308,51.65701293945312],[5.02649641036987,51.65697479248047]]],"type":"Polygon"}
}