{
  "id": 890984555,
  "type": "Feature",
  "properties": {
    "clustr:alpha":0.05,
    "clustr:area":19.68,
    "clustr:count":21,
    "clustr:density":1.07,
    "clustr:perimeter":0.3,
    "edtf:cessation":"uuuu",
    "edtf:inception":"uuuu",
    "geom:area":0.0,
    "geom:bbox":"4.7472743988,51.5737876892,4.74927616119,51.574432373",
    "geom:latitude":51.574112,
    "geom:longitude":4.748278,
    "iso:country":"NL",
    "mz:hierarchy_label":1,
    "mz:is_approximate":1,
    "mz:is_clustr":1,
    "src:geom":"oa",
    "wof:belongsto":[
        85687035,
        102191581,
        404474363,
        85633337,
        101751811
    ],
    "wof:breaches":[],
    "wof:country":"NL",
    "wof:created":1469682828,
    "wof:geomhash":"ddc79f75b9f889bf62b5765ed5419909",
    "wof:hierarchy":[
        {
            "continent_id":102191581,
            "country_id":85633337,
            "localadmin_id":404474363,
            "locality_id":101751811,
            "postalcode_id":890984555,
            "region_id":85687035
        }
    ],
    "wof:id":890984555,
    "wof:lastmodified":1469682828,
    "wof:name":"4812NA",
    "wof:parent_id":101751811,
    "wof:placetype":"postalcode",
    "wof:repo":"whosonfirst-data-postalcode-nl",
    "wof:superseded_by":[],
    "wof:supersedes":[],
    "wof:tags":[]
},
  "bbox": [
    4.747274398803711,
    51.573787689208984,
    4.749276161193848,
    51.574432373046875
],
  "geometry": {"coordinates":[[[4.74903011322021,51.5743522644043],[4.74844980239868,51.57416534423828],[4.7478551864624,51.573974609375],[4.74744129180908,51.5738410949707],[4.74727439880371,51.57378768920898],[4.74736404418945,51.57381820678711],[4.74794006347656,51.57400512695312],[4.74893760681152,51.57432556152344],[4.74927616119385,51.57443237304688],[4.74919462203979,51.57440567016602],[4.74903011322021,51.5743522644043]]],"type":"Polygon"}
}