{
  "id": 890985131,
  "type": "Feature",
  "properties": {
    "clustr:alpha":0.05,
    "clustr:area":3.21,
    "clustr:count":41,
    "clustr:density":12.78,
    "clustr:perimeter":0.45,
    "edtf:cessation":"uuuu",
    "edtf:inception":"uuuu",
    "geom:area":0.000001,
    "geom:bbox":"4.75645065308,51.5899162292,4.75827169418,51.5915222168",
    "geom:latitude":51.590783,
    "geom:longitude":4.757381,
    "iso:country":"NL",
    "mz:hierarchy_label":1,
    "mz:is_approximate":1,
    "mz:is_clustr":1,
    "src:geom":"oa",
    "wof:belongsto":[
        85687035,
        102191581,
        404474363,
        85633337,
        101751811
    ],
    "wof:breaches":[],
    "wof:country":"NL",
    "wof:created":1469682850,
    "wof:geomhash":"134215e7be18a7118034c0a1a472a00f",
    "wof:hierarchy":[
        {
            "continent_id":102191581,
            "country_id":85633337,
            "localadmin_id":404474363,
            "locality_id":101751811,
            "postalcode_id":890985131,
            "region_id":85687035
        }
    ],
    "wof:id":890985131,
    "wof:lastmodified":1469682850,
    "wof:name":"4814AR",
    "wof:parent_id":101751811,
    "wof:placetype":"postalcode",
    "wof:repo":"whosonfirst-data-postalcode-nl",
    "wof:superseded_by":[],
    "wof:supersedes":[],
    "wof:tags":[]
},
  "bbox": [
    4.756450653076172,
    51.58991622924805,
    4.75827169418335,
    51.591522216796875
],
  "geometry": {"coordinates":[[[4.75667428970337,51.59113311767578],[4.75665140151978,51.59116744995117],[4.75645065307617,51.59152221679688],[4.75731897354126,51.59119033813477],[4.75826215744019,51.59016418457031],[4.75827169418335,51.58991622924805],[4.75695133209229,51.59083938598633],[4.75688648223877,51.59089660644531],[4.7568154335022,51.59096908569336],[4.75667428970337,51.59113311767578]]],"type":"Polygon"}
}