{
  "id": 891278067,
  "type": "Feature",
  "properties": {
    "clustr:alpha":0.05,
    "clustr:area":10.55,
    "clustr:count":18,
    "clustr:density":1.71,
    "clustr:perimeter":0.21,
    "edtf:cessation":"uuuu",
    "edtf:inception":"uuuu",
    "geom:area":0.0,
    "geom:bbox":"6.19830942154,52.7052993774,6.19846916199,52.7062950134",
    "geom:latitude":52.705902,
    "geom:longitude":6.198415,
    "iso:country":"NL",
    "mz:hierarchy_label":1,
    "mz:is_approximate":1,
    "mz:is_clustr":1,
    "src:geom":"oa",
    "wof:belongsto":[
        85687051,
        102191581,
        404473813,
        85633337,
        101807279
    ],
    "wof:breaches":[],
    "wof:country":"NL",
    "wof:created":1469694576,
    "wof:geomhash":"3cb6ba22cd3c67a11a415fdd6303f7ee",
    "wof:hierarchy":[
        {
            "continent_id":102191581,
            "country_id":85633337,
            "localadmin_id":404473813,
            "locality_id":101807279,
            "postalcode_id":891278067,
            "region_id":85687051
        }
    ],
    "wof:id":891278067,
    "wof:lastmodified":1469694576,
    "wof:name":"7942BN",
    "wof:parent_id":101807279,
    "wof:placetype":"postalcode",
    "wof:repo":"whosonfirst-data-postalcode-nl",
    "wof:superseded_by":[],
    "wof:supersedes":[],
    "wof:tags":[]
},
  "bbox": [
    6.198309421539307,
    52.705299377441406,
    6.198469161987305,
    52.706295013427734
],
  "geometry": {"coordinates":[[[6.1984691619873,52.70610809326172],[6.19846677780151,52.70529937744141],[6.19830942153931,52.70629501342773],[6.19834995269775,52.70624923706055],[6.19839239120483,52.70619964599609],[6.1984691619873,52.70610809326172]]],"type":"Polygon"}
}