{
  "id": 890854329,
  "type": "Feature",
  "properties": {
    "clustr:alpha":0.05,
    "clustr:area":0.57,
    "clustr:count":17,
    "clustr:density":29.61,
    "clustr:perimeter":0.59,
    "edtf:cessation":"uuuu",
    "edtf:inception":"uuuu",
    "geom:area":0.000001,
    "geom:bbox":"4.64422655106,51.7693061829,4.64516401291,51.7719192505",
    "geom:latitude":51.770261,
    "geom:longitude":4.644724,
    "iso:country":"NL",
    "mz:hierarchy_label":1,
    "mz:is_approximate":1,
    "mz:is_clustr":1,
    "src:geom":"oa",
    "wof:belongsto":[
        102191581,
        404474169,
        85633337,
        85687041
    ],
    "wof:breaches":[],
    "wof:country":"NL",
    "wof:created":1469677276,
    "wof:geomhash":"2622fde4c96911fa4fb2b6609042d791",
    "wof:hierarchy":[
        {
            "continent_id":102191581,
            "country_id":85633337,
            "localadmin_id":404474169,
            "postalcode_id":890854329,
            "region_id":85687041
        }
    ],
    "wof:id":890854329,
    "wof:lastmodified":1469677276,
    "wof:name":"3316KA",
    "wof:parent_id":404474169,
    "wof:placetype":"postalcode",
    "wof:repo":"whosonfirst-data-postalcode-nl",
    "wof:superseded_by":[],
    "wof:supersedes":[],
    "wof:tags":[]
},
  "bbox": [
    4.644226551055908,
    51.76930618286133,
    4.645164012908936,
    51.77191925048828
],
  "geometry": {"coordinates":[[[4.6442461013794,51.769775390625],[4.64516401290894,51.77191925048828],[4.64487791061401,51.76955795288086],[4.64483022689819,51.76930618286133],[4.64422655105591,51.76950454711914],[4.6442461013794,51.769775390625]]],"type":"Polygon"}
}