{
  "id": 891269493,
  "type": "Feature",
  "properties": {
    "clustr:alpha":0.05,
    "clustr:area":4.23,
    "clustr:count":19,
    "clustr:density":4.49,
    "clustr:perimeter":0.33,
    "edtf:cessation":"uuuu",
    "edtf:inception":"uuuu",
    "geom:area":0.000001,
    "geom:bbox":"6.95416736603,52.7690925598,6.95602655411,52.7699508667",
    "geom:latitude":52.769574,
    "geom:longitude":6.955313,
    "iso:country":"NL",
    "mz:hierarchy_label":1,
    "mz:is_approximate":1,
    "mz:is_clustr":1,
    "src:geom":"oa",
    "wof:belongsto":[
        85687051,
        102191581,
        404473809,
        85633337,
        101751881
    ],
    "wof:breaches":[],
    "wof:country":"NL",
    "wof:created":1469694209,
    "wof:geomhash":"9de9fbf1ce2a7d649c59344d25999040",
    "wof:hierarchy":[
        {
            "continent_id":102191581,
            "country_id":85633337,
            "localadmin_id":404473809,
            "locality_id":101751881,
            "postalcode_id":891269493,
            "region_id":85687051
        }
    ],
    "wof:id":891269493,
    "wof:lastmodified":1469694209,
    "wof:name":"7826HW",
    "wof:parent_id":101751881,
    "wof:placetype":"postalcode",
    "wof:repo":"whosonfirst-data-postalcode-nl",
    "wof:superseded_by":[],
    "wof:supersedes":[],
    "wof:tags":[]
},
  "bbox": [
    6.954167366027832,
    52.76909255981445,
    6.956026554107666,
    52.76995086669922
],
  "geometry": {"coordinates":[[[6.95602655410767,52.76951599121094],[6.95588159561157,52.76918411254883],[6.95543336868286,52.76909255981445],[6.95416736602783,52.76974868774414],[6.95443630218506,52.76979827880859],[6.95454072952271,52.76981353759766],[6.95528507232666,52.76992034912109],[6.95587921142578,52.76995086669922],[6.95601940155029,52.76972198486328],[6.95602655410767,52.76951599121094]]],"type":"Polygon"}
}