{
  "id": 891067983,
  "type": "Feature",
  "properties": {
    "clustr:alpha":0.05,
    "clustr:area":89.94,
    "clustr:count":15,
    "clustr:density":0.17,
    "clustr:perimeter":0.11,
    "edtf:cessation":"uuuu",
    "edtf:inception":"uuuu",
    "geom:area":0.0,
    "geom:bbox":"5.49227619171,51.4172592163,5.49339962006,51.4173431396",
    "geom:latitude":51.417302,
    "geom:longitude":5.492852,
    "iso:country":"NL",
    "mz:hierarchy_label":1,
    "mz:is_approximate":1,
    "mz:is_clustr":1,
    "src:geom":"oa",
    "wof:belongsto":[
        85687035,
        102191581,
        404474375,
        85633337,
        101751819
    ],
    "wof:breaches":[],
    "wof:country":"NL",
    "wof:created":1469686028,
    "wof:geomhash":"5c898190387862c7d18a19963f572936",
    "wof:hierarchy":[
        {
            "continent_id":102191581,
            "country_id":85633337,
            "localadmin_id":404474375,
            "locality_id":101751819,
            "postalcode_id":891067983,
            "region_id":85687035
        }
    ],
    "wof:id":891067983,
    "wof:lastmodified":1469686028,
    "wof:name":"5644CL",
    "wof:parent_id":101751819,
    "wof:placetype":"postalcode",
    "wof:repo":"whosonfirst-data-postalcode-nl",
    "wof:superseded_by":[],
    "wof:supersedes":[],
    "wof:tags":[]
},
  "bbox": [
    5.492276191711426,
    51.417259216308594,
    5.493399620056152,
    51.41734313964844
],
  "geometry": {"coordinates":[[[5.49307918548584,51.41728973388672],[5.49332237243652,51.41726684570312],[5.49339962005615,51.41725921630859],[5.49251699447632,51.41732406616211],[5.49227619171143,51.41734313964844],[5.49235868453979,51.41733932495117],[5.49307918548584,51.41728973388672]]],"type":"Polygon"}
}