{
  "id": 891057179,
  "type": "Feature",
  "properties": {
    "clustr:alpha":0.05,
    "clustr:area":7.9,
    "clustr:count":14,
    "clustr:density":1.77,
    "clustr:perimeter":0.8,
    "edtf:cessation":"uuuu",
    "edtf:inception":"uuuu",
    "geom:area":0.000002,
    "geom:bbox":"5.44835853577,51.3455085754,5.45193624496,51.3482666016",
    "geom:latitude":51.346875,
    "geom:longitude":5.449777,
    "iso:country":"NL",
    "mz:hierarchy_label":1,
    "mz:is_approximate":1,
    "mz:is_clustr":1,
    "src:geom":"oa",
    "wof:belongsto":[
        85687035,
        102191581,
        404474439,
        85633337,
        101839393
    ],
    "wof:breaches":[],
    "wof:country":"NL",
    "wof:created":1469685628,
    "wof:geomhash":"5c78e2a9dc214d3f1c8c9636492c0648",
    "wof:hierarchy":[
        {
            "continent_id":102191581,
            "country_id":85633337,
            "localadmin_id":404474439,
            "locality_id":101839393,
            "postalcode_id":891057179,
            "region_id":85687035
        }
    ],
    "wof:id":891057179,
    "wof:lastmodified":1469685628,
    "wof:name":"5554NG",
    "wof:parent_id":101839393,
    "wof:placetype":"postalcode",
    "wof:repo":"whosonfirst-data-postalcode-nl",
    "wof:superseded_by":[],
    "wof:supersedes":[],
    "wof:tags":[]
},
  "bbox": [
    5.448358535766602,
    51.34550857543945,
    5.4519362449646,
    51.3482666015625
],
  "geometry": {"coordinates":[[[5.44868993759155,51.3464241027832],[5.44999313354492,51.34739685058594],[5.4519362449646,51.3482666015625],[5.4483585357666,51.34550857543945],[5.44861793518066,51.34635162353516],[5.44868993759155,51.3464241027832]]],"type":"Polygon"}
}