{
  "id": 890988215,
  "type": "Feature",
  "properties": {
    "clustr:alpha":0.05,
    "clustr:area":109.76,
    "clustr:count":18,
    "clustr:density":0.16,
    "clustr:perimeter":0.17,
    "edtf:cessation":"uuuu",
    "edtf:inception":"uuuu",
    "geom:area":0.0,
    "geom:bbox":"4.77716398239,51.6146659851,4.77875423431,51.6150779724",
    "geom:latitude":51.614873,
    "geom:longitude":4.777953,
    "iso:country":"NL",
    "mz:hierarchy_label":1,
    "mz:is_approximate":1,
    "mz:is_clustr":1,
    "src:geom":"oa",
    "wof:belongsto":[
        85687035,
        102191581,
        404474363,
        85633337,
        101751811
    ],
    "wof:breaches":[],
    "wof:country":"NL",
    "wof:created":1469682995,
    "wof:geomhash":"d3da36a12ad6ce4aaf669aba580065b7",
    "wof:hierarchy":[
        {
            "continent_id":102191581,
            "country_id":85633337,
            "localadmin_id":404474363,
            "locality_id":101751811,
            "postalcode_id":890988215,
            "region_id":85687035
        }
    ],
    "wof:id":890988215,
    "wof:lastmodified":1469682995,
    "wof:name":"4826AV",
    "wof:parent_id":101751811,
    "wof:placetype":"postalcode",
    "wof:repo":"whosonfirst-data-postalcode-nl",
    "wof:superseded_by":[],
    "wof:supersedes":[],
    "wof:tags":[]
},
  "bbox": [
    4.777163982391357,
    51.61466598510742,
    4.778754234313965,
    51.61507797241211
],
  "geometry": {"coordinates":[[[4.77780437469482,51.61491012573242],[4.77740573883057,51.61501312255859],[4.77724599838257,51.61505508422852],[4.77716398239136,51.61507797241211],[4.77756452560425,51.61497497558594],[4.77827215194702,51.61479187011719],[4.77843284606934,51.61474990844727],[4.77859354019165,51.61470794677734],[4.77875423431396,51.61466598510742],[4.77867364883423,51.61468505859375],[4.77780437469482,51.61491012573242]]],"type":"Polygon"}
}