{
  "id": 891159499,
  "type": "Feature",
  "properties": {
    "clustr:alpha":0.05,
    "clustr:area":17.65,
    "clustr:count":15,
    "clustr:density":0.85,
    "clustr:perimeter":0.17,
    "edtf:cessation":"uuuu",
    "edtf:inception":"uuuu",
    "geom:area":0.0,
    "geom:bbox":"5.60717439651,51.8871841431,5.60811758041,51.8874969482",
    "geom:latitude":51.887354,
    "geom:longitude":5.607635,
    "iso:country":"NL",
    "mz:hierarchy_label":1,
    "mz:is_approximate":1,
    "mz:is_clustr":1,
    "src:geom":"oa",
    "wof:belongsto":[
        85687043,
        102191581,
        404473889,
        85633337,
        101837761
    ],
    "wof:breaches":[],
    "wof:country":"NL",
    "wof:created":1469689767,
    "wof:geomhash":"92cb442e8953637b8a9c36e276f1e5fd",
    "wof:hierarchy":[
        {
            "continent_id":102191581,
            "country_id":85633337,
            "localadmin_id":404473889,
            "locality_id":101837761,
            "postalcode_id":891159499,
            "region_id":85687043
        }
    ],
    "wof:id":891159499,
    "wof:lastmodified":1469689767,
    "wof:name":"6651XD",
    "wof:parent_id":101837761,
    "wof:placetype":"postalcode",
    "wof:repo":"whosonfirst-data-postalcode-nl",
    "wof:superseded_by":[],
    "wof:supersedes":[],
    "wof:tags":[]
},
  "bbox": [
    5.607174396514893,
    51.887184143066406,
    5.608117580413818,
    51.88749694824219
],
  "geometry": {"coordinates":[[[5.60736751556396,51.8874626159668],[5.60771036148071,51.88749694824219],[5.60811758041382,51.88748931884766],[5.608078956604,51.88727569580078],[5.6077446937561,51.88723754882812],[5.60751342773438,51.88721466064453],[5.60717439651489,51.88718414306641],[5.60722160339355,51.88744735717773],[5.60736751556396,51.8874626159668]]],"type":"Polygon"}
}