{
  "id": 890811355,
  "type": "Feature",
  "properties": {
    "clustr:alpha":0.05,
    "clustr:area":53.01,
    "clustr:count":23,
    "clustr:density":0.43,
    "clustr:perimeter":0.2,
    "edtf:cessation":"uuuu",
    "edtf:inception":"uuuu",
    "geom:area":0.0,
    "geom:bbox":"4.49313640594,51.8603591919,4.49371194839,51.8610839844",
    "geom:latitude":51.860736,
    "geom:longitude":4.493396,
    "iso:country":"NL",
    "mz:hierarchy_label":1,
    "mz:is_approximate":1,
    "mz:is_clustr":1,
    "src:geom":"oa",
    "wof:belongsto":[
        85687041,
        102191581,
        404474149,
        85633337,
        101754615
    ],
    "wof:breaches":[],
    "wof:country":"NL",
    "wof:created":1469675644,
    "wof:geomhash":"b072ea6b65d7f37cfe0e71d74ebe7135",
    "wof:hierarchy":[
        {
            "continent_id":102191581,
            "country_id":85633337,
            "localadmin_id":404474149,
            "locality_id":101754615,
            "postalcode_id":890811355,
            "region_id":85687041
        }
    ],
    "wof:id":890811355,
    "wof:lastmodified":1469675644,
    "wof:name":"2994BE",
    "wof:parent_id":101754615,
    "wof:placetype":"postalcode",
    "wof:repo":"whosonfirst-data-postalcode-nl",
    "wof:superseded_by":[],
    "wof:supersedes":[],
    "wof:tags":[]
},
  "bbox": [
    4.493136405944824,
    51.86035919189453,
    4.493711948394775,
    51.861083984375
],
  "geometry": {"coordinates":[[[4.49313640594482,51.86037063598633],[4.4931492805481,51.861083984375],[4.49371194839478,51.86106872558594],[4.49365568161011,51.86073303222656],[4.493567943573,51.86035919189453],[4.49313640594482,51.86037063598633]]],"type":"Polygon"}
}