{
  "id": 890577203,
  "type": "Feature",
  "properties": {
    "clustr:alpha":0.05,
    "clustr:area":10.15,
    "clustr:count":29,
    "clustr:density":2.86,
    "clustr:perimeter":0.11,
    "edtf:cessation":"uuuu",
    "edtf:inception":"uuuu",
    "geom:area":0.0,
    "geom:bbox":"4.88141298294,52.3706054688,4.88220310211,52.3708457947",
    "geom:latitude":52.370745,
    "geom:longitude":4.881838,
    "iso:country":"NL",
    "mz:hierarchy_label":1,
    "mz:is_approximate":1,
    "mz:is_clustr":1,
    "src:geom":"oa",
    "wof:belongsto":[
        85687053,
        102191581,
        404474029,
        85633337,
        101751893
    ],
    "wof:breaches":[],
    "wof:country":"NL",
    "wof:created":1469665746,
    "wof:geomhash":"8b5fdb4e6a2b15320c994553d0c03237",
    "wof:hierarchy":[
        {
            "continent_id":102191581,
            "country_id":85633337,
            "localadmin_id":404474029,
            "locality_id":101751893,
            "postalcode_id":890577203,
            "region_id":85687053
        }
    ],
    "wof:id":890577203,
    "wof:lastmodified":1469665746,
    "wof:name":"1016RW",
    "wof:parent_id":101751893,
    "wof:placetype":"postalcode",
    "wof:repo":"whosonfirst-data-postalcode-nl",
    "wof:superseded_by":[],
    "wof:supersedes":[],
    "wof:tags":[]
},
  "bbox": [
    4.881412982940674,
    52.37060546875,
    4.882203102111816,
    52.370845794677734
],
  "geometry": {"coordinates":[[[4.88150072097778,52.37064361572266],[4.88198280334473,52.37080764770508],[4.88202953338623,52.37081909179688],[4.88220310211182,52.37084579467773],[4.88141298294067,52.37060546875],[4.88150072097778,52.37064361572266]]],"type":"Polygon"}
}