{
  "id": 890682981,
  "type": "Feature",
  "properties": {
    "clustr:alpha":0.05,
    "clustr:area":449.2,
    "clustr:count":6,
    "clustr:density":0.01,
    "clustr:perimeter":0.31,
    "edtf:cessation":"uuuu",
    "edtf:inception":"uuuu",
    "geom:area":0.000001,
    "geom:bbox":"4.76816654205,52.6233100891,4.77195453644,52.6241798401",
    "geom:latitude":52.623728,
    "geom:longitude":4.769783,
    "iso:country":"NL",
    "mz:hierarchy_label":1,
    "mz:is_approximate":1,
    "mz:is_clustr":1,
    "src:geom":"oa",
    "wof:belongsto":[
        85687053,
        102191581,
        404474025,
        85633337,
        101751887
    ],
    "wof:breaches":[],
    "wof:country":"NL",
    "wof:created":1469670505,
    "wof:geomhash":"4dffcbb98d4d2933b8e42807b30a3b86",
    "wof:hierarchy":[
        {
            "continent_id":102191581,
            "country_id":85633337,
            "localadmin_id":404474025,
            "locality_id":101751887,
            "postalcode_id":890682981,
            "region_id":85687053
        }
    ],
    "wof:id":890682981,
    "wof:lastmodified":1469670505,
    "wof:name":"1821BW",
    "wof:parent_id":101751887,
    "wof:placetype":"postalcode",
    "wof:repo":"whosonfirst-data-postalcode-nl",
    "wof:superseded_by":[],
    "wof:supersedes":[],
    "wof:tags":[]
},
  "bbox": [
    4.768166542053223,
    52.62331008911133,
    4.771954536437988,
    52.62417984008789
],
  "geometry": {"coordinates":[[[4.77195453643799,52.62417984008789],[4.77195310592651,52.62409591674805],[4.77182388305664,52.62404251098633],[4.7691707611084,52.62343978881836],[4.76836681365967,52.62331008911133],[4.76816654205322,52.62362670898438],[4.77195453643799,52.62417984008789]]],"type":"Polygon"}
}