{
  "id": 890641059,
  "type": "Feature",
  "properties": {
    "clustr:alpha":0.05,
    "clustr:area":22.78,
    "clustr:count":13,
    "clustr:density":0.57,
    "clustr:perimeter":1.31,
    "edtf:cessation":"uuuu",
    "edtf:inception":"uuuu",
    "geom:area":0.000004,
    "geom:bbox":"5.14923238754,52.2639465332,5.15097618103,52.269657135",
    "geom:latitude":52.266364,
    "geom:longitude":5.150187,
    "iso:country":"NL",
    "mz:hierarchy_label":1,
    "mz:is_approximate":1,
    "mz:is_clustr":1,
    "src:geom":"oa",
    "wof:belongsto":[
        85687053,
        102191581,
        404474051,
        85633337,
        101753097
    ],
    "wof:breaches":[],
    "wof:country":"NL",
    "wof:created":1469668563,
    "wof:geomhash":"ace8efe579e60dee6d4ebb6afda724ff",
    "wof:hierarchy":[
        {
            "continent_id":102191581,
            "country_id":85633337,
            "localadmin_id":404474051,
            "locality_id":101753097,
            "postalcode_id":890641059,
            "region_id":85687053
        }
    ],
    "wof:id":890641059,
    "wof:lastmodified":1469668563,
    "wof:name":"1406NH",
    "wof:parent_id":101753097,
    "wof:placetype":"postalcode",
    "wof:repo":"whosonfirst-data-postalcode-nl",
    "wof:superseded_by":[],
    "wof:supersedes":[],
    "wof:tags":[]
},
  "bbox": [
    5.149232387542725,
    52.263946533203125,
    5.150976181030273,
    52.269657135009766
],
  "geometry": {"coordinates":[[[5.14995050430298,52.26394653320312],[5.14923238754272,52.26398849487305],[5.15045499801636,52.26911163330078],[5.15066337585449,52.2694206237793],[5.15097618103027,52.26965713500977],[5.15042781829834,52.26488494873047],[5.15016317367554,52.26419448852539],[5.14995050430298,52.26394653320312]]],"type":"Polygon"}
}