{
  "id": 890983997,
  "type": "Feature",
  "properties": {
    "clustr:alpha":0.05,
    "clustr:area":50.01,
    "clustr:count":20,
    "clustr:density":0.4,
    "clustr:perimeter":0.16,
    "edtf:cessation":"uuuu",
    "edtf:inception":"uuuu",
    "geom:area":0.0,
    "geom:bbox":"4.77769947052,51.5822753906,4.77840518951,51.5831069946",
    "geom:latitude":51.582651,
    "geom:longitude":4.778085,
    "iso:country":"NL",
    "mz:hierarchy_label":1,
    "mz:is_approximate":1,
    "mz:is_clustr":1,
    "src:geom":"oa",
    "wof:belongsto":[
        85687035,
        102191581,
        404474363,
        85633337,
        101751811
    ],
    "wof:breaches":[],
    "wof:country":"NL",
    "wof:created":1469682807,
    "wof:geomhash":"9a989d05ae0fbcafdab738ab516b917f",
    "wof:hierarchy":[
        {
            "continent_id":102191581,
            "country_id":85633337,
            "localadmin_id":404474363,
            "locality_id":101751811,
            "postalcode_id":890983997,
            "region_id":85687035
        }
    ],
    "wof:id":890983997,
    "wof:lastmodified":1469682807,
    "wof:name":"4811NL",
    "wof:parent_id":101751811,
    "wof:placetype":"postalcode",
    "wof:repo":"whosonfirst-data-postalcode-nl",
    "wof:superseded_by":[],
    "wof:supersedes":[],
    "wof:tags":[]
},
  "bbox": [
    4.77769947052002,
    51.582275390625,
    4.77840518951416,
    51.583106994628906
],
  "geometry": {"coordinates":[[[4.7779598236084,51.58229827880859],[4.77791452407837,51.58229064941406],[4.77769947052002,51.582275390625],[4.77818965911865,51.58310699462891],[4.77826452255249,51.5830078125],[4.77829837799072,51.58295822143555],[4.77835035324097,51.58285903930664],[4.77840518951416,51.58273315429688],[4.7779598236084,51.58229827880859]]],"type":"Polygon"}
}