{
  "id": 890676323,
  "type": "Feature",
  "properties": {
    "clustr:alpha":0.05,
    "clustr:area":0.75,
    "clustr:count":4,
    "clustr:density":5.3,
    "clustr:perimeter":0.01,
    "edtf:cessation":"uuuu",
    "edtf:inception":"uuuu",
    "geom:area":0.0,
    "geom:bbox":"4.76557445526,52.9573402405,4.76561355591,52.9573707581",
    "geom:latitude":52.957356,
    "geom:longitude":4.765593,
    "iso:country":"NL",
    "mz:hierarchy_label":1,
    "mz:is_approximate":1,
    "mz:is_clustr":1,
    "src:geom":"oa",
    "wof:belongsto":[
        85687053,
        102191581,
        404474079,
        85633337,
        101806071
    ],
    "wof:breaches":[],
    "wof:country":"NL",
    "wof:created":1469670249,
    "wof:geomhash":"0d7f190fedb625e65548e2147edba082",
    "wof:hierarchy":[
        {
            "continent_id":102191581,
            "country_id":85633337,
            "localadmin_id":404474079,
            "locality_id":101806071,
            "postalcode_id":890676323,
            "region_id":85687053
        }
    ],
    "wof:id":890676323,
    "wof:lastmodified":1469670249,
    "wof:name":"1781EH",
    "wof:parent_id":101806071,
    "wof:placetype":"postalcode",
    "wof:repo":"whosonfirst-data-postalcode-nl",
    "wof:superseded_by":[],
    "wof:supersedes":[],
    "wof:tags":[]
},
  "bbox": [
    4.76557445526123,
    52.957340240478516,
    4.765613555908203,
    52.95737075805664
],
  "geometry": {"coordinates":[[[4.76560974121094,52.95737075805664],[4.7656135559082,52.95734405517578],[4.76557636260986,52.95734024047852],[4.76557445526123,52.95737075805664],[4.76560974121094,52.95737075805664]]],"type":"Polygon"}
}