{
  "id": 891274191,
  "type": "Feature",
  "properties": {
    "clustr:alpha":0.05,
    "clustr:area":81.84,
    "clustr:count":30,
    "clustr:density":0.37,
    "clustr:perimeter":0.29,
    "edtf:cessation":"uuuu",
    "edtf:inception":"uuuu",
    "geom:area":0.000001,
    "geom:bbox":"6.48209905624,52.7252235413,6.48434925079,52.7255897522",
    "geom:latitude":52.725403,
    "geom:longitude":6.483238,
    "iso:country":"NL",
    "mz:hierarchy_label":1,
    "mz:is_approximate":1,
    "mz:is_clustr":1,
    "src:geom":"oa",
    "wof:belongsto":[
        85687051,
        102191581,
        404473811,
        85633337,
        101837877
    ],
    "wof:breaches":[],
    "wof:country":"NL",
    "wof:created":1469694406,
    "wof:geomhash":"56fe10b90ec07f070a88ef779ab3211b",
    "wof:hierarchy":[
        {
            "continent_id":102191581,
            "country_id":85633337,
            "localadmin_id":404473811,
            "locality_id":101837877,
            "postalcode_id":891274191,
            "region_id":85687051
        }
    ],
    "wof:id":891274191,
    "wof:lastmodified":1469694406,
    "wof:name":"7902EL",
    "wof:parent_id":101837877,
    "wof:placetype":"postalcode",
    "wof:repo":"whosonfirst-data-postalcode-nl",
    "wof:superseded_by":[],
    "wof:supersedes":[],
    "wof:tags":[]
},
  "bbox": [
    6.482099056243896,
    52.725223541259766,
    6.484349250793457,
    52.725589752197266
],
  "geometry": {"coordinates":[[[6.48340034484863,52.72525405883789],[6.48313426971435,52.72526550292969],[6.4820990562439,52.72531127929688],[6.48247671127319,52.72558975219727],[6.48275375366211,52.72557830810547],[6.48434925079346,52.72548675537109],[6.48408079147339,52.72522354125977],[6.48340034484863,52.72525405883789]]],"type":"Polygon"}
}