{
  "id": 891266649,
  "type": "Feature",
  "properties": {
    "clustr:alpha":0.05,
    "clustr:area":66.04,
    "clustr:count":18,
    "clustr:density":0.27,
    "clustr:perimeter":0.25,
    "edtf:cessation":"uuuu",
    "edtf:inception":"uuuu",
    "geom:area":0.0,
    "geom:bbox":"6.66765403748,52.6076660156,6.66943359375,52.6083641052",
    "geom:latitude":52.608068,
    "geom:longitude":6.668411,
    "iso:country":"NL",
    "mz:hierarchy_label":1,
    "mz:is_approximate":1,
    "mz:is_clustr":1,
    "src:geom":"oa",
    "wof:belongsto":[
        85687045,
        102191581,
        404473831,
        85633337,
        101807201
    ],
    "wof:breaches":[],
    "wof:country":"NL",
    "wof:created":1469694082,
    "wof:geomhash":"d944e9499a5fd675f2a8d6d0dcbb5b5e",
    "wof:hierarchy":[
        {
            "continent_id":102191581,
            "country_id":85633337,
            "localadmin_id":404473831,
            "locality_id":101807201,
            "postalcode_id":891266649,
            "region_id":85687045
        }
    ],
    "wof:id":891266649,
    "wof:lastmodified":1469694082,
    "wof:name":"7783CC",
    "wof:parent_id":101807201,
    "wof:placetype":"postalcode",
    "wof:repo":"whosonfirst-data-postalcode-nl",
    "wof:superseded_by":[],
    "wof:supersedes":[],
    "wof:tags":[]
},
  "bbox": [
    6.667654037475586,
    52.607666015625,
    6.66943359375,
    52.60836410522461
],
  "geometry": {"coordinates":[[[6.66853332519531,52.60816192626953],[6.66860580444336,52.60812377929688],[6.66904067993164,52.60788726806641],[6.66931200027466,52.60773849487305],[6.66937351226807,52.60770416259766],[6.66943359375,52.607666015625],[6.66765403747559,52.60818099975586],[6.66786909103394,52.60829544067383],[6.66800928115845,52.60836410522461],[6.66853332519531,52.60816192626953]]],"type":"Polygon"}
}