{
  "id": 891084109,
  "type": "Feature",
  "properties": {
    "clustr:alpha":0.05,
    "clustr:area":9.1,
    "clustr:count":22,
    "clustr:density":2.42,
    "clustr:perimeter":0.22,
    "edtf:cessation":"uuuu",
    "edtf:inception":"uuuu",
    "geom:area":0.0,
    "geom:bbox":"5.80543756485,51.45520401,5.80643892288,51.4558639526",
    "geom:latitude":51.455542,
    "geom:longitude":5.805995,
    "iso:country":"NL",
    "mz:hierarchy_label":1,
    "mz:is_approximate":1,
    "mz:is_clustr":1,
    "src:geom":"oa",
    "wof:belongsto":[
        85687035,
        102191581,
        404474365,
        85633337,
        101808215
    ],
    "wof:breaches":[],
    "wof:country":"NL",
    "wof:created":1469686642,
    "wof:geomhash":"844813461200de17888e215251290fac",
    "wof:hierarchy":[
        {
            "continent_id":102191581,
            "country_id":85633337,
            "localadmin_id":404474365,
            "locality_id":101808215,
            "postalcode_id":891084109,
            "region_id":85687035
        }
    ],
    "wof:id":891084109,
    "wof:lastmodified":1469686642,
    "wof:name":"5751VX",
    "wof:parent_id":101808215,
    "wof:placetype":"postalcode",
    "wof:repo":"whosonfirst-data-postalcode-nl",
    "wof:superseded_by":[],
    "wof:supersedes":[],
    "wof:tags":[]
},
  "bbox": [
    5.805437564849854,
    51.455204010009766,
    5.80643892288208,
    51.45586395263672
],
  "geometry": {"coordinates":[[[5.80598163604736,51.45529937744141],[5.80572271347046,51.45553207397461],[5.80543756484985,51.45583724975586],[5.80550956726074,51.45586395263672],[5.80625629425049,51.45569229125977],[5.80643892288208,51.45520401000977],[5.8060507774353,51.45526123046875],[5.80598163604736,51.45529937744141]]],"type":"Polygon"}
}