{
  "id": 891248851,
  "type": "Feature",
  "properties": {
    "clustr:alpha":0.05,
    "clustr:area":33.64,
    "clustr:count":5,
    "clustr:density":0.15,
    "clustr:perimeter":0.06,
    "edtf:cessation":"uuuu",
    "edtf:inception":"uuuu",
    "geom:area":0.0,
    "geom:bbox":"6.99484062195,52.2662353516,6.99537420273,52.2663002014",
    "geom:latitude":52.266266,
    "geom:longitude":6.995133,
    "iso:country":"NL",
    "mz:hierarchy_label":1,
    "mz:is_approximate":1,
    "mz:is_clustr":1,
    "src:geom":"oa",
    "wof:belongsto":[
        85687045,
        102191581,
        404473841,
        85633337,
        101807147
    ],
    "wof:breaches":[],
    "wof:country":"NL",
    "wof:created":1469693356,
    "wof:geomhash":"cd221dd31c7769098d129496fb74a378",
    "wof:hierarchy":[
        {
            "continent_id":102191581,
            "country_id":85633337,
            "localadmin_id":404473841,
            "locality_id":101807147,
            "postalcode_id":891248851,
            "region_id":85687045
        }
    ],
    "wof:id":891248851,
    "wof:lastmodified":1469693356,
    "wof:name":"7582HK",
    "wof:parent_id":101807147,
    "wof:placetype":"postalcode",
    "wof:repo":"whosonfirst-data-postalcode-nl",
    "wof:superseded_by":[],
    "wof:supersedes":[],
    "wof:tags":[]
},
  "bbox": [
    6.994840621948242,
    52.2662353515625,
    6.995374202728271,
    52.266300201416016
],
  "geometry": {"coordinates":[[[6.99511528015137,52.26627731323242],[6.99537420272827,52.2662353515625],[6.99528694152832,52.26623916625977],[6.99484062194824,52.26630020141602],[6.99511528015137,52.26627731323242]]],"type":"Polygon"}
}