{
  "id": 890984945,
  "type": "Feature",
  "properties": {
    "clustr:alpha":0.05,
    "clustr:area":1.71,
    "clustr:count":39,
    "clustr:density":22.76,
    "clustr:perimeter":0.33,
    "edtf:cessation":"uuuu",
    "edtf:inception":"uuuu",
    "geom:area":0.000001,
    "geom:bbox":"4.73964166641,51.5676574707,4.74156522751,51.5683784485",
    "geom:latitude":51.568058,
    "geom:longitude":4.740453,
    "iso:country":"NL",
    "mz:hierarchy_label":1,
    "mz:is_approximate":1,
    "mz:is_clustr":1,
    "src:geom":"oa",
    "wof:belongsto":[
        85687035,
        102191581,
        404474363,
        85633337,
        101751811
    ],
    "wof:breaches":[],
    "wof:country":"NL",
    "wof:created":1469682843,
    "wof:geomhash":"11d76c7ce7f222260b038be5884d84ee",
    "wof:hierarchy":[
        {
            "continent_id":102191581,
            "country_id":85633337,
            "localadmin_id":404474363,
            "locality_id":101751811,
            "postalcode_id":890984945,
            "region_id":85687035
        }
    ],
    "wof:id":890984945,
    "wof:lastmodified":1469682843,
    "wof:name":"4813HS",
    "wof:parent_id":101751811,
    "wof:placetype":"postalcode",
    "wof:repo":"whosonfirst-data-postalcode-nl",
    "wof:superseded_by":[],
    "wof:supersedes":[],
    "wof:tags":[]
},
  "bbox": [
    4.739641666412354,
    51.567657470703125,
    4.741565227508545,
    51.56837844848633
],
  "geometry": {"coordinates":[[[4.7397084236145,51.56772994995117],[4.73964166641235,51.56789398193359],[4.73990058898926,51.56816101074219],[4.73995590209961,51.56817245483398],[4.74064636230469,51.56829071044922],[4.74096059799194,51.56834411621094],[4.74156522750854,51.56837844848633],[4.7413854598999,51.56820678710938],[4.73997163772583,51.56769180297852],[4.73974895477295,51.56765747070312],[4.73972034454346,51.56770706176758],[4.7397084236145,51.56772994995117]]],"type":"Polygon"}
}