{
  "id": 891216151,
  "type": "Feature",
  "properties": {
    "clustr:alpha":0.05,
    "clustr:area":27.17,
    "clustr:count":14,
    "clustr:density":0.52,
    "clustr:perimeter":0.19,
    "edtf:cessation":"uuuu",
    "edtf:inception":"uuuu",
    "geom:area":0.0,
    "geom:bbox":"5.99184036255,52.2311859131,5.99273395538,52.2319145203",
    "geom:latitude":52.231592,
    "geom:longitude":5.992202,
    "iso:country":"NL",
    "mz:hierarchy_label":1,
    "mz:is_approximate":1,
    "mz:is_clustr":1,
    "src:geom":"oa",
    "wof:belongsto":[
        85687043,
        102191581,
        404473867,
        85633337,
        101751853
    ],
    "wof:breaches":[],
    "wof:country":"NL",
    "wof:created":1469692081,
    "wof:geomhash":"145cf1a4408c297676cabdbe2d632102",
    "wof:hierarchy":[
        {
            "continent_id":102191581,
            "country_id":85633337,
            "localadmin_id":404473867,
            "locality_id":101751853,
            "postalcode_id":891216151,
            "region_id":85687043
        }
    ],
    "wof:id":891216151,
    "wof:lastmodified":1469692081,
    "wof:name":"7323KD",
    "wof:parent_id":101751853,
    "wof:placetype":"postalcode",
    "wof:repo":"whosonfirst-data-postalcode-nl",
    "wof:superseded_by":[],
    "wof:supersedes":[],
    "wof:tags":[]
},
  "bbox": [
    5.991840362548828,
    52.23118591308594,
    5.992733955383301,
    52.23191452026367
],
  "geometry": {"coordinates":[[[5.99203300476074,52.2315559387207],[5.99184036254883,52.23178863525391],[5.9920220375061,52.23191452026367],[5.9927339553833,52.23118591308594],[5.9926643371582,52.23122024536133],[5.99224424362183,52.23144149780273],[5.99203300476074,52.2315559387207]]],"type":"Polygon"}
}