{
  "id": 891050181,
  "type": "Feature",
  "properties": {
    "clustr:alpha":0.05,
    "clustr:area":49.42,
    "clustr:count":12,
    "clustr:density":0.24,
    "clustr:perimeter":0.12,
    "edtf:cessation":"uuuu",
    "edtf:inception":"uuuu",
    "geom:area":0.0,
    "geom:bbox":"5.44082975388,51.6188926697,5.44178247452,51.619178772",
    "geom:latitude":51.619067,
    "geom:longitude":5.441205,
    "iso:country":"NL",
    "mz:hierarchy_label":1,
    "mz:is_approximate":1,
    "mz:is_clustr":1,
    "src:geom":"oa",
    "wof:belongsto":[
        85687035,
        102191581,
        404474419,
        85633337,
        101839385
    ],
    "wof:breaches":[],
    "wof:country":"NL",
    "wof:created":1469685374,
    "wof:geomhash":"6242df2efdd9f8c5077049998d191aee",
    "wof:hierarchy":[
        {
            "continent_id":102191581,
            "country_id":85633337,
            "localadmin_id":404474419,
            "locality_id":101839385,
            "postalcode_id":891050181,
            "region_id":85687035
        }
    ],
    "wof:id":891050181,
    "wof:lastmodified":1469685374,
    "wof:name":"5482JV",
    "wof:parent_id":101839385,
    "wof:placetype":"postalcode",
    "wof:repo":"whosonfirst-data-postalcode-nl",
    "wof:superseded_by":[],
    "wof:supersedes":[],
    "wof:tags":[]
},
  "bbox": [
    5.440829753875732,
    51.618892669677734,
    5.441782474517822,
    51.619178771972656
],
  "geometry": {"coordinates":[[[5.44098854064941,51.61913681030273],[5.44137811660767,51.6190185546875],[5.44178247451782,51.61889266967773],[5.44153690338135,51.61896514892578],[5.4411473274231,51.61907958984375],[5.44090175628662,51.6191520690918],[5.44082975387573,51.61917877197266],[5.44098854064941,51.61913681030273]]],"type":"Polygon"}
}