{
  "id": 891032447,
  "type": "Feature",
  "properties": {
    "clustr:alpha":0.05,
    "clustr:area":10.91,
    "clustr:count":9,
    "clustr:density":0.82,
    "clustr:perimeter":0.2,
    "edtf:cessation":"uuuu",
    "edtf:inception":"uuuu",
    "geom:area":0.0,
    "geom:bbox":"5.25429296494,51.8083343506,5.25523757935,51.8090629578",
    "geom:latitude":51.808726,
    "geom:longitude":5.254716,
    "iso:country":"NL",
    "mz:hierarchy_label":1,
    "mz:is_approximate":1,
    "mz:is_clustr":1,
    "src:geom":"oa",
    "wof:belongsto":[
        85687043,
        102191581,
        404473955,
        85633337,
        101809859
    ],
    "wof:breaches":[],
    "wof:country":"NL",
    "wof:created":1469684703,
    "wof:geomhash":"d5e247dc56f0fa55f915c7e88c307ea9",
    "wof:hierarchy":[
        {
            "continent_id":102191581,
            "country_id":85633337,
            "localadmin_id":404473955,
            "locality_id":101809859,
            "postalcode_id":891032447,
            "region_id":85687043
        }
    ],
    "wof:id":891032447,
    "wof:lastmodified":1469684703,
    "wof:name":"5301GJ",
    "wof:parent_id":101809859,
    "wof:placetype":"postalcode",
    "wof:repo":"whosonfirst-data-postalcode-nl",
    "wof:superseded_by":[],
    "wof:supersedes":[],
    "wof:tags":[]
},
  "bbox": [
    5.254292964935303,
    51.80833435058594,
    5.255237579345703,
    51.80906295776367
],
  "geometry": {"coordinates":[[[5.25437259674072,51.8089714050293],[5.2542929649353,51.80906295776367],[5.25438022613525,51.80901718139648],[5.25458335876465,51.80885696411133],[5.2552375793457,51.80833435058594],[5.25493240356445,51.80852508544922],[5.25437259674072,51.8089714050293]]],"type":"Polygon"}
}