{
  "id": 891028185,
  "type": "Feature",
  "properties": {
    "clustr:alpha":0.05,
    "clustr:area":201.1,
    "clustr:count":23,
    "clustr:density":0.11,
    "clustr:perimeter":0.21,
    "edtf:cessation":"uuuu",
    "edtf:inception":"uuuu",
    "geom:area":0.0,
    "geom:bbox":"5.3939409256,51.6781158447,5.39622783661,51.6783218384",
    "geom:latitude":51.678226,
    "geom:longitude":5.394902,
    "iso:country":"NL",
    "mz:hierarchy_label":1,
    "mz:is_approximate":1,
    "mz:is_clustr":1,
    "src:geom":"oa",
    "wof:belongsto":[
        85687035,
        102191581,
        404474421,
        85633337,
        101839325
    ],
    "wof:breaches":[],
    "wof:country":"NL",
    "wof:created":1469684548,
    "wof:geomhash":"0145d1f4f8748c0a5807373be26fa00a",
    "wof:hierarchy":[
        {
            "continent_id":102191581,
            "country_id":85633337,
            "localadmin_id":404474421,
            "locality_id":101839325,
            "postalcode_id":891028185,
            "region_id":85687035
        }
    ],
    "wof:id":891028185,
    "wof:lastmodified":1469684548,
    "wof:name":"5258PM",
    "wof:parent_id":101839325,
    "wof:placetype":"postalcode",
    "wof:repo":"whosonfirst-data-postalcode-nl",
    "wof:superseded_by":[],
    "wof:supersedes":[],
    "wof:tags":[]
},
  "bbox": [
    5.393940925598145,
    51.67811584472656,
    5.396227836608887,
    51.678321838378906
],
  "geometry": {"coordinates":[[[5.39450407028198,51.67811584472656],[5.39424180984497,51.67820739746094],[5.39419889450073,51.67822265625],[5.39415597915649,51.67823791503906],[5.39402675628662,51.67828750610352],[5.39394092559815,51.67832183837891],[5.39622783660889,51.67824172973633],[5.39614820480347,51.67823028564453],[5.39450407028198,51.67811584472656]]],"type":"Polygon"}
}