{
  "id": 891251383,
  "type": "Feature",
  "properties": {
    "clustr:alpha":0.05,
    "clustr:area":2.96,
    "clustr:count":8,
    "clustr:density":2.7,
    "clustr:perimeter":0.07,
    "edtf:cessation":"uuuu",
    "edtf:inception":"uuuu",
    "geom:area":0.0,
    "geom:bbox":"6.68964099884,52.3698768616,6.68973350525,52.3702278137",
    "geom:latitude":52.37004,
    "geom:longitude":6.689683,
    "iso:country":"NL",
    "mz:hierarchy_label":1,
    "mz:is_approximate":1,
    "mz:is_clustr":1,
    "src:geom":"oa",
    "wof:belongsto":[
        85687045,
        102191581,
        404473819,
        85633337,
        101751863
    ],
    "wof:breaches":[],
    "wof:country":"NL",
    "wof:created":1469693460,
    "wof:geomhash":"92cfe23464205c0f705be2b02ca7dace",
    "wof:hierarchy":[
        {
            "continent_id":102191581,
            "country_id":85633337,
            "localadmin_id":404473819,
            "locality_id":101751863,
            "postalcode_id":891251383,
            "region_id":85687045
        }
    ],
    "wof:id":891251383,
    "wof:lastmodified":1469693460,
    "wof:name":"7603ST",
    "wof:parent_id":101751863,
    "wof:placetype":"postalcode",
    "wof:repo":"whosonfirst-data-postalcode-nl",
    "wof:superseded_by":[],
    "wof:supersedes":[],
    "wof:tags":[]
},
  "bbox": [
    6.689640998840332,
    52.369876861572266,
    6.689733505249023,
    52.3702278137207
],
  "geometry": {"coordinates":[[[6.68965244293213,52.3701286315918],[6.68964099884033,52.3702278137207],[6.68973350524902,52.36987686157227],[6.68970537185669,52.36993026733398],[6.68969202041626,52.36996459960938],[6.68965244293213,52.3701286315918]]],"type":"Polygon"}
}