{
  "id": 891246163,
  "type": "Feature",
  "properties": {
    "clustr:alpha":0.05,
    "clustr:area":60.39,
    "clustr:count":14,
    "clustr:density":0.23,
    "clustr:perimeter":1.15,
    "edtf:cessation":"uuuu",
    "edtf:inception":"uuuu",
    "geom:area":0.000008,
    "geom:bbox":"6.8075003624,52.2833061218,6.81479978561,52.285774231",
    "geom:latitude":52.284453,
    "geom:longitude":6.81111,
    "iso:country":"NL",
    "mz:hierarchy_label":1,
    "mz:is_approximate":1,
    "mz:is_clustr":1,
    "src:geom":"oa",
    "wof:belongsto":[
        85687045,
        102191581,
        404473837,
        85633337,
        101751869
    ],
    "wof:breaches":[],
    "wof:country":"NL",
    "wof:created":1469693253,
    "wof:geomhash":"a2f6cda85f5bd0fef813627c3b27917b",
    "wof:hierarchy":[
        {
            "continent_id":102191581,
            "country_id":85633337,
            "localadmin_id":404473837,
            "locality_id":101751869,
            "postalcode_id":891246163,
            "region_id":85687045
        }
    ],
    "wof:id":891246163,
    "wof:lastmodified":1469693253,
    "wof:name":"7559PJ",
    "wof:parent_id":101751869,
    "wof:placetype":"postalcode",
    "wof:repo":"whosonfirst-data-postalcode-nl",
    "wof:superseded_by":[],
    "wof:supersedes":[],
    "wof:tags":[]
},
  "bbox": [
    6.80750036239624,
    52.28330612182617,
    6.814799785614014,
    52.28577423095703
],
  "geometry": {"coordinates":[[[6.81200456619263,52.28331756591797],[6.80999183654785,52.28389739990234],[6.80977439880371,52.28396987915039],[6.80907440185547,52.28423309326172],[6.80750036239624,52.28577423095703],[6.81479978561401,52.2844123840332],[6.81250143051147,52.28330612182617],[6.81200456619263,52.28331756591797]]],"type":"Polygon"}
}