{
  "id": 891166513,
  "type": "Feature",
  "properties": {
    "clustr:alpha":0.05,
    "clustr:area":4.31,
    "clustr:count":33,
    "clustr:density":7.66,
    "clustr:perimeter":0.5,
    "edtf:cessation":"uuuu",
    "edtf:inception":"uuuu",
    "geom:area":0.000001,
    "geom:bbox":"5.65119218826,51.9818229675,5.65278339386,51.9838104248",
    "geom:latitude":51.982942,
    "geom:longitude":5.652075,
    "iso:country":"NL",
    "mz:hierarchy_label":1,
    "mz:is_approximate":1,
    "mz:is_clustr":1,
    "src:geom":"oa",
    "wof:belongsto":[
        85687043,
        102191581,
        404473947,
        85633337,
        101837813
    ],
    "wof:breaches":[],
    "wof:country":"NL",
    "wof:created":1469690049,
    "wof:geomhash":"607074801b078c4d9a305eacb9c351d3",
    "wof:hierarchy":[
        {
            "continent_id":102191581,
            "country_id":85633337,
            "localadmin_id":404473947,
            "locality_id":101837813,
            "postalcode_id":891166513,
            "region_id":85687043
        }
    ],
    "wof:id":891166513,
    "wof:lastmodified":1469690049,
    "wof:name":"6708NL",
    "wof:parent_id":101837813,
    "wof:placetype":"postalcode",
    "wof:repo":"whosonfirst-data-postalcode-nl",
    "wof:superseded_by":[],
    "wof:supersedes":[],
    "wof:tags":[]
},
  "bbox": [
    5.651192188262939,
    51.9818229675293,
    5.652783393859863,
    51.98381042480469
],
  "geometry": {"coordinates":[[[5.65233087539673,51.9830436706543],[5.65236186981201,51.98299789428711],[5.65278339385986,51.9818229675293],[5.65256595611572,51.98208236694336],[5.65233039855957,51.98237228393555],[5.65197038650513,51.98281478881836],[5.6516284942627,51.98323440551758],[5.65153360366821,51.98335647583008],[5.65150117874146,51.9833984375],[5.65122413635254,51.9837646484375],[5.65119218826294,51.98381042480469],[5.65214157104492,51.9832878112793],[5.65217590332031,51.98324966430664],[5.65233087539673,51.9830436706543]]],"type":"Polygon"}
}