{
  "id": 907059535,
  "type": "Feature",
  "properties": {
    "clustr:alpha":0.05,
    "clustr:area":13.91,
    "clustr:count":22,
    "clustr:density":1.58,
    "clustr:perimeter":0.21,
    "edtf:cessation":"uuuu",
    "edtf:inception":"uuuu",
    "geom:area":0.0,
    "geom:bbox":"5.54536533356,53.1876449585,5.54633760452,53.1883010864",
    "geom:latitude":53.187979,
    "geom:longitude":5.545823,
    "iso:country":"NL",
    "mz:hierarchy_label":1,
    "mz:is_approximate":1,
    "mz:is_clustr":1,
    "src:geom":"oa",
    "wof:belongsto":[
        85687055,
        102191581,
        404473767,
        85633337,
        101806163
    ],
    "wof:breaches":[],
    "wof:country":"NL",
    "wof:created":1469697228,
    "wof:geomhash":"8a44a832d60a703ff2f12dd59f96190c",
    "wof:hierarchy":[
        {
            "continent_id":102191581,
            "country_id":85633337,
            "localadmin_id":404473767,
            "locality_id":101806163,
            "postalcode_id":907059535,
            "region_id":85687055
        }
    ],
    "wof:id":907059535,
    "wof:lastmodified":1469697228,
    "wof:name":"8801KD",
    "wof:parent_id":101806163,
    "wof:placetype":"postalcode",
    "wof:repo":"whosonfirst-data-postalcode-nl",
    "wof:superseded_by":[],
    "wof:supersedes":[],
    "wof:tags":[]
},
  "bbox": [
    5.545365333557129,
    53.187644958496094,
    5.546337604522705,
    53.18830108642578
],
  "geometry": {"coordinates":[[[5.54549884796143,53.18777084350586],[5.54536533355713,53.18805694580078],[5.54538106918335,53.18830108642578],[5.5455756187439,53.18827438354492],[5.54615068435669,53.18819427490234],[5.54633760452271,53.18800354003906],[5.54633712768555,53.18783187866211],[5.546067237854,53.18772506713867],[5.54560327529907,53.18764495849609],[5.54549884796143,53.18777084350586]]],"type":"Polygon"}
}