{
  "id": 890755737,
  "type": "Feature",
  "properties": {
    "clustr:alpha":0.05,
    "clustr:area":11.62,
    "clustr:count":16,
    "clustr:density":1.38,
    "clustr:perimeter":0.08,
    "edtf:cessation":"uuuu",
    "edtf:inception":"uuuu",
    "geom:area":0.0,
    "geom:bbox":"4.32604694366,52.0587768555,4.3263874054,52.059135437",
    "geom:latitude":52.058966,
    "geom:longitude":4.326208,
    "iso:country":"NL",
    "mz:hierarchy_label":1,
    "mz:is_approximate":1,
    "mz:is_clustr":1,
    "src:geom":"oa",
    "wof:belongsto":[
        85687041,
        102191581,
        404474251,
        85633337,
        101754743
    ],
    "wof:breaches":[],
    "wof:country":"NL",
    "wof:created":1469673561,
    "wof:geomhash":"f223755b76103b769748b0b0633a5cbd",
    "wof:hierarchy":[
        {
            "continent_id":102191581,
            "country_id":85633337,
            "localadmin_id":404474251,
            "locality_id":101754743,
            "postalcode_id":890755737,
            "region_id":85687041
        }
    ],
    "wof:id":890755737,
    "wof:lastmodified":1469673561,
    "wof:name":"2522HN",
    "wof:parent_id":101754743,
    "wof:placetype":"postalcode",
    "wof:repo":"whosonfirst-data-postalcode-nl",
    "wof:superseded_by":[],
    "wof:supersedes":[],
    "wof:tags":[]
},
  "bbox": [
    4.326046943664551,
    52.05877685546875,
    4.326387405395508,
    52.05913543701172
],
  "geometry": {"coordinates":[[[4.32635068893433,52.05881500244141],[4.32626295089722,52.05890655517578],[4.32617282867432,52.05900192260742],[4.32604694366455,52.05913543701172],[4.32608509063721,52.05909729003906],[4.3263053894043,52.05886459350586],[4.32638740539551,52.05877685546875],[4.32635068893433,52.05881500244141]]],"type":"Polygon"}
}