{
  "id": 890852681,
  "type": "Feature",
  "properties": {
    "clustr:alpha":0.05,
    "clustr:area":4.19,
    "clustr:count":17,
    "clustr:density":4.05,
    "clustr:perimeter":0.54,
    "edtf:cessation":"uuuu",
    "edtf:inception":"uuuu",
    "geom:area":0.0,
    "geom:bbox":"4.69047832489,51.8057518005,4.69145822525,51.8082122803",
    "geom:latitude":51.806603,
    "geom:longitude":4.690824,
    "iso:country":"NL",
    "mz:hierarchy_label":1,
    "mz:is_approximate":1,
    "mz:is_clustr":1,
    "src:geom":"oa",
    "wof:belongsto":[
        85687041,
        102191581,
        404474169,
        85633337,
        101751841
    ],
    "wof:breaches":[],
    "wof:country":"NL",
    "wof:created":1469677219,
    "wof:geomhash":"7d7156d2ec9b26ae182a3ad76f076950",
    "wof:hierarchy":[
        {
            "continent_id":102191581,
            "country_id":85633337,
            "localadmin_id":404474169,
            "locality_id":101751841,
            "postalcode_id":890852681,
            "region_id":85687041
        }
    ],
    "wof:id":890852681,
    "wof:lastmodified":1469677219,
    "wof:name":"3312RG",
    "wof:parent_id":101751841,
    "wof:placetype":"postalcode",
    "wof:repo":"whosonfirst-data-postalcode-nl",
    "wof:superseded_by":[],
    "wof:supersedes":[],
    "wof:tags":[]
},
  "bbox": [
    4.690478324890137,
    51.80575180053711,
    4.691458225250244,
    51.80821228027344
],
  "geometry": {"coordinates":[[[4.69053316116333,51.80598831176758],[4.69145822525024,51.80821228027344],[4.69053888320923,51.80575180053711],[4.69047832489014,51.80575942993164],[4.69053316116333,51.80598831176758]]],"type":"Polygon"}
}