{
  "id": 890698381,
  "type": "Feature",
  "properties": {
    "clustr:alpha":0.05,
    "clustr:area":31.57,
    "clustr:count":28,
    "clustr:density":0.89,
    "clustr:perimeter":0.1,
    "edtf:cessation":"uuuu",
    "edtf:inception":"uuuu",
    "geom:area":0.0,
    "geom:bbox":"4.62895536423,52.3767585754,4.62966489792,52.3770332336",
    "geom:latitude":52.37688,
    "geom:longitude":4.629282,
    "iso:country":"NL",
    "mz:hierarchy_label":1,
    "mz:is_approximate":1,
    "mz:is_clustr":1,
    "src:geom":"oa",
    "wof:belongsto":[
        85687053,
        102191581,
        404474061,
        85633337,
        101751897
    ],
    "wof:breaches":[],
    "wof:country":"NL",
    "wof:created":1469671151,
    "wof:geomhash":"88b3dfa52f3d8ab3318cb5bf756db08c",
    "wof:hierarchy":[
        {
            "continent_id":102191581,
            "country_id":85633337,
            "localadmin_id":404474061,
            "locality_id":101751897,
            "postalcode_id":890698381,
            "region_id":85687053
        }
    ],
    "wof:id":890698381,
    "wof:lastmodified":1469671151,
    "wof:name":"2011ZL",
    "wof:parent_id":101751897,
    "wof:placetype":"postalcode",
    "wof:repo":"whosonfirst-data-postalcode-nl",
    "wof:superseded_by":[],
    "wof:supersedes":[],
    "wof:tags":[]
},
  "bbox": [
    4.628955364227295,
    52.37675857543945,
    4.629664897918701,
    52.37703323364258
],
  "geometry": {"coordinates":[[[4.62935018539429,52.3769645690918],[4.62960052490234,52.37684631347656],[4.6296648979187,52.37675857543945],[4.62941408157349,52.37676620483398],[4.62918853759766,52.37678909301758],[4.62911176681519,52.37681198120117],[4.62895536422729,52.37694931030273],[4.62900447845459,52.37701797485352],[4.62901878356934,52.37703323364258],[4.62935018539429,52.3769645690918]]],"type":"Polygon"}
}