{
  "id": 890747255,
  "type": "Feature",
  "properties": {
    "clustr:alpha":0.05,
    "clustr:area":12.51,
    "clustr:count":19,
    "clustr:density":1.52,
    "clustr:perimeter":0.23,
    "edtf:cessation":"uuuu",
    "edtf:inception":"uuuu",
    "geom:area":0.0,
    "geom:bbox":"4.64711809158,52.1206054688,4.64829683304,52.1213874817",
    "geom:latitude":52.120999,
    "geom:longitude":4.647712,
    "iso:country":"NL",
    "mz:hierarchy_label":1,
    "mz:is_approximate":1,
    "mz:is_clustr":1,
    "src:geom":"oa",
    "wof:belongsto":[
        85687041,
        102191581,
        404474147,
        85633337,
        101751837
    ],
    "wof:breaches":[],
    "wof:country":"NL",
    "wof:created":1469673225,
    "wof:geomhash":"2e03ea74eeb9bc717072b6c0b03dfcaf",
    "wof:hierarchy":[
        {
            "continent_id":102191581,
            "country_id":85633337,
            "localadmin_id":404474147,
            "locality_id":101751837,
            "postalcode_id":890747255,
            "region_id":85687041
        }
    ],
    "wof:id":890747255,
    "wof:lastmodified":1469673225,
    "wof:name":"2408JP",
    "wof:parent_id":101751837,
    "wof:placetype":"postalcode",
    "wof:repo":"whosonfirst-data-postalcode-nl",
    "wof:superseded_by":[],
    "wof:supersedes":[],
    "wof:tags":[]
},
  "bbox": [
    4.647118091583252,
    52.12060546875,
    4.64829683303833,
    52.12138748168945
],
  "geometry": {"coordinates":[[[4.64754772186279,52.12089157104492],[4.64765691757202,52.12096405029297],[4.64824295043945,52.12135314941406],[4.64829683303833,52.12138748168945],[4.64818954467773,52.12131500244141],[4.64808034896851,52.12124252319336],[4.64743804931641,52.12081527709961],[4.64717149734497,52.12063980102539],[4.64711809158325,52.12060546875],[4.64722633361816,52.12067794799805],[4.64754772186279,52.12089157104492]]],"type":"Polygon"}
}