{
  "id": 907044043,
  "type": "Feature",
  "properties": {
    "clustr:alpha":0.05,
    "clustr:area":484.61,
    "clustr:count":10,
    "clustr:density":0.02,
    "clustr:perimeter":3.51,
    "edtf:cessation":"uuuu",
    "edtf:inception":"uuuu",
    "geom:area":0.000028,
    "geom:bbox":"6.07020568848,52.9749145508,6.09344434738,52.9849777222",
    "geom:latitude":52.980876,
    "geom:longitude":6.082115,
    "iso:country":"NL",
    "mz:hierarchy_label":1,
    "mz:is_approximate":1,
    "mz:is_clustr":1,
    "src:geom":"oa",
    "wof:belongsto":[
        102191581,
        404473771,
        85633337,
        85687055
    ],
    "wof:breaches":[],
    "wof:country":"NL",
    "wof:created":1469696490,
    "wof:geomhash":"af9f20aa662a2133da682e1bf19f995c",
    "wof:hierarchy":[
        {
            "continent_id":102191581,
            "country_id":85633337,
            "localadmin_id":404473771,
            "postalcode_id":907044043,
            "region_id":85687055
        }
    ],
    "wof:id":907044043,
    "wof:lastmodified":1469696490,
    "wof:name":"8401BG",
    "wof:parent_id":404473771,
    "wof:placetype":"postalcode",
    "wof:repo":"whosonfirst-data-postalcode-nl",
    "wof:superseded_by":[],
    "wof:supersedes":[],
    "wof:tags":[]
},
  "bbox": [
    6.070205688476562,
    52.97491455078125,
    6.093444347381592,
    52.98497772216797
],
  "geometry": {"coordinates":[[[6.07951593399048,52.98087310791016],[6.08383893966675,52.98305892944336],[6.09344434738159,52.98497772216797],[6.07020568847656,52.97491455078125],[6.07745409011841,52.97949981689453],[6.07951593399048,52.98087310791016]]],"type":"Polygon"}
}