{
  "id": 890716461,
  "type": "Feature",
  "properties": {
    "clustr:alpha":0.05,
    "clustr:area":126.09,
    "clustr:count":14,
    "clustr:density":0.11,
    "clustr:perimeter":0.51,
    "edtf:cessation":"uuuu",
    "edtf:inception":"uuuu",
    "geom:area":0.000002,
    "geom:bbox":"4.58888912201,52.3104019165,4.59010076523,52.3131484985",
    "geom:latitude":52.311735,
    "geom:longitude":4.589303,
    "iso:country":"NL",
    "mz:hierarchy_label":1,
    "mz:is_approximate":1,
    "mz:is_clustr":1,
    "src:geom":"oa",
    "wof:belongsto":[
        102191581,
        404474189,
        85633337,
        85687041
    ],
    "wof:breaches":[],
    "wof:country":"NL",
    "wof:created":1469672014,
    "wof:geomhash":"270e7520fe90db7d46ea57ba2cfc5f70",
    "wof:hierarchy":[
        {
            "continent_id":102191581,
            "country_id":85633337,
            "localadmin_id":404474189,
            "postalcode_id":890716461,
            "region_id":85687041
        }
    ],
    "wof:id":890716461,
    "wof:lastmodified":1469672014,
    "wof:name":"2181HC",
    "wof:parent_id":404474189,
    "wof:placetype":"postalcode",
    "wof:repo":"whosonfirst-data-postalcode-nl",
    "wof:superseded_by":[],
    "wof:supersedes":[],
    "wof:tags":[]
},
  "bbox": [
    4.588889122009277,
    52.310401916503906,
    4.590100765228271,
    52.313148498535156
],
  "geometry": {"coordinates":[[[4.58982992172241,52.31200790405273],[4.59010076522827,52.3116340637207],[4.58890581130981,52.31040191650391],[4.58888912200928,52.31314849853516],[4.58982992172241,52.31200790405273]]],"type":"Polygon"}
}