{
  "id": 891006737,
  "type": "Feature",
  "properties": {
    "clustr:alpha":0.05,
    "clustr:area":19.13,
    "clustr:count":36,
    "clustr:density":1.88,
    "clustr:perimeter":0.4,
    "edtf:cessation":"uuuu",
    "edtf:inception":"uuuu",
    "geom:area":0.000001,
    "geom:bbox":"5.07580375671,51.5713844299,5.07849359512,51.5719223022",
    "geom:latitude":51.571639,
    "geom:longitude":5.077128,
    "iso:country":"NL",
    "mz:hierarchy_label":1,
    "mz:is_approximate":1,
    "mz:is_clustr":1,
    "src:geom":"oa",
    "wof:belongsto":[
        85687035,
        102191581,
        404474435,
        85633337,
        101751817
    ],
    "wof:breaches":[],
    "wof:country":"NL",
    "wof:created":1469683727,
    "wof:geomhash":"17e888eb4e9dc6b1f22dc17b67d8788f",
    "wof:hierarchy":[
        {
            "continent_id":102191581,
            "country_id":85633337,
            "localadmin_id":404474435,
            "locality_id":101751817,
            "postalcode_id":891006737,
            "region_id":85687035
        }
    ],
    "wof:id":891006737,
    "wof:lastmodified":1469683727,
    "wof:name":"5046GW",
    "wof:parent_id":101751817,
    "wof:placetype":"postalcode",
    "wof:repo":"whosonfirst-data-postalcode-nl",
    "wof:superseded_by":[],
    "wof:supersedes":[],
    "wof:tags":[]
},
  "bbox": [
    5.075803756713867,
    51.57138442993164,
    5.078493595123291,
    51.571922302246094
],
  "geometry": {"coordinates":[[[5.07591199874878,51.57138824462891],[5.07583332061768,51.57138442993164],[5.07580375671387,51.57158279418945],[5.07809019088745,51.57192230224609],[5.07849359512329,51.5716667175293],[5.0763783454895,51.57141494750977],[5.07614469528198,51.5713996887207],[5.07606744766235,51.57139587402344],[5.07591199874878,51.57138824462891]]],"type":"Polygon"}
}