{
  "id": 891180713,
  "type": "Feature",
  "properties": {
    "clustr:alpha":0.05,
    "clustr:area":33.29,
    "clustr:count":10,
    "clustr:density":0.3,
    "clustr:perimeter":0.49,
    "edtf:cessation":"uuuu",
    "edtf:inception":"uuuu",
    "geom:area":0.0,
    "geom:bbox":"5.80269145966,51.9797554016,5.80491542816,51.9816703796",
    "geom:latitude":51.980753,
    "geom:longitude":5.803777,
    "iso:country":"NL",
    "mz:hierarchy_label":1,
    "mz:is_approximate":1,
    "mz:is_clustr":1,
    "src:geom":"oa",
    "wof:belongsto":[
        85687043,
        102191581,
        404473931,
        85633337,
        101808667
    ],
    "wof:breaches":[],
    "wof:country":"NL",
    "wof:created":1469690634,
    "wof:geomhash":"40ba038214c7db96126303174a161b72",
    "wof:hierarchy":[
        {
            "continent_id":102191581,
            "country_id":85633337,
            "localadmin_id":404473931,
            "locality_id":101808667,
            "postalcode_id":891180713,
            "region_id":85687043
        }
    ],
    "wof:id":891180713,
    "wof:lastmodified":1469690634,
    "wof:name":"6865GW",
    "wof:parent_id":101808667,
    "wof:placetype":"postalcode",
    "wof:repo":"whosonfirst-data-postalcode-nl",
    "wof:superseded_by":[],
    "wof:supersedes":[],
    "wof:tags":[]
},
  "bbox": [
    5.802691459655762,
    51.97975540161133,
    5.804915428161621,
    51.98167037963867
],
  "geometry": {"coordinates":[[[5.80456972122192,51.98014450073242],[5.80491542816162,51.97975540161133],[5.80484294891357,51.97980117797852],[5.80284929275513,51.98142623901367],[5.80269145965576,51.98167037963867],[5.80406475067139,51.98064804077148],[5.80432462692261,51.98039627075195],[5.80456972122192,51.98014450073242]]],"type":"Polygon"}
}