{
  "id": 890681459,
  "type": "Feature",
  "properties": {
    "clustr:alpha":0.05,
    "clustr:area":8.74,
    "clustr:count":18,
    "clustr:density":2.06,
    "clustr:perimeter":0.13,
    "edtf:cessation":"uuuu",
    "edtf:inception":"uuuu",
    "geom:area":0.0,
    "geom:bbox":"4.74149227142,52.6272354126,4.74213981628,52.6276855469",
    "geom:latitude":52.627443,
    "geom:longitude":4.741799,
    "iso:country":"NL",
    "mz:hierarchy_label":1,
    "mz:is_approximate":1,
    "mz:is_clustr":1,
    "src:geom":"oa",
    "wof:belongsto":[
        85687053,
        102191581,
        404474025,
        85633337,
        101751887
    ],
    "wof:breaches":[],
    "wof:country":"NL",
    "wof:created":1469670452,
    "wof:geomhash":"bb65a9651909f9429e9b87d08226054d",
    "wof:hierarchy":[
        {
            "continent_id":102191581,
            "country_id":85633337,
            "localadmin_id":404474025,
            "locality_id":101751887,
            "postalcode_id":890681459,
            "region_id":85687053
        }
    ],
    "wof:id":890681459,
    "wof:lastmodified":1469670452,
    "wof:name":"1814EN",
    "wof:parent_id":101751887,
    "wof:placetype":"postalcode",
    "wof:repo":"whosonfirst-data-postalcode-nl",
    "wof:superseded_by":[],
    "wof:supersedes":[],
    "wof:tags":[]
},
  "bbox": [
    4.74149227142334,
    52.627235412597656,
    4.74213981628418,
    52.627685546875
],
  "geometry": {"coordinates":[[[4.74157428741455,52.627685546875],[4.74164485931396,52.62765884399414],[4.74213981628418,52.62738418579102],[4.74206399917603,52.62723541259766],[4.74197626113892,52.62725448608398],[4.74174928665161,52.62730407714844],[4.74165487289429,52.62733840942383],[4.74149227142334,52.6275749206543],[4.74150705337524,52.62761688232422],[4.74154281616211,52.62765502929688],[4.74157428741455,52.627685546875]]],"type":"Polygon"}
}