{
  "id": 890746473,
  "type": "Feature",
  "properties": {
    "clustr:alpha":0.05,
    "clustr:area":1.35,
    "clustr:count":16,
    "clustr:density":11.82,
    "clustr:perimeter":0.16,
    "edtf:cessation":"uuuu",
    "edtf:inception":"uuuu",
    "geom:area":0.0,
    "geom:bbox":"4.65738105774,52.1372642517,4.65747070312,52.1379890442",
    "geom:latitude":52.137542,
    "geom:longitude":4.657438,
    "iso:country":"NL",
    "mz:hierarchy_label":1,
    "mz:is_approximate":1,
    "mz:is_clustr":1,
    "src:geom":"oa",
    "wof:belongsto":[
        85687041,
        102191581,
        404474147,
        85633337,
        101751837
    ],
    "wof:breaches":[],
    "wof:country":"NL",
    "wof:created":1469673191,
    "wof:geomhash":"4b121c6055ee7cf1210a64d5597fb518",
    "wof:hierarchy":[
        {
            "continent_id":102191581,
            "country_id":85633337,
            "localadmin_id":404474147,
            "locality_id":101751837,
            "postalcode_id":890746473,
            "region_id":85687041
        }
    ],
    "wof:id":890746473,
    "wof:lastmodified":1469673191,
    "wof:name":"2405VM",
    "wof:parent_id":101751837,
    "wof:placetype":"postalcode",
    "wof:repo":"whosonfirst-data-postalcode-nl",
    "wof:superseded_by":[],
    "wof:supersedes":[],
    "wof:tags":[]
},
  "bbox": [
    4.657381057739258,
    52.137264251708984,
    4.657470703125,
    52.13798904418945
],
  "geometry": {"coordinates":[[[4.657470703125,52.13726425170898],[4.65746402740479,52.13731002807617],[4.65738105773926,52.13798904418945],[4.65740013122559,52.13784790039062],[4.65740633010864,52.13780212402344],[4.65743160247803,52.13761520385742],[4.65743780136108,52.13756942749023],[4.65745687484741,52.13742828369141],[4.65746307373047,52.13738250732422],[4.657470703125,52.13726425170898]]],"type":"Polygon"}
}