{
  "id": 891242823,
  "type": "Feature",
  "properties": {
    "clustr:alpha":0.05,
    "clustr:area":68.54,
    "clustr:count":13,
    "clustr:density":0.19,
    "clustr:perimeter":0.47,
    "edtf:cessation":"uuuu",
    "edtf:inception":"uuuu",
    "geom:area":0.000002,
    "geom:bbox":"6.78664731979,52.248714447,6.78830003738,52.2505607605",
    "geom:latitude":52.249452,
    "geom:longitude":6.787676,
    "iso:country":"NL",
    "mz:hierarchy_label":1,
    "mz:is_approximate":1,
    "mz:is_clustr":1,
    "src:geom":"oa",
    "wof:belongsto":[
        85687045,
        102191581,
        404473837,
        85633337,
        101751869
    ],
    "wof:breaches":[],
    "wof:country":"NL",
    "wof:created":1469693124,
    "wof:geomhash":"672663f0586d81095a83bce4c2282dbb",
    "wof:hierarchy":[
        {
            "continent_id":102191581,
            "country_id":85633337,
            "localadmin_id":404473837,
            "locality_id":101751869,
            "postalcode_id":891242823,
            "region_id":85687045
        }
    ],
    "wof:id":891242823,
    "wof:lastmodified":1469693124,
    "wof:name":"7553DS",
    "wof:parent_id":101751869,
    "wof:placetype":"postalcode",
    "wof:repo":"whosonfirst-data-postalcode-nl",
    "wof:superseded_by":[],
    "wof:supersedes":[],
    "wof:tags":[]
},
  "bbox": [
    6.786647319793701,
    52.248714447021484,
    6.788300037384033,
    52.25056076049805
],
  "geometry": {"coordinates":[[[6.78829336166382,52.25007629394531],[6.78830003738403,52.24884414672852],[6.7866473197937,52.24871444702148],[6.78779172897339,52.25056076049805],[6.78829336166382,52.25007629394531]]],"type":"Polygon"}
}