{
  "id": 891158829,
  "type": "Feature",
  "properties": {
    "clustr:alpha":0.05,
    "clustr:area":46.0,
    "clustr:count":45,
    "clustr:density":0.98,
    "clustr:perimeter":0.54,
    "edtf:cessation":"uuuu",
    "edtf:inception":"uuuu",
    "geom:area":0.000001,
    "geom:bbox":"5.73421049118,51.8691635132,5.73611402512,51.8714790344",
    "geom:latitude":51.870382,
    "geom:longitude":5.735253,
    "iso:country":"NL",
    "mz:hierarchy_label":1,
    "mz:is_approximate":1,
    "mz:is_clustr":1,
    "src:geom":"oa",
    "wof:belongsto":[
        85687043,
        102191581,
        404473875,
        85633337,
        101808685
    ],
    "wof:breaches":[],
    "wof:country":"NL",
    "wof:created":1469689737,
    "wof:geomhash":"ee369d78427b83190e69c33fc98a7e48",
    "wof:hierarchy":[
        {
            "continent_id":102191581,
            "country_id":85633337,
            "localadmin_id":404473875,
            "locality_id":101808685,
            "postalcode_id":891158829,
            "region_id":85687043
        }
    ],
    "wof:id":891158829,
    "wof:lastmodified":1469689737,
    "wof:name":"6644BA",
    "wof:parent_id":101808685,
    "wof:placetype":"postalcode",
    "wof:repo":"whosonfirst-data-postalcode-nl",
    "wof:superseded_by":[],
    "wof:supersedes":[],
    "wof:tags":[]
},
  "bbox": [
    5.73421049118042,
    51.869163513183594,
    5.736114025115967,
    51.87147903442383
],
  "geometry": {"coordinates":[[[5.73607158660889,51.86984634399414],[5.73610019683838,51.86976623535156],[5.73611402511597,51.86972045898438],[5.73609781265259,51.86947631835938],[5.7360372543335,51.86916351318359],[5.7342381477356,51.87120819091797],[5.73421049118042,51.87137222290039],[5.73447227478027,51.87147903442383],[5.73574066162109,51.8702507019043],[5.73607158660889,51.86984634399414]]],"type":"Polygon"}
}