{
  "id": 890937777,
  "type": "Feature",
  "properties": {
    "clustr:alpha":0.05,
    "clustr:area":20.18,
    "clustr:count":12,
    "clustr:density":0.59,
    "clustr:perimeter":0.17,
    "edtf:cessation":"uuuu",
    "edtf:inception":"uuuu",
    "geom:area":0.0,
    "geom:bbox":"5.07695579529,51.8740501404,5.07822036743,51.8743019104",
    "geom:latitude":51.874193,
    "geom:longitude":5.077636,
    "iso:country":"NL",
    "mz:hierarchy_label":1,
    "mz:is_approximate":1,
    "mz:is_clustr":1,
    "src:geom":"oa",
    "wof:belongsto":[
        85687043,
        102191581,
        404474339,
        85633337,
        101808651
    ],
    "wof:breaches":[],
    "wof:country":"NL",
    "wof:created":1469680739,
    "wof:geomhash":"d558472264bcdba6ed08294d2717528d",
    "wof:hierarchy":[
        {
            "continent_id":102191581,
            "country_id":85633337,
            "localadmin_id":404474339,
            "locality_id":101808651,
            "postalcode_id":890937777,
            "region_id":85687043
        }
    ],
    "wof:id":890937777,
    "wof:lastmodified":1469680739,
    "wof:name":"4161CA",
    "wof:parent_id":101808651,
    "wof:placetype":"postalcode",
    "wof:repo":"whosonfirst-data-postalcode-nl",
    "wof:superseded_by":[],
    "wof:supersedes":[],
    "wof:tags":[]
},
  "bbox": [
    5.076955795288086,
    51.87405014038086,
    5.078220367431641,
    51.87430191040039
],
  "geometry": {"coordinates":[[[5.07781982421875,51.87430191040039],[5.07798290252685,51.87428665161133],[5.07805347442627,51.87427520751953],[5.07822036743164,51.87422943115234],[5.07695579528809,51.87405014038086],[5.07705736160278,51.87409591674805],[5.07717132568359,51.87413787841797],[5.07781982421875,51.87430191040039]]],"type":"Polygon"}
}