{
  "id": 890699425,
  "type": "Feature",
  "properties": {
    "clustr:alpha":0.05,
    "clustr:area":65.24,
    "clustr:count":24,
    "clustr:density":0.37,
    "clustr:perimeter":0.17,
    "edtf:cessation":"uuuu",
    "edtf:inception":"uuuu",
    "geom:area":0.0,
    "geom:bbox":"4.61808395386,52.3794898987,4.61943101883,52.3799591064",
    "geom:latitude":52.379709,
    "geom:longitude":4.6188,
    "iso:country":"NL",
    "mz:hierarchy_label":1,
    "mz:is_approximate":1,
    "mz:is_clustr":1,
    "src:geom":"oa",
    "wof:belongsto":[
        85687053,
        102191581,
        404474061,
        85633337,
        101751897
    ],
    "wof:breaches":[],
    "wof:country":"NL",
    "wof:created":1469671191,
    "wof:geomhash":"f9802ae3c71bcaca16f02ebab3a2c9a8",
    "wof:hierarchy":[
        {
            "continent_id":102191581,
            "country_id":85633337,
            "localadmin_id":404474061,
            "locality_id":101751897,
            "postalcode_id":890699425,
            "region_id":85687053
        }
    ],
    "wof:id":890699425,
    "wof:lastmodified":1469671191,
    "wof:name":"2013XP",
    "wof:parent_id":101751897,
    "wof:placetype":"postalcode",
    "wof:repo":"whosonfirst-data-postalcode-nl",
    "wof:superseded_by":[],
    "wof:supersedes":[],
    "wof:tags":[]
},
  "bbox": [
    4.618083953857422,
    52.37948989868164,
    4.619431018829346,
    52.37995910644531
],
  "geometry": {"coordinates":[[[4.61907863616943,52.37961959838867],[4.61943101882935,52.37948989868164],[4.61925649642944,52.37954330444336],[4.61814546585083,52.37993240356445],[4.61808395385742,52.37995910644531],[4.61855459213257,52.37979888916016],[4.61907863616943,52.37961959838867]]],"type":"Polygon"}
}