{
  "id": 890899165,
  "type": "Feature",
  "properties": {
    "clustr:alpha":0.05,
    "clustr:area":3.49,
    "clustr:count":4,
    "clustr:density":1.14,
    "clustr:perimeter":0.06,
    "edtf:cessation":"uuuu",
    "edtf:inception":"uuuu",
    "geom:area":0.0,
    "geom:bbox":"5.29494285583,52.1148643494,5.29508733749,52.1151618958",
    "geom:latitude":52.114986,
    "geom:longitude":5.295031,
    "iso:country":"NL",
    "mz:hierarchy_label":1,
    "mz:is_approximate":1,
    "mz:is_clustr":1,
    "src:geom":"oa",
    "wof:belongsto":[
        85687039,
        102191581,
        404474005,
        85633337,
        101837679
    ],
    "wof:breaches":[],
    "wof:country":"NL",
    "wof:created":1469679087,
    "wof:geomhash":"c8ba9a42e8a86cb0f56d013f3e216aef",
    "wof:hierarchy":[
        {
            "continent_id":102191581,
            "country_id":85633337,
            "localadmin_id":404474005,
            "locality_id":101837679,
            "postalcode_id":890899165,
            "region_id":85687039
        }
    ],
    "wof:id":890899165,
    "wof:lastmodified":1469679087,
    "wof:name":"3769KE",
    "wof:parent_id":101837679,
    "wof:placetype":"postalcode",
    "wof:repo":"whosonfirst-data-postalcode-nl",
    "wof:superseded_by":[],
    "wof:supersedes":[],
    "wof:tags":[]
},
  "bbox": [
    5.294942855834961,
    52.114864349365234,
    5.295087337493896,
    52.11516189575195
],
  "geometry": {"coordinates":[[[5.29496669769287,52.11511611938477],[5.29506635665894,52.11492156982422],[5.2950873374939,52.11486434936523],[5.29494285583496,52.11516189575195],[5.29496669769287,52.11511611938477]]],"type":"Polygon"}
}