{
  "id": 891137285,
  "type": "Feature",
  "properties": {
    "clustr:alpha":0.05,
    "clustr:area":40.64,
    "clustr:count":5,
    "clustr:density":0.12,
    "clustr:perimeter":1.01,
    "edtf:cessation":"uuuu",
    "edtf:inception":"uuuu",
    "geom:area":0.000006,
    "geom:bbox":"5.97061395645,50.8666305542,5.97461080551,50.8704833984",
    "geom:latitude":50.869026,
    "geom:longitude":5.972569,
    "iso:country":"NL",
    "mz:hierarchy_label":1,
    "mz:is_approximate":1,
    "mz:is_clustr":1,
    "src:geom":"oa",
    "wof:belongsto":[
        85687033,
        102191581,
        404474485,
        85633337,
        101839245
    ],
    "wof:breaches":[],
    "wof:country":"NL",
    "wof:created":1469688851,
    "wof:geomhash":"e244ab526c3d6225c7cbff2c21845ae6",
    "wof:hierarchy":[
        {
            "continent_id":102191581,
            "country_id":85633337,
            "localadmin_id":404474485,
            "locality_id":101839245,
            "postalcode_id":891137285,
            "region_id":85687033
        }
    ],
    "wof:id":891137285,
    "wof:lastmodified":1469688851,
    "wof:name":"6419PJ",
    "wof:parent_id":101839245,
    "wof:placetype":"postalcode",
    "wof:repo":"whosonfirst-data-postalcode-nl",
    "wof:superseded_by":[],
    "wof:supersedes":[],
    "wof:tags":[]
},
  "bbox": [
    5.970613956451416,
    50.86663055419922,
    5.974610805511475,
    50.8704833984375
],
  "geometry": {"coordinates":[[[5.97083950042725,50.86965179443359],[5.97061395645142,50.8704833984375],[5.97299957275391,50.87020111083984],[5.97461080551147,50.86663055419922],[5.97198724746704,50.86859512329102],[5.97083950042725,50.86965179443359]]],"type":"Polygon"}
}