{
  "id": 891267497,
  "type": "Feature",
  "properties": {
    "clustr:alpha":0.05,
    "clustr:area":82.16,
    "clustr:count":15,
    "clustr:density":0.18,
    "clustr:perimeter":0.28,
    "edtf:cessation":"uuuu",
    "edtf:inception":"uuuu",
    "geom:area":0.000001,
    "geom:bbox":"6.88473320007,52.7697906494,6.88625574112,52.770980835",
    "geom:latitude":52.770349,
    "geom:longitude":6.885522,
    "iso:country":"NL",
    "mz:hierarchy_label":1,
    "mz:is_approximate":1,
    "mz:is_clustr":1,
    "src:geom":"oa",
    "wof:belongsto":[
        85687051,
        102191581,
        404473809,
        85633337,
        101751881
    ],
    "wof:breaches":[],
    "wof:country":"NL",
    "wof:created":1469694120,
    "wof:geomhash":"5f123953083f8baee71e42380d132f35",
    "wof:hierarchy":[
        {
            "continent_id":102191581,
            "country_id":85633337,
            "localadmin_id":404473809,
            "locality_id":101751881,
            "postalcode_id":891267497,
            "region_id":85687051
        }
    ],
    "wof:id":891267497,
    "wof:lastmodified":1469694120,
    "wof:name":"7812ML",
    "wof:parent_id":101751881,
    "wof:placetype":"postalcode",
    "wof:repo":"whosonfirst-data-postalcode-nl",
    "wof:superseded_by":[],
    "wof:supersedes":[],
    "wof:tags":[]
},
  "bbox": [
    6.884733200073242,
    52.76979064941406,
    6.886255741119385,
    52.77098083496094
],
  "geometry": {"coordinates":[[[6.88569831848145,52.77094268798828],[6.88624811172485,52.77098083496094],[6.88625574111938,52.77077484130859],[6.88561630249023,52.76984786987305],[6.88525867462158,52.76979064941406],[6.88477087020874,52.76983261108398],[6.88473320007324,52.77001953125],[6.88491821289062,52.77022552490234],[6.88569831848145,52.77094268798828]]],"type":"Polygon"}
}