{
  "id": 890927061,
  "type": "Feature",
  "properties": {
    "clustr:alpha":0.05,
    "clustr:area":12.38,
    "clustr:count":9,
    "clustr:density":0.73,
    "clustr:perimeter":0.18,
    "edtf:cessation":"uuuu",
    "edtf:inception":"uuuu",
    "geom:area":0.0,
    "geom:bbox":"5.24626159668,52.0259208679,5.24716806412,52.0265769958",
    "geom:latitude":52.026207,
    "geom:longitude":5.246601,
    "iso:country":"NL",
    "mz:hierarchy_label":1,
    "mz:is_approximate":1,
    "mz:is_clustr":1,
    "src:geom":"oa",
    "wof:belongsto":[
        85687039,
        102191581,
        404473981,
        85633337,
        101808431
    ],
    "wof:breaches":[],
    "wof:country":"NL",
    "wof:created":1469680338,
    "wof:geomhash":"0b565f3f396f2d07969b91e5830b6fff",
    "wof:hierarchy":[
        {
            "continent_id":102191581,
            "country_id":85633337,
            "localadmin_id":404473981,
            "locality_id":101808431,
            "postalcode_id":890927061,
            "region_id":85687039
        }
    ],
    "wof:id":890927061,
    "wof:lastmodified":1469680338,
    "wof:name":"3985RG",
    "wof:parent_id":101808431,
    "wof:placetype":"postalcode",
    "wof:repo":"whosonfirst-data-postalcode-nl",
    "wof:superseded_by":[],
    "wof:supersedes":[],
    "wof:tags":[]
},
  "bbox": [
    5.246261596679688,
    52.02592086791992,
    5.247168064117432,
    52.02657699584961
],
  "geometry": {"coordinates":[[[5.24630546569824,52.02639007568359],[5.24626159667969,52.02657699584961],[5.24716806411743,52.02592086791992],[5.24637937545776,52.02611923217773],[5.24630546569824,52.02639007568359]]],"type":"Polygon"}
}