{
  "id": 890906241,
  "type": "Feature",
  "properties": {
    "clustr:alpha":0.05,
    "clustr:area":179.85,
    "clustr:count":20,
    "clustr:density":0.11,
    "clustr:perimeter":0.12,
    "edtf:cessation":"uuuu",
    "edtf:inception":"uuuu",
    "geom:area":0.0,
    "geom:bbox":"5.38721609116,52.1832809448,5.38873100281,52.1836776733",
    "geom:latitude":52.183434,
    "geom:longitude":5.388119,
    "iso:country":"NL",
    "mz:hierarchy_label":1,
    "mz:is_approximate":1,
    "mz:is_clustr":1,
    "src:geom":"oa",
    "wof:belongsto":[
        85687039,
        102191581,
        404473971,
        85633337,
        101837671
    ],
    "wof:breaches":[],
    "wof:country":"NL",
    "wof:created":1469679471,
    "wof:geomhash":"41d386bb95a42efcc0e6b6f7e04e8fdc",
    "wof:hierarchy":[
        {
            "continent_id":102191581,
            "country_id":85633337,
            "localadmin_id":404473971,
            "locality_id":101837671,
            "postalcode_id":890906241,
            "region_id":85687039
        }
    ],
    "wof:id":890906241,
    "wof:lastmodified":1469679471,
    "wof:name":"3823AS",
    "wof:parent_id":101837671,
    "wof:placetype":"postalcode",
    "wof:repo":"whosonfirst-data-postalcode-nl",
    "wof:superseded_by":[],
    "wof:supersedes":[],
    "wof:tags":[]
},
  "bbox": [
    5.387216091156006,
    52.18328094482422,
    5.388731002807617,
    52.183677673339844
],
  "geometry": {"coordinates":[[[5.38873100280762,52.18328857421875],[5.38862466812134,52.18328094482422],[5.3884129524231,52.1833381652832],[5.38819217681885,52.18339920043945],[5.38758420944214,52.18357086181641],[5.38736772537231,52.18363189697266],[5.38721609115601,52.18367767333984],[5.38728952407837,52.18366241455078],[5.38873100280762,52.18328857421875]]],"type":"Polygon"}
}