{
  "id": 890986643,
  "type": "Feature",
  "properties": {
    "clustr:alpha":0.05,
    "clustr:area":39.21,
    "clustr:count":18,
    "clustr:density":0.46,
    "clustr:perimeter":0.18,
    "edtf:cessation":"uuuu",
    "edtf:inception":"uuuu",
    "geom:area":0.0,
    "geom:bbox":"4.79121637344,51.5788269043,4.79262685776,51.578868866",
    "geom:latitude":51.578847,
    "geom:longitude":4.791923,
    "iso:country":"NL",
    "mz:hierarchy_label":1,
    "mz:is_approximate":1,
    "mz:is_clustr":1,
    "src:geom":"oa",
    "wof:belongsto":[
        85687035,
        102191581,
        404474363,
        85633337,
        101751811
    ],
    "wof:breaches":[],
    "wof:country":"NL",
    "wof:created":1469682913,
    "wof:geomhash":"c8532172ccbc373105cae03d76b644c9",
    "wof:hierarchy":[
        {
            "continent_id":102191581,
            "country_id":85633337,
            "localadmin_id":404474363,
            "locality_id":101751811,
            "postalcode_id":890986643,
            "region_id":85687035
        }
    ],
    "wof:id":890986643,
    "wof:lastmodified":1469682913,
    "wof:name":"4818CB",
    "wof:parent_id":101751811,
    "wof:placetype":"postalcode",
    "wof:repo":"whosonfirst-data-postalcode-nl",
    "wof:superseded_by":[],
    "wof:supersedes":[],
    "wof:tags":[]
},
  "bbox": [
    4.791216373443604,
    51.578826904296875,
    4.792626857757568,
    51.5788688659668
],
  "geometry": {"coordinates":[[[4.79131031036377,51.57883453369141],[4.79121685028076,51.57883834838867],[4.7912163734436,51.57886505126953],[4.7917218208313,51.5788688659668],[4.7921199798584,51.57886505126953],[4.79262685775757,51.578857421875],[4.79262256622315,51.57882690429688],[4.79253244400024,51.57882690429688],[4.79245471954346,51.57882690429688],[4.79221677780151,51.57882690429688],[4.79162740707397,51.57883071899414],[4.79131031036377,51.57883453369141]]],"type":"Polygon"}
}