{
  "id": 907087915,
  "type": "Feature",
  "properties": {
    "clustr:alpha":0.05,
    "clustr:area":59.82,
    "clustr:count":6,
    "clustr:density":0.1,
    "clustr:perimeter":0.09,
    "edtf:cessation":"uuuu",
    "edtf:inception":"uuuu",
    "geom:area":0.0,
    "geom:bbox":"6.57288646698,52.9895172119,6.57347011566,52.9902114868",
    "geom:latitude":52.989794,
    "geom:longitude":6.57312,
    "iso:country":"NL",
    "mz:hierarchy_label":1,
    "mz:is_approximate":1,
    "mz:is_clustr":1,
    "src:geom":"oa",
    "wof:belongsto":[
        85687051,
        102191581,
        404473805,
        85633337,
        101751879
    ],
    "wof:breaches":[],
    "wof:country":"NL",
    "wof:created":1469698677,
    "wof:geomhash":"77724ff93410ca2d529eb0c2eb24d572",
    "wof:hierarchy":[
        {
            "continent_id":102191581,
            "country_id":85633337,
            "localadmin_id":404473805,
            "locality_id":101751879,
            "postalcode_id":907087915,
            "region_id":85687051
        }
    ],
    "wof:id":907087915,
    "wof:lastmodified":1469698677,
    "wof:name":"9404SG",
    "wof:parent_id":101751879,
    "wof:placetype":"postalcode",
    "wof:repo":"whosonfirst-data-postalcode-nl",
    "wof:superseded_by":[],
    "wof:supersedes":[],
    "wof:tags":[]
},
  "bbox": [
    6.57288646697998,
    52.98951721191406,
    6.573470115661621,
    52.990211486816406
],
  "geometry": {"coordinates":[[[6.57347011566162,52.99021148681641],[6.57343912124634,52.99015808105469],[6.57291507720947,52.98951721191406],[6.57288646697998,52.98955917358398],[6.57347011566162,52.99021148681641]]],"type":"Polygon"}
}