{
  "id": 890653657,
  "type": "Feature",
  "properties": {
    "clustr:alpha":0.05,
    "clustr:area":11.42,
    "clustr:count":21,
    "clustr:density":1.84,
    "clustr:perimeter":0.37,
    "edtf:cessation":"uuuu",
    "edtf:inception":"uuuu",
    "geom:area":0.0,
    "geom:bbox":"4.87821340561,52.44008255,4.88080692291,52.4406585693",
    "geom:latitude":52.440333,
    "geom:longitude":4.879257,
    "iso:country":"NL",
    "mz:hierarchy_label":1,
    "mz:is_approximate":1,
    "mz:is_clustr":1,
    "src:geom":"oa",
    "wof:belongsto":[
        85687053,
        102191581,
        404474105,
        85633337,
        101754851
    ],
    "wof:breaches":[],
    "wof:country":"NL",
    "wof:created":1469669205,
    "wof:geomhash":"b81f42aea09655f2c0ed20a0bb4815f3",
    "wof:hierarchy":[
        {
            "continent_id":102191581,
            "country_id":85633337,
            "localadmin_id":404474105,
            "locality_id":101754851,
            "postalcode_id":890653657,
            "region_id":85687053
        }
    ],
    "wof:id":890653657,
    "wof:lastmodified":1469669205,
    "wof:name":"1511ET",
    "wof:parent_id":101754851,
    "wof:placetype":"postalcode",
    "wof:repo":"whosonfirst-data-postalcode-nl",
    "wof:superseded_by":[],
    "wof:supersedes":[],
    "wof:tags":[]
},
  "bbox": [
    4.878213405609131,
    52.44008255004883,
    4.880806922912598,
    52.44065856933594
],
  "geometry": {"coordinates":[[[4.87872934341431,52.44033813476562],[4.8808069229126,52.44065856933594],[4.88057231903076,52.44058990478516],[4.88020467758179,52.44048309326172],[4.87922763824463,52.44021987915039],[4.87914514541626,52.44020080566406],[4.87897968292236,52.44016265869141],[4.87888050079346,52.44013977050781],[4.87862539291382,52.44008255004883],[4.87821340560913,52.44022369384766],[4.87830877304077,52.44024658203125],[4.87847709655762,52.44028472900391],[4.87856197357178,52.44030380249023],[4.87863254547119,52.4403190612793],[4.87872934341431,52.44033813476562]]],"type":"Polygon"}
}