{
  "id": 907077691,
  "type": "Feature",
  "properties": {
    "clustr:alpha":0.05,
    "clustr:area":70.97,
    "clustr:count":20,
    "clustr:density":0.28,
    "clustr:perimeter":0.24,
    "edtf:cessation":"uuuu",
    "edtf:inception":"uuuu",
    "geom:area":0.0,
    "geom:bbox":"6.17233657837,53.1808853149,6.1743144989,53.1813926697",
    "geom:latitude":53.181171,
    "geom:longitude":6.173229,
    "iso:country":"NL",
    "mz:hierarchy_label":1,
    "mz:is_approximate":1,
    "mz:is_clustr":1,
    "src:geom":"oa",
    "wof:belongsto":[
        85687055,
        102191581,
        404473757,
        85633337,
        101807467
    ],
    "wof:breaches":[],
    "wof:country":"NL",
    "wof:created":1469698097,
    "wof:geomhash":"5ac80ee62d6617e286a0e8bd1392f7c7",
    "wof:hierarchy":[
        {
            "continent_id":102191581,
            "country_id":85633337,
            "localadmin_id":404473757,
            "locality_id":101807467,
            "postalcode_id":907077691,
            "region_id":85687055
        }
    ],
    "wof:id":907077691,
    "wof:lastmodified":1469698097,
    "wof:name":"9231EL",
    "wof:parent_id":101807467,
    "wof:placetype":"postalcode",
    "wof:repo":"whosonfirst-data-postalcode-nl",
    "wof:superseded_by":[],
    "wof:supersedes":[],
    "wof:tags":[]
},
  "bbox": [
    6.172336578369141,
    53.180885314941406,
    6.174314498901367,
    53.181392669677734
],
  "geometry": {"coordinates":[[[6.1737322807312,53.18103408813477],[6.17250490188599,53.18134689331055],[6.17241859436035,53.18136978149414],[6.17233657836914,53.18139266967773],[6.17283153533935,53.1812858581543],[6.17299604415894,53.18124389648438],[6.173415184021,53.18113708496094],[6.17349720001221,53.18111419677734],[6.17431449890137,53.18088531494141],[6.1737322807312,53.18103408813477]]],"type":"Polygon"}
}