{
  "id": 890836897,
  "type": "Feature",
  "properties": {
    "clustr:alpha":0.05,
    "clustr:area":88.67,
    "clustr:count":16,
    "clustr:density":0.18,
    "clustr:perimeter":0.31,
    "edtf:cessation":"uuuu",
    "edtf:inception":"uuuu",
    "geom:area":0.0,
    "geom:bbox":"4.26893377304,51.9336700439,4.26951932907,51.9358825684",
    "geom:latitude":51.934594,
    "geom:longitude":4.269216,
    "iso:country":"NL",
    "mz:hierarchy_label":1,
    "mz:is_approximate":1,
    "mz:is_clustr":1,
    "src:geom":"oa",
    "wof:belongsto":[
        85687041,
        102191581,
        404474669,
        85633337,
        101754629
    ],
    "wof:breaches":[],
    "wof:country":"NL",
    "wof:created":1469676643,
    "wof:geomhash":"0d10369322851cf8666c9e8e7c1168a7",
    "wof:hierarchy":[
        {
            "continent_id":102191581,
            "country_id":85633337,
            "localadmin_id":404474669,
            "locality_id":101754629,
            "postalcode_id":890836897,
            "region_id":85687041
        }
    ],
    "wof:id":890836897,
    "wof:lastmodified":1469676643,
    "wof:name":"3155SE",
    "wof:parent_id":101754629,
    "wof:placetype":"postalcode",
    "wof:repo":"whosonfirst-data-postalcode-nl",
    "wof:superseded_by":[],
    "wof:supersedes":[],
    "wof:tags":[]
},
  "bbox": [
    4.268933773040771,
    51.93367004394531,
    4.269519329071045,
    51.935882568359375
],
  "geometry": {"coordinates":[[[4.26951932907104,51.93418884277344],[4.26933240890503,51.93367004394531],[4.26918077468872,51.93393707275391],[4.26912927627563,51.93424987792969],[4.26908159255981,51.93454742431641],[4.26894187927246,51.93560409545898],[4.26893377304077,51.93588256835938],[4.26951932907104,51.93418884277344]]],"type":"Polygon"}
}