{
  "id": 890642703,
  "type": "Feature",
  "properties": {
    "clustr:alpha":0.05,
    "clustr:area":5.71,
    "clustr:count":32,
    "clustr:density":5.61,
    "clustr:perimeter":0.32,
    "edtf:cessation":"uuuu",
    "edtf:inception":"uuuu",
    "geom:area":0.0,
    "geom:bbox":"4.82501459122,52.2482032776,4.82621717453,52.2494354248",
    "geom:latitude":52.248996,
    "geom:longitude":4.825717,
    "iso:country":"NL",
    "mz:hierarchy_label":1,
    "mz:is_approximate":1,
    "mz:is_clustr":1,
    "src:geom":"oa",
    "wof:belongsto":[
        85687053,
        102191581,
        404474119,
        85633337,
        101807399
    ],
    "wof:breaches":[],
    "wof:country":"NL",
    "wof:created":1469668664,
    "wof:geomhash":"aef44629e5dbccf1d5e94ffe0899398f",
    "wof:hierarchy":[
        {
            "continent_id":102191581,
            "country_id":85633337,
            "localadmin_id":404474119,
            "locality_id":101807399,
            "postalcode_id":890642703,
            "region_id":85687053
        }
    ],
    "wof:id":890642703,
    "wof:lastmodified":1469668664,
    "wof:name":"1422JR",
    "wof:parent_id":101807399,
    "wof:placetype":"postalcode",
    "wof:repo":"whosonfirst-data-postalcode-nl",
    "wof:superseded_by":[],
    "wof:supersedes":[],
    "wof:tags":[]
},
  "bbox": [
    4.825014591217041,
    52.24820327758789,
    4.826217174530029,
    52.24943542480469
],
  "geometry": {"coordinates":[[[4.82605838775635,52.24942398071289],[4.82613897323608,52.2494010925293],[4.82621717453003,52.2493782043457],[4.82501459121704,52.24820327758789],[4.82512617111206,52.24835586547852],[4.82577657699585,52.24922561645508],[4.82581806182861,52.2492790222168],[4.826012134552,52.24943542480469],[4.82605838775635,52.24942398071289]]],"type":"Polygon"}
}