{
  "id": 890952421,
  "type": "Feature",
  "properties": {
    "clustr:alpha":0.05,
    "clustr:area":14.88,
    "clustr:count":10,
    "clustr:density":0.67,
    "clustr:perimeter":0.06,
    "edtf:cessation":"uuuu",
    "edtf:inception":"uuuu",
    "geom:area":0.0,
    "geom:bbox":"3.57988190651,51.441242218,3.58009719849,51.4415817261",
    "geom:latitude":51.441387,
    "geom:longitude":3.579957,
    "iso:country":"NL",
    "mz:hierarchy_label":1,
    "mz:is_approximate":1,
    "mz:is_clustr":1,
    "src:geom":"oa",
    "wof:belongsto":[
        85687037,
        102191581,
        404474335,
        85633337,
        101839445
    ],
    "wof:breaches":[],
    "wof:country":"NL",
    "wof:created":1469681302,
    "wof:geomhash":"5f2a228a6b1c942583bdc29a02ce2b34",
    "wof:hierarchy":[
        {
            "continent_id":102191581,
            "country_id":85633337,
            "localadmin_id":404474335,
            "locality_id":101839445,
            "postalcode_id":890952421,
            "region_id":85687037
        }
    ],
    "wof:id":890952421,
    "wof:lastmodified":1469681302,
    "wof:name":"4381AX",
    "wof:parent_id":101839445,
    "wof:placetype":"postalcode",
    "wof:repo":"whosonfirst-data-postalcode-nl",
    "wof:superseded_by":[],
    "wof:supersedes":[],
    "wof:tags":[]
},
  "bbox": [
    3.579881906509399,
    51.44124221801758,
    3.580097198486328,
    51.44158172607422
],
  "geometry": {"coordinates":[[[3.57990789413452,51.44127655029297],[3.57988548278809,51.44124221801758],[3.5798819065094,51.44133377075195],[3.58009719848633,51.44158172607422],[3.58004236221314,51.44149017333984],[3.57990789413452,51.44127655029297]]],"type":"Polygon"}
}