{
  "id": 891213439,
  "type": "Feature",
  "properties": {
    "clustr:alpha":0.05,
    "clustr:area":36.5,
    "clustr:count":13,
    "clustr:density":0.36,
    "clustr:perimeter":0.23,
    "edtf:cessation":"uuuu",
    "edtf:inception":"uuuu",
    "geom:area":0.0,
    "geom:bbox":"5.93537998199,52.2057647705,5.93676662445,52.2065811157",
    "geom:latitude":52.206201,
    "geom:longitude":5.936072,
    "iso:country":"NL",
    "mz:hierarchy_label":1,
    "mz:is_approximate":1,
    "mz:is_clustr":1,
    "src:geom":"oa",
    "wof:belongsto":[
        85687043,
        102191581,
        404473867,
        85633337,
        101751853
    ],
    "wof:breaches":[],
    "wof:country":"NL",
    "wof:created":1469691975,
    "wof:geomhash":"3cc70005cb5b3cc485caae4ec6fe077c",
    "wof:hierarchy":[
        {
            "continent_id":102191581,
            "country_id":85633337,
            "localadmin_id":404473867,
            "locality_id":101751853,
            "postalcode_id":891213439,
            "region_id":85687043
        }
    ],
    "wof:id":891213439,
    "wof:lastmodified":1469691975,
    "wof:name":"7312JA",
    "wof:parent_id":101751853,
    "wof:placetype":"postalcode",
    "wof:repo":"whosonfirst-data-postalcode-nl",
    "wof:superseded_by":[],
    "wof:supersedes":[],
    "wof:tags":[]
},
  "bbox": [
    5.935379981994629,
    52.20576477050781,
    5.936766624450684,
    52.206581115722656
],
  "geometry": {"coordinates":[[[5.9357099533081,52.20602035522461],[5.9360294342041,52.20622253417969],[5.93644189834595,52.20645904541016],[5.93676662445068,52.20658111572266],[5.93554401397705,52.20585250854492],[5.93537998199463,52.20576477050781],[5.9357099533081,52.20602035522461]]],"type":"Polygon"}
}