{
  "id": 890761421,
  "type": "Feature",
  "properties": {
    "clustr:alpha":0.05,
    "clustr:area":16.78,
    "clustr:count":6,
    "clustr:density":0.36,
    "clustr:perimeter":0.04,
    "edtf:cessation":"uuuu",
    "edtf:inception":"uuuu",
    "geom:area":0.0,
    "geom:bbox":"4.29206609726,52.038318634,4.29241466522,52.0384063721",
    "geom:latitude":52.038358,
    "geom:longitude":4.292225,
    "iso:country":"NL",
    "mz:hierarchy_label":1,
    "mz:is_approximate":1,
    "mz:is_clustr":1,
    "src:geom":"oa",
    "wof:belongsto":[
        102191581,
        404474179,
        85633337,
        85687041
    ],
    "wof:breaches":[],
    "wof:country":"NL",
    "wof:created":1469673780,
    "wof:geomhash":"aff5fc6ade536488ab20f5ef7882a670",
    "wof:hierarchy":[
        {
            "continent_id":102191581,
            "country_id":85633337,
            "localadmin_id":404474179,
            "postalcode_id":890761421,
            "region_id":85687041
        }
    ],
    "wof:id":890761421,
    "wof:lastmodified":1469673780,
    "wof:name":"2548LS",
    "wof:parent_id":404474179,
    "wof:placetype":"postalcode",
    "wof:repo":"whosonfirst-data-postalcode-nl",
    "wof:superseded_by":[],
    "wof:supersedes":[],
    "wof:tags":[]
},
  "bbox": [
    4.292066097259521,
    52.0383186340332,
    4.292414665222168,
    52.03840637207031
],
  "geometry": {"coordinates":[[[4.29206609725952,52.0383186340332],[4.29220676422119,52.03835678100586],[4.29234218597412,52.03839111328125],[4.29241466522217,52.03840637207031],[4.29213857650757,52.038330078125],[4.29206609725952,52.0383186340332]]],"type":"Polygon"}
}