{
  "id": 890796125,
  "type": "Feature",
  "properties": {
    "clustr:alpha":0.05,
    "clustr:area":47.59,
    "clustr:count":12,
    "clustr:density":0.25,
    "clustr:perimeter":0.11,
    "edtf:cessation":"uuuu",
    "edtf:inception":"uuuu",
    "geom:area":0.0,
    "geom:bbox":"4.70448827744,52.0186882019,4.70546293259,52.0187263489",
    "geom:latitude":52.018705,
    "geom:longitude":4.704951,
    "iso:country":"NL",
    "mz:hierarchy_label":1,
    "mz:is_approximate":1,
    "mz:is_clustr":1,
    "src:geom":"oa",
    "wof:belongsto":[
        85687041,
        102191581,
        404474177,
        85633337,
        101751839
    ],
    "wof:breaches":[],
    "wof:country":"NL",
    "wof:created":1469675082,
    "wof:geomhash":"c36c8e7238e985ba56419b3fabfe7fb3",
    "wof:hierarchy":[
        {
            "continent_id":102191581,
            "country_id":85633337,
            "localadmin_id":404474177,
            "locality_id":101751839,
            "postalcode_id":890796125,
            "region_id":85687041
        }
    ],
    "wof:id":890796125,
    "wof:lastmodified":1469675082,
    "wof:name":"2803ZJ",
    "wof:parent_id":101751839,
    "wof:placetype":"postalcode",
    "wof:repo":"whosonfirst-data-postalcode-nl",
    "wof:superseded_by":[],
    "wof:supersedes":[],
    "wof:tags":[]
},
  "bbox": [
    4.704488277435303,
    52.0186882019043,
    4.70546293258667,
    52.01872634887695
],
  "geometry": {"coordinates":[[[4.70487880706787,52.01869583129883],[4.7044882774353,52.0186882019043],[4.70468282699585,52.01869964599609],[4.70487689971924,52.01870727539062],[4.70546293258667,52.01872634887695],[4.70526885986328,52.01871490478516],[4.70507478713989,52.01870346069336],[4.7049765586853,52.01869964599609],[4.70487880706787,52.01869583129883]]],"type":"Polygon"}
}