{
  "id": 891180411,
  "type": "Feature",
  "properties": {
    "clustr:alpha":0.05,
    "clustr:area":10.83,
    "clustr:count":16,
    "clustr:density":1.48,
    "clustr:perimeter":0.32,
    "edtf:cessation":"uuuu",
    "edtf:inception":"uuuu",
    "geom:area":0.000001,
    "geom:bbox":"5.84764862061,51.9824028015,5.84926891327,51.983341217",
    "geom:latitude":51.982886,
    "geom:longitude":5.848604,
    "iso:country":"NL",
    "mz:hierarchy_label":1,
    "mz:is_approximate":1,
    "mz:is_clustr":1,
    "src:geom":"oa",
    "wof:belongsto":[
        85687043,
        102191581,
        404473931,
        85633337,
        101754755
    ],
    "wof:breaches":[],
    "wof:country":"NL",
    "wof:created":1469690621,
    "wof:geomhash":"a9ba5751caca4e6d4e4be01a22c0c4e6",
    "wof:hierarchy":[
        {
            "continent_id":102191581,
            "country_id":85633337,
            "localadmin_id":404473931,
            "locality_id":101754755,
            "postalcode_id":891180411,
            "region_id":85687043
        }
    ],
    "wof:id":891180411,
    "wof:lastmodified":1469690621,
    "wof:name":"6862GP",
    "wof:parent_id":101754755,
    "wof:placetype":"postalcode",
    "wof:repo":"whosonfirst-data-postalcode-nl",
    "wof:superseded_by":[],
    "wof:supersedes":[],
    "wof:tags":[]
},
  "bbox": [
    5.847648620605469,
    51.98240280151367,
    5.849268913269043,
    51.983341217041016
],
  "geometry": {"coordinates":[[[5.84905576705933,51.98333740234375],[5.84926891326904,51.98285293579102],[5.84795475006104,51.98245239257812],[5.84786748886108,51.98243713378906],[5.84775066375732,51.98241806030273],[5.84764862060547,51.98240280151367],[5.84877920150757,51.98334121704102],[5.84888124465942,51.98334121704102],[5.84896850585938,51.98334121704102],[5.84905576705933,51.98333740234375]]],"type":"Polygon"}
}