{
  "id": 890764953,
  "type": "Feature",
  "properties": {
    "clustr:alpha":0.05,
    "clustr:area":12.47,
    "clustr:count":28,
    "clustr:density":2.25,
    "clustr:perimeter":0.17,
    "edtf:cessation":"uuuu",
    "edtf:inception":"uuuu",
    "geom:area":0.0,
    "geom:bbox":"4.27003622055,52.0731697083,4.27058029175,52.0738830566",
    "geom:latitude":52.073541,
    "geom:longitude":4.270273,
    "iso:country":"NL",
    "mz:hierarchy_label":1,
    "mz:is_approximate":1,
    "mz:is_clustr":1,
    "src:geom":"oa",
    "wof:belongsto":[
        85687041,
        102191581,
        404474179,
        85633337,
        101752763
    ],
    "wof:breaches":[],
    "wof:country":"NL",
    "wof:created":1469673930,
    "wof:geomhash":"638fe185c86609c1dbaabb226f04359d",
    "wof:hierarchy":[
        {
            "continent_id":102191581,
            "country_id":85633337,
            "localadmin_id":404474179,
            "locality_id":101752763,
            "postalcode_id":890764953,
            "region_id":85687041
        }
    ],
    "wof:id":890764953,
    "wof:lastmodified":1469673930,
    "wof:name":"2563HH",
    "wof:parent_id":101752763,
    "wof:placetype":"postalcode",
    "wof:repo":"whosonfirst-data-postalcode-nl",
    "wof:superseded_by":[],
    "wof:supersedes":[],
    "wof:tags":[]
},
  "bbox": [
    4.270036220550537,
    52.07316970825195,
    4.270580291748047,
    52.073883056640625
],
  "geometry": {"coordinates":[[[4.27048015594482,52.07320022583008],[4.27003622055054,52.0737190246582],[4.27012348175049,52.07388305664062],[4.27058029174805,52.07316970825195],[4.27048015594482,52.07320022583008]]],"type":"Polygon"}
}