{
  "id": 907051161,
  "type": "Feature",
  "properties": {
    "clustr:alpha":0.05,
    "clustr:area":137.69,
    "clustr:count":6,
    "clustr:density":0.04,
    "clustr:perimeter":0.19,
    "edtf:cessation":"uuuu",
    "edtf:inception":"uuuu",
    "geom:area":0.0,
    "geom:bbox":"5.79984712601,52.9609909058,5.8017206192,52.9614181519",
    "geom:latitude":52.961221,
    "geom:longitude":5.800648,
    "iso:country":"NL",
    "mz:hierarchy_label":1,
    "mz:is_approximate":1,
    "mz:is_clustr":1,
    "src:geom":"oa",
    "wof:belongsto":[
        85687055,
        102191581,
        404473745,
        85633337,
        101806179
    ],
    "wof:breaches":[],
    "wof:country":"NL",
    "wof:created":1469696862,
    "wof:geomhash":"8ec43c89ea2082ad2528216046300f12",
    "wof:hierarchy":[
        {
            "continent_id":102191581,
            "country_id":85633337,
            "localadmin_id":404473745,
            "locality_id":101806179,
            "postalcode_id":907051161,
            "region_id":85687055
        }
    ],
    "wof:id":907051161,
    "wof:lastmodified":1469696862,
    "wof:name":"8501HR",
    "wof:parent_id":101806179,
    "wof:placetype":"postalcode",
    "wof:repo":"whosonfirst-data-postalcode-nl",
    "wof:superseded_by":[],
    "wof:supersedes":[],
    "wof:tags":[]
},
  "bbox": [
    5.79984712600708,
    52.96099090576172,
    5.80172061920166,
    52.96141815185547
],
  "geometry": {"coordinates":[[[5.80097579956055,52.96116256713867],[5.80172061920166,52.96099090576172],[5.80112409591675,52.96110534667969],[5.80026245117188,52.96128082275391],[5.79984712600708,52.96141815185547],[5.80097579956055,52.96116256713867]]],"type":"Polygon"}
}