{
  "id": 891248729,
  "type": "Feature",
  "properties": {
    "clustr:alpha":0.05,
    "clustr:area":23.95,
    "clustr:count":8,
    "clustr:density":0.33,
    "clustr:perimeter":0.12,
    "edtf:cessation":"uuuu",
    "edtf:inception":"uuuu",
    "geom:area":0.0,
    "geom:bbox":"7.00853061676,52.2538642883,7.00904512405,52.2542457581",
    "geom:latitude":52.254037,
    "geom:longitude":7.008748,
    "iso:country":"NL",
    "mz:hierarchy_label":1,
    "mz:is_approximate":1,
    "mz:is_clustr":1,
    "src:geom":"oa",
    "wof:belongsto":[
        85687045,
        102191581,
        404473841,
        85633337,
        101807147
    ],
    "wof:breaches":[],
    "wof:country":"NL",
    "wof:created":1469693351,
    "wof:geomhash":"dcacf24a98a0329efec465e3325cec01",
    "wof:hierarchy":[
        {
            "continent_id":102191581,
            "country_id":85633337,
            "localadmin_id":404473841,
            "locality_id":101807147,
            "postalcode_id":891248729,
            "region_id":85687045
        }
    ],
    "wof:id":891248729,
    "wof:lastmodified":1469693351,
    "wof:name":"7582CL",
    "wof:parent_id":101807147,
    "wof:placetype":"postalcode",
    "wof:repo":"whosonfirst-data-postalcode-nl",
    "wof:superseded_by":[],
    "wof:supersedes":[],
    "wof:tags":[]
},
  "bbox": [
    7.008530616760254,
    52.25386428833008,
    7.009045124053955,
    52.25424575805664
],
  "geometry": {"coordinates":[[[7.00879573822021,52.25424575805664],[7.00904512405396,52.25390243530273],[7.0086350440979,52.25387191772461],[7.00853061676025,52.25386428833008],[7.00859832763672,52.25424575805664],[7.00879573822021,52.25424575805664]]],"type":"Polygon"}
}