{
  "id": 891216089,
  "type": "Feature",
  "properties": {
    "clustr:alpha":0.05,
    "clustr:area":11.28,
    "clustr:count":12,
    "clustr:density":1.06,
    "clustr:perimeter":0.07,
    "edtf:cessation":"uuuu",
    "edtf:inception":"uuuu",
    "geom:area":0.0,
    "geom:bbox":"5.98728609085,52.227519989,5.98773860931,52.2277603149",
    "geom:latitude":52.22764,
    "geom:longitude":5.987513,
    "iso:country":"NL",
    "mz:hierarchy_label":1,
    "mz:is_approximate":1,
    "mz:is_clustr":1,
    "src:geom":"oa",
    "wof:belongsto":[
        85687043,
        102191581,
        404473867,
        85633337,
        101751853
    ],
    "wof:breaches":[],
    "wof:country":"NL",
    "wof:created":1469692078,
    "wof:geomhash":"466243966e576142fac37de9e316918b",
    "wof:hierarchy":[
        {
            "continent_id":102191581,
            "country_id":85633337,
            "localadmin_id":404473867,
            "locality_id":101751853,
            "postalcode_id":891216089,
            "region_id":85687043
        }
    ],
    "wof:id":891216089,
    "wof:lastmodified":1469692078,
    "wof:name":"7323HH",
    "wof:parent_id":101751853,
    "wof:placetype":"postalcode",
    "wof:repo":"whosonfirst-data-postalcode-nl",
    "wof:superseded_by":[],
    "wof:supersedes":[],
    "wof:tags":[]
},
  "bbox": [
    5.98728609085083,
    52.22751998901367,
    5.987738609313965,
    52.227760314941406
],
  "geometry": {"coordinates":[[[5.98737335205078,52.22770309448242],[5.98728609085083,52.22774887084961],[5.98730182647705,52.22776031494141],[5.98747682571411,52.22766876220703],[5.98756408691406,52.22762298583984],[5.98765134811401,52.22757720947266],[5.98773860931396,52.22753143310547],[5.98772239685059,52.22751998901367],[5.98763513565063,52.22756576538086],[5.98754787445068,52.22761154174805],[5.98746061325073,52.22765731811523],[5.98737335205078,52.22770309448242]]],"type":"Polygon"}
}