{
  "id": 890720391,
  "type": "Feature",
  "properties": {
    "clustr:alpha":0.05,
    "clustr:area":6.68,
    "clustr:count":26,
    "clustr:density":3.89,
    "clustr:perimeter":0.02,
    "edtf:cessation":"uuuu",
    "edtf:inception":"uuuu",
    "geom:area":0.0,
    "geom:bbox":"4.41779088974,52.2053108215,4.41793680191,52.2053909302",
    "geom:latitude":52.205351,
    "geom:longitude":4.417865,
    "iso:country":"NL",
    "mz:hierarchy_label":1,
    "mz:is_approximate":1,
    "mz:is_clustr":1,
    "src:geom":"oa",
    "wof:belongsto":[
        102191581,
        404474191,
        85633337,
        85687041
    ],
    "wof:breaches":[],
    "wof:country":"NL",
    "wof:created":1469672167,
    "wof:geomhash":"61e56e61c9805892029f6654d07007d0",
    "wof:hierarchy":[
        {
            "continent_id":102191581,
            "country_id":85633337,
            "localadmin_id":404474191,
            "postalcode_id":890720391,
            "region_id":85687041
        }
    ],
    "wof:id":890720391,
    "wof:lastmodified":1469672167,
    "wof:name":"2221AR",
    "wof:parent_id":404474191,
    "wof:placetype":"postalcode",
    "wof:repo":"whosonfirst-data-postalcode-nl",
    "wof:superseded_by":[],
    "wof:supersedes":[],
    "wof:tags":[]
},
  "bbox": [
    4.41779088973999,
    52.2053108215332,
    4.4179368019104,
    52.20539093017578
],
  "geometry": {"coordinates":[[[4.41784858703613,52.20539093017578],[4.41786289215088,52.20539093017578],[4.41789245605469,52.20538330078125],[4.4179220199585,52.20537185668945],[4.4179368019104,52.20535659790039],[4.41792249679565,52.20533752441406],[4.41789388656616,52.20531845092773],[4.41786479949951,52.2053108215332],[4.4178352355957,52.20531845092773],[4.4178056716919,52.20533752441406],[4.41779088973999,52.20535278320312],[4.41784858703613,52.20539093017578]]],"type":"Polygon"}
}