{
  "id": 891005991,
  "type": "Feature",
  "properties": {
    "clustr:alpha":0.05,
    "clustr:area":63.11,
    "clustr:count":17,
    "clustr:density":0.27,
    "clustr:perimeter":0.18,
    "edtf:cessation":"uuuu",
    "edtf:inception":"uuuu",
    "geom:area":0.0,
    "geom:bbox":"5.04041910172,51.5730285645,5.04168272018,51.5735282898",
    "geom:latitude":51.573203,
    "geom:longitude":5.041089,
    "iso:country":"NL",
    "mz:hierarchy_label":1,
    "mz:is_approximate":1,
    "mz:is_clustr":1,
    "src:geom":"oa",
    "wof:belongsto":[
        85687035,
        102191581,
        404474435,
        85633337,
        101751817
    ],
    "wof:breaches":[],
    "wof:country":"NL",
    "wof:created":1469683699,
    "wof:geomhash":"95c583ef07865e3f5fc7a3efed85bb3f",
    "wof:hierarchy":[
        {
            "continent_id":102191581,
            "country_id":85633337,
            "localadmin_id":404474435,
            "locality_id":101751817,
            "postalcode_id":891005991,
            "region_id":85687035
        }
    ],
    "wof:id":891005991,
    "wof:lastmodified":1469683699,
    "wof:name":"5044RE",
    "wof:parent_id":101751817,
    "wof:placetype":"postalcode",
    "wof:repo":"whosonfirst-data-postalcode-nl",
    "wof:superseded_by":[],
    "wof:supersedes":[],
    "wof:tags":[]
},
  "bbox": [
    5.040419101715088,
    51.573028564453125,
    5.041682720184326,
    51.57352828979492
],
  "geometry": {"coordinates":[[[5.04116916656494,51.57302856445312],[5.04041910171509,51.57352828979492],[5.04067611694336,51.57343292236328],[5.04109573364258,51.57327270507812],[5.04168272018433,51.57304763793945],[5.04116916656494,51.57302856445312]]],"type":"Polygon"}
}