{
  "id": 890987683,
  "type": "Feature",
  "properties": {
    "clustr:alpha":0.05,
    "clustr:area":69.86,
    "clustr:count":13,
    "clustr:density":0.19,
    "clustr:perimeter":0.61,
    "edtf:cessation":"uuuu",
    "edtf:inception":"uuuu",
    "geom:area":0.000003,
    "geom:bbox":"4.75450372696,51.6030578613,4.75645494461,51.6051330566",
    "geom:latitude":51.604048,
    "geom:longitude":4.755496,
    "iso:country":"NL",
    "mz:hierarchy_label":1,
    "mz:is_approximate":1,
    "mz:is_clustr":1,
    "src:geom":"oa",
    "wof:belongsto":[
        85687035,
        102191581,
        404474363,
        85633337,
        101751811
    ],
    "wof:breaches":[],
    "wof:country":"NL",
    "wof:created":1469682969,
    "wof:geomhash":"0f0b69248b842a5f16df37261a1e60fe",
    "wof:hierarchy":[
        {
            "continent_id":102191581,
            "country_id":85633337,
            "localadmin_id":404474363,
            "locality_id":101751811,
            "postalcode_id":890987683,
            "region_id":85687035
        }
    ],
    "wof:id":890987683,
    "wof:lastmodified":1469682969,
    "wof:name":"4824AD",
    "wof:parent_id":101751811,
    "wof:placetype":"postalcode",
    "wof:repo":"whosonfirst-data-postalcode-nl",
    "wof:superseded_by":[],
    "wof:supersedes":[],
    "wof:tags":[]
},
  "bbox": [
    4.754503726959229,
    51.603057861328125,
    4.756454944610596,
    51.605133056640625
],
  "geometry": {"coordinates":[[[4.75610637664795,51.60513305664062],[4.75621938705444,51.60484313964844],[4.7564549446106,51.60323715209961],[4.75563335418701,51.60314178466797],[4.75478172302246,51.60307312011719],[4.75450372695923,51.60305786132812],[4.7548565864563,51.60498046875],[4.75520372390747,51.60508728027344],[4.75553846359253,51.60511779785156],[4.75610637664795,51.60513305664062]]],"type":"Polygon"}
}