{
  "id": 907061143,
  "type": "Feature",
  "properties": {
    "clustr:alpha":0.05,
    "clustr:area":37.9,
    "clustr:count":11,
    "clustr:density":0.29,
    "clustr:perimeter":0.11,
    "edtf:cessation":"uuuu",
    "edtf:inception":"uuuu",
    "geom:area":0.0,
    "geom:bbox":"5.42721605301,53.1777153015,5.42782974243,53.1782989502",
    "geom:latitude":53.177999,
    "geom:longitude":5.427531,
    "iso:country":"NL",
    "mz:hierarchy_label":1,
    "mz:is_approximate":1,
    "mz:is_clustr":1,
    "src:geom":"oa",
    "wof:belongsto":[
        85687055,
        102191581,
        404473769,
        85633337,
        101806147
    ],
    "wof:breaches":[],
    "wof:country":"NL",
    "wof:created":1469697282,
    "wof:geomhash":"1f7779cfdd0607c599b05f19756057f7",
    "wof:hierarchy":[
        {
            "continent_id":102191581,
            "country_id":85633337,
            "localadmin_id":404473769,
            "locality_id":101806147,
            "postalcode_id":907061143,
            "region_id":85687055
        }
    ],
    "wof:id":907061143,
    "wof:lastmodified":1469697282,
    "wof:name":"8861HR",
    "wof:parent_id":101806147,
    "wof:placetype":"postalcode",
    "wof:repo":"whosonfirst-data-postalcode-nl",
    "wof:superseded_by":[],
    "wof:supersedes":[],
    "wof:tags":[]
},
  "bbox": [
    5.427216053009033,
    53.17771530151367,
    5.427829742431641,
    53.17829895019531
],
  "geometry": {"coordinates":[[[5.42757511138916,53.17809295654297],[5.42777013778687,53.17825317382812],[5.42782974243164,53.17829895019531],[5.42753028869629,53.17792892456055],[5.42721605300903,53.17771530151367],[5.42757511138916,53.17809295654297]]],"type":"Polygon"}
}