{
  "id": 890660589,
  "type": "Feature",
  "properties": {
    "clustr:alpha":0.05,
    "clustr:area":16.95,
    "clustr:count":13,
    "clustr:density":0.77,
    "clustr:perimeter":0.4,
    "edtf:cessation":"uuuu",
    "edtf:inception":"uuuu",
    "geom:area":0.0,
    "geom:bbox":"5.17497444153,52.6895675659,5.17573785782,52.6914367676",
    "geom:latitude":52.690596,
    "geom:longitude":5.175337,
    "iso:country":"NL",
    "mz:hierarchy_label":1,
    "mz:is_approximate":1,
    "mz:is_clustr":1,
    "src:geom":"oa",
    "wof:belongsto":[
        85687053,
        102191581,
        404474155,
        85633337,
        101837927
    ],
    "wof:breaches":[],
    "wof:country":"NL",
    "wof:created":1469669495,
    "wof:geomhash":"636116428a1110d52bdb148376a84741",
    "wof:hierarchy":[
        {
            "continent_id":102191581,
            "country_id":85633337,
            "localadmin_id":404474155,
            "locality_id":101837927,
            "postalcode_id":890660589,
            "region_id":85687053
        }
    ],
    "wof:id":890660589,
    "wof:lastmodified":1469669495,
    "wof:name":"1616BX",
    "wof:parent_id":101837927,
    "wof:placetype":"postalcode",
    "wof:repo":"whosonfirst-data-postalcode-nl",
    "wof:superseded_by":[],
    "wof:supersedes":[],
    "wof:tags":[]
},
  "bbox": [
    5.17497444152832,
    52.68956756591797,
    5.175737857818604,
    52.691436767578125
],
  "geometry": {"coordinates":[[[5.17521238327026,52.69113159179688],[5.17533206939697,52.6909065246582],[5.1757378578186,52.68956756591797],[5.17551374435425,52.68999862670898],[5.17537927627563,52.69026947021484],[5.17528963088989,52.69045639038086],[5.17525959014893,52.69053649902344],[5.17497444152832,52.69143676757812],[5.17521238327026,52.69113159179688]]],"type":"Polygon"}
}