{
  "id": 890611741,
  "type": "Feature",
  "properties": {
    "clustr:alpha":0.05,
    "clustr:area":5.48,
    "clustr:count":15,
    "clustr:density":2.74,
    "clustr:perimeter":0.15,
    "edtf:cessation":"uuuu",
    "edtf:inception":"uuuu",
    "geom:area":0.0,
    "geom:bbox":"5.04044246674,52.44896698,5.041036129,52.4495201111",
    "geom:latitude":52.449265,
    "geom:longitude":5.040751,
    "iso:country":"NL",
    "mz:hierarchy_label":1,
    "mz:is_approximate":1,
    "mz:is_clustr":1,
    "src:geom":"oa",
    "wof:belongsto":[
        85687053,
        102191581,
        404474433,
        85633337,
        101807369
    ],
    "wof:breaches":[],
    "wof:country":"NL",
    "wof:created":1469667312,
    "wof:geomhash":"3ac11a58ed22c9ebfda7fca94ef37a80",
    "wof:hierarchy":[
        {
            "continent_id":102191581,
            "country_id":85633337,
            "localadmin_id":404474433,
            "locality_id":101807369,
            "postalcode_id":890611741,
            "region_id":85687053
        }
    ],
    "wof:id":890611741,
    "wof:lastmodified":1469667312,
    "wof:name":"1141DL",
    "wof:parent_id":101807369,
    "wof:placetype":"postalcode",
    "wof:repo":"whosonfirst-data-postalcode-nl",
    "wof:superseded_by":[],
    "wof:supersedes":[],
    "wof:tags":[]
},
  "bbox": [
    5.04044246673584,
    52.44896697998047,
    5.041036128997803,
    52.449520111083984
],
  "geometry": {"coordinates":[[[5.04049158096313,52.4493408203125],[5.0407190322876,52.44948577880859],[5.04077863693237,52.44952011108398],[5.0410361289978,52.44896697998047],[5.04098176956177,52.44899749755859],[5.04044246673584,52.44930648803711],[5.04049158096313,52.4493408203125]]],"type":"Polygon"}
}