{
  "id": 907047687,
  "type": "Feature",
  "properties": {
    "clustr:alpha":0.05,
    "clustr:area":38.73,
    "clustr:count":13,
    "clustr:density":0.34,
    "clustr:perimeter":0.42,
    "edtf:cessation":"uuuu",
    "edtf:inception":"uuuu",
    "geom:area":0.000001,
    "geom:bbox":"5.929210186,52.9424514771,5.9308795929,52.9440956116",
    "geom:latitude":52.943396,
    "geom:longitude":5.930133,
    "iso:country":"NL",
    "mz:hierarchy_label":1,
    "mz:is_approximate":1,
    "mz:is_clustr":1,
    "src:geom":"oa",
    "wof:belongsto":[
        85687055,
        102191581,
        404473771,
        85633337,
        101837957
    ],
    "wof:breaches":[],
    "wof:country":"NL",
    "wof:created":1469696697,
    "wof:geomhash":"77805b631d03cb0eee66435b209ade38",
    "wof:hierarchy":[
        {
            "continent_id":102191581,
            "country_id":85633337,
            "localadmin_id":404473771,
            "locality_id":101837957,
            "postalcode_id":907047687,
            "region_id":85687055
        }
    ],
    "wof:id":907047687,
    "wof:lastmodified":1469696697,
    "wof:name":"8445RK",
    "wof:parent_id":101837957,
    "wof:placetype":"postalcode",
    "wof:repo":"whosonfirst-data-postalcode-nl",
    "wof:superseded_by":[],
    "wof:supersedes":[],
    "wof:tags":[]
},
  "bbox": [
    5.929210186004639,
    52.94245147705078,
    5.930879592895508,
    52.944095611572266
],
  "geometry": {"coordinates":[[[5.93004417419434,52.94397354125977],[5.93035507202148,52.94384002685547],[5.93087959289551,52.94295501708984],[5.93059062957764,52.94245147705078],[5.92921018600464,52.94390487670898],[5.92942094802856,52.94409561157227],[5.92980718612671,52.94403076171875],[5.93004417419434,52.94397354125977]]],"type":"Polygon"}
}