{
  "id": 890648489,
  "type": "Feature",
  "properties": {
    "clustr:alpha":0.05,
    "clustr:area":60.23,
    "clustr:count":23,
    "clustr:density":0.38,
    "clustr:perimeter":0.23,
    "edtf:cessation":"uuuu",
    "edtf:inception":"uuuu",
    "geom:area":0.0,
    "geom:bbox":"4.95619487762,52.4861526489,4.9580039978,52.4866638184",
    "geom:latitude":52.486432,
    "geom:longitude":4.957102,
    "iso:country":"NL",
    "mz:hierarchy_label":1,
    "mz:is_approximate":1,
    "mz:is_clustr":1,
    "src:geom":"oa",
    "wof:belongsto":[
        85687053,
        102191581,
        404474111,
        85633337,
        101751889
    ],
    "wof:breaches":[],
    "wof:country":"NL",
    "wof:created":1469668915,
    "wof:geomhash":"9743e99970dcd783145766b14115704b",
    "wof:hierarchy":[
        {
            "continent_id":102191581,
            "country_id":85633337,
            "localadmin_id":404474111,
            "locality_id":101751889,
            "postalcode_id":890648489,
            "region_id":85687053
        }
    ],
    "wof:id":890648489,
    "wof:lastmodified":1469668915,
    "wof:name":"1447XG",
    "wof:parent_id":101751889,
    "wof:placetype":"postalcode",
    "wof:repo":"whosonfirst-data-postalcode-nl",
    "wof:superseded_by":[],
    "wof:supersedes":[],
    "wof:tags":[]
},
  "bbox": [
    4.956194877624512,
    52.48615264892578,
    4.958003997802734,
    52.486663818359375
],
  "geometry": {"coordinates":[[[4.95714712142944,52.48646545410156],[4.9576301574707,52.48629379272461],[4.95800399780273,52.48615264892578],[4.95619487762451,52.48666381835938],[4.95662021636963,52.4865837097168],[4.95714712142944,52.48646545410156]]],"type":"Polygon"}
}