{
  "id": 890984047,
  "type": "Feature",
  "properties": {
    "clustr:alpha":0.05,
    "clustr:area":28.99,
    "clustr:count":22,
    "clustr:density":0.76,
    "clustr:perimeter":0.18,
    "edtf:cessation":"uuuu",
    "edtf:inception":"uuuu",
    "geom:area":0.0,
    "geom:bbox":"4.77332448959,51.5804786682,4.77386283875,51.5813293457",
    "geom:latitude":51.580858,
    "geom:longitude":4.77358,
    "iso:country":"NL",
    "mz:hierarchy_label":1,
    "mz:is_approximate":1,
    "mz:is_clustr":1,
    "src:geom":"oa",
    "wof:belongsto":[
        85687035,
        102191581,
        404474363,
        85633337,
        101751811
    ],
    "wof:breaches":[],
    "wof:country":"NL",
    "wof:created":1469682809,
    "wof:geomhash":"fa3228965202813d0899a083f0c71744",
    "wof:hierarchy":[
        {
            "continent_id":102191581,
            "country_id":85633337,
            "localadmin_id":404474363,
            "locality_id":101751811,
            "postalcode_id":890984047,
            "region_id":85687035
        }
    ],
    "wof:id":890984047,
    "wof:lastmodified":1469682809,
    "wof:name":"4811RA",
    "wof:parent_id":101751811,
    "wof:placetype":"postalcode",
    "wof:repo":"whosonfirst-data-postalcode-nl",
    "wof:superseded_by":[],
    "wof:supersedes":[],
    "wof:tags":[]
},
  "bbox": [
    4.773324489593506,
    51.58047866821289,
    4.773862838745117,
    51.581329345703125
],
  "geometry": {"coordinates":[[[4.77353525161743,51.58079528808594],[4.77332448959351,51.58132934570312],[4.77386283874512,51.58047866821289],[4.77374982833862,51.58057403564453],[4.77353525161743,51.58079528808594]]],"type":"Polygon"}
}