{
  "id": 891250151,
  "type": "Feature",
  "properties": {
    "clustr:alpha":0.05,
    "clustr:area":163.93,
    "clustr:count":10,
    "clustr:density":0.06,
    "clustr:perimeter":1.23,
    "edtf:cessation":"uuuu",
    "edtf:inception":"uuuu",
    "geom:area":0.000009,
    "geom:bbox":"6.85900831223,52.3499488831,6.86746263504,52.3524017334",
    "geom:latitude":52.351103,
    "geom:longitude":6.863934,
    "iso:country":"NL",
    "mz:hierarchy_label":1,
    "mz:is_approximate":1,
    "mz:is_clustr":1,
    "src:geom":"oa",
    "wof:belongsto":[
        102191581,
        404474665,
        85633337,
        85687045
    ],
    "wof:breaches":[],
    "wof:country":"NL",
    "wof:created":1469693411,
    "wof:geomhash":"3888d03bd5e81ee862693fec2ed0f068",
    "wof:hierarchy":[
        {
            "continent_id":102191581,
            "country_id":85633337,
            "localadmin_id":404474665,
            "postalcode_id":891250151,
            "region_id":85687045
        }
    ],
    "wof:id":891250151,
    "wof:lastmodified":1469693411,
    "wof:name":"7595PJ",
    "wof:parent_id":404474665,
    "wof:placetype":"postalcode",
    "wof:repo":"whosonfirst-data-postalcode-nl",
    "wof:superseded_by":[],
    "wof:supersedes":[],
    "wof:tags":[]
},
  "bbox": [
    6.859008312225342,
    52.34994888305664,
    6.867462635040283,
    52.35240173339844
],
  "geometry": {"coordinates":[[[6.86605167388916,52.3520622253418],[6.86648368835449,52.35182571411133],[6.86746263504028,52.35079574584961],[6.85900831222534,52.34994888305664],[6.86474180221558,52.35240173339844],[6.86605167388916,52.3520622253418]]],"type":"Polygon"}
}