{
  "id": 890654259,
  "type": "Feature",
  "properties": {
    "clustr:alpha":0.05,
    "clustr:area":1.02,
    "clustr:count":9,
    "clustr:density":8.86,
    "clustr:perimeter":0.09,
    "edtf:cessation":"uuuu",
    "edtf:inception":"uuuu",
    "geom:area":0.0,
    "geom:bbox":"4.79094266891,52.4986000061,4.79117250443,52.4990158081",
    "geom:latitude":52.498764,
    "geom:longitude":4.791027,
    "iso:country":"NL",
    "mz:hierarchy_label":1,
    "mz:is_approximate":1,
    "mz:is_clustr":1,
    "src:geom":"oa",
    "wof:belongsto":[
        85687053,
        102191581,
        404474143,
        85633337,
        101754869
    ],
    "wof:breaches":[],
    "wof:country":"NL",
    "wof:created":1469669227,
    "wof:geomhash":"eaa9b39374d32c829c06a609a67784a2",
    "wof:hierarchy":[
        {
            "continent_id":102191581,
            "country_id":85633337,
            "localadmin_id":404474143,
            "locality_id":101754869,
            "postalcode_id":890654259,
            "region_id":85687053
        }
    ],
    "wof:id":890654259,
    "wof:lastmodified":1469669227,
    "wof:name":"1521LC",
    "wof:parent_id":101754869,
    "wof:placetype":"postalcode",
    "wof:repo":"whosonfirst-data-postalcode-nl",
    "wof:superseded_by":[],
    "wof:supersedes":[],
    "wof:tags":[]
},
  "bbox": [
    4.790942668914795,
    52.498600006103516,
    4.791172504425049,
    52.49901580810547
],
  "geometry": {"coordinates":[[[4.79094266891479,52.49860000610352],[4.79095649719238,52.4986572265625],[4.79114389419556,52.49897003173828],[4.79117250442505,52.49901580810547],[4.79094266891479,52.49860000610352]]],"type":"Polygon"}
}