{
  "id": 891010691,
  "type": "Feature",
  "properties": {
    "clustr:alpha":0.05,
    "clustr:area":98.48,
    "clustr:count":24,
    "clustr:density":0.24,
    "clustr:perimeter":0.2,
    "edtf:cessation":"uuuu",
    "edtf:inception":"uuuu",
    "geom:area":0.0,
    "geom:bbox":"5.22291660309,51.6018638611,5.22453069687,51.6024513245",
    "geom:latitude":51.602157,
    "geom:longitude":5.223732,
    "iso:country":"NL",
    "mz:hierarchy_label":1,
    "mz:is_approximate":1,
    "mz:is_clustr":1,
    "src:geom":"oa",
    "wof:belongsto":[
        85687035,
        102191581,
        404474387,
        85633337,
        101808257
    ],
    "wof:breaches":[],
    "wof:country":"NL",
    "wof:created":1469683893,
    "wof:geomhash":"d4c7c26eb0e53e929b48ffc47ef5abdc",
    "wof:hierarchy":[
        {
            "continent_id":102191581,
            "country_id":85633337,
            "localadmin_id":404474387,
            "locality_id":101808257,
            "postalcode_id":891010691,
            "region_id":85687035
        }
    ],
    "wof:id":891010691,
    "wof:lastmodified":1469683893,
    "wof:name":"5076CS",
    "wof:parent_id":101808257,
    "wof:placetype":"postalcode",
    "wof:repo":"whosonfirst-data-postalcode-nl",
    "wof:superseded_by":[],
    "wof:supersedes":[],
    "wof:tags":[]
},
  "bbox": [
    5.222916603088379,
    51.601863861083984,
    5.224530696868896,
    51.60245132446289
],
  "geometry": {"coordinates":[[[5.22436380386353,51.60245132446289],[5.2245306968689,51.60225296020508],[5.22427272796631,51.60217666625977],[5.22419309616089,51.60215377807617],[5.22312784194946,51.60186386108398],[5.22291660308838,51.60205078125],[5.2230110168457,51.60208129882812],[5.2235426902771,51.60223770141602],[5.22436380386353,51.60245132446289]]],"type":"Polygon"}
}