{
  "id": 890691163,
  "type": "Feature",
  "properties": {
    "clustr:alpha":0.05,
    "clustr:area":12.66,
    "clustr:count":12,
    "clustr:density":0.95,
    "clustr:perimeter":0.04,
    "edtf:cessation":"uuuu",
    "edtf:inception":"uuuu",
    "geom:area":0.0,
    "geom:bbox":"4.65689229965,52.4858360291,4.65720033646,52.4859619141",
    "geom:latitude":52.485907,
    "geom:longitude":4.657044,
    "iso:country":"NL",
    "mz:hierarchy_label":1,
    "mz:is_approximate":1,
    "mz:is_clustr":1,
    "src:geom":"oa",
    "wof:belongsto":[
        85687053,
        102191581,
        404474043,
        85633337,
        101754793
    ],
    "wof:breaches":[],
    "wof:country":"NL",
    "wof:created":1469670850,
    "wof:geomhash":"c2371f71742c23aeb96c65ae245b5d76",
    "wof:hierarchy":[
        {
            "continent_id":102191581,
            "country_id":85633337,
            "localadmin_id":404474043,
            "locality_id":101754793,
            "postalcode_id":890691163,
            "region_id":85687053
        }
    ],
    "wof:id":890691163,
    "wof:lastmodified":1469670850,
    "wof:name":"1941CJ",
    "wof:parent_id":101754793,
    "wof:placetype":"postalcode",
    "wof:repo":"whosonfirst-data-postalcode-nl",
    "wof:superseded_by":[],
    "wof:supersedes":[],
    "wof:tags":[]
},
  "bbox": [
    4.6568922996521,
    52.485836029052734,
    4.657200336456299,
    52.4859619140625
],
  "geometry": {"coordinates":[[[4.65700817108154,52.4859619140625],[4.65703773498535,52.4859619140625],[4.65714073181152,52.48594665527344],[4.6572003364563,52.48592758178711],[4.6571855545044,52.48590850830078],[4.65700960159302,52.48586273193359],[4.65693616867065,52.48584365844727],[4.6568922996521,52.48583602905273],[4.65700817108154,52.4859619140625]]],"type":"Polygon"}
}