{
  "id": 890974853,
  "type": "Feature",
  "properties": {
    "clustr:alpha":0.05,
    "clustr:area":225.53,
    "clustr:count":12,
    "clustr:density":0.05,
    "clustr:perimeter":0.21,
    "edtf:cessation":"uuuu",
    "edtf:inception":"uuuu",
    "geom:area":0.0,
    "geom:bbox":"4.19925737381,51.5711135864,4.20150756836,51.5715408325",
    "geom:latitude":51.571365,
    "geom:longitude":4.200515,
    "iso:country":"NL",
    "mz:hierarchy_label":1,
    "mz:is_approximate":1,
    "mz:is_clustr":1,
    "src:geom":"oa",
    "wof:belongsto":[
        85687037,
        102191581,
        404474331,
        85633337,
        101808373
    ],
    "wof:breaches":[],
    "wof:country":"NL",
    "wof:created":1469682397,
    "wof:geomhash":"24798e7b09e5f10b112329f1f1fd79b6",
    "wof:hierarchy":[
        {
            "continent_id":102191581,
            "country_id":85633337,
            "localadmin_id":404474331,
            "locality_id":101808373,
            "postalcode_id":890974853,
            "region_id":85687037
        }
    ],
    "wof:id":890974853,
    "wof:lastmodified":1469682397,
    "wof:name":"4698CH",
    "wof:parent_id":101808373,
    "wof:placetype":"postalcode",
    "wof:repo":"whosonfirst-data-postalcode-nl",
    "wof:superseded_by":[],
    "wof:supersedes":[],
    "wof:tags":[]
},
  "bbox": [
    4.199257373809814,
    51.57111358642578,
    4.201507568359375,
    51.57154083251953
],
  "geometry": {"coordinates":[[[4.20107650756836,51.57144165039062],[4.20150756835938,51.57111358642578],[4.1995005607605,51.57143783569336],[4.19925737380981,51.57154083251953],[4.20107650756836,51.57144165039062]]],"type":"Polygon"}
}