{
  "id": 891075471,
  "type": "Feature",
  "properties": {
    "clustr:alpha":0.05,
    "clustr:area":29.44,
    "clustr:count":5,
    "clustr:density":0.17,
    "clustr:perimeter":0.13,
    "edtf:cessation":"uuuu",
    "edtf:inception":"uuuu",
    "geom:area":0.0,
    "geom:bbox":"5.47913312912,51.5103759766,5.48008489609,51.5106735229",
    "geom:latitude":51.510532,
    "geom:longitude":5.479638,
    "iso:country":"NL",
    "mz:hierarchy_label":1,
    "mz:is_approximate":1,
    "mz:is_clustr":1,
    "src:geom":"oa",
    "wof:belongsto":[
        102191581,
        404474429,
        85633337,
        85687035
    ],
    "wof:breaches":[],
    "wof:country":"NL",
    "wof:created":1469686323,
    "wof:geomhash":"611ec8538f63278cd3f6153b65a1f2c5",
    "wof:hierarchy":[
        {
            "continent_id":102191581,
            "country_id":85633337,
            "localadmin_id":404474429,
            "postalcode_id":891075471,
            "region_id":85687035
        }
    ],
    "wof:id":891075471,
    "wof:lastmodified":1469686323,
    "wof:name":"5691RV",
    "wof:parent_id":404474429,
    "wof:placetype":"postalcode",
    "wof:repo":"whosonfirst-data-postalcode-nl",
    "wof:superseded_by":[],
    "wof:supersedes":[],
    "wof:tags":[]
},
  "bbox": [
    5.479133129119873,
    51.5103759765625,
    5.480084896087646,
    51.51067352294922
],
  "geometry": {"coordinates":[[[5.47937822341919,51.51044845581055],[5.47913312911987,51.5103759765625],[5.47983980178833,51.51060104370117],[5.48008489608765,51.51067352294922],[5.47962331771851,51.51052093505859],[5.47937822341919,51.51044845581055]]],"type":"Polygon"}
}