{
  "id": 890905267,
  "type": "Feature",
  "properties": {
    "clustr:alpha":0.05,
    "clustr:area":7.41,
    "clustr:count":26,
    "clustr:density":3.51,
    "clustr:perimeter":0.21,
    "edtf:cessation":"uuuu",
    "edtf:inception":"uuuu",
    "geom:area":0.0,
    "geom:bbox":"5.38838148117,52.1407585144,5.38913297653,52.1416015625",
    "geom:latitude":52.141179,
    "geom:longitude":5.388755,
    "iso:country":"NL",
    "mz:hierarchy_label":1,
    "mz:is_approximate":1,
    "mz:is_clustr":1,
    "src:geom":"oa",
    "wof:belongsto":[
        85687039,
        102191581,
        404473971,
        85633337,
        101751821
    ],
    "wof:breaches":[],
    "wof:country":"NL",
    "wof:created":1469679423,
    "wof:geomhash":"6a9e364aa76cc5c39df1f339caca0357",
    "wof:hierarchy":[
        {
            "continent_id":102191581,
            "country_id":85633337,
            "localadmin_id":404473971,
            "locality_id":101751821,
            "postalcode_id":890905267,
            "region_id":85687039
        }
    ],
    "wof:id":890905267,
    "wof:lastmodified":1469679423,
    "wof:name":"3817WC",
    "wof:parent_id":101751821,
    "wof:placetype":"postalcode",
    "wof:repo":"whosonfirst-data-postalcode-nl",
    "wof:superseded_by":[],
    "wof:supersedes":[],
    "wof:tags":[]
},
  "bbox": [
    5.388381481170654,
    52.1407585144043,
    5.389132976531982,
    52.1416015625
],
  "geometry": {"coordinates":[[[5.38843536376953,52.14152908325195],[5.38838148117065,52.1416015625],[5.38847351074219,52.14150238037109],[5.38909816741943,52.14080429077148],[5.38913297653198,52.1407585144043],[5.38905763626099,52.14083480834961],[5.38888549804688,52.14102554321289],[5.38843536376953,52.14152908325195]]],"type":"Polygon"}
}