{
  "id": 890730449,
  "type": "Feature",
  "properties": {
    "clustr:alpha":0.05,
    "clustr:area":25.71,
    "clustr:count":22,
    "clustr:density":0.86,
    "clustr:perimeter":0.11,
    "edtf:cessation":"uuuu",
    "edtf:inception":"uuuu",
    "geom:area":0.0,
    "geom:bbox":"4.33473062515,52.0510444641,4.33521366119,52.0515785217",
    "geom:latitude":52.051348,
    "geom:longitude":4.334942,
    "iso:country":"NL",
    "mz:hierarchy_label":1,
    "mz:is_approximate":1,
    "mz:is_clustr":1,
    "src:geom":"oa",
    "wof:belongsto":[
        85687041,
        102191581,
        404474251,
        85633337,
        101754743
    ],
    "wof:breaches":[],
    "wof:country":"NL",
    "wof:created":1469672574,
    "wof:geomhash":"59bd9281dc3f545741a4b847ef7806a8",
    "wof:hierarchy":[
        {
            "continent_id":102191581,
            "country_id":85633337,
            "localadmin_id":404474251,
            "locality_id":101754743,
            "postalcode_id":890730449,
            "region_id":85687041
        }
    ],
    "wof:id":890730449,
    "wof:lastmodified":1469672574,
    "wof:name":"2282GH",
    "wof:parent_id":101754743,
    "wof:placetype":"postalcode",
    "wof:repo":"whosonfirst-data-postalcode-nl",
    "wof:superseded_by":[],
    "wof:supersedes":[],
    "wof:tags":[]
},
  "bbox": [
    4.334730625152588,
    52.05104446411133,
    4.335213661193848,
    52.051578521728516
],
  "geometry": {"coordinates":[[[4.33484649658203,52.05136489868164],[4.33479833602905,52.05142211914062],[4.33473062515259,52.05155563354492],[4.33480787277222,52.05157852172852],[4.33485698699951,52.0515251159668],[4.33511161804199,52.05121612548828],[4.33521366119385,52.05104446411133],[4.33512687683105,52.05110931396484],[4.33504247665405,52.05118560791016],[4.33484649658203,52.05136489868164]]],"type":"Polygon"}
}