{
  "id": 890702809,
  "type": "Feature",
  "properties": {
    "clustr:alpha":0.05,
    "clustr:area":18.07,
    "clustr:count":15,
    "clustr:density":0.83,
    "clustr:perimeter":0.1,
    "edtf:cessation":"uuuu",
    "edtf:inception":"uuuu",
    "geom:area":0.0,
    "geom:bbox":"4.65148878098,52.3781013489,4.65190124512,52.3786239624",
    "geom:latitude":52.378371,
    "geom:longitude":4.651702,
    "iso:country":"NL",
    "mz:hierarchy_label":1,
    "mz:is_approximate":1,
    "mz:is_clustr":1,
    "src:geom":"oa",
    "wof:belongsto":[
        85687053,
        102191581,
        404474061,
        85633337,
        101751897
    ],
    "wof:breaches":[],
    "wof:country":"NL",
    "wof:created":1469671351,
    "wof:geomhash":"d796ff131a0a251afab164a6bad19341",
    "wof:hierarchy":[
        {
            "continent_id":102191581,
            "country_id":85633337,
            "localadmin_id":404474061,
            "locality_id":101751897,
            "postalcode_id":890702809,
            "region_id":85687053
        }
    ],
    "wof:id":890702809,
    "wof:lastmodified":1469671351,
    "wof:name":"2032MD",
    "wof:parent_id":101751897,
    "wof:placetype":"postalcode",
    "wof:repo":"whosonfirst-data-postalcode-nl",
    "wof:superseded_by":[],
    "wof:supersedes":[],
    "wof:tags":[]
},
  "bbox": [
    4.651488780975342,
    52.37810134887695,
    4.651901245117188,
    52.378623962402344
],
  "geometry": {"coordinates":[[[4.65173053741455,52.37838363647461],[4.65148878097534,52.37810134887695],[4.65170097351074,52.37839126586914],[4.65190124511719,52.37862396240234],[4.65173053741455,52.37838363647461]]],"type":"Polygon"}
}