{
  "id": 890766129,
  "type": "Feature",
  "properties": {
    "clustr:alpha":0.05,
    "clustr:area":22.82,
    "clustr:count":15,
    "clustr:density":0.66,
    "clustr:perimeter":0.18,
    "edtf:cessation":"uuuu",
    "edtf:inception":"uuuu",
    "geom:area":0.0,
    "geom:bbox":"4.27360773087,52.0802383423,4.27425336838,52.0809898376",
    "geom:latitude":52.080732,
    "geom:longitude":4.273885,
    "iso:country":"NL",
    "mz:hierarchy_label":1,
    "mz:is_approximate":1,
    "mz:is_clustr":1,
    "src:geom":"oa",
    "wof:belongsto":[
        85687041,
        102191581,
        404474179,
        85633337,
        101752763
    ],
    "wof:breaches":[],
    "wof:country":"NL",
    "wof:created":1469673975,
    "wof:geomhash":"15fb158a93ed7a6cebe3fc48529779d0",
    "wof:hierarchy":[
        {
            "continent_id":102191581,
            "country_id":85633337,
            "localadmin_id":404474179,
            "locality_id":101752763,
            "postalcode_id":890766129,
            "region_id":85687041
        }
    ],
    "wof:id":890766129,
    "wof:lastmodified":1469673975,
    "wof:name":"2565LN",
    "wof:parent_id":101752763,
    "wof:placetype":"postalcode",
    "wof:repo":"whosonfirst-data-postalcode-nl",
    "wof:superseded_by":[],
    "wof:supersedes":[],
    "wof:tags":[]
},
  "bbox": [
    4.273607730865479,
    52.080238342285156,
    4.274253368377686,
    52.080989837646484
],
  "geometry": {"coordinates":[[[4.27379655838013,52.08098983764648],[4.27425336837769,52.08023834228516],[4.27406883239746,52.0804443359375],[4.27402448654175,52.08049392700195],[4.27371740341187,52.08084106445312],[4.27360773086548,52.08097839355469],[4.27379655838013,52.08098983764648]]],"type":"Polygon"}
}