{
  "id": 890791145,
  "type": "Feature",
  "properties": {
    "clustr:alpha":0.05,
    "clustr:area":8.78,
    "clustr:count":23,
    "clustr:density":2.62,
    "clustr:perimeter":0.25,
    "edtf:cessation":"uuuu",
    "edtf:inception":"uuuu",
    "geom:area":0.0,
    "geom:bbox":"4.51242351532,52.0759887695,4.51307582855,52.077041626",
    "geom:latitude":52.076344,
    "geom:longitude":4.512671,
    "iso:country":"NL",
    "mz:hierarchy_label":1,
    "mz:is_approximate":1,
    "mz:is_clustr":1,
    "src:geom":"oa",
    "wof:belongsto":[
        85687041,
        102191581,
        404474287,
        85633337,
        101751835
    ],
    "wof:breaches":[],
    "wof:country":"NL",
    "wof:created":1469674902,
    "wof:geomhash":"0e2e04d5f0632f564336e8e519e84ef5",
    "wof:hierarchy":[
        {
            "continent_id":102191581,
            "country_id":85633337,
            "localadmin_id":404474287,
            "locality_id":101751835,
            "postalcode_id":890791145,
            "region_id":85687041
        }
    ],
    "wof:id":890791145,
    "wof:lastmodified":1469674902,
    "wof:name":"2728AV",
    "wof:parent_id":101751835,
    "wof:placetype":"postalcode",
    "wof:repo":"whosonfirst-data-postalcode-nl",
    "wof:superseded_by":[],
    "wof:supersedes":[],
    "wof:tags":[]
},
  "bbox": [
    4.512423515319824,
    52.07598876953125,
    4.513075828552246,
    52.07704162597656
],
  "geometry": {"coordinates":[[[4.51248598098755,52.07624816894531],[4.51248216629028,52.07628631591797],[4.51247787475586,52.07633972167969],[4.51243925094604,52.07683944702148],[4.51242351531982,52.07704162597656],[4.51307582855225,52.07599639892578],[4.51298809051514,52.07599258422852],[4.51289939880371,52.07598876953125],[4.51280736923218,52.07598876953125],[4.51253604888916,52.07598876953125],[4.51248598098755,52.07624816894531]]],"type":"Polygon"}
}