{
  "id": 891112255,
  "type": "Feature",
  "properties": {
    "clustr:alpha":0.05,
    "clustr:area":118.29,
    "clustr:count":23,
    "clustr:density":0.19,
    "clustr:perimeter":0.42,
    "edtf:cessation":"uuuu",
    "edtf:inception":"uuuu",
    "geom:area":0.000002,
    "geom:bbox":"5.89881706238,51.1092758179,5.90066099167,51.111000061",
    "geom:latitude":51.109869,
    "geom:longitude":5.899906,
    "iso:country":"NL",
    "mz:hierarchy_label":1,
    "mz:is_approximate":1,
    "mz:is_clustr":1,
    "src:geom":"oa",
    "wof:belongsto":[
        85687033,
        102191581,
        404474627,
        85633337,
        101809579
    ],
    "wof:breaches":[],
    "wof:country":"NL",
    "wof:created":1469687730,
    "wof:geomhash":"fa60529023ae3eaf9d53724cdec0d3c5",
    "wof:hierarchy":[
        {
            "continent_id":102191581,
            "country_id":85633337,
            "localadmin_id":404474627,
            "locality_id":101809579,
            "postalcode_id":891112255,
            "region_id":85687033
        }
    ],
    "wof:id":891112255,
    "wof:lastmodified":1469687730,
    "wof:name":"6111AC",
    "wof:parent_id":101809579,
    "wof:placetype":"postalcode",
    "wof:repo":"whosonfirst-data-postalcode-nl",
    "wof:superseded_by":[],
    "wof:supersedes":[],
    "wof:tags":[]
},
  "bbox": [
    5.89881706237793,
    51.109275817871094,
    5.900660991668701,
    51.111000061035156
],
  "geometry": {"coordinates":[[[5.89945030212402,51.11003875732422],[5.90049314498901,51.11086654663086],[5.9006609916687,51.11100006103516],[5.90043783187866,51.10927581787109],[5.89881706237793,51.10928344726562],[5.89885091781616,51.10942459106445],[5.8988881111145,51.10956192016602],[5.89945030212402,51.11003875732422]]],"type":"Polygon"}
}