{
  "id": 891151763,
  "type": "Feature",
  "properties": {
    "clustr:alpha":0.05,
    "clustr:area":35.55,
    "clustr:count":5,
    "clustr:density":0.14,
    "clustr:perimeter":0.12,
    "edtf:cessation":"uuuu",
    "edtf:inception":"uuuu",
    "geom:area":0.0,
    "geom:bbox":"5.92802095413,51.7715301514,5.92867708206,51.7718772888",
    "geom:latitude":51.771689,
    "geom:longitude":5.928402,
    "iso:country":"NL",
    "mz:hierarchy_label":1,
    "mz:is_approximate":1,
    "mz:is_clustr":1,
    "src:geom":"oa",
    "wof:belongsto":[
        85687043,
        102191581,
        404473903,
        85633337,
        101808697
    ],
    "wof:breaches":[],
    "wof:country":"NL",
    "wof:created":1469689437,
    "wof:geomhash":"6b481283d02c0c8a47384313da07ce75",
    "wof:hierarchy":[
        {
            "continent_id":102191581,
            "country_id":85633337,
            "localadmin_id":404473903,
            "locality_id":101808697,
            "postalcode_id":891151763,
            "region_id":85687043
        }
    ],
    "wof:id":891151763,
    "wof:lastmodified":1469689437,
    "wof:name":"6562ZH",
    "wof:parent_id":101808697,
    "wof:placetype":"postalcode",
    "wof:repo":"whosonfirst-data-postalcode-nl",
    "wof:superseded_by":[],
    "wof:supersedes":[],
    "wof:tags":[]
},
  "bbox": [
    5.92802095413208,
    51.77153015136719,
    5.928677082061768,
    51.77187728881836
],
  "geometry": {"coordinates":[[[5.92831087112427,51.77153778076172],[5.92802095413208,51.77153015136719],[5.92834377288818,51.7718620300293],[5.92867708206177,51.77187728881836],[5.92860078811646,51.77154541015625],[5.92831087112427,51.77153778076172]]],"type":"Polygon"}
}