{
  "id": 890894585,
  "type": "Feature",
  "properties": {
    "clustr:alpha":0.05,
    "clustr:area":9.94,
    "clustr:count":26,
    "clustr:density":2.62,
    "clustr:perimeter":0.12,
    "edtf:cessation":"uuuu",
    "edtf:inception":"uuuu",
    "geom:area":0.0,
    "geom:bbox":"5.29117918015,52.2185173035,5.29177951813,52.218875885",
    "geom:latitude":52.218695,
    "geom:longitude":5.291491,
    "iso:country":"NL",
    "mz:hierarchy_label":1,
    "mz:is_approximate":1,
    "mz:is_clustr":1,
    "src:geom":"oa",
    "wof:belongsto":[
        85687039,
        102191581,
        404473973,
        85633337,
        101837651
    ],
    "wof:breaches":[],
    "wof:country":"NL",
    "wof:created":1469678872,
    "wof:geomhash":"7f21dc73d3cd881ec60e98cb8f8b7110",
    "wof:hierarchy":[
        {
            "continent_id":102191581,
            "country_id":85633337,
            "localadmin_id":404473973,
            "locality_id":101837651,
            "postalcode_id":890894585,
            "region_id":85687039
        }
    ],
    "wof:id":890894585,
    "wof:lastmodified":1469678872,
    "wof:name":"3741VC",
    "wof:parent_id":101837651,
    "wof:placetype":"postalcode",
    "wof:repo":"whosonfirst-data-postalcode-nl",
    "wof:superseded_by":[],
    "wof:supersedes":[],
    "wof:tags":[]
},
  "bbox": [
    5.291179180145264,
    52.2185173034668,
    5.291779518127441,
    52.218875885009766
],
  "geometry": {"coordinates":[[[5.29158067703247,52.21884536743164],[5.29177951812744,52.2185173034668],[5.29166269302368,52.21854400634766],[5.29125261306763,52.21864318847656],[5.29122352600098,52.21865081787109],[5.29117918014526,52.21867752075195],[5.29132556915283,52.21878433227539],[5.29139852523804,52.21883010864258],[5.29147148132324,52.21887588500977],[5.29150056838989,52.21886825561523],[5.29158067703247,52.21884536743164]]],"type":"Polygon"}
}