{
  "id": 891227569,
  "type": "Feature",
  "properties": {
    "clustr:alpha":0.05,
    "clustr:area":1.5,
    "clustr:count":13,
    "clustr:density":8.69,
    "clustr:perimeter":0.92,
    "edtf:cessation":"uuuu",
    "edtf:inception":"uuuu",
    "geom:area":0.000001,
    "geom:bbox":"6.29240322113,52.2475013733,6.29302597046,52.2516365051",
    "geom:latitude":52.250119,
    "geom:longitude":6.292743,
    "iso:country":"NL",
    "mz:hierarchy_label":1,
    "mz:is_approximate":1,
    "mz:is_clustr":1,
    "src:geom":"oa",
    "wof:belongsto":[
        85687045,
        102191581,
        404473825,
        85633337,
        101807137
    ],
    "wof:breaches":[],
    "wof:country":"NL",
    "wof:created":1469692508,
    "wof:geomhash":"ce356c0d7071410be62852ca41c5e5e7",
    "wof:hierarchy":[
        {
            "continent_id":102191581,
            "country_id":85633337,
            "localadmin_id":404473825,
            "locality_id":101807137,
            "postalcode_id":891227569,
            "region_id":85687045
        }
    ],
    "wof:id":891227569,
    "wof:lastmodified":1469692508,
    "wof:name":"7437BW",
    "wof:parent_id":101807137,
    "wof:placetype":"postalcode",
    "wof:repo":"whosonfirst-data-postalcode-nl",
    "wof:superseded_by":[],
    "wof:supersedes":[],
    "wof:tags":[]
},
  "bbox": [
    6.292403221130371,
    52.247501373291016,
    6.293025970458984,
    52.25163650512695
],
  "geometry": {"coordinates":[[[6.29302597045898,52.25093460083008],[6.29302310943604,52.25080871582031],[6.29278039932251,52.24750137329102],[6.29240322113037,52.25128936767578],[6.2928204536438,52.25163650512695],[6.29296112060547,52.25135803222656],[6.29298734664917,52.25121307373047],[6.29302597045898,52.25093460083008]]],"type":"Polygon"}
}