{
  "id": 891206251,
  "type": "Feature",
  "properties": {
    "clustr:alpha":0.05,
    "clustr:area":21.58,
    "clustr:count":18,
    "clustr:density":0.83,
    "clustr:perimeter":0.2,
    "edtf:cessation":"uuuu",
    "edtf:inception":"uuuu",
    "geom:area":0.0,
    "geom:bbox":"6.20626878738,52.136264801,6.20740652084,52.1369476318",
    "geom:latitude":52.136656,
    "geom:longitude":6.206876,
    "iso:country":"NL",
    "mz:hierarchy_label":1,
    "mz:is_approximate":1,
    "mz:is_clustr":1,
    "src:geom":"oa",
    "wof:belongsto":[
        85687043,
        102191581,
        404473961,
        85633337,
        101837807
    ],
    "wof:breaches":[],
    "wof:country":"NL",
    "wof:created":1469691670,
    "wof:geomhash":"fc25206024f2b8927e9053fc8ad447ba",
    "wof:hierarchy":[
        {
            "continent_id":102191581,
            "country_id":85633337,
            "localadmin_id":404473961,
            "locality_id":101837807,
            "postalcode_id":891206251,
            "region_id":85687043
        }
    ],
    "wof:id":891206251,
    "wof:lastmodified":1469691670,
    "wof:name":"7204HH",
    "wof:parent_id":101837807,
    "wof:placetype":"postalcode",
    "wof:repo":"whosonfirst-data-postalcode-nl",
    "wof:superseded_by":[],
    "wof:supersedes":[],
    "wof:tags":[]
},
  "bbox": [
    6.206268787384033,
    52.13626480102539,
    6.207406520843506,
    52.13694763183594
],
  "geometry": {"coordinates":[[[6.20714235305786,52.13688659667969],[6.20740652084351,52.13694763183594],[6.2063570022583,52.13629150390625],[6.20626878738403,52.13626480102539],[6.2069501876831,52.13676452636719],[6.20714235305786,52.13688659667969]]],"type":"Polygon"}
}