{
  "id": 891014825,
  "type": "Feature",
  "properties": {
    "clustr:alpha":0.05,
    "clustr:area":115.33,
    "clustr:count":24,
    "clustr:density":0.21,
    "clustr:perimeter":0.25,
    "edtf:cessation":"uuuu",
    "edtf:inception":"uuuu",
    "geom:area":0.000001,
    "geom:bbox":"4.93211936951,51.5453643799,4.93368959427,51.5462188721",
    "geom:latitude":51.545717,
    "geom:longitude":4.932817,
    "iso:country":"NL",
    "mz:hierarchy_label":1,
    "mz:is_approximate":1,
    "mz:is_clustr":1,
    "src:geom":"oa",
    "wof:belongsto":[
        85687035,
        102191581,
        404474381,
        85633337,
        101839359
    ],
    "wof:breaches":[],
    "wof:country":"NL",
    "wof:created":1469684034,
    "wof:geomhash":"f555c35d1e6ab29d5eb30f7f5e80fc53",
    "wof:hierarchy":[
        {
            "continent_id":102191581,
            "country_id":85633337,
            "localadmin_id":404474381,
            "locality_id":101839359,
            "postalcode_id":891014825,
            "region_id":85687035
        }
    ],
    "wof:id":891014825,
    "wof:lastmodified":1469684034,
    "wof:name":"5126HP",
    "wof:parent_id":101839359,
    "wof:placetype":"postalcode",
    "wof:repo":"whosonfirst-data-postalcode-nl",
    "wof:superseded_by":[],
    "wof:supersedes":[],
    "wof:tags":[]
},
  "bbox": [
    4.932119369506836,
    51.54536437988281,
    4.933689594268799,
    51.54621887207031
],
  "geometry": {"coordinates":[[[4.93341541290283,51.54580688476562],[4.9336895942688,51.5455207824707],[4.93211936950684,51.54536437988281],[4.9324140548706,51.54601669311523],[4.9325213432312,51.54621887207031],[4.93341541290283,51.54580688476562]]],"type":"Polygon"}
}