{
  "id": 891278417,
  "type": "Feature",
  "properties": {
    "clustr:alpha":0.05,
    "clustr:area":16.95,
    "clustr:count":10,
    "clustr:density":0.59,
    "clustr:perimeter":0.19,
    "edtf:cessation":"uuuu",
    "edtf:inception":"uuuu",
    "geom:area":0.0,
    "geom:bbox":"6.21312236786,52.6927528381,6.21443605423,52.6933898926",
    "geom:latitude":52.693085,
    "geom:longitude":6.213972,
    "iso:country":"NL",
    "mz:hierarchy_label":1,
    "mz:is_approximate":1,
    "mz:is_clustr":1,
    "src:geom":"oa",
    "wof:belongsto":[
        85687051,
        102191581,
        404473813,
        85633337,
        101807279
    ],
    "wof:breaches":[],
    "wof:country":"NL",
    "wof:created":1469694591,
    "wof:geomhash":"c1f079cf12e4fd3c9190b6b25162f834",
    "wof:hierarchy":[
        {
            "continent_id":102191581,
            "country_id":85633337,
            "localadmin_id":404473813,
            "locality_id":101807279,
            "postalcode_id":891278417,
            "region_id":85687051
        }
    ],
    "wof:id":891278417,
    "wof:lastmodified":1469694591,
    "wof:name":"7943CH",
    "wof:parent_id":101807279,
    "wof:placetype":"postalcode",
    "wof:repo":"whosonfirst-data-postalcode-nl",
    "wof:superseded_by":[],
    "wof:supersedes":[],
    "wof:tags":[]
},
  "bbox": [
    6.213122367858887,
    52.692752838134766,
    6.214436054229736,
    52.693389892578125
],
  "geometry": {"coordinates":[[[6.21443605422974,52.69275283813477],[6.21333265304565,52.69305038452148],[6.21312236785889,52.693115234375],[6.21436929702759,52.69338989257812],[6.21443605422974,52.69275283813477]]],"type":"Polygon"}
}