{
  "id": 890596949,
  "type": "Feature",
  "properties": {
    "clustr:alpha":0.05,
    "clustr:area":51.52,
    "clustr:count":16,
    "clustr:density":0.31,
    "clustr:perimeter":0.06,
    "edtf:cessation":"uuuu",
    "edtf:inception":"uuuu",
    "geom:area":0.0,
    "geom:bbox":"4.86011219025,52.3429489136,4.86074352264,52.3429756165",
    "geom:latitude":52.342961,
    "geom:longitude":4.860362,
    "iso:country":"NL",
    "mz:hierarchy_label":1,
    "mz:is_approximate":1,
    "mz:is_clustr":1,
    "src:geom":"oa",
    "wof:belongsto":[
        85687053,
        102191581,
        404474029,
        85633337,
        101751893
    ],
    "wof:breaches":[],
    "wof:country":"NL",
    "wof:created":1469666612,
    "wof:geomhash":"9a59abc66bdee6059b2e6c3754fa6f30",
    "wof:hierarchy":[
        {
            "continent_id":102191581,
            "country_id":85633337,
            "localadmin_id":404474029,
            "locality_id":101751893,
            "postalcode_id":890596949,
            "region_id":85687053
        }
    ],
    "wof:id":890596949,
    "wof:lastmodified":1469666612,
    "wof:name":"1076BR",
    "wof:parent_id":101751893,
    "wof:placetype":"postalcode",
    "wof:repo":"whosonfirst-data-postalcode-nl",
    "wof:superseded_by":[],
    "wof:supersedes":[],
    "wof:tags":[]
},
  "bbox": [
    4.860112190246582,
    52.34294891357422,
    4.860743522644043,
    52.34297561645508
],
  "geometry": {"coordinates":[[[4.86031770706177,52.34294891357422],[4.86018562316895,52.34294891357422],[4.86011219024658,52.34297561645508],[4.86034679412842,52.34297561645508],[4.86074352264404,52.34295272827148],[4.86031770706177,52.34294891357422]]],"type":"Polygon"}
}