{
  "id": 907052907,
  "type": "Feature",
  "properties": {
    "clustr:alpha":0.05,
    "clustr:area":5.24,
    "clustr:count":18,
    "clustr:density":3.44,
    "clustr:perimeter":0.16,
    "edtf:cessation":"uuuu",
    "edtf:inception":"uuuu",
    "geom:area":0.0,
    "geom:bbox":"5.69444942474,52.8591423035,5.6952586174,52.8596305847",
    "geom:latitude":52.859391,
    "geom:longitude":5.694839,
    "iso:country":"NL",
    "mz:hierarchy_label":1,
    "mz:is_approximate":1,
    "mz:is_clustr":1,
    "src:geom":"oa",
    "wof:belongsto":[
        85687055,
        102191581,
        404473781,
        85633337,
        101807477
    ],
    "wof:breaches":[],
    "wof:country":"NL",
    "wof:created":1469696948,
    "wof:geomhash":"a466ac26d19d69bb0089fa6820e47db6",
    "wof:hierarchy":[
        {
            "continent_id":102191581,
            "country_id":85633337,
            "localadmin_id":404473781,
            "locality_id":101807477,
            "postalcode_id":907052907,
            "region_id":85687055
        }
    ],
    "wof:id":907052907,
    "wof:lastmodified":1469696948,
    "wof:name":"8532AV",
    "wof:parent_id":101807477,
    "wof:placetype":"postalcode",
    "wof:repo":"whosonfirst-data-postalcode-nl",
    "wof:superseded_by":[],
    "wof:supersedes":[],
    "wof:tags":[]
},
  "bbox": [
    5.694449424743652,
    52.8591423034668,
    5.695258617401123,
    52.8596305847168
],
  "geometry": {"coordinates":[[[5.69444942474365,52.85932922363281],[5.69445896148682,52.85939407348633],[5.69447660446167,52.85946273803711],[5.69452714920044,52.85952758789062],[5.69461011886597,52.85958099365234],[5.69471597671509,52.85961151123047],[5.69482421875,52.8596305847168],[5.69494104385376,52.85962677001953],[5.69504451751709,52.85959625244141],[5.69513177871704,52.85955429077148],[5.69522476196289,52.85949325561523],[5.69525861740112,52.85933685302734],[5.6948823928833,52.8591423034668],[5.69480228424072,52.8591423034668],[5.69466829299927,52.85915756225586],[5.69457292556763,52.85919952392578],[5.69448757171631,52.85926818847656],[5.69444942474365,52.85932922363281]]],"type":"Polygon"}
}