{
  "id": 890978341,
  "type": "Feature",
  "properties": {
    "clustr:alpha":0.05,
    "clustr:area":16.86,
    "clustr:count":19,
    "clustr:density":1.13,
    "clustr:perimeter":0.69,
    "edtf:cessation":"uuuu",
    "edtf:inception":"uuuu",
    "geom:area":0.000001,
    "geom:bbox":"4.58009529114,51.5501556396,4.58058404922,51.5537910461",
    "geom:latitude":51.551677,
    "geom:longitude":4.580399,
    "iso:country":"NL",
    "mz:hierarchy_label":1,
    "mz:is_approximate":1,
    "mz:is_clustr":1,
    "src:geom":"oa",
    "wof:belongsto":[
        85687035,
        102191581,
        404474417,
        85633337,
        101839417
    ],
    "wof:breaches":[],
    "wof:country":"NL",
    "wof:created":1469682546,
    "wof:geomhash":"8cba467b64a6666dc4301b38b8413d9c",
    "wof:hierarchy":[
        {
            "continent_id":102191581,
            "country_id":85633337,
            "localadmin_id":404474417,
            "locality_id":101839417,
            "postalcode_id":890978341,
            "region_id":85687035
        }
    ],
    "wof:id":890978341,
    "wof:lastmodified":1469682546,
    "wof:name":"4711HR",
    "wof:parent_id":101839417,
    "wof:placetype":"postalcode",
    "wof:repo":"whosonfirst-data-postalcode-nl",
    "wof:superseded_by":[],
    "wof:supersedes":[],
    "wof:tags":[]
},
  "bbox": [
    4.580095291137695,
    51.55015563964844,
    4.580584049224854,
    51.55379104614258
],
  "geometry": {"coordinates":[[[4.58058404922485,51.55266571044922],[4.5805516242981,51.55094909667969],[4.58054685592651,51.55083084106445],[4.58041000366211,51.55015563964844],[4.5800952911377,51.55097961425781],[4.5803918838501,51.55281448364258],[4.58054733276367,51.55379104614258],[4.58058404922485,51.55266571044922]]],"type":"Polygon"}
}