{
  "id": 890689459,
  "type": "Feature",
  "properties": {
    "clustr:alpha":0.05,
    "clustr:area":16.84,
    "clustr:count":16,
    "clustr:density":0.95,
    "clustr:perimeter":0.16,
    "edtf:cessation":"uuuu",
    "edtf:inception":"uuuu",
    "geom:area":0.0,
    "geom:bbox":"4.68972206116,52.567024231,4.69042062759,52.5676727295",
    "geom:latitude":52.56738,
    "geom:longitude":4.690107,
    "iso:country":"NL",
    "mz:hierarchy_label":1,
    "mz:is_approximate":1,
    "mz:is_clustr":1,
    "src:geom":"oa",
    "wof:belongsto":[
        85687053,
        102191581,
        404474053,
        85633337,
        101807339
    ],
    "wof:breaches":[],
    "wof:country":"NL",
    "wof:created":1469670783,
    "wof:geomhash":"b5f6fcf65a8d6eb05865b207637c178a",
    "wof:hierarchy":[
        {
            "continent_id":102191581,
            "country_id":85633337,
            "localadmin_id":404474053,
            "locality_id":101807339,
            "postalcode_id":890689459,
            "region_id":85687053
        }
    ],
    "wof:id":890689459,
    "wof:lastmodified":1469670783,
    "wof:name":"1906CZ",
    "wof:parent_id":101807339,
    "wof:placetype":"postalcode",
    "wof:repo":"whosonfirst-data-postalcode-nl",
    "wof:superseded_by":[],
    "wof:supersedes":[],
    "wof:tags":[]
},
  "bbox": [
    4.689722061157227,
    52.56702423095703,
    4.690420627593994,
    52.56767272949219
],
  "geometry": {"coordinates":[[[4.69041442871094,52.56727981567383],[4.69041681289673,52.56726455688477],[4.69042062759399,52.56715393066406],[4.69015550613403,52.5670280456543],[4.69007730484009,52.56702423095703],[4.68988418579102,52.56724548339844],[4.68972206115723,52.56764221191406],[4.69030952453613,52.56767272949219],[4.69041442871094,52.56727981567383]]],"type":"Polygon"}
}