{
  "id": 890837741,
  "type": "Feature",
  "properties": {
    "clustr:alpha":0.05,
    "clustr:area":14.57,
    "clustr:count":11,
    "clustr:density":0.76,
    "clustr:perimeter":0.28,
    "edtf:cessation":"uuuu",
    "edtf:inception":"uuuu",
    "geom:area":0.0,
    "geom:bbox":"4.38796567917,51.858757019,4.38888311386,51.8600578308",
    "geom:latitude":51.859351,
    "geom:longitude":4.388373,
    "iso:country":"NL",
    "mz:hierarchy_label":1,
    "mz:is_approximate":1,
    "mz:is_clustr":1,
    "src:geom":"oa",
    "wof:belongsto":[
        85687041,
        102191581,
        404474263,
        85633337,
        101754731
    ],
    "wof:breaches":[],
    "wof:country":"NL",
    "wof:created":1469676674,
    "wof:geomhash":"77095e99431db640f15b1e9aaf0e71c8",
    "wof:hierarchy":[
        {
            "continent_id":102191581,
            "country_id":85633337,
            "localadmin_id":404474263,
            "locality_id":101754731,
            "postalcode_id":890837741,
            "region_id":85687041
        }
    ],
    "wof:id":890837741,
    "wof:lastmodified":1469676674,
    "wof:name":"3171GE",
    "wof:parent_id":101754731,
    "wof:placetype":"postalcode",
    "wof:repo":"whosonfirst-data-postalcode-nl",
    "wof:superseded_by":[],
    "wof:supersedes":[],
    "wof:tags":[]
},
  "bbox": [
    4.387965679168701,
    51.85875701904297,
    4.388883113861084,
    51.86005783081055
],
  "geometry": {"coordinates":[[[4.38810682296753,51.85902404785156],[4.38837242126465,51.85937881469727],[4.38888311386108,51.86005783081055],[4.38879537582397,51.85991287231445],[4.3879656791687,51.85875701904297],[4.38810682296753,51.85902404785156]]],"type":"Polygon"}
}