{
  "id": 890853483,
  "type": "Feature",
  "properties": {
    "clustr:alpha":0.05,
    "clustr:area":91.26,
    "clustr:count":14,
    "clustr:density":0.15,
    "clustr:perimeter":0.08,
    "edtf:cessation":"uuuu",
    "edtf:inception":"uuuu",
    "geom:area":0.0,
    "geom:bbox":"4.66242361069,51.8001594543,4.66326379776,51.80052948",
    "geom:latitude":51.800323,
    "geom:longitude":4.662893,
    "iso:country":"NL",
    "mz:hierarchy_label":1,
    "mz:is_approximate":1,
    "mz:is_clustr":1,
    "src:geom":"oa",
    "wof:belongsto":[
        85687041,
        102191581,
        404474169,
        85633337,
        101751841
    ],
    "wof:breaches":[],
    "wof:country":"NL",
    "wof:created":1469677246,
    "wof:geomhash":"d478f65118827696e3398a6b56050377",
    "wof:hierarchy":[
        {
            "continent_id":102191581,
            "country_id":85633337,
            "localadmin_id":404474169,
            "locality_id":101751841,
            "postalcode_id":890853483,
            "region_id":85687041
        }
    ],
    "wof:id":890853483,
    "wof:lastmodified":1469677246,
    "wof:name":"3314SP",
    "wof:parent_id":101751841,
    "wof:placetype":"postalcode",
    "wof:repo":"whosonfirst-data-postalcode-nl",
    "wof:superseded_by":[],
    "wof:supersedes":[],
    "wof:tags":[]
},
  "bbox": [
    4.662423610687256,
    51.8001594543457,
    4.66326379776001,
    51.80052947998047
],
  "geometry": {"coordinates":[[[4.66313886642456,51.80021667480469],[4.66319990158081,51.80018997192383],[4.66326379776001,51.8001594543457],[4.66289520263672,51.80031967163086],[4.66279029846191,51.80036544799805],[4.66242361068726,51.80052947998047],[4.66313886642456,51.80021667480469]]],"type":"Polygon"}
}