{
  "id": 891239023,
  "type": "Feature",
  "properties": {
    "clustr:alpha":0.05,
    "clustr:area":2.06,
    "clustr:count":19,
    "clustr:density":9.23,
    "clustr:perimeter":0.3,
    "edtf:cessation":"uuuu",
    "edtf:inception":"uuuu",
    "geom:area":0.0,
    "geom:bbox":"6.90495347977,52.208316803,6.90498638153,52.2097244263",
    "geom:latitude":52.209149,
    "geom:longitude":6.904966,
    "iso:country":"NL",
    "mz:hierarchy_label":1,
    "mz:is_approximate":1,
    "mz:is_clustr":1,
    "src:geom":"oa",
    "wof:belongsto":[
        85687045,
        102191581,
        404473827,
        85633337,
        101751871
    ],
    "wof:breaches":[],
    "wof:country":"NL",
    "wof:created":1469692969,
    "wof:geomhash":"7f4690584c4d14517411a16107fe73a1",
    "wof:hierarchy":[
        {
            "continent_id":102191581,
            "country_id":85633337,
            "localadmin_id":404473827,
            "locality_id":101751871,
            "postalcode_id":891239023,
            "region_id":85687045
        }
    ],
    "wof:id":891239023,
    "wof:lastmodified":1469692969,
    "wof:name":"7541AE",
    "wof:parent_id":101751871,
    "wof:placetype":"postalcode",
    "wof:repo":"whosonfirst-data-postalcode-nl",
    "wof:superseded_by":[],
    "wof:supersedes":[],
    "wof:tags":[]
},
  "bbox": [
    6.904953479766846,
    52.208316802978516,
    6.904986381530762,
    52.20972442626953
],
  "geometry": {"coordinates":[[[6.90496015548706,52.20961761474609],[6.90498542785645,52.20837020874023],[6.90498638153076,52.20831680297852],[6.90495920181274,52.20921325683594],[6.90495347976685,52.20967102050781],[6.90495681762695,52.20972442626953],[6.90496015548706,52.20961761474609]]],"type":"Polygon"}
}