{
  "id": 891069065,
  "type": "Feature",
  "properties": {
    "clustr:alpha":0.05,
    "clustr:area":0.66,
    "clustr:count":12,
    "clustr:density":18.15,
    "clustr:perimeter":0.05,
    "edtf:cessation":"uuuu",
    "edtf:inception":"uuuu",
    "geom:area":0.0,
    "geom:bbox":"5.43857192993,51.4402732849,5.4388666153,51.4403953552",
    "geom:latitude":51.440324,
    "geom:longitude":5.438728,
    "iso:country":"NL",
    "mz:hierarchy_label":1,
    "mz:is_approximate":1,
    "mz:is_clustr":1,
    "src:geom":"oa",
    "wof:belongsto":[
        85687035,
        102191581,
        404474375,
        85633337,
        101751819
    ],
    "wof:breaches":[],
    "wof:country":"NL",
    "wof:created":1469686065,
    "wof:geomhash":"2d9c11fe275c5feb68f43c422443fc7a",
    "wof:hierarchy":[
        {
            "continent_id":102191581,
            "country_id":85633337,
            "localadmin_id":404474375,
            "locality_id":101751819,
            "postalcode_id":891069065,
            "region_id":85687035
        }
    ],
    "wof:id":891069065,
    "wof:lastmodified":1469686065,
    "wof:name":"5652LS",
    "wof:parent_id":101751819,
    "wof:placetype":"postalcode",
    "wof:repo":"whosonfirst-data-postalcode-nl",
    "wof:superseded_by":[],
    "wof:supersedes":[],
    "wof:tags":[]
},
  "bbox": [
    5.438571929931641,
    51.44027328491211,
    5.43886661529541,
    51.44039535522461
],
  "geometry": {"coordinates":[[[5.43857192993164,51.4403076171875],[5.43857192993164,51.44033050537109],[5.43886137008667,51.44039535522461],[5.43886661529541,51.44033432006836],[5.43880987167358,51.44028091430664],[5.43857383728027,51.44027328491211],[5.43857192993164,51.4403076171875]]],"type":"Polygon"}
}