{
  "id": 890715845,
  "type": "Feature",
  "properties": {
    "clustr:alpha":0.05,
    "clustr:area":39.19,
    "clustr:count":18,
    "clustr:density":0.46,
    "clustr:perimeter":0.14,
    "edtf:cessation":"uuuu",
    "edtf:inception":"uuuu",
    "geom:area":0.0,
    "geom:bbox":"4.51858043671,52.2293548584,4.51923179626,52.2299346924",
    "geom:latitude":52.229629,
    "geom:longitude":4.518975,
    "iso:country":"NL",
    "mz:hierarchy_label":1,
    "mz:is_approximate":1,
    "mz:is_clustr":1,
    "src:geom":"oa",
    "wof:belongsto":[
        85687041,
        102191581,
        404474545,
        85633337,
        101754685
    ],
    "wof:breaches":[],
    "wof:country":"NL",
    "wof:created":1469671976,
    "wof:geomhash":"da961ece49d1b07c968a975d7e8a7e5a",
    "wof:hierarchy":[
        {
            "continent_id":102191581,
            "country_id":85633337,
            "localadmin_id":404474545,
            "locality_id":101754685,
            "postalcode_id":890715845,
            "region_id":85687041
        }
    ],
    "wof:id":890715845,
    "wof:lastmodified":1469671976,
    "wof:name":"2171TH",
    "wof:parent_id":101754685,
    "wof:placetype":"postalcode",
    "wof:repo":"whosonfirst-data-postalcode-nl",
    "wof:superseded_by":[],
    "wof:supersedes":[],
    "wof:tags":[]
},
  "bbox": [
    4.518580436706543,
    52.22935485839844,
    4.519231796264648,
    52.22993469238281
],
  "geometry": {"coordinates":[[[4.51881170272827,52.22948455810547],[4.51858043670654,52.22961044311523],[4.51923179626465,52.22993469238281],[4.51912307739258,52.22935485839844],[4.51881170272827,52.22948455810547]]],"type":"Polygon"}
}