{
  "id": 891129459,
  "type": "Feature",
  "properties": {
    "clustr:alpha":0.05,
    "clustr:area":22.06,
    "clustr:count":21,
    "clustr:density":0.95,
    "clustr:perimeter":0.14,
    "edtf:cessation":"uuuu",
    "edtf:inception":"uuuu",
    "geom:area":0.0,
    "geom:bbox":"5.79648733139,50.8710136414,5.79714536667,50.8714408875",
    "geom:latitude":50.87124,
    "geom:longitude":5.796806,
    "iso:country":"NL",
    "mz:hierarchy_label":1,
    "mz:is_approximate":1,
    "mz:is_clustr":1,
    "src:geom":"oa",
    "wof:belongsto":[
        85687033,
        102191581,
        404474537,
        85633337,
        101809547
    ],
    "wof:breaches":[],
    "wof:country":"NL",
    "wof:created":1469688436,
    "wof:geomhash":"150b499de2219f861df2e3058c8c2e5d",
    "wof:hierarchy":[
        {
            "continent_id":102191581,
            "country_id":85633337,
            "localadmin_id":404474537,
            "locality_id":101809547,
            "postalcode_id":891129459,
            "region_id":85687033
        }
    ],
    "wof:id":891129459,
    "wof:lastmodified":1469688436,
    "wof:name":"6301JZ",
    "wof:parent_id":101809547,
    "wof:placetype":"postalcode",
    "wof:repo":"whosonfirst-data-postalcode-nl",
    "wof:superseded_by":[],
    "wof:supersedes":[],
    "wof:tags":[]
},
  "bbox": [
    5.796487331390381,
    50.87101364135742,
    5.797145366668701,
    50.87144088745117
],
  "geometry": {"coordinates":[[[5.79692697525024,50.87140274047852],[5.79699850082397,50.87136459350586],[5.7971453666687,50.87101364135742],[5.79648733139038,50.87115859985352],[5.79656267166138,50.87141799926758],[5.79675483703613,50.87144088745117],[5.79692697525024,50.87140274047852]]],"type":"Polygon"}
}