{
  "id": 890826583,
  "type": "Feature",
  "properties": {
    "clustr:alpha":0.05,
    "clustr:area":13.26,
    "clustr:count":36,
    "clustr:density":2.71,
    "clustr:perimeter":0.08,
    "edtf:cessation":"uuuu",
    "edtf:inception":"uuuu",
    "geom:area":0.0,
    "geom:bbox":"4.52810716629,51.8727149963,4.52848434448,51.8730926514",
    "geom:latitude":51.872926,
    "geom:longitude":4.528313,
    "iso:country":"NL",
    "mz:hierarchy_label":1,
    "mz:is_approximate":1,
    "mz:is_clustr":1,
    "src:geom":"oa",
    "wof:belongsto":[
        85687041,
        102191581,
        404474245,
        85633337,
        101751843
    ],
    "wof:breaches":[],
    "wof:country":"NL",
    "wof:created":1469676250,
    "wof:geomhash":"9f285a187ff60b9dd407d5ed5ab23284",
    "wof:hierarchy":[
        {
            "continent_id":102191581,
            "country_id":85633337,
            "localadmin_id":404474245,
            "locality_id":101751843,
            "postalcode_id":890826583,
            "region_id":85687041
        }
    ],
    "wof:id":890826583,
    "wof:lastmodified":1469676250,
    "wof:name":"3076WK",
    "wof:parent_id":101751843,
    "wof:placetype":"postalcode",
    "wof:repo":"whosonfirst-data-postalcode-nl",
    "wof:superseded_by":[],
    "wof:supersedes":[],
    "wof:tags":[]
},
  "bbox": [
    4.528107166290283,
    51.87271499633789,
    4.528484344482422,
    51.87309265136719
],
  "geometry": {"coordinates":[[[4.52822923660278,51.87284469604492],[4.52834796905518,51.87297058105469],[4.52848434448242,51.87309265136719],[4.52810716629028,51.87271499633789],[4.52822923660278,51.87284469604492]]],"type":"Polygon"}
}