{
  "id": 890676727,
  "type": "Feature",
  "properties": {
    "clustr:alpha":0.05,
    "clustr:area":9.06,
    "clustr:count":19,
    "clustr:density":2.1,
    "clustr:perimeter":0.21,
    "edtf:cessation":"uuuu",
    "edtf:inception":"uuuu",
    "geom:area":0.0,
    "geom:bbox":"4.76903772354,52.9515571594,4.770591259,52.9518699646",
    "geom:latitude":52.95169,
    "geom:longitude":4.769916,
    "iso:country":"NL",
    "mz:hierarchy_label":1,
    "mz:is_approximate":1,
    "mz:is_clustr":1,
    "src:geom":"oa",
    "wof:belongsto":[
        85687053,
        102191581,
        404474079,
        85633337,
        101806071
    ],
    "wof:breaches":[],
    "wof:country":"NL",
    "wof:created":1469670264,
    "wof:geomhash":"6c165d3e0d8aa4674df05ebf135fe856",
    "wof:hierarchy":[
        {
            "continent_id":102191581,
            "country_id":85633337,
            "localadmin_id":404474079,
            "locality_id":101806071,
            "postalcode_id":890676727,
            "region_id":85687053
        }
    ],
    "wof:id":890676727,
    "wof:lastmodified":1469670264,
    "wof:name":"1781VS",
    "wof:parent_id":101806071,
    "wof:placetype":"postalcode",
    "wof:repo":"whosonfirst-data-postalcode-nl",
    "wof:superseded_by":[],
    "wof:supersedes":[],
    "wof:tags":[]
},
  "bbox": [
    4.76903772354126,
    52.95155715942383,
    4.770591259002686,
    52.95186996459961
],
  "geometry": {"coordinates":[[[4.77051544189453,52.95156478881836],[4.76962518692017,52.95174407958984],[4.76941013336182,52.95178985595703],[4.76910543441772,52.95185470581055],[4.76903772354126,52.95186996459961],[4.77059125900269,52.95155715942383],[4.77051544189453,52.95156478881836]]],"type":"Polygon"}
}