{
  "id": 890592979,
  "type": "Feature",
  "properties": {
    "clustr:alpha":0.05,
    "clustr:area":3.21,
    "clustr:count":12,
    "clustr:density":3.74,
    "clustr:perimeter":0.18,
    "edtf:cessation":"uuuu",
    "edtf:inception":"uuuu",
    "geom:area":0.0,
    "geom:bbox":"4.79435157776,52.3749732971,4.79555511475,52.3752555847",
    "geom:latitude":52.375116,
    "geom:longitude":4.794957,
    "iso:country":"NL",
    "mz:hierarchy_label":1,
    "mz:is_approximate":1,
    "mz:is_clustr":1,
    "src:geom":"oa",
    "wof:belongsto":[
        85687053,
        102191581,
        404474029,
        85633337,
        101751893
    ],
    "wof:breaches":[],
    "wof:country":"NL",
    "wof:created":1469666443,
    "wof:geomhash":"cca0c697729241f65a4b6d6d39ed944c",
    "wof:hierarchy":[
        {
            "continent_id":102191581,
            "country_id":85633337,
            "localadmin_id":404474029,
            "locality_id":101751893,
            "postalcode_id":890592979,
            "region_id":85687053
        }
    ],
    "wof:id":890592979,
    "wof:lastmodified":1469666443,
    "wof:name":"1067RL",
    "wof:parent_id":101751893,
    "wof:placetype":"postalcode",
    "wof:repo":"whosonfirst-data-postalcode-nl",
    "wof:superseded_by":[],
    "wof:supersedes":[],
    "wof:tags":[]
},
  "bbox": [
    4.794351577758789,
    52.37497329711914,
    4.795555114746094,
    52.3752555847168
],
  "geometry": {"coordinates":[[[4.79551315307617,52.37497329711914],[4.79435157775879,52.37509155273438],[4.79436540603638,52.37515640258789],[4.79439353942871,52.3752555847168],[4.79555511474609,52.37514495849609],[4.79551315307617,52.37497329711914]]],"type":"Polygon"}
}