{
  "id": 890642371,
  "type": "Feature",
  "properties": {
    "clustr:alpha":0.05,
    "clustr:area":31.7,
    "clustr:count":24,
    "clustr:density":0.76,
    "clustr:perimeter":0.12,
    "edtf:cessation":"uuuu",
    "edtf:inception":"uuuu",
    "geom:area":0.0,
    "geom:bbox":"4.83033800125,52.2354278564,4.83082532883,52.2359809875",
    "geom:latitude":52.235716,
    "geom:longitude":4.830553,
    "iso:country":"NL",
    "mz:hierarchy_label":1,
    "mz:is_approximate":1,
    "mz:is_clustr":1,
    "src:geom":"oa",
    "wof:belongsto":[
        85687053,
        102191581,
        404474119,
        85633337,
        101807399
    ],
    "wof:breaches":[],
    "wof:country":"NL",
    "wof:created":1469668651,
    "wof:geomhash":"58184bea250fa91e34d785ce89cc6ab5",
    "wof:hierarchy":[
        {
            "continent_id":102191581,
            "country_id":85633337,
            "localadmin_id":404474119,
            "locality_id":101807399,
            "postalcode_id":890642371,
            "region_id":85687053
        }
    ],
    "wof:id":890642371,
    "wof:lastmodified":1469668651,
    "wof:name":"1421WE",
    "wof:parent_id":101807399,
    "wof:placetype":"postalcode",
    "wof:repo":"whosonfirst-data-postalcode-nl",
    "wof:superseded_by":[],
    "wof:supersedes":[],
    "wof:tags":[]
},
  "bbox": [
    4.830338001251221,
    52.23542785644531,
    4.830825328826904,
    52.23598098754883
],
  "geometry": {"coordinates":[[[4.83073043823242,52.23583221435547],[4.83079957962036,52.23579025268555],[4.8308253288269,52.23572158813477],[4.83035850524902,52.23542785644531],[4.83033800125122,52.23544311523438],[4.8304648399353,52.23596572875977],[4.83048295974731,52.23598098754883],[4.83073043823242,52.23583221435547]]],"type":"Polygon"}
}