{
  "id": 890882197,
  "type": "Feature",
  "properties": {
    "clustr:alpha":0.05,
    "clustr:area":25.61,
    "clustr:count":92,
    "clustr:density":3.59,
    "clustr:perimeter":0.11,
    "edtf:cessation":"uuuu",
    "edtf:inception":"uuuu",
    "geom:area":0.0,
    "geom:bbox":"5.13453769684,52.1024284363,5.13543319702,52.102481842",
    "geom:latitude":52.102457,
    "geom:longitude":5.134909,
    "iso:country":"NL",
    "mz:hierarchy_label":1,
    "mz:is_approximate":1,
    "mz:is_clustr":1,
    "src:geom":"oa",
    "wof:belongsto":[
        85687039,
        102191581,
        404474007,
        85633337,
        101751827
    ],
    "wof:breaches":[],
    "wof:country":"NL",
    "wof:created":1469678353,
    "wof:geomhash":"8130244be857e325833598a0b3171e10",
    "wof:hierarchy":[
        {
            "continent_id":102191581,
            "country_id":85633337,
            "localadmin_id":404474007,
            "locality_id":101751827,
            "postalcode_id":890882197,
            "region_id":85687039
        }
    ],
    "wof:id":890882197,
    "wof:lastmodified":1469678353,
    "wof:name":"3572KM",
    "wof:parent_id":101751827,
    "wof:placetype":"postalcode",
    "wof:repo":"whosonfirst-data-postalcode-nl",
    "wof:superseded_by":[],
    "wof:supersedes":[],
    "wof:tags":[]
},
  "bbox": [
    5.134537696838379,
    52.1024284362793,
    5.135433197021484,
    52.102481842041016
],
  "geometry": {"coordinates":[[[5.13453769683838,52.1024284362793],[5.13475275039673,52.10248184204102],[5.13510608673096,52.10247039794922],[5.13543319702148,52.10245895385742],[5.13453769683838,52.1024284362793]]],"type":"Polygon"}
}