{
  "id": 891268501,
  "type": "Feature",
  "properties": {
    "clustr:alpha":0.05,
    "clustr:area":69.57,
    "clustr:count":27,
    "clustr:density":0.39,
    "clustr:perimeter":0.23,
    "edtf:cessation":"uuuu",
    "edtf:inception":"uuuu",
    "geom:area":0.000001,
    "geom:bbox":"6.93516731262,52.7869148254,6.93648862839,52.7876434326",
    "geom:latitude":52.787292,
    "geom:longitude":6.935905,
    "iso:country":"NL",
    "mz:hierarchy_label":1,
    "mz:is_approximate":1,
    "mz:is_clustr":1,
    "src:geom":"oa",
    "wof:belongsto":[
        85687051,
        102191581,
        404473809,
        85633337,
        101751881
    ],
    "wof:breaches":[],
    "wof:country":"NL",
    "wof:created":1469694173,
    "wof:geomhash":"4106b8bfd348d1e0a847be1cc9f05929",
    "wof:hierarchy":[
        {
            "continent_id":102191581,
            "country_id":85633337,
            "localadmin_id":404473809,
            "locality_id":101751881,
            "postalcode_id":891268501,
            "region_id":85687051
        }
    ],
    "wof:id":891268501,
    "wof:lastmodified":1469694173,
    "wof:name":"7823CL",
    "wof:parent_id":101751881,
    "wof:placetype":"postalcode",
    "wof:repo":"whosonfirst-data-postalcode-nl",
    "wof:superseded_by":[],
    "wof:supersedes":[],
    "wof:tags":[]
},
  "bbox": [
    6.93516731262207,
    52.78691482543945,
    6.936488628387451,
    52.78764343261719
],
  "geometry": {"coordinates":[[[6.93571662902832,52.78692245483398],[6.93518018722534,52.78726196289062],[6.93516731262207,52.78730773925781],[6.93560886383057,52.78764343261719],[6.93642377853394,52.78763198852539],[6.93648862838745,52.78736877441406],[6.93633937835693,52.78691482543945],[6.93571662902832,52.78692245483398]]],"type":"Polygon"}
}