{
  "id": 890721575,
  "type": "Feature",
  "properties": {
    "clustr:alpha":0.05,
    "clustr:area":2.1,
    "clustr:count":18,
    "clustr:density":8.59,
    "clustr:perimeter":0.02,
    "edtf:cessation":"uuuu",
    "edtf:inception":"uuuu",
    "geom:area":0.0,
    "geom:bbox":"4.41629934311,52.2032585144,4.41641664505,52.203338623",
    "geom:latitude":52.203297,
    "geom:longitude":4.416357,
    "iso:country":"NL",
    "mz:hierarchy_label":1,
    "mz:is_approximate":1,
    "mz:is_clustr":1,
    "src:geom":"oa",
    "wof:belongsto":[
        85687041,
        102191581,
        404474191,
        85633337,
        101754663
    ],
    "wof:breaches":[],
    "wof:country":"NL",
    "wof:created":1469672212,
    "wof:geomhash":"690021854fb1d856b1303529198db675",
    "wof:hierarchy":[
        {
            "continent_id":102191581,
            "country_id":85633337,
            "localadmin_id":404474191,
            "locality_id":101754663,
            "postalcode_id":890721575,
            "region_id":85687041
        }
    ],
    "wof:id":890721575,
    "wof:lastmodified":1469672212,
    "wof:name":"2224RE",
    "wof:parent_id":101754663,
    "wof:placetype":"postalcode",
    "wof:repo":"whosonfirst-data-postalcode-nl",
    "wof:superseded_by":[],
    "wof:supersedes":[],
    "wof:tags":[]
},
  "bbox": [
    4.416299343109131,
    52.2032585144043,
    4.416416645050049,
    52.203338623046875
],
  "geometry": {"coordinates":[[[4.41629934310913,52.20329284667969],[4.41631364822388,52.20331192016602],[4.41634225845337,52.20333862304688],[4.41637182235718,52.20333099365234],[4.41640138626099,52.20331192016602],[4.41641664505005,52.20329284667969],[4.4164023399353,52.20327758789062],[4.41637325286865,52.2032585144043],[4.41634368896484,52.20326614379883],[4.41631460189819,52.20327377319336],[4.41629934310913,52.20329284667969]]],"type":"Polygon"}
}