{
  "id": 890812049,
  "type": "Feature",
  "properties": {
    "clustr:alpha":0.05,
    "clustr:area":40.68,
    "clustr:count":121,
    "clustr:density":2.97,
    "clustr:perimeter":0.07,
    "edtf:cessation":"uuuu",
    "edtf:inception":"uuuu",
    "geom:area":0.0,
    "geom:bbox":"4.48476409912,51.9174728394,4.48524332047,51.9177398682",
    "geom:latitude":51.917594,
    "geom:longitude":4.485015,
    "iso:country":"NL",
    "mz:hierarchy_label":1,
    "mz:is_approximate":1,
    "mz:is_clustr":1,
    "src:geom":"oa",
    "wof:belongsto":[
        85687041,
        102191581,
        404474245,
        85633337,
        101751843
    ],
    "wof:breaches":[],
    "wof:country":"NL",
    "wof:created":1469675668,
    "wof:geomhash":"1e3a9db36b4b8c03d766a0371de60922",
    "wof:hierarchy":[
        {
            "continent_id":102191581,
            "country_id":85633337,
            "localadmin_id":404474245,
            "locality_id":101751843,
            "postalcode_id":890812049,
            "region_id":85687041
        }
    ],
    "wof:id":890812049,
    "wof:lastmodified":1469675668,
    "wof:name":"3011WD",
    "wof:parent_id":101751843,
    "wof:placetype":"postalcode",
    "wof:repo":"whosonfirst-data-postalcode-nl",
    "wof:superseded_by":[],
    "wof:supersedes":[],
    "wof:tags":[]
},
  "bbox": [
    4.484764099121094,
    51.91747283935547,
    4.485243320465088,
    51.91773986816406
],
  "geometry": {"coordinates":[[[4.48510599136353,51.91773986816406],[4.485182762146,51.9176025390625],[4.48524332046509,51.91747283935547],[4.48483800888062,51.91752243041992],[4.48476409912109,51.91762924194336],[4.48510599136353,51.91773986816406]]],"type":"Polygon"}
}