{
  "id": 891171077,
  "type": "Feature",
  "properties": {
    "clustr:alpha":0.05,
    "clustr:area":131.94,
    "clustr:count":13,
    "clustr:density":0.1,
    "clustr:perimeter":0.24,
    "edtf:cessation":"uuuu",
    "edtf:inception":"uuuu",
    "geom:area":0.0,
    "geom:bbox":"5.62083530426,52.0865058899,5.62306833267,52.0869064331",
    "geom:latitude":52.086673,
    "geom:longitude":5.621996,
    "iso:country":"NL",
    "mz:hierarchy_label":1,
    "mz:is_approximate":1,
    "mz:is_clustr":1,
    "src:geom":"oa",
    "wof:belongsto":[
        85687043,
        102191581,
        404473893,
        85633337,
        101807071
    ],
    "wof:breaches":[],
    "wof:country":"NL",
    "wof:created":1469690246,
    "wof:geomhash":"d1feac9c37e2dbf88a30ca833ff62cb9",
    "wof:hierarchy":[
        {
            "continent_id":102191581,
            "country_id":85633337,
            "localadmin_id":404473893,
            "locality_id":101807071,
            "postalcode_id":891171077,
            "region_id":85687043
        }
    ],
    "wof:id":891171077,
    "wof:lastmodified":1469690246,
    "wof:name":"6741CV",
    "wof:parent_id":101807071,
    "wof:placetype":"postalcode",
    "wof:repo":"whosonfirst-data-postalcode-nl",
    "wof:superseded_by":[],
    "wof:supersedes":[],
    "wof:tags":[]
},
  "bbox": [
    5.620835304260254,
    52.08650588989258,
    5.623068332672119,
    52.08690643310547
],
  "geometry": {"coordinates":[[[5.62196111679077,52.08690643310547],[5.62268972396851,52.08677291870117],[5.62306833267212,52.08660125732422],[5.62287855148315,52.08658981323242],[5.62200260162354,52.08654022216797],[5.62103986740112,52.08650588989258],[5.62083530426025,52.08651351928711],[5.62196111679077,52.08690643310547]]],"type":"Polygon"}
}