{
  "id": 891183203,
  "type": "Feature",
  "properties": {
    "clustr:alpha":0.05,
    "clustr:area":3.96,
    "clustr:count":52,
    "clustr:density":13.14,
    "clustr:perimeter":0.56,
    "edtf:cessation":"uuuu",
    "edtf:inception":"uuuu",
    "geom:area":0.000001,
    "geom:bbox":"6.06887626648,51.9321022034,6.07274532318,51.9328041077",
    "geom:latitude":51.932484,
    "geom:longitude":6.070386,
    "iso:country":"NL",
    "mz:hierarchy_label":1,
    "mz:is_approximate":1,
    "mz:is_clustr":1,
    "src:geom":"oa",
    "wof:belongsto":[
        85687043,
        102191581,
        404473957,
        85633337,
        101809869
    ],
    "wof:breaches":[],
    "wof:country":"NL",
    "wof:created":1469690729,
    "wof:geomhash":"8a9758f04b52f6d883a8a1bd040c46ab",
    "wof:hierarchy":[
        {
            "continent_id":102191581,
            "country_id":85633337,
            "localadmin_id":404473957,
            "locality_id":101809869,
            "postalcode_id":891183203,
            "region_id":85687043
        }
    ],
    "wof:id":891183203,
    "wof:lastmodified":1469690729,
    "wof:name":"6901EB",
    "wof:parent_id":101809869,
    "wof:placetype":"postalcode",
    "wof:repo":"whosonfirst-data-postalcode-nl",
    "wof:superseded_by":[],
    "wof:supersedes":[],
    "wof:tags":[]
},
  "bbox": [
    6.068876266479492,
    51.93210220336914,
    6.072745323181152,
    51.932804107666016
],
  "geometry": {"coordinates":[[[6.06892156600952,51.93231964111328],[6.06979131698608,51.93259811401367],[6.06988334655762,51.9326057434082],[6.07056760787964,51.93266296386719],[6.07274532318115,51.93280410766602],[6.07260274887085,51.93276214599609],[6.07252359390259,51.93274307250977],[6.07228851318359,51.93269729614258],[6.06898260116577,51.93210220336914],[6.06898069381714,51.93210220336914],[6.06891536712646,51.93215179443359],[6.06887626647949,51.93220901489258],[6.06892156600952,51.93231964111328]]],"type":"Polygon"}
}