{
  "id": 907068493,
  "type": "Feature",
  "properties": {
    "clustr:alpha":0.05,
    "clustr:area":945.69,
    "clustr:count":10,
    "clustr:density":0.01,
    "clustr:perimeter":1.08,
    "edtf:cessation":"uuuu",
    "edtf:inception":"uuuu",
    "geom:area":0.000017,
    "geom:bbox":"5.73438405991,53.1559677124,5.74401569366,53.1593017578",
    "geom:latitude":53.157598,
    "geom:longitude":5.740183,
    "iso:country":"NL",
    "mz:hierarchy_label":1,
    "mz:is_approximate":1,
    "mz:is_clustr":1,
    "src:geom":"oa",
    "wof:belongsto":[
        102191581,
        404473817,
        85633337,
        85687055
    ],
    "wof:breaches":[],
    "wof:country":"NL",
    "wof:created":1469697592,
    "wof:geomhash":"68a051d5f3915860f75153290feb5850",
    "wof:hierarchy":[
        {
            "continent_id":102191581,
            "country_id":85633337,
            "localadmin_id":404473817,
            "postalcode_id":907068493,
            "region_id":85687055
        }
    ],
    "wof:id":907068493,
    "wof:lastmodified":1469697592,
    "wof:name":"9025BP",
    "wof:parent_id":404473817,
    "wof:placetype":"postalcode",
    "wof:repo":"whosonfirst-data-postalcode-nl",
    "wof:superseded_by":[],
    "wof:supersedes":[],
    "wof:tags":[]
},
  "bbox": [
    5.734384059906006,
    53.155967712402344,
    5.744015693664551,
    53.1593017578125
],
  "geometry": {"coordinates":[[[5.74242115020752,53.15596771240234],[5.7345495223999,53.15702438354492],[5.73438405990601,53.15710830688477],[5.74169874191284,53.1593017578125],[5.74401569366455,53.15911483764648],[5.74242115020752,53.15596771240234]]],"type":"Polygon"}
}