{
  "id": 907080153,
  "type": "Feature",
  "properties": {
    "clustr:alpha":0.05,
    "clustr:area":31.43,
    "clustr:count":11,
    "clustr:density":0.35,
    "clustr:perimeter":0.12,
    "edtf:cessation":"uuuu",
    "edtf:inception":"uuuu",
    "geom:area":0.0,
    "geom:bbox":"5.9966173172,53.238948822,5.99718141556,53.2395133972",
    "geom:latitude":53.239205,
    "geom:longitude":5.996933,
    "iso:country":"NL",
    "mz:hierarchy_label":1,
    "mz:is_approximate":1,
    "mz:is_clustr":1,
    "src:geom":"oa",
    "wof:belongsto":[
        85687055,
        102191581,
        404474681,
        85633337,
        101807439
    ],
    "wof:breaches":[],
    "wof:country":"NL",
    "wof:created":1469698235,
    "wof:geomhash":"a674deb7a4ae99331c8619c7fdf61c82",
    "wof:hierarchy":[
        {
            "continent_id":102191581,
            "country_id":85633337,
            "localadmin_id":404474681,
            "locality_id":101807439,
            "postalcode_id":907080153,
            "region_id":85687055
        }
    ],
    "wof:id":907080153,
    "wof:lastmodified":1469698235,
    "wof:name":"9269NL",
    "wof:parent_id":101807439,
    "wof:placetype":"postalcode",
    "wof:repo":"whosonfirst-data-postalcode-nl",
    "wof:superseded_by":[],
    "wof:supersedes":[],
    "wof:tags":[]
},
  "bbox": [
    5.996617317199707,
    53.238948822021484,
    5.997181415557861,
    53.2395133972168
],
  "geometry": {"coordinates":[[[5.99694204330444,53.23918151855469],[5.99661731719971,53.2395133972168],[5.99666929244995,53.23947143554688],[5.99692249298096,53.23923110961914],[5.99715089797974,53.2390022277832],[5.99718141555786,53.23894882202148],[5.99694204330444,53.23918151855469]]],"type":"Polygon"}
}