{
  "id": 891180903,
  "type": "Feature",
  "properties": {
    "clustr:alpha":0.05,
    "clustr:area":24.82,
    "clustr:count":16,
    "clustr:density":0.64,
    "clustr:perimeter":0.25,
    "edtf:cessation":"uuuu",
    "edtf:inception":"uuuu",
    "geom:area":0.000001,
    "geom:bbox":"5.75348567963,51.9823951721,5.75493860245,51.9830093384",
    "geom:latitude":51.982704,
    "geom:longitude":5.754186,
    "iso:country":"NL",
    "mz:hierarchy_label":1,
    "mz:is_approximate":1,
    "mz:is_clustr":1,
    "src:geom":"oa",
    "wof:belongsto":[
        85687043,
        102191581,
        404473931,
        85633337,
        101837775
    ],
    "wof:breaches":[],
    "wof:country":"NL",
    "wof:created":1469690640,
    "wof:geomhash":"e29e29b52f7b9192a585480c27005a71",
    "wof:hierarchy":[
        {
            "continent_id":102191581,
            "country_id":85633337,
            "localadmin_id":404473931,
            "locality_id":101837775,
            "postalcode_id":891180903,
            "region_id":85687043
        }
    ],
    "wof:id":891180903,
    "wof:lastmodified":1469690640,
    "wof:name":"6866CA",
    "wof:parent_id":101837775,
    "wof:placetype":"postalcode",
    "wof:repo":"whosonfirst-data-postalcode-nl",
    "wof:superseded_by":[],
    "wof:supersedes":[],
    "wof:tags":[]
},
  "bbox": [
    5.753485679626465,
    51.98239517211914,
    5.75493860244751,
    51.983009338378906
],
  "geometry": {"coordinates":[[[5.75383758544922,51.98300933837891],[5.75404119491577,51.98300933837891],[5.75412845611572,51.98299789428711],[5.75434637069702,51.98295211791992],[5.75441884994507,51.98291778564453],[5.75475120544434,51.98262023925781],[5.75493860244751,51.98239517211914],[5.7543568611145,51.982421875],[5.75348567962646,51.98268890380859],[5.75373554229736,51.98300933837891],[5.75383758544922,51.98300933837891]]],"type":"Polygon"}
}