{
  "id": 891200675,
  "type": "Feature",
  "properties": {
    "clustr:alpha":0.05,
    "clustr:area":497.69,
    "clustr:count":18,
    "clustr:density":0.04,
    "clustr:perimeter":0.28,
    "edtf:cessation":"uuuu",
    "edtf:inception":"uuuu",
    "geom:area":0.0,
    "geom:bbox":"6.72349691391,51.9775238037,6.72756958008,51.9776115417",
    "geom:latitude":51.977578,
    "geom:longitude":6.725366,
    "iso:country":"NL",
    "mz:hierarchy_label":1,
    "mz:is_approximate":1,
    "mz:is_clustr":1,
    "src:geom":"oa",
    "wof:belongsto":[
        85687043,
        102191581,
        404473951,
        85633337,
        101809855
    ],
    "wof:breaches":[],
    "wof:country":"NL",
    "wof:created":1469691435,
    "wof:geomhash":"d656d4c8ef9861a2834975429976da2e",
    "wof:hierarchy":[
        {
            "continent_id":102191581,
            "country_id":85633337,
            "localadmin_id":404473951,
            "locality_id":101809855,
            "postalcode_id":891200675,
            "region_id":85687043
        }
    ],
    "wof:id":891200675,
    "wof:lastmodified":1469691435,
    "wof:name":"7103XW",
    "wof:parent_id":101809855,
    "wof:placetype":"postalcode",
    "wof:repo":"whosonfirst-data-postalcode-nl",
    "wof:superseded_by":[],
    "wof:supersedes":[],
    "wof:tags":[]
},
  "bbox": [
    6.723496913909912,
    51.97752380371094,
    6.727569580078125,
    51.97761154174805
],
  "geometry": {"coordinates":[[[6.72349691390991,51.97761154174805],[6.72756958007812,51.97760391235352],[6.72749662399292,51.97759628295898],[6.72542715072632,51.97752380371094],[6.7239146232605,51.97756576538086],[6.72358083724976,51.97759628295898],[6.72349691390991,51.97761154174805]]],"type":"Polygon"}
}