{
  "id": 891035801,
  "type": "Feature",
  "properties": {
    "clustr:alpha":0.05,
    "clustr:area":29.85,
    "clustr:count":12,
    "clustr:density":0.4,
    "clustr:perimeter":0.1,
    "edtf:cessation":"uuuu",
    "edtf:inception":"uuuu",
    "geom:area":0.0,
    "geom:bbox":"5.49855518341,51.7539100647,5.49915313721,51.7542724609",
    "geom:latitude":51.754091,
    "geom:longitude":5.498853,
    "iso:country":"NL",
    "mz:hierarchy_label":1,
    "mz:is_approximate":1,
    "mz:is_clustr":1,
    "src:geom":"oa",
    "wof:belongsto":[
        85687035,
        102191581,
        404474415,
        85633337,
        101751807
    ],
    "wof:breaches":[],
    "wof:country":"NL",
    "wof:created":1469684843,
    "wof:geomhash":"ff9856dbc7f97a93f25180cfcb8ea1d3",
    "wof:hierarchy":[
        {
            "continent_id":102191581,
            "country_id":85633337,
            "localadmin_id":404474415,
            "locality_id":101751807,
            "postalcode_id":891035801,
            "region_id":85687035
        }
    ],
    "wof:id":891035801,
    "wof:lastmodified":1469684843,
    "wof:name":"5344GZ",
    "wof:parent_id":101751807,
    "wof:placetype":"postalcode",
    "wof:repo":"whosonfirst-data-postalcode-nl",
    "wof:superseded_by":[],
    "wof:supersedes":[],
    "wof:tags":[]
},
  "bbox": [
    5.498555183410645,
    51.753910064697266,
    5.499153137207031,
    51.7542724609375
],
  "geometry": {"coordinates":[[[5.49895906448364,51.7542724609375],[5.49915313720703,51.75403213500977],[5.49906635284424,51.75400543212891],[5.49890375137329,51.75395584106445],[5.49882841110229,51.75393295288086],[5.49874448776245,51.75391006469727],[5.49855518341065,51.754150390625],[5.49863338470459,51.75417709350586],[5.49870920181274,51.75419998168945],[5.49895906448364,51.7542724609375]]],"type":"Polygon"}
}