{
  "id": 907101829,
  "type": "Feature",
  "properties": {
    "clustr:alpha":0.05,
    "clustr:area":0.2,
    "clustr:count":33,
    "clustr:density":164.57,
    "clustr:perimeter":0.42,
    "edtf:cessation":"uuuu",
    "edtf:inception":"uuuu",
    "geom:area":0.000001,
    "geom:bbox":"6.87353372574,53.1200752258,6.8743057251,53.1218795776",
    "geom:latitude":53.121011,
    "geom:longitude":6.873992,
    "iso:country":"NL",
    "mz:hierarchy_label":1,
    "mz:is_approximate":1,
    "mz:is_clustr":1,
    "src:geom":"oa",
    "wof:belongsto":[
        85687059,
        102191581,
        404473737,
        85633337,
        101838023
    ],
    "wof:breaches":[],
    "wof:country":"NL",
    "wof:created":1469699496,
    "wof:geomhash":"92d004c2013cca50fabff3ab9e3e54c0",
    "wof:hierarchy":[
        {
            "continent_id":102191581,
            "country_id":85633337,
            "localadmin_id":404473737,
            "locality_id":101838023,
            "postalcode_id":907101829,
            "region_id":85687059
        }
    ],
    "wof:id":907101829,
    "wof:lastmodified":1469699496,
    "wof:name":"9645BG",
    "wof:parent_id":101838023,
    "wof:placetype":"postalcode",
    "wof:repo":"whosonfirst-data-postalcode-nl",
    "wof:superseded_by":[],
    "wof:supersedes":[],
    "wof:tags":[]
},
  "bbox": [
    6.873533725738525,
    53.12007522583008,
    6.874305725097656,
    53.12187957763672
],
  "geometry": {"coordinates":[[[6.87353610992432,53.12117767333984],[6.87412309646606,53.12187957763672],[6.87423372268677,53.12112426757812],[6.87430572509766,53.12042236328125],[6.87427043914795,53.12007522583008],[6.87353467941284,53.12108612060547],[6.87353420257568,53.12110900878906],[6.87353372573853,53.12113571166992],[6.87353420257568,53.12115478515625],[6.87353610992432,53.12117767333984]]],"type":"Polygon"}
}