{
  "id": 890715585,
  "type": "Feature",
  "properties": {
    "clustr:alpha":0.05,
    "clustr:area":267.57,
    "clustr:count":17,
    "clustr:density":0.06,
    "clustr:perimeter":0.22,
    "edtf:cessation":"uuuu",
    "edtf:inception":"uuuu",
    "geom:area":0.000001,
    "geom:bbox":"4.52400875092,52.2265129089,4.52636003494,52.2273750305",
    "geom:latitude":52.226973,
    "geom:longitude":4.525437,
    "iso:country":"NL",
    "mz:hierarchy_label":1,
    "mz:is_approximate":1,
    "mz:is_clustr":1,
    "src:geom":"oa",
    "wof:belongsto":[
        85687041,
        102191581,
        404474545,
        85633337,
        101754685
    ],
    "wof:breaches":[],
    "wof:country":"NL",
    "wof:created":1469671962,
    "wof:geomhash":"5074839d56251c9d5e30cdfc75d512c3",
    "wof:hierarchy":[
        {
            "continent_id":102191581,
            "country_id":85633337,
            "localadmin_id":404474545,
            "locality_id":101754685,
            "postalcode_id":890715585,
            "region_id":85687041
        }
    ],
    "wof:id":890715585,
    "wof:lastmodified":1469671962,
    "wof:name":"2171GA",
    "wof:parent_id":101754685,
    "wof:placetype":"postalcode",
    "wof:repo":"whosonfirst-data-postalcode-nl",
    "wof:superseded_by":[],
    "wof:supersedes":[],
    "wof:tags":[]
},
  "bbox": [
    4.524008750915527,
    52.22651290893555,
    4.526360034942627,
    52.22737503051758
],
  "geometry": {"coordinates":[[[4.52412700653076,52.22727584838867],[4.52400875091553,52.22733306884766],[4.52404022216797,52.22737503051758],[4.52594232559204,52.22706985473633],[4.52601051330566,52.22704315185547],[4.52613115310669,52.22698211669922],[4.52636003494263,52.22680282592773],[4.52626466751099,52.22651290893555],[4.52412700653076,52.22727584838867]]],"type":"Polygon"}
}