{
  "id": 890951153,
  "type": "Feature",
  "properties": {
    "clustr:alpha":0.05,
    "clustr:area":0.51,
    "clustr:count":16,
    "clustr:density":31.29,
    "clustr:perimeter":0.06,
    "edtf:cessation":"uuuu",
    "edtf:inception":"uuuu",
    "geom:area":0.0,
    "geom:bbox":"3.5169043541,51.5686607361,3.51714062691,51.5688858032",
    "geom:latitude":51.568786,
    "geom:longitude":3.517049,
    "iso:country":"NL",
    "mz:hierarchy_label":1,
    "mz:is_approximate":1,
    "mz:is_clustr":1,
    "src:geom":"oa",
    "wof:belongsto":[
        102191581,
        404474333,
        85633337,
        85687037
    ],
    "wof:breaches":[],
    "wof:country":"NL",
    "wof:created":1469681257,
    "wof:geomhash":"ea7710b0d4969be2adbf0fbaa0ea095f",
    "wof:hierarchy":[
        {
            "continent_id":102191581,
            "country_id":85633337,
            "localadmin_id":404474333,
            "postalcode_id":890951153,
            "region_id":85687037
        }
    ],
    "wof:id":890951153,
    "wof:lastmodified":1469681257,
    "wof:name":"4356NK",
    "wof:parent_id":404474333,
    "wof:placetype":"postalcode",
    "wof:repo":"whosonfirst-data-postalcode-nl",
    "wof:superseded_by":[],
    "wof:supersedes":[],
    "wof:tags":[]
},
  "bbox": [
    3.516904354095459,
    51.568660736083984,
    3.517140626907349,
    51.568885803222656
],
  "geometry": {"coordinates":[[[3.51713562011719,51.56887054443359],[3.51711654663086,51.56883239746094],[3.51710510253906,51.56881713867188],[3.51705050468445,51.56877136230469],[3.51703119277954,51.56875610351562],[3.51693081855774,51.56867980957031],[3.51690435409546,51.56866073608398],[3.51698803901672,51.56874084472656],[3.51714062690735,51.56888580322266],[3.51713562011719,51.56887054443359]]],"type":"Polygon"}
}