{
  "id": 891167675,
  "type": "Feature",
  "properties": {
    "clustr:alpha":0.05,
    "clustr:area":13.88,
    "clustr:count":11,
    "clustr:density":0.79,
    "clustr:perimeter":0.1,
    "edtf:cessation":"uuuu",
    "edtf:inception":"uuuu",
    "geom:area":0.0,
    "geom:bbox":"5.66289329529,52.0379142761,5.66328573227,52.0383262634",
    "geom:latitude":52.03814,
    "geom:longitude":5.66307,
    "iso:country":"NL",
    "mz:hierarchy_label":1,
    "mz:is_approximate":1,
    "mz:is_clustr":1,
    "src:geom":"oa",
    "wof:belongsto":[
        85687043,
        102191581,
        404473893,
        85633337,
        101751855
    ],
    "wof:breaches":[],
    "wof:country":"NL",
    "wof:created":1469690098,
    "wof:geomhash":"324f9f01832eba2be30f7d1eb52cfa0b",
    "wof:hierarchy":[
        {
            "continent_id":102191581,
            "country_id":85633337,
            "localadmin_id":404473893,
            "locality_id":101751855,
            "postalcode_id":891167675,
            "region_id":85687043
        }
    ],
    "wof:id":891167675,
    "wof:lastmodified":1469690098,
    "wof:name":"6713DK",
    "wof:parent_id":101751855,
    "wof:placetype":"postalcode",
    "wof:repo":"whosonfirst-data-postalcode-nl",
    "wof:superseded_by":[],
    "wof:supersedes":[],
    "wof:tags":[]
},
  "bbox": [
    5.662893295288086,
    52.03791427612305,
    5.663285732269287,
    52.038326263427734
],
  "geometry": {"coordinates":[[[5.6631269454956,52.03832626342773],[5.66322803497315,52.03821182250977],[5.66328573226929,52.0380859375],[5.66300773620605,52.03791427612305],[5.6629786491394,52.03796005249023],[5.66290712356567,52.03812026977539],[5.66289329528809,52.03828430175781],[5.6631269454956,52.03832626342773]]],"type":"Polygon"}
}