{
  "id": 907058327,
  "type": "Feature",
  "properties": {
    "clustr:alpha":0.05,
    "clustr:area":16.84,
    "clustr:count":16,
    "clustr:density":0.95,
    "clustr:perimeter":0.24,
    "edtf:cessation":"uuuu",
    "edtf:inception":"uuuu",
    "geom:area":0.0,
    "geom:bbox":"5.62002325058,53.0958862305,5.62124633789,53.0966453552",
    "geom:latitude":53.096308,
    "geom:longitude":5.620627,
    "iso:country":"NL",
    "mz:hierarchy_label":1,
    "mz:is_approximate":1,
    "mz:is_clustr":1,
    "src:geom":"oa",
    "wof:belongsto":[
        102191581,
        404473817,
        85633337,
        85687055
    ],
    "wof:breaches":[],
    "wof:country":"NL",
    "wof:created":1469697181,
    "wof:geomhash":"63ba7d6b8dfbc3b4f1ddd0d1877fc769",
    "wof:hierarchy":[
        {
            "continent_id":102191581,
            "country_id":85633337,
            "localadmin_id":404473817,
            "postalcode_id":907058327,
            "region_id":85687055
        }
    ],
    "wof:id":907058327,
    "wof:lastmodified":1469697181,
    "wof:name":"8734GR",
    "wof:parent_id":404473817,
    "wof:placetype":"postalcode",
    "wof:repo":"whosonfirst-data-postalcode-nl",
    "wof:superseded_by":[],
    "wof:supersedes":[],
    "wof:tags":[]
},
  "bbox": [
    5.620023250579834,
    53.09588623046875,
    5.621246337890625,
    53.09664535522461
],
  "geometry": {"coordinates":[[[5.62088823318481,53.09597396850586],[5.62052583694458,53.09613800048828],[5.62005996704102,53.09651565551758],[5.62002325057983,53.09664535522461],[5.62069511413574,53.09657287597656],[5.62109136581421,53.09611129760742],[5.62124633789062,53.09588623046875],[5.62102508544922,53.0959358215332],[5.62088823318481,53.09597396850586]]],"type":"Polygon"}
}