{
  "id": 890779011,
  "type": "Feature",
  "properties": {
    "clustr:alpha":0.05,
    "clustr:area":7.25,
    "clustr:count":11,
    "clustr:density":1.52,
    "clustr:perimeter":0.36,
    "edtf:cessation":"uuuu",
    "edtf:inception":"uuuu",
    "geom:area":0.0,
    "geom:bbox":"4.31787109375,51.9740524292,4.31915330887,51.9754524231",
    "geom:latitude":51.974742,
    "geom:longitude":4.318501,
    "iso:country":"NL",
    "mz:hierarchy_label":1,
    "mz:is_approximate":1,
    "mz:is_clustr":1,
    "src:geom":"oa",
    "wof:belongsto":[
        85687041,
        102191581,
        404474669,
        85633337,
        101754687
    ],
    "wof:breaches":[],
    "wof:country":"NL",
    "wof:created":1469674440,
    "wof:geomhash":"86d6368ca8730ec64c1a718517aed9e7",
    "wof:hierarchy":[
        {
            "continent_id":102191581,
            "country_id":85633337,
            "localadmin_id":404474669,
            "locality_id":101754687,
            "postalcode_id":890779011,
            "region_id":85687041
        }
    ],
    "wof:id":890779011,
    "wof:lastmodified":1469674440,
    "wof:name":"2636GL",
    "wof:parent_id":101754687,
    "wof:placetype":"postalcode",
    "wof:repo":"whosonfirst-data-postalcode-nl",
    "wof:superseded_by":[],
    "wof:supersedes":[],
    "wof:tags":[]
},
  "bbox": [
    4.31787109375,
    51.97405242919922,
    4.319153308868408,
    51.9754524230957
],
  "geometry": {"coordinates":[[[4.31822490692139,51.97526550292969],[4.31915330886841,51.97415542602539],[4.31905698776245,51.97405242919922],[4.31826877593994,51.97472763061523],[4.31787109375,51.9754524230957],[4.31804656982422,51.97536087036133],[4.31816816329956,51.97529602050781],[4.31822490692139,51.97526550292969]]],"type":"Polygon"}
}