{
  "id": 891019281,
  "type": "Feature",
  "properties": {
    "clustr:alpha":0.05,
    "clustr:area":37.85,
    "clustr:count":23,
    "clustr:density":0.61,
    "clustr:perimeter":0.22,
    "edtf:cessation":"uuuu",
    "edtf:inception":"uuuu",
    "geom:area":0.000001,
    "geom:bbox":"5.02466154099,51.6525726318,5.02572727203,51.6533966064",
    "geom:latitude":51.652999,
    "geom:longitude":5.025142,
    "iso:country":"NL",
    "mz:hierarchy_label":1,
    "mz:is_approximate":1,
    "mz:is_clustr":1,
    "src:geom":"oa",
    "wof:belongsto":[
        85687035,
        102191581,
        404474401,
        85633337,
        101839371
    ],
    "wof:breaches":[],
    "wof:country":"NL",
    "wof:created":1469684200,
    "wof:geomhash":"c4cd23245c6b262c4484d4f9d97196c4",
    "wof:hierarchy":[
        {
            "continent_id":102191581,
            "country_id":85633337,
            "localadmin_id":404474401,
            "locality_id":101839371,
            "postalcode_id":891019281,
            "region_id":85687035
        }
    ],
    "wof:id":891019281,
    "wof:lastmodified":1469684200,
    "wof:name":"5172AL",
    "wof:parent_id":101839371,
    "wof:placetype":"postalcode",
    "wof:repo":"whosonfirst-data-postalcode-nl",
    "wof:superseded_by":[],
    "wof:supersedes":[],
    "wof:tags":[]
},
  "bbox": [
    5.024661540985107,
    51.65257263183594,
    5.025727272033691,
    51.65339660644531
],
  "geometry": {"coordinates":[[[5.02479934692383,51.65273284912109],[5.02466154098511,51.65304946899414],[5.02478981018066,51.6533317565918],[5.02515411376953,51.65339660644531],[5.02572727203369,51.65303802490234],[5.02558374404907,51.65288162231445],[5.02544021606445,51.65272903442383],[5.02523231506348,51.65257263183594],[5.02509546279907,51.65262222290039],[5.02479934692383,51.65273284912109]]],"type":"Polygon"}
}