{
  "id": 907046597,
  "type": "Feature",
  "properties": {
    "clustr:alpha":0.05,
    "clustr:area":1.02,
    "clustr:count":15,
    "clustr:density":14.72,
    "clustr:perimeter":0.5,
    "edtf:cessation":"uuuu",
    "edtf:inception":"uuuu",
    "geom:area":0.000001,
    "geom:bbox":"6.27969121933,53.0544776917,6.2810292244,53.0565757751",
    "geom:latitude":53.055662,
    "geom:longitude":6.280328,
    "iso:country":"NL",
    "mz:hierarchy_label":1,
    "mz:is_approximate":1,
    "mz:is_clustr":1,
    "src:geom":"oa",
    "wof:belongsto":[
        102191581,
        404473785,
        85633337,
        85687055
    ],
    "wof:breaches":[],
    "wof:country":"NL",
    "wof:created":1469696628,
    "wof:geomhash":"619b6a3dd995c5922b27683c77e07a57",
    "wof:hierarchy":[
        {
            "continent_id":102191581,
            "country_id":85633337,
            "localadmin_id":404473785,
            "postalcode_id":907046597,
            "region_id":85687055
        }
    ],
    "wof:id":907046597,
    "wof:lastmodified":1469696628,
    "wof:name":"8434NE",
    "wof:parent_id":404473785,
    "wof:placetype":"postalcode",
    "wof:repo":"whosonfirst-data-postalcode-nl",
    "wof:superseded_by":[],
    "wof:supersedes":[],
    "wof:tags":[]
},
  "bbox": [
    6.279691219329834,
    53.05447769165039,
    6.281029224395752,
    53.056575775146484
],
  "geometry": {"coordinates":[[[6.28100442886353,53.05636215209961],[6.28091716766357,53.05596542358398],[6.27969121932983,53.05447769165039],[6.27969264984131,53.05463790893555],[6.279953956604,53.05577850341797],[6.28002834320068,53.05595016479492],[6.28097248077393,53.05657577514648],[6.28102922439575,53.05649566650391],[6.28100442886353,53.05636215209961]]],"type":"Polygon"}
}