{
  "id": 890718455,
  "type": "Feature",
  "properties": {
    "clustr:alpha":0.05,
    "clustr:area":48.27,
    "clustr:count":36,
    "clustr:density":0.75,
    "clustr:perimeter":0.19,
    "edtf:cessation":"uuuu",
    "edtf:inception":"uuuu",
    "geom:area":0.0,
    "geom:bbox":"4.43844223022,52.2482185364,4.4395108223,52.2489624023",
    "geom:latitude":52.248635,
    "geom:longitude":4.438988,
    "iso:country":"NL",
    "mz:hierarchy_label":1,
    "mz:is_approximate":1,
    "mz:is_clustr":1,
    "src:geom":"oa",
    "wof:belongsto":[
        85687041,
        102191581,
        404474221,
        85633337,
        101837699
    ],
    "wof:breaches":[],
    "wof:country":"NL",
    "wof:created":1469672092,
    "wof:geomhash":"d9df36798e068196218863cdf683610b",
    "wof:hierarchy":[
        {
            "continent_id":102191581,
            "country_id":85633337,
            "localadmin_id":404474221,
            "locality_id":101837699,
            "postalcode_id":890718455,
            "region_id":85687041
        }
    ],
    "wof:id":890718455,
    "wof:lastmodified":1469672092,
    "wof:name":"2202NP",
    "wof:parent_id":101837699,
    "wof:placetype":"postalcode",
    "wof:repo":"whosonfirst-data-postalcode-nl",
    "wof:superseded_by":[],
    "wof:supersedes":[],
    "wof:tags":[]
},
  "bbox": [
    4.438442230224609,
    52.24821853637695,
    4.439510822296143,
    52.24896240234375
],
  "geometry": {"coordinates":[[[4.43948125839233,52.24896240234375],[4.43951082229614,52.24894332885742],[4.43922233581543,52.24873352050781],[4.43877506256104,52.24841690063477],[4.43860197067261,52.24829864501953],[4.43852949142456,52.24825286865234],[4.43847179412842,52.24821853637695],[4.43844223022461,52.24823379516602],[4.43907070159912,52.24881362915039],[4.43948125839233,52.24896240234375]]],"type":"Polygon"}
}