{
  "id": 890755333,
  "type": "Feature",
  "properties": {
    "clustr:alpha":0.05,
    "clustr:area":7.5,
    "clustr:count":78,
    "clustr:density":10.4,
    "clustr:perimeter":0.05,
    "edtf:cessation":"uuuu",
    "edtf:inception":"uuuu",
    "geom:area":0.0,
    "geom:bbox":"4.32607412338,52.0691719055,4.32636833191,52.0694503784",
    "geom:latitude":52.069305,
    "geom:longitude":4.326195,
    "iso:country":"NL",
    "mz:hierarchy_label":1,
    "mz:is_approximate":1,
    "mz:is_clustr":1,
    "src:geom":"oa",
    "wof:belongsto":[
        85687041,
        102191581,
        404474179,
        85633337,
        101752763
    ],
    "wof:breaches":[],
    "wof:country":"NL",
    "wof:created":1469673546,
    "wof:geomhash":"c5da2bed93c55e1c68ddf3835a745398",
    "wof:hierarchy":[
        {
            "continent_id":102191581,
            "country_id":85633337,
            "localadmin_id":404474179,
            "locality_id":101752763,
            "postalcode_id":890755333,
            "region_id":85687041
        }
    ],
    "wof:id":890755333,
    "wof:lastmodified":1469673546,
    "wof:name":"2521DC",
    "wof:parent_id":101752763,
    "wof:placetype":"postalcode",
    "wof:repo":"whosonfirst-data-postalcode-nl",
    "wof:superseded_by":[],
    "wof:supersedes":[],
    "wof:tags":[]
},
  "bbox": [
    4.326074123382568,
    52.06917190551758,
    4.32636833190918,
    52.06945037841797
],
  "geometry": {"coordinates":[[[4.32615327835083,52.06945037841797],[4.32618713378906,52.06943511962891],[4.32636833190918,52.06929397583008],[4.326096534729,52.06917190551758],[4.32607412338257,52.06924057006836],[4.32615327835083,52.06945037841797]]],"type":"Polygon"}
}