{
  "id": 891175799,
  "type": "Feature",
  "properties": {
    "clustr:alpha":0.05,
    "clustr:area":47.71,
    "clustr:count":12,
    "clustr:density":0.25,
    "clustr:perimeter":0.07,
    "edtf:cessation":"uuuu",
    "edtf:inception":"uuuu",
    "geom:area":0.0,
    "geom:bbox":"5.92332601547,51.978515625,5.92404937744,51.978603363",
    "geom:latitude":51.978546,
    "geom:longitude":5.923676,
    "iso:country":"NL",
    "mz:hierarchy_label":1,
    "mz:is_approximate":1,
    "mz:is_clustr":1,
    "src:geom":"oa",
    "wof:belongsto":[
        85687043,
        102191581,
        404473871,
        85633337,
        101751857
    ],
    "wof:breaches":[],
    "wof:country":"NL",
    "wof:created":1469690441,
    "wof:geomhash":"1638e0a626d62e72e1e7fe6ff09f322f",
    "wof:hierarchy":[
        {
            "continent_id":102191581,
            "country_id":85633337,
            "localadmin_id":404473871,
            "locality_id":101751857,
            "postalcode_id":891175799,
            "region_id":85687043
        }
    ],
    "wof:id":891175799,
    "wof:lastmodified":1469690441,
    "wof:name":"6828WH",
    "wof:parent_id":101751857,
    "wof:placetype":"postalcode",
    "wof:repo":"whosonfirst-data-postalcode-nl",
    "wof:superseded_by":[],
    "wof:supersedes":[],
    "wof:tags":[]
},
  "bbox": [
    5.923326015472412,
    51.978515625,
    5.924049377441406,
    51.97860336303711
],
  "geometry": {"coordinates":[[[5.92364835739136,51.978515625],[5.92332601547241,51.978515625],[5.92350625991821,51.97853851318359],[5.92381477355957,51.97857666015625],[5.92404937744141,51.97860336303711],[5.92364835739136,51.978515625]]],"type":"Polygon"}
}