{
  "id": 907050619,
  "type": "Feature",
  "properties": {
    "clustr:alpha":0.05,
    "clustr:area":63.74,
    "clustr:count":12,
    "clustr:density":0.19,
    "clustr:perimeter":0.06,
    "edtf:cessation":"uuuu",
    "edtf:inception":"uuuu",
    "geom:area":0.0,
    "geom:bbox":"5.82954311371,53.0513534546,5.83024406433,53.0513687134",
    "geom:latitude":53.051362,
    "geom:longitude":5.829877,
    "iso:country":"NL",
    "mz:hierarchy_label":1,
    "mz:is_approximate":1,
    "mz:is_clustr":1,
    "src:geom":"oa",
    "wof:belongsto":[
        85687055,
        102191581,
        404473751,
        85633337,
        101806081
    ],
    "wof:breaches":[],
    "wof:country":"NL",
    "wof:created":1469696822,
    "wof:geomhash":"2977efc50a475d9e9571c528591a3f21",
    "wof:hierarchy":[
        {
            "continent_id":102191581,
            "country_id":85633337,
            "localadmin_id":404473751,
            "locality_id":101806081,
            "postalcode_id":907050619,
            "region_id":85687055
        }
    ],
    "wof:id":907050619,
    "wof:lastmodified":1469696822,
    "wof:name":"8491GD",
    "wof:parent_id":101806081,
    "wof:placetype":"postalcode",
    "wof:repo":"whosonfirst-data-postalcode-nl",
    "wof:superseded_by":[],
    "wof:supersedes":[],
    "wof:tags":[]
},
  "bbox": [
    5.829543113708496,
    53.051353454589844,
    5.830244064331055,
    53.051368713378906
],
  "geometry": {"coordinates":[[[5.82970714569092,53.05135345458984],[5.8295431137085,53.05136108398438],[5.82961797714233,53.05136871337891],[5.82984161376953,53.05136871337891],[5.82990121841431,53.05136871337891],[5.82996082305908,53.05136871337891],[5.8301100730896,53.05136871337891],[5.83024406433105,53.05135726928711],[5.82970714569092,53.05135345458984]]],"type":"Polygon"}
}