{
  "id": 890617053,
  "type": "Feature",
  "properties": {
    "clustr:alpha":0.05,
    "clustr:area":304.23,
    "clustr:count":16,
    "clustr:density":0.05,
    "clustr:perimeter":1.81,
    "edtf:cessation":"uuuu",
    "edtf:inception":"uuuu",
    "geom:area":0.000043,
    "geom:bbox":"4.83453130722,52.2624359131,4.84107589722,52.275718689",
    "geom:latitude":52.267497,
    "geom:longitude":4.83847,
    "iso:country":"NL",
    "mz:hierarchy_label":1,
    "mz:is_approximate":1,
    "mz:is_clustr":1,
    "src:geom":"oa",
    "wof:belongsto":[
        102191581,
        404474027,
        85633337,
        85687053
    ],
    "wof:breaches":[],
    "wof:country":"NL",
    "wof:created":1469667581,
    "wof:geomhash":"17e5973e77e44a15e505fbe7543bf7f6",
    "wof:hierarchy":[
        {
            "continent_id":102191581,
            "country_id":85633337,
            "localadmin_id":404474027,
            "postalcode_id":890617053,
            "region_id":85687053
        }
    ],
    "wof:id":890617053,
    "wof:lastmodified":1469667581,
    "wof:name":"1188XH",
    "wof:parent_id":404474027,
    "wof:placetype":"postalcode",
    "wof:repo":"whosonfirst-data-postalcode-nl",
    "wof:superseded_by":[],
    "wof:supersedes":[],
    "wof:tags":[]
},
  "bbox": [
    4.834531307220459,
    52.26243591308594,
    4.841075897216797,
    52.275718688964844
],
  "geometry": {"coordinates":[[[4.8410758972168,52.26251602172852],[4.84072923660278,52.26243591308594],[4.83453130722046,52.26444244384766],[4.83455038070679,52.26448822021484],[4.83979034423828,52.27571868896484],[4.8410758972168,52.26251602172852]]],"type":"Polygon"}
}