{
  "id": 891224269,
  "type": "Feature",
  "properties": {
    "clustr:alpha":0.05,
    "clustr:area":4.46,
    "clustr:count":23,
    "clustr:density":5.16,
    "clustr:perimeter":0.15,
    "edtf:cessation":"uuuu",
    "edtf:inception":"uuuu",
    "geom:area":0.0,
    "geom:bbox":"6.13893461227,52.2730979919,6.13935756683,52.273727417",
    "geom:latitude":52.273449,
    "geom:longitude":6.139147,
    "iso:country":"NL",
    "mz:hierarchy_label":1,
    "mz:is_approximate":1,
    "mz:is_clustr":1,
    "src:geom":"oa",
    "wof:belongsto":[
        85687045,
        102191581,
        404473825,
        85633337,
        101751865
    ],
    "wof:breaches":[],
    "wof:country":"NL",
    "wof:created":1469692388,
    "wof:geomhash":"a83fb1f557ce0981e267fb84809ad2d2",
    "wof:hierarchy":[
        {
            "continent_id":102191581,
            "country_id":85633337,
            "localadmin_id":404473825,
            "locality_id":101751865,
            "postalcode_id":891224269,
            "region_id":85687045
        }
    ],
    "wof:id":891224269,
    "wof:lastmodified":1469692388,
    "wof:name":"7414WC",
    "wof:parent_id":101751865,
    "wof:placetype":"postalcode",
    "wof:repo":"whosonfirst-data-postalcode-nl",
    "wof:superseded_by":[],
    "wof:supersedes":[],
    "wof:tags":[]
},
  "bbox": [
    6.13893461227417,
    52.27309799194336,
    6.139357566833496,
    52.27372741699219
],
  "geometry": {"coordinates":[[[6.13897228240967,52.27372741699219],[6.1391921043396,52.27346420288086],[6.13921976089478,52.2734260559082],[6.13925313949585,52.27337265014648],[6.1393575668335,52.27309799194336],[6.13906764984131,52.27350234985352],[6.13898277282715,52.27363967895508],[6.13893461227417,52.27371978759766],[6.13897228240967,52.27372741699219]]],"type":"Polygon"}
}