{
  "id": 907044819,
  "type": "Feature",
  "properties": {
    "clustr:alpha":0.05,
    "clustr:area":28.88,
    "clustr:count":13,
    "clustr:density":0.45,
    "clustr:perimeter":1.75,
    "edtf:cessation":"uuuu",
    "edtf:inception":"uuuu",
    "geom:area":0.000015,
    "geom:bbox":"6.08651638031,52.969909668,6.09474802017,52.9758872986",
    "geom:latitude":52.973426,
    "geom:longitude":6.09051,
    "iso:country":"NL",
    "mz:hierarchy_label":1,
    "mz:is_approximate":1,
    "mz:is_clustr":1,
    "src:geom":"oa",
    "wof:belongsto":[
        102191581,
        404473771,
        85633337,
        85687055
    ],
    "wof:breaches":[],
    "wof:country":"NL",
    "wof:created":1469696533,
    "wof:geomhash":"1b420bf117cc576dd6f8be6693848c20",
    "wof:hierarchy":[
        {
            "continent_id":102191581,
            "country_id":85633337,
            "localadmin_id":404473771,
            "postalcode_id":907044819,
            "region_id":85687055
        }
    ],
    "wof:id":907044819,
    "wof:lastmodified":1469696533,
    "wof:name":"8411KN",
    "wof:parent_id":404473771,
    "wof:placetype":"postalcode",
    "wof:repo":"whosonfirst-data-postalcode-nl",
    "wof:superseded_by":[],
    "wof:supersedes":[],
    "wof:tags":[]
},
  "bbox": [
    6.086516380310059,
    52.96990966796875,
    6.094748020172119,
    52.975887298583984
],
  "geometry": {"coordinates":[[[6.08651638031006,52.9754753112793],[6.08680582046509,52.97588729858398],[6.08981084823608,52.97540664672852],[6.09165000915527,52.97439575195312],[6.09474802017212,52.96990966796875],[6.0896110534668,52.97258377075195],[6.08651638031006,52.9754753112793]]],"type":"Polygon"}
}