{
  "id": 891174047,
  "type": "Feature",
  "properties": {
    "clustr:alpha":0.05,
    "clustr:area":42.42,
    "clustr:count":21,
    "clustr:density":0.5,
    "clustr:perimeter":0.26,
    "edtf:cessation":"uuuu",
    "edtf:inception":"uuuu",
    "geom:area":0.0,
    "geom:bbox":"5.94051742554,52.0047950745,5.94234275818,52.0053825378",
    "geom:latitude":52.005134,
    "geom:longitude":5.941348,
    "iso:country":"NL",
    "mz:hierarchy_label":1,
    "mz:is_approximate":1,
    "mz:is_clustr":1,
    "src:geom":"oa",
    "wof:belongsto":[
        85687043,
        102191581,
        404473871,
        85633337,
        101751857
    ],
    "wof:breaches":[],
    "wof:country":"NL",
    "wof:created":1469690373,
    "wof:geomhash":"8aab7b70fba3d70f019d13c39dbfafcf",
    "wof:hierarchy":[
        {
            "continent_id":102191581,
            "country_id":85633337,
            "localadmin_id":404473871,
            "locality_id":101751857,
            "postalcode_id":891174047,
            "region_id":85687043
        }
    ],
    "wof:id":891174047,
    "wof:lastmodified":1469690373,
    "wof:name":"6823KX",
    "wof:parent_id":101751857,
    "wof:placetype":"postalcode",
    "wof:repo":"whosonfirst-data-postalcode-nl",
    "wof:superseded_by":[],
    "wof:supersedes":[],
    "wof:tags":[]
},
  "bbox": [
    5.940517425537109,
    52.00479507446289,
    5.942342758178711,
    52.0053825378418
],
  "geometry": {"coordinates":[[[5.94127368927002,52.00524139404297],[5.94205856323242,52.00534820556641],[5.9421534538269,52.0053596496582],[5.94234275817871,52.0053825378418],[5.94051742553711,52.00479507446289],[5.94090557098389,52.00506210327148],[5.94127368927002,52.00524139404297]]],"type":"Polygon"}
}