{
  "id": 890744547,
  "type": "Feature",
  "properties": {
    "clustr:alpha":0.05,
    "clustr:area":0.43,
    "clustr:count":26,
    "clustr:density":60.91,
    "clustr:perimeter":0.12,
    "edtf:cessation":"uuuu",
    "edtf:inception":"uuuu",
    "geom:area":0.0,
    "geom:bbox":"4.65737390518,52.1533126831,4.65815019608,52.1535072327",
    "geom:latitude":52.153409,
    "geom:longitude":4.657776,
    "iso:country":"NL",
    "mz:hierarchy_label":1,
    "mz:is_approximate":1,
    "mz:is_clustr":1,
    "src:geom":"oa",
    "wof:belongsto":[
        85687041,
        102191581,
        404474147,
        85633337,
        101751837
    ],
    "wof:breaches":[],
    "wof:country":"NL",
    "wof:created":1469673124,
    "wof:geomhash":"d02bf452d02078eb357aad3c630c3c79",
    "wof:hierarchy":[
        {
            "continent_id":102191581,
            "country_id":85633337,
            "localadmin_id":404474147,
            "locality_id":101751837,
            "postalcode_id":890744547,
            "region_id":85687041
        }
    ],
    "wof:id":890744547,
    "wof:lastmodified":1469673124,
    "wof:name":"2401GD",
    "wof:parent_id":101751837,
    "wof:placetype":"postalcode",
    "wof:repo":"whosonfirst-data-postalcode-nl",
    "wof:superseded_by":[],
    "wof:supersedes":[],
    "wof:tags":[]
},
  "bbox": [
    4.657373905181885,
    52.15331268310547,
    4.658150196075439,
    52.153507232666016
],
  "geometry": {"coordinates":[[[4.65815019607544,52.15335464477539],[4.65814447402954,52.1533317565918],[4.65813875198364,52.15331268310547],[4.65802764892578,52.15332412719727],[4.65788841247559,52.15335083007812],[4.65747880935669,52.15344619750977],[4.65737390518188,52.15347290039062],[4.657386302948,52.15349197387695],[4.65745544433594,52.15350723266602],[4.65810060501099,52.15336990356445],[4.65815019607544,52.15335464477539]]],"type":"Polygon"}
}