{
  "id": 890620229,
  "type": "Feature",
  "properties": {
    "clustr:alpha":0.05,
    "clustr:area":63.49,
    "clustr:count":17,
    "clustr:density":0.27,
    "clustr:perimeter":0.13,
    "edtf:cessation":"uuuu",
    "edtf:inception":"uuuu",
    "geom:area":0.0,
    "geom:bbox":"5.18243360519,52.2288856506,5.18336391449,52.2294540405",
    "geom:latitude":52.229221,
    "geom:longitude":5.18293,
    "iso:country":"NL",
    "mz:hierarchy_label":1,
    "mz:is_approximate":1,
    "mz:is_clustr":1,
    "src:geom":"oa",
    "wof:belongsto":[
        85687053,
        102191581,
        404474081,
        85633337,
        101751905
    ],
    "wof:breaches":[],
    "wof:country":"NL",
    "wof:created":1469667715,
    "wof:geomhash":"3edfe888ccb878d550104c9c3b8e7d89",
    "wof:hierarchy":[
        {
            "continent_id":102191581,
            "country_id":85633337,
            "localadmin_id":404474081,
            "locality_id":101751905,
            "postalcode_id":890620229,
            "region_id":85687053
        }
    ],
    "wof:id":890620229,
    "wof:lastmodified":1469667715,
    "wof:name":"1221BL",
    "wof:parent_id":101751905,
    "wof:placetype":"postalcode",
    "wof:repo":"whosonfirst-data-postalcode-nl",
    "wof:superseded_by":[],
    "wof:supersedes":[],
    "wof:tags":[]
},
  "bbox": [
    5.182433605194092,
    52.228885650634766,
    5.183363914489746,
    52.229454040527344
],
  "geometry": {"coordinates":[[[5.18313503265381,52.22939682006836],[5.18326091766357,52.22945022583008],[5.18336391448975,52.22945404052734],[5.1827917098999,52.22910308837891],[5.18243360519409,52.22888565063477],[5.18257522583008,52.22902297973633],[5.18313503265381,52.22939682006836]]],"type":"Polygon"}
}