{
  "id": 890698237,
  "type": "Feature",
  "properties": {
    "clustr:alpha":0.05,
    "clustr:area":4.16,
    "clustr:count":25,
    "clustr:density":6.01,
    "clustr:perimeter":0.27,
    "edtf:cessation":"uuuu",
    "edtf:inception":"uuuu",
    "geom:area":0.000001,
    "geom:bbox":"4.63320875168,52.381439209,4.63453483582,52.3821640015",
    "geom:latitude":52.381756,
    "geom:longitude":4.633732,
    "iso:country":"NL",
    "mz:hierarchy_label":1,
    "mz:is_approximate":1,
    "mz:is_clustr":1,
    "src:geom":"oa",
    "wof:belongsto":[
        85687053,
        102191581,
        404474061,
        85633337,
        101751897
    ],
    "wof:breaches":[],
    "wof:country":"NL",
    "wof:created":1469671146,
    "wof:geomhash":"d017e655f9e131f3c2e2b3dc19066ddc",
    "wof:hierarchy":[
        {
            "continent_id":102191581,
            "country_id":85633337,
            "localadmin_id":404474061,
            "locality_id":101751897,
            "postalcode_id":890698237,
            "region_id":85687053
        }
    ],
    "wof:id":890698237,
    "wof:lastmodified":1469671146,
    "wof:name":"2011TR",
    "wof:parent_id":101751897,
    "wof:placetype":"postalcode",
    "wof:repo":"whosonfirst-data-postalcode-nl",
    "wof:superseded_by":[],
    "wof:supersedes":[],
    "wof:tags":[]
},
  "bbox": [
    4.633208751678467,
    52.381439208984375,
    4.63453483581543,
    52.382164001464844
],
  "geometry": {"coordinates":[[[4.6345157623291,52.38175201416016],[4.63453483581543,52.3815803527832],[4.63320875167847,52.38143920898438],[4.6332106590271,52.38216400146484],[4.63325834274292,52.38216018676758],[4.63362169265747,52.38206481933594],[4.63369989395142,52.38203811645508],[4.6345157623291,52.38175201416016]]],"type":"Polygon"}
}