{
  "id": 890878651,
  "type": "Feature",
  "properties": {
    "clustr:alpha":0.05,
    "clustr:area":28.97,
    "clustr:count":12,
    "clustr:density":0.41,
    "clustr:perimeter":0.16,
    "edtf:cessation":"uuuu",
    "edtf:inception":"uuuu",
    "geom:area":0.0,
    "geom:bbox":"5.05044794083,52.0961494446,5.05163145065,52.096370697",
    "geom:latitude":52.096242,
    "geom:longitude":5.050974,
    "iso:country":"NL",
    "mz:hierarchy_label":1,
    "mz:is_approximate":1,
    "mz:is_clustr":1,
    "src:geom":"oa",
    "wof:belongsto":[
        102191581,
        404474007,
        85633337,
        85687039
    ],
    "wof:breaches":[],
    "wof:country":"NL",
    "wof:created":1469678200,
    "wof:geomhash":"658db99cddecca918fcc7a1a1ea87373",
    "wof:hierarchy":[
        {
            "continent_id":102191581,
            "country_id":85633337,
            "localadmin_id":404474007,
            "postalcode_id":890878651,
            "region_id":85687039
        }
    ],
    "wof:id":890878651,
    "wof:lastmodified":1469678200,
    "wof:name":"3544HE",
    "wof:parent_id":404474007,
    "wof:placetype":"postalcode",
    "wof:repo":"whosonfirst-data-postalcode-nl",
    "wof:superseded_by":[],
    "wof:supersedes":[],
    "wof:tags":[]
},
  "bbox": [
    5.050447940826416,
    52.09614944458008,
    5.051631450653076,
    52.096370697021484
],
  "geometry": {"coordinates":[[[5.05096340179443,52.09637069702148],[5.05102634429932,52.09636688232422],[5.05163145065308,52.09614944458008],[5.05044794082642,52.09616470336914],[5.05072641372681,52.09637069702148],[5.05096340179443,52.09637069702148]]],"type":"Polygon"}
}