{
  "id": 891201283,
  "type": "Feature",
  "properties": {
    "clustr:alpha":0.05,
    "clustr:area":4.6,
    "clustr:count":12,
    "clustr:density":2.61,
    "clustr:perimeter":0.19,
    "edtf:cessation":"uuuu",
    "edtf:inception":"uuuu",
    "geom:area":0.0,
    "geom:bbox":"6.58144712448,51.9158325195,6.58242273331,51.9163894653",
    "geom:latitude":51.916091,
    "geom:longitude":6.581801,
    "iso:country":"NL",
    "mz:hierarchy_label":1,
    "mz:is_approximate":1,
    "mz:is_clustr":1,
    "src:geom":"oa",
    "wof:belongsto":[
        85687043,
        102191581,
        404473865,
        85633337,
        101808573
    ],
    "wof:breaches":[],
    "wof:country":"NL",
    "wof:created":1469691456,
    "wof:geomhash":"8973d297ca91f349bbc1635f95e22c07",
    "wof:hierarchy":[
        {
            "continent_id":102191581,
            "country_id":85633337,
            "localadmin_id":404473865,
            "locality_id":101808573,
            "postalcode_id":891201283,
            "region_id":85687043
        }
    ],
    "wof:id":891201283,
    "wof:lastmodified":1469691456,
    "wof:name":"7121HH",
    "wof:parent_id":101808573,
    "wof:placetype":"postalcode",
    "wof:repo":"whosonfirst-data-postalcode-nl",
    "wof:superseded_by":[],
    "wof:supersedes":[],
    "wof:tags":[]
},
  "bbox": [
    6.581447124481201,
    51.91583251953125,
    6.582422733306885,
    51.91638946533203
],
  "geometry": {"coordinates":[[[6.58150291442871,51.91597366333008],[6.5814471244812,51.91638946533203],[6.58242273330688,51.91605758666992],[6.58234930038452,51.91603469848633],[6.58202743530273,51.91595077514648],[6.5815224647522,51.91583251953125],[6.58150291442871,51.91597366333008]]],"type":"Polygon"}
}