{
  "id": 891025701,
  "type": "Feature",
  "properties": {
    "clustr:alpha":0.05,
    "clustr:area":51.17,
    "clustr:count":18,
    "clustr:density":0.35,
    "clustr:perimeter":0.16,
    "edtf:cessation":"uuuu",
    "edtf:inception":"uuuu",
    "geom:area":0.0,
    "geom:bbox":"5.36673116684,51.7178192139,5.36755800247,51.7184524536",
    "geom:latitude":51.71814,
    "geom:longitude":5.367167,
    "iso:country":"NL",
    "mz:hierarchy_label":1,
    "mz:is_approximate":1,
    "mz:is_clustr":1,
    "src:geom":"oa",
    "wof:belongsto":[
        85687035,
        102191581,
        404474393,
        85633337,
        101754587
    ],
    "wof:breaches":[],
    "wof:country":"NL",
    "wof:created":1469684459,
    "wof:geomhash":"cff435cb45a42dbf6deb85b982c06694",
    "wof:hierarchy":[
        {
            "continent_id":102191581,
            "country_id":85633337,
            "localadmin_id":404474393,
            "locality_id":101754587,
            "postalcode_id":891025701,
            "region_id":85687035
        }
    ],
    "wof:id":891025701,
    "wof:lastmodified":1469684459,
    "wof:name":"5243TJ",
    "wof:parent_id":101754587,
    "wof:placetype":"postalcode",
    "wof:repo":"whosonfirst-data-postalcode-nl",
    "wof:superseded_by":[],
    "wof:supersedes":[],
    "wof:tags":[]
},
  "bbox": [
    5.3667311668396,
    51.71781921386719,
    5.367558002471924,
    51.71845245361328
],
  "geometry": {"coordinates":[[[5.3671407699585,51.71839141845703],[5.36728715896606,51.71824264526367],[5.36747121810913,51.7180290222168],[5.36755800247192,51.71791458129883],[5.36724901199341,51.71781921386719],[5.3670220375061,51.71808624267578],[5.3667311668396,51.71845245361328],[5.3671407699585,51.71839141845703]]],"type":"Polygon"}
}