{
  "id": 907121245,
  "type": "Feature",
  "properties": {
    "clustr:alpha":0.05,
    "clustr:area":13.66,
    "clustr:count":17,
    "clustr:density":1.24,
    "clustr:perimeter":0.48,
    "edtf:cessation":"uuuu",
    "edtf:inception":"uuuu",
    "geom:area":0.000001,
    "geom:bbox":"6.30922746658,53.2607650757,6.31001329422,53.263217926",
    "geom:latitude":53.26189,
    "geom:longitude":6.309588,
    "iso:country":"NL",
    "mz:hierarchy_label":1,
    "mz:is_approximate":1,
    "mz:is_clustr":1,
    "src:geom":"oa",
    "wof:belongsto":[
        85687059,
        102191581,
        404473753,
        85633337,
        101803731
    ],
    "wof:breaches":[],
    "wof:country":"NL",
    "wof:created":1469700419,
    "wof:geomhash":"bf6fb72f8565a3f9930362d03ebb4588",
    "wof:hierarchy":[
        {
            "continent_id":102191581,
            "country_id":85633337,
            "localadmin_id":404473753,
            "locality_id":101803731,
            "postalcode_id":907121245,
            "region_id":85687059
        }
    ],
    "wof:id":907121245,
    "wof:lastmodified":1469700419,
    "wof:name":"9843BB",
    "wof:parent_id":101803731,
    "wof:placetype":"postalcode",
    "wof:repo":"whosonfirst-data-postalcode-nl",
    "wof:superseded_by":[],
    "wof:supersedes":[],
    "wof:tags":[]
},
  "bbox": [
    6.309227466583252,
    53.260765075683594,
    6.310013294219971,
    53.26321792602539
],
  "geometry": {"coordinates":[[[6.30922746658325,53.26163482666016],[6.30941104888916,53.26321792602539],[6.30985260009766,53.26284408569336],[6.31001329421997,53.26123428344727],[6.30964612960815,53.26090621948242],[6.30923891067505,53.26076507568359],[6.30922746658325,53.26163482666016]]],"type":"Polygon"}
}