{
  "id": 891178121,
  "type": "Feature",
  "properties": {
    "clustr:alpha":0.05,
    "clustr:area":17.8,
    "clustr:count":18,
    "clustr:density":1.01,
    "clustr:perimeter":0.27,
    "edtf:cessation":"uuuu",
    "edtf:inception":"uuuu",
    "geom:area":0.0,
    "geom:bbox":"5.87408018112,51.9652709961,5.87562084198,51.9660186768",
    "geom:latitude":51.965717,
    "geom:longitude":5.874858,
    "iso:country":"NL",
    "mz:hierarchy_label":1,
    "mz:is_approximate":1,
    "mz:is_clustr":1,
    "src:geom":"oa",
    "wof:belongsto":[
        85687043,
        102191581,
        404473871,
        85633337,
        101751857
    ],
    "wof:breaches":[],
    "wof:country":"NL",
    "wof:created":1469690540,
    "wof:geomhash":"64510181e181d64f431adc96698765e3",
    "wof:hierarchy":[
        {
            "continent_id":102191581,
            "country_id":85633337,
            "localadmin_id":404473871,
            "locality_id":101751857,
            "postalcode_id":891178121,
            "region_id":85687043
        }
    ],
    "wof:id":891178121,
    "wof:lastmodified":1469690540,
    "wof:name":"6843WH",
    "wof:parent_id":101751857,
    "wof:placetype":"postalcode",
    "wof:repo":"whosonfirst-data-postalcode-nl",
    "wof:superseded_by":[],
    "wof:supersedes":[],
    "wof:tags":[]
},
  "bbox": [
    5.874080181121826,
    51.96527099609375,
    5.87562084197998,
    51.96601867675781
],
  "geometry": {"coordinates":[[[5.87452507019043,51.96583557128906],[5.87468290328979,51.9659423828125],[5.87475633621216,51.96597290039062],[5.87498092651367,51.96601867675781],[5.87506294250488,51.96601867675781],[5.87529230117798,51.96599960327148],[5.87554979324341,51.96593856811523],[5.87562084197998,51.96591567993164],[5.87531852722168,51.96566009521484],[5.87408018112183,51.96527099609375],[5.87452507019043,51.96583557128906]]],"type":"Polygon"}
}