{
  "id": 891131045,
  "type": "Feature",
  "properties": {
    "clustr:alpha":0.05,
    "clustr:area":6.09,
    "clustr:count":13,
    "clustr:density":2.13,
    "clustr:perimeter":0.95,
    "edtf:cessation":"uuuu",
    "edtf:inception":"uuuu",
    "geom:area":0.000001,
    "geom:bbox":"5.89002323151,50.9121818542,5.89348077774,50.9158477783",
    "geom:latitude":50.914267,
    "geom:longitude":5.891341,
    "iso:country":"NL",
    "mz:hierarchy_label":1,
    "mz:is_approximate":1,
    "mz:is_clustr":1,
    "src:geom":"oa",
    "wof:belongsto":[
        85687033,
        102191581,
        404474509,
        85633337,
        101809583
    ],
    "wof:breaches":[],
    "wof:country":"NL",
    "wof:created":1469688552,
    "wof:geomhash":"a68423a8177d610caea57f98bda21355",
    "wof:hierarchy":[
        {
            "continent_id":102191581,
            "country_id":85633337,
            "localadmin_id":404474509,
            "locality_id":101809583,
            "postalcode_id":891131045,
            "region_id":85687033
        }
    ],
    "wof:id":891131045,
    "wof:lastmodified":1469688552,
    "wof:name":"6361AK",
    "wof:parent_id":101809583,
    "wof:placetype":"postalcode",
    "wof:repo":"whosonfirst-data-postalcode-nl",
    "wof:superseded_by":[],
    "wof:supersedes":[],
    "wof:tags":[]
},
  "bbox": [
    5.890023231506348,
    50.91218185424805,
    5.893480777740479,
    50.91584777832031
],
  "geometry": {"coordinates":[[[5.89002323150635,50.91584777832031],[5.89006567001343,50.91580200195312],[5.89348077774048,50.91218185424805],[5.89342451095581,50.91222763061523],[5.89057970046997,50.91471862792969],[5.89046764373779,50.91488265991211],[5.89037036895752,50.91506195068359],[5.89002323150635,50.91584777832031]]],"type":"Polygon"}
}