{
  "id": 890941907,
  "type": "Feature",
  "properties": {
    "clustr:alpha":0.05,
    "clustr:area":17.69,
    "clustr:count":17,
    "clustr:density":0.96,
    "clustr:perimeter":0.39,
    "edtf:cessation":"uuuu",
    "edtf:inception":"uuuu",
    "geom:area":0.0,
    "geom:bbox":"4.99170732498,51.9221000671,4.99351453781,51.9235458374",
    "geom:latitude":51.922795,
    "geom:longitude":4.99272,
    "iso:country":"NL",
    "mz:hierarchy_label":1,
    "mz:is_approximate":1,
    "mz:is_clustr":1,
    "src:geom":"oa",
    "wof:belongsto":[
        85687041,
        102191581,
        404474325,
        85633337,
        101808497
    ],
    "wof:breaches":[],
    "wof:country":"NL",
    "wof:created":1469680895,
    "wof:geomhash":"9d7b2f7c2308f2ed7c5b8793a7fff377",
    "wof:hierarchy":[
        {
            "continent_id":102191581,
            "country_id":85633337,
            "localadmin_id":404474325,
            "locality_id":101808497,
            "postalcode_id":890941907,
            "region_id":85687041
        }
    ],
    "wof:id":890941907,
    "wof:lastmodified":1469680895,
    "wof:name":"4231BR",
    "wof:parent_id":101808497,
    "wof:placetype":"postalcode",
    "wof:repo":"whosonfirst-data-postalcode-nl",
    "wof:superseded_by":[],
    "wof:supersedes":[],
    "wof:tags":[]
},
  "bbox": [
    4.991707324981689,
    51.92210006713867,
    4.993514537811279,
    51.923545837402344
],
  "geometry": {"coordinates":[[[4.99348640441895,51.92213821411133],[4.99351453781128,51.92210006713867],[4.99170732498169,51.92354583740234],[4.99272584915161,51.92288589477539],[4.99281883239746,51.92281723022461],[4.99290657043457,51.9227409362793],[4.9930272102356,51.92263412475586],[4.99323081970215,51.92242431640625],[4.99335622787476,51.92228698730469],[4.99348640441895,51.92213821411133]]],"type":"Polygon"}
}