{
  "id": 907025651,
  "type": "Feature",
  "properties": {
    "clustr:alpha":0.05,
    "clustr:area":8.33,
    "clustr:count":12,
    "clustr:density":1.44,
    "clustr:perimeter":0.13,
    "edtf:cessation":"uuuu",
    "edtf:inception":"uuuu",
    "geom:area":0.0,
    "geom:bbox":"5.98627281189,52.3417472839,5.98654699326,52.3424034119",
    "geom:latitude":52.342123,
    "geom:longitude":5.986429,
    "iso:country":"NL",
    "mz:hierarchy_label":1,
    "mz:is_approximate":1,
    "mz:is_clustr":1,
    "src:geom":"oa",
    "wof:belongsto":[
        85687043,
        102191581,
        404473897,
        85633337,
        101807103
    ],
    "wof:breaches":[],
    "wof:country":"NL",
    "wof:created":1469695570,
    "wof:geomhash":"ce0e9de7ee8a69a2bb5874e03fa91c4c",
    "wof:hierarchy":[
        {
            "continent_id":102191581,
            "country_id":85633337,
            "localadmin_id":404473897,
            "locality_id":101807103,
            "postalcode_id":907025651,
            "region_id":85687043
        }
    ],
    "wof:id":907025651,
    "wof:lastmodified":1469695570,
    "wof:name":"8161VG",
    "wof:parent_id":101807103,
    "wof:placetype":"postalcode",
    "wof:repo":"whosonfirst-data-postalcode-nl",
    "wof:superseded_by":[],
    "wof:supersedes":[],
    "wof:tags":[]
},
  "bbox": [
    5.986272811889648,
    52.34174728393555,
    5.986546993255615,
    52.342403411865234
],
  "geometry": {"coordinates":[[[5.98652219772339,52.34235382080078],[5.98654699325562,52.34240341186523],[5.98650550842285,52.34229278564453],[5.98629760742188,52.34180450439453],[5.98627281188965,52.34174728393555],[5.98638343811035,52.34202575683594],[5.98642826080322,52.34213638305664],[5.98652219772339,52.34235382080078]]],"type":"Polygon"}
}