{
  "id": 890763639,
  "type": "Feature",
  "properties": {
    "clustr:alpha":0.05,
    "clustr:area":12.22,
    "clustr:count":20,
    "clustr:density":1.64,
    "clustr:perimeter":0.04,
    "edtf:cessation":"uuuu",
    "edtf:inception":"uuuu",
    "geom:area":0.0,
    "geom:bbox":"4.22964143753,52.0602531433,4.22991657257,52.0603675842",
    "geom:latitude":52.060315,
    "geom:longitude":4.229789,
    "iso:country":"NL",
    "mz:hierarchy_label":1,
    "mz:is_approximate":1,
    "mz:is_clustr":1,
    "src:geom":"oa",
    "wof:belongsto":[
        85687041,
        102191581,
        404474179,
        85633337,
        101752763
    ],
    "wof:breaches":[],
    "wof:country":"NL",
    "wof:created":1469673880,
    "wof:geomhash":"3582160513d61c95601f52674a8ed8cb",
    "wof:hierarchy":[
        {
            "continent_id":102191581,
            "country_id":85633337,
            "localadmin_id":404474179,
            "locality_id":101752763,
            "postalcode_id":890763639,
            "region_id":85687041
        }
    ],
    "wof:id":890763639,
    "wof:lastmodified":1469673880,
    "wof:name":"2555KD",
    "wof:parent_id":101752763,
    "wof:placetype":"postalcode",
    "wof:repo":"whosonfirst-data-postalcode-nl",
    "wof:superseded_by":[],
    "wof:supersedes":[],
    "wof:tags":[]
},
  "bbox": [
    4.229641437530518,
    52.06025314331055,
    4.229916572570801,
    52.060367584228516
],
  "geometry": {"coordinates":[[[4.22981309890747,52.06032562255859],[4.2299165725708,52.06036758422852],[4.22974252700806,52.06029510498047],[4.22964143753052,52.06025314331055],[4.22981309890747,52.06032562255859]]],"type":"Polygon"}
}