{
  "id": 890731601,
  "type": "Feature",
  "properties": {
    "clustr:alpha":0.05,
    "clustr:area":113.8,
    "clustr:count":31,
    "clustr:density":0.27,
    "clustr:perimeter":0.23,
    "edtf:cessation":"uuuu",
    "edtf:inception":"uuuu",
    "geom:area":0.000001,
    "geom:bbox":"4.32181119919,52.0317420959,4.32348489761,52.0326499939",
    "geom:latitude":52.032082,
    "geom:longitude":4.322599,
    "iso:country":"NL",
    "mz:hierarchy_label":1,
    "mz:is_approximate":1,
    "mz:is_clustr":1,
    "src:geom":"oa",
    "wof:belongsto":[
        85687041,
        102191581,
        404474251,
        85633337,
        101754743
    ],
    "wof:breaches":[],
    "wof:country":"NL",
    "wof:created":1469672629,
    "wof:geomhash":"959deeb801c1fcdfd5581c45afdbd33d",
    "wof:hierarchy":[
        {
            "continent_id":102191581,
            "country_id":85633337,
            "localadmin_id":404474251,
            "locality_id":101754743,
            "postalcode_id":890731601,
            "region_id":85687041
        }
    ],
    "wof:id":890731601,
    "wof:lastmodified":1469672629,
    "wof:name":"2287ES",
    "wof:parent_id":101754743,
    "wof:placetype":"postalcode",
    "wof:repo":"whosonfirst-data-postalcode-nl",
    "wof:superseded_by":[],
    "wof:supersedes":[],
    "wof:tags":[]
},
  "bbox": [
    4.321811199188232,
    52.031742095947266,
    4.323484897613525,
    52.032649993896484
],
  "geometry": {"coordinates":[[[4.32248210906982,52.03264999389648],[4.32335090637207,52.03187942504883],[4.32348489761353,52.03174209594727],[4.32181119918823,52.03185272216797],[4.32248210906982,52.03264999389648]]],"type":"Polygon"}
}