{
  "id": 890832795,
  "type": "Feature",
  "properties": {
    "clustr:alpha":0.05,
    "clustr:area":43.54,
    "clustr:count":55,
    "clustr:density":1.26,
    "clustr:perimeter":0.62,
    "edtf:cessation":"uuuu",
    "edtf:inception":"uuuu",
    "geom:area":0.000001,
    "geom:bbox":"4.36370038986,51.9410400391,4.36808776855,51.9419136047",
    "geom:latitude":51.941491,
    "geom:longitude":4.365999,
    "iso:country":"NL",
    "mz:hierarchy_label":1,
    "mz:is_approximate":1,
    "mz:is_clustr":1,
    "src:geom":"oa",
    "wof:belongsto":[
        85687041,
        102191581,
        404474273,
        85633337,
        101751851
    ],
    "wof:breaches":[],
    "wof:country":"NL",
    "wof:created":1469676484,
    "wof:geomhash":"f8766c561dc1232bedf45490d247468a",
    "wof:hierarchy":[
        {
            "continent_id":102191581,
            "country_id":85633337,
            "localadmin_id":404474273,
            "locality_id":101751851,
            "postalcode_id":890832795,
            "region_id":85687041
        }
    ],
    "wof:id":890832795,
    "wof:lastmodified":1469676484,
    "wof:name":"3123EC",
    "wof:parent_id":101751851,
    "wof:placetype":"postalcode",
    "wof:repo":"whosonfirst-data-postalcode-nl",
    "wof:superseded_by":[],
    "wof:supersedes":[],
    "wof:tags":[]
},
  "bbox": [
    4.363700389862061,
    51.9410400390625,
    4.368087768554688,
    51.94191360473633
],
  "geometry": {"coordinates":[[[4.36370038986206,51.94191360473633],[4.36762952804565,51.94143295288086],[4.36808776855469,51.9410400390625],[4.3640341758728,51.941650390625],[4.36370038986206,51.94191360473633]]],"type":"Polygon"}
}