{
  "id": 891145307,
  "type": "Feature",
  "properties": {
    "clustr:alpha":0.05,
    "clustr:area":3.83,
    "clustr:count":10,
    "clustr:density":2.61,
    "clustr:perimeter":0.2,
    "edtf:cessation":"uuuu",
    "edtf:inception":"uuuu",
    "geom:area":0.0,
    "geom:bbox":"5.86000299454,51.8325080872,5.86034917831,51.8335266113",
    "geom:latitude":51.832927,
    "geom:longitude":5.860195,
    "iso:country":"NL",
    "mz:hierarchy_label":1,
    "mz:is_approximate":1,
    "mz:is_clustr":1,
    "src:geom":"oa",
    "wof:belongsto":[
        85687043,
        102191581,
        404473925,
        85633337,
        101751859
    ],
    "wof:breaches":[],
    "wof:country":"NL",
    "wof:created":1469689133,
    "wof:geomhash":"2a7913913c43bf005fe88dc5026b81ee",
    "wof:hierarchy":[
        {
            "continent_id":102191581,
            "country_id":85633337,
            "localadmin_id":404473925,
            "locality_id":101751859,
            "postalcode_id":891145307,
            "region_id":85687043
        }
    ],
    "wof:id":891145307,
    "wof:lastmodified":1469689133,
    "wof:name":"6524WV",
    "wof:parent_id":101751859,
    "wof:placetype":"postalcode",
    "wof:repo":"whosonfirst-data-postalcode-nl",
    "wof:superseded_by":[],
    "wof:supersedes":[],
    "wof:tags":[]
},
  "bbox": [
    5.860002994537354,
    51.8325080871582,
    5.860349178314209,
    51.833526611328125
],
  "geometry": {"coordinates":[[[5.8600697517395,51.83308029174805],[5.86025619506836,51.83352661132812],[5.86034917831421,51.8325080871582],[5.86025047302246,51.83251953125],[5.86015272140503,51.83260345458984],[5.86000299453735,51.83276748657227],[5.8600697517395,51.83308029174805]]],"type":"Polygon"}
}