{
  "id": 890930581,
  "type": "Feature",
  "properties": {
    "clustr:alpha":0.05,
    "clustr:area":9.0,
    "clustr:count":28,
    "clustr:density":3.11,
    "clustr:perimeter":0.31,
    "edtf:cessation":"uuuu",
    "edtf:inception":"uuuu",
    "geom:area":0.0,
    "geom:bbox":"5.44422292709,51.8916625977,5.44644165039,51.8919410706",
    "geom:latitude":51.891784,
    "geom:longitude":5.445368,
    "iso:country":"NL",
    "mz:hierarchy_label":1,
    "mz:is_approximate":1,
    "mz:is_clustr":1,
    "src:geom":"oa",
    "wof:belongsto":[
        85687043,
        102191581,
        404473939,
        85633337,
        101809879
    ],
    "wof:breaches":[],
    "wof:country":"NL",
    "wof:created":1469680476,
    "wof:geomhash":"4740fbd50945e16e37536ed133275af3",
    "wof:hierarchy":[
        {
            "continent_id":102191581,
            "country_id":85633337,
            "localadmin_id":404473939,
            "locality_id":101809879,
            "postalcode_id":890930581,
            "region_id":85687043
        }
    ],
    "wof:id":890930581,
    "wof:lastmodified":1469680476,
    "wof:name":"4005GS",
    "wof:parent_id":101809879,
    "wof:placetype":"postalcode",
    "wof:repo":"whosonfirst-data-postalcode-nl",
    "wof:superseded_by":[],
    "wof:supersedes":[],
    "wof:tags":[]
},
  "bbox": [
    5.444222927093506,
    51.89166259765625,
    5.446441650390625,
    51.89194107055664
],
  "geometry": {"coordinates":[[[5.4461407661438,51.89187240600586],[5.44606399536133,51.8918571472168],[5.4459080696106,51.89183044433594],[5.44567584991455,51.89179229736328],[5.44560480117798,51.89178085327148],[5.44536638259888,51.89175033569336],[5.44508647918701,51.89171981811523],[5.44500970840454,51.8917121887207],[5.44476890563965,51.89168930053711],[5.44446992874146,51.89167404174805],[5.44439506530762,51.89167022705078],[5.44431257247925,51.89166641235352],[5.44422292709351,51.89166259765625],[5.44644165039062,51.89194107055664],[5.44629240036011,51.89190292358398],[5.4461407661438,51.89187240600586]]],"type":"Polygon"}
}