{
  "id": 907048817,
  "type": "Feature",
  "properties": {
    "clustr:alpha":0.05,
    "clustr:area":45.67,
    "clustr:count":14,
    "clustr:density":0.31,
    "clustr:perimeter":0.43,
    "edtf:cessation":"uuuu",
    "edtf:inception":"uuuu",
    "geom:area":0.0,
    "geom:bbox":"6.0001206398,52.9363937378,6.00195503235,52.9381790161",
    "geom:latitude":52.937339,
    "geom:longitude":6.001012,
    "iso:country":"NL",
    "mz:hierarchy_label":1,
    "mz:is_approximate":1,
    "mz:is_clustr":1,
    "src:geom":"oa",
    "wof:belongsto":[
        102191581,
        404473771,
        85633337,
        85687055
    ],
    "wof:breaches":[],
    "wof:country":"NL",
    "wof:created":1469696734,
    "wof:geomhash":"0a6db1274a36c1a15467cb0d91757325",
    "wof:hierarchy":[
        {
            "continent_id":102191581,
            "country_id":85633337,
            "localadmin_id":404473771,
            "postalcode_id":907048817,
            "region_id":85687055
        }
    ],
    "wof:id":907048817,
    "wof:lastmodified":1469696734,
    "wof:name":"8454KM",
    "wof:parent_id":404473771,
    "wof:placetype":"postalcode",
    "wof:repo":"whosonfirst-data-postalcode-nl",
    "wof:superseded_by":[],
    "wof:supersedes":[],
    "wof:tags":[]
},
  "bbox": [
    6.000120639801025,
    52.93639373779297,
    6.001955032348633,
    52.93817901611328
],
  "geometry": {"coordinates":[[[6.00047397613525,52.93791961669922],[6.00072336196899,52.93767547607422],[6.00087022781372,52.93753051757812],[6.00158882141113,52.93680572509766],[6.00195503234863,52.93639373779297],[6.00182247161865,52.93650817871094],[6.00164651870728,52.93667221069336],[6.00032615661621,52.93797302246094],[6.00017929077148,52.93811798095703],[6.00012063980103,52.93817901611328],[6.00047397613525,52.93791961669922]]],"type":"Polygon"}
}