{
  "id": 907020889,
  "type": "Feature",
  "properties": {
    "clustr:alpha":0.05,
    "clustr:area":887.79,
    "clustr:count":24,
    "clustr:density":0.03,
    "clustr:perimeter":1.46,
    "edtf:cessation":"uuuu",
    "edtf:inception":"uuuu",
    "geom:area":0.000034,
    "geom:bbox":"5.84198379517,52.4004554749,5.85175657272,52.4056358337",
    "geom:latitude":52.402884,
    "geom:longitude":5.846748,
    "iso:country":"NL",
    "mz:hierarchy_label":1,
    "mz:is_approximate":1,
    "mz:is_clustr":1,
    "src:geom":"oa",
    "wof:belongsto":[
        102191581,
        404473895,
        85633337,
        85687043
    ],
    "wof:breaches":[],
    "wof:country":"NL",
    "wof:created":1469695313,
    "wof:geomhash":"73c46554e34106a8ccdf7feff3daa7f0",
    "wof:hierarchy":[
        {
            "continent_id":102191581,
            "country_id":85633337,
            "localadmin_id":404473895,
            "postalcode_id":907020889,
            "region_id":85687043
        }
    ],
    "wof:id":907020889,
    "wof:lastmodified":1469695313,
    "wof:name":"8085RL",
    "wof:parent_id":404473895,
    "wof:placetype":"postalcode",
    "wof:repo":"whosonfirst-data-postalcode-nl",
    "wof:superseded_by":[],
    "wof:supersedes":[],
    "wof:tags":[]
},
  "bbox": [
    5.841983795166016,
    52.400455474853516,
    5.851756572723389,
    52.405635833740234
],
  "geometry": {"coordinates":[[[5.84352493286133,52.40045547485352],[5.84253454208374,52.4008903503418],[5.84198379516602,52.40149688720703],[5.84496068954468,52.40563583374023],[5.84908151626587,52.40533828735352],[5.84964656829834,52.40480422973633],[5.85175657272339,52.4015998840332],[5.85096549987793,52.40130996704102],[5.84352493286133,52.40045547485352]]],"type":"Polygon"}
}