{
  "id": 907080743,
  "type": "Feature",
  "properties": {
    "clustr:alpha":0.05,
    "clustr:area":26.89,
    "clustr:count":11,
    "clustr:density":0.41,
    "clustr:perimeter":0.32,
    "edtf:cessation":"uuuu",
    "edtf:inception":"uuuu",
    "geom:area":0.0,
    "geom:bbox":"6.13713979721,53.1843490601,6.13939380646,53.1849822998",
    "geom:latitude":53.184606,
    "geom:longitude":6.138128,
    "iso:country":"NL",
    "mz:hierarchy_label":1,
    "mz:is_approximate":1,
    "mz:is_clustr":1,
    "src:geom":"oa",
    "wof:belongsto":[
        85687055,
        102191581,
        404473757,
        85633337,
        101806145
    ],
    "wof:breaches":[],
    "wof:country":"NL",
    "wof:created":1469698264,
    "wof:geomhash":"d20001d2013d326096512351d2c21817",
    "wof:hierarchy":[
        {
            "continent_id":102191581,
            "country_id":85633337,
            "localadmin_id":404473757,
            "locality_id":101806145,
            "postalcode_id":907080743,
            "region_id":85687055
        }
    ],
    "wof:id":907080743,
    "wof:lastmodified":1469698264,
    "wof:name":"9281PS",
    "wof:parent_id":101806145,
    "wof:placetype":"postalcode",
    "wof:repo":"whosonfirst-data-postalcode-nl",
    "wof:superseded_by":[],
    "wof:supersedes":[],
    "wof:tags":[]
},
  "bbox": [
    6.137139797210693,
    53.184349060058594,
    6.13939380645752,
    53.18498229980469
],
  "geometry": {"coordinates":[[[6.13713979721069,53.18434906005859],[6.13939380645752,53.18498229980469],[6.1389045715332,53.18481826782227],[6.13827562332153,53.18462371826172],[6.13807821273804,53.18456268310547],[6.13782930374146,53.18448638916016],[6.13737106323242,53.18437957763672],[6.13713979721069,53.18434906005859]]],"type":"Polygon"}
}