{
  "id": 890995495,
  "type": "Feature",
  "properties": {
    "clustr:alpha":0.05,
    "clustr:area":2.95,
    "clustr:count":15,
    "clustr:density":5.09,
    "clustr:perimeter":0.15,
    "edtf:cessation":"uuuu",
    "edtf:inception":"uuuu",
    "geom:area":0.0,
    "geom:bbox":"4.84239530563,51.6422958374,4.84249782562,51.6430206299",
    "geom:latitude":51.642701,
    "geom:longitude":4.842451,
    "iso:country":"NL",
    "mz:hierarchy_label":1,
    "mz:is_approximate":1,
    "mz:is_clustr":1,
    "src:geom":"oa",
    "wof:belongsto":[
        85687035,
        102191581,
        404474413,
        85633337,
        101808317
    ],
    "wof:breaches":[],
    "wof:country":"NL",
    "wof:created":1469683290,
    "wof:geomhash":"e420ea8dc22922c2c1bc863526189d17",
    "wof:hierarchy":[
        {
            "continent_id":102191581,
            "country_id":85633337,
            "localadmin_id":404474413,
            "locality_id":101808317,
            "postalcode_id":890995495,
            "region_id":85687035
        }
    ],
    "wof:id":890995495,
    "wof:lastmodified":1469683290,
    "wof:name":"4902CH",
    "wof:parent_id":101808317,
    "wof:placetype":"postalcode",
    "wof:repo":"whosonfirst-data-postalcode-nl",
    "wof:superseded_by":[],
    "wof:supersedes":[],
    "wof:tags":[]
},
  "bbox": [
    4.842395305633545,
    51.642295837402344,
    4.842497825622559,
    51.64302062988281
],
  "geometry": {"coordinates":[[[4.84240627288818,51.64272689819336],[4.84239530563354,51.64280319213867],[4.84240388870239,51.64284896850586],[4.84246635437012,51.64302062988281],[4.84249782562256,51.64229583740234],[4.84244298934937,51.64253234863281],[4.84242105484009,51.64263153076172],[4.84240627288818,51.64272689819336]]],"type":"Polygon"}
}