{
  "id": 891087393,
  "type": "Feature",
  "properties": {
    "clustr:alpha":0.05,
    "clustr:area":17.05,
    "clustr:count":11,
    "clustr:density":0.65,
    "clustr:perimeter":0.18,
    "edtf:cessation":"uuuu",
    "edtf:inception":"uuuu",
    "geom:area":0.0,
    "geom:bbox":"6.01662921906,51.5305099487,6.01778507233,51.5308036804",
    "geom:latitude":51.530653,
    "geom:longitude":6.017141,
    "iso:country":"NL",
    "mz:hierarchy_label":1,
    "mz:is_approximate":1,
    "mz:is_clustr":1,
    "src:geom":"oa",
    "wof:belongsto":[
        85687033,
        102191581,
        404474527,
        85633337,
        101839281
    ],
    "wof:breaches":[],
    "wof:country":"NL",
    "wof:created":1469686762,
    "wof:geomhash":"1836c1228f0fb41c0c0153c14baaaec6",
    "wof:hierarchy":[
        {
            "continent_id":102191581,
            "country_id":85633337,
            "localadmin_id":404474527,
            "locality_id":101839281,
            "postalcode_id":891087393,
            "region_id":85687033
        }
    ],
    "wof:id":891087393,
    "wof:lastmodified":1469686762,
    "wof:name":"5807AR",
    "wof:parent_id":101839281,
    "wof:placetype":"postalcode",
    "wof:repo":"whosonfirst-data-postalcode-nl",
    "wof:superseded_by":[],
    "wof:supersedes":[],
    "wof:tags":[]
},
  "bbox": [
    6.016629219055176,
    51.53050994873047,
    6.01778507232666,
    51.53080368041992
],
  "geometry": {"coordinates":[[[6.01672172546387,51.53051376342773],[6.01662921905518,51.53050994873047],[6.01670551300049,51.53071975708008],[6.01778507232666,51.53080368041992],[6.01740074157715,51.53055572509766],[6.01686096191406,51.53052139282227],[6.01672172546387,51.53051376342773]]],"type":"Polygon"}
}