{
  "id": 890745179,
  "type": "Feature",
  "properties": {
    "clustr:alpha":0.05,
    "clustr:area":47.24,
    "clustr:count":22,
    "clustr:density":0.47,
    "clustr:perimeter":0.2,
    "edtf:cessation":"uuuu",
    "edtf:inception":"uuuu",
    "geom:area":0.0,
    "geom:bbox":"4.66578054428,52.1500930786,4.66739463806,52.1503448486",
    "geom:latitude":52.150217,
    "geom:longitude":4.666601,
    "iso:country":"NL",
    "mz:hierarchy_label":1,
    "mz:is_approximate":1,
    "mz:is_clustr":1,
    "src:geom":"oa",
    "wof:belongsto":[
        85687041,
        102191581,
        404474147,
        85633337,
        101751837
    ],
    "wof:breaches":[],
    "wof:country":"NL",
    "wof:created":1469673146,
    "wof:geomhash":"4ae4cb587ff5a5c47b59bd1c91df8185",
    "wof:hierarchy":[
        {
            "continent_id":102191581,
            "country_id":85633337,
            "localadmin_id":404474147,
            "locality_id":101751837,
            "postalcode_id":890745179,
            "region_id":85687041
        }
    ],
    "wof:id":890745179,
    "wof:lastmodified":1469673146,
    "wof:name":"2402MB",
    "wof:parent_id":101751837,
    "wof:placetype":"postalcode",
    "wof:repo":"whosonfirst-data-postalcode-nl",
    "wof:superseded_by":[],
    "wof:supersedes":[],
    "wof:tags":[]
},
  "bbox": [
    4.665780544281006,
    52.15009307861328,
    4.667394638061523,
    52.15034484863281
],
  "geometry": {"coordinates":[[[4.6670126914978,52.15015411376953],[4.66739463806152,52.15009307861328],[4.66716289520264,52.15012741088867],[4.66670417785645,52.15019989013672],[4.66578054428101,52.15034484863281],[4.66601181030273,52.15031051635742],[4.66616439819336,52.15028762817383],[4.66623973846435,52.15027618408203],[4.66662502288818,52.15021514892578],[4.6670126914978,52.15015411376953]]],"type":"Polygon"}
}