{
  "id": 890922327,
  "type": "Feature",
  "properties": {
    "clustr:alpha":0.05,
    "clustr:area":190.06,
    "clustr:count":9,
    "clustr:density":0.05,
    "clustr:perimeter":1.29,
    "edtf:cessation":"uuuu",
    "edtf:inception":"uuuu",
    "geom:area":0.000013,
    "geom:bbox":"5.40781211853,52.098033905,5.41270065308,52.1029319763",
    "geom:latitude":52.100788,
    "geom:longitude":5.40974,
    "iso:country":"NL",
    "mz:hierarchy_label":1,
    "mz:is_approximate":1,
    "mz:is_clustr":1,
    "src:geom":"oa",
    "wof:belongsto":[
        102191581,
        404474011,
        85633337,
        85687039
    ],
    "wof:breaches":[],
    "wof:country":"NL",
    "wof:created":1469680133,
    "wof:geomhash":"87bea2bcb794ddcd4b82cfe1cc52d0d5",
    "wof:hierarchy":[
        {
            "continent_id":102191581,
            "country_id":85633337,
            "localadmin_id":404474011,
            "postalcode_id":890922327,
            "region_id":85687039
        }
    ],
    "wof:id":890922327,
    "wof:lastmodified":1469680133,
    "wof:name":"3931MA",
    "wof:parent_id":404474011,
    "wof:placetype":"postalcode",
    "wof:repo":"whosonfirst-data-postalcode-nl",
    "wof:superseded_by":[],
    "wof:supersedes":[],
    "wof:tags":[]
},
  "bbox": [
    5.407812118530273,
    52.0980339050293,
    5.412700653076172,
    52.10293197631836
],
  "geometry": {"coordinates":[[[5.40938854217529,52.10293197631836],[5.41270065307617,52.10116958618164],[5.41029119491577,52.09902954101562],[5.40845203399658,52.0980339050293],[5.40781211853027,52.10277938842773],[5.40938854217529,52.10293197631836]]],"type":"Polygon"}
}