{
  "id": 890803857,
  "type": "Feature",
  "properties": {
    "clustr:alpha":0.05,
    "clustr:area":46.5,
    "clustr:count":21,
    "clustr:density":0.45,
    "clustr:perimeter":0.26,
    "edtf:cessation":"uuuu",
    "edtf:inception":"uuuu",
    "geom:area":0.0,
    "geom:bbox":"4.61326789856,51.9738082886,4.61485290527,51.9747467041",
    "geom:latitude":51.974288,
    "geom:longitude":4.614075,
    "iso:country":"NL",
    "mz:hierarchy_label":1,
    "mz:is_approximate":1,
    "mz:is_clustr":1,
    "src:geom":"oa",
    "wof:belongsto":[
        85687041,
        102191581,
        404474213,
        85633337,
        101808529
    ],
    "wof:breaches":[],
    "wof:country":"NL",
    "wof:created":1469675368,
    "wof:geomhash":"c1f743e29ec23314b9e5e87516dc42df",
    "wof:hierarchy":[
        {
            "continent_id":102191581,
            "country_id":85633337,
            "localadmin_id":404474213,
            "locality_id":101808529,
            "postalcode_id":890803857,
            "region_id":85687041
        }
    ],
    "wof:id":890803857,
    "wof:lastmodified":1469675368,
    "wof:name":"2914AC",
    "wof:parent_id":101808529,
    "wof:placetype":"postalcode",
    "wof:repo":"whosonfirst-data-postalcode-nl",
    "wof:superseded_by":[],
    "wof:supersedes":[],
    "wof:tags":[]
},
  "bbox": [
    4.61326789855957,
    51.97380828857422,
    4.614852905273438,
    51.97474670410156
],
  "geometry": {"coordinates":[[[4.61444997787476,51.97449111938477],[4.61359977722168,51.97398376464844],[4.61332559585571,51.97383880615234],[4.61326789855957,51.97380828857422],[4.613440990448,51.97391891479492],[4.61430501937866,51.97445678710938],[4.61478090286255,51.97470855712891],[4.61485290527344,51.97474670410156],[4.61444997787476,51.97449111938477]]],"type":"Polygon"}
}