{
  "id": 891252183,
  "type": "Feature",
  "properties": {
    "clustr:alpha":0.05,
    "clustr:area":1.2,
    "clustr:count":14,
    "clustr:density":11.66,
    "clustr:perimeter":0.14,
    "edtf:cessation":"uuuu",
    "edtf:inception":"uuuu",
    "geom:area":0.0,
    "geom:bbox":"6.66243124008,52.3423690796,6.66270017624,52.3429450989",
    "geom:latitude":52.342588,
    "geom:longitude":6.662531,
    "iso:country":"NL",
    "mz:hierarchy_label":1,
    "mz:is_approximate":1,
    "mz:is_clustr":1,
    "src:geom":"oa",
    "wof:belongsto":[
        85687045,
        102191581,
        404473819,
        85633337,
        101751863
    ],
    "wof:breaches":[],
    "wof:country":"NL",
    "wof:created":1469693490,
    "wof:geomhash":"74f0b5bebb31c3854e94f6a13f5e716a",
    "wof:hierarchy":[
        {
            "continent_id":102191581,
            "country_id":85633337,
            "localadmin_id":404473819,
            "locality_id":101751863,
            "postalcode_id":891252183,
            "region_id":85687045
        }
    ],
    "wof:id":891252183,
    "wof:lastmodified":1469693490,
    "wof:name":"7606CT",
    "wof:parent_id":101751863,
    "wof:placetype":"postalcode",
    "wof:repo":"whosonfirst-data-postalcode-nl",
    "wof:superseded_by":[],
    "wof:supersedes":[],
    "wof:tags":[]
},
  "bbox": [
    6.662431240081787,
    52.342369079589844,
    6.662700176239014,
    52.34294509887695
],
  "geometry": {"coordinates":[[[6.66243648529053,52.34289932250977],[6.66245269775391,52.34294509887695],[6.66270017623901,52.34236907958984],[6.6625828742981,52.34237670898438],[6.66248083114624,52.3423957824707],[6.66243124008179,52.34271240234375],[6.66243648529053,52.34289932250977]]],"type":"Polygon"}
}