{
  "id": 890574895,
  "type": "Feature",
  "properties": {
    "clustr:alpha":0.05,
    "clustr:area":12.83,
    "clustr:count":7,
    "clustr:density":0.55,
    "clustr:perimeter":0.06,
    "edtf:cessation":"uuuu",
    "edtf:inception":"uuuu",
    "geom:area":0.0,
    "geom:bbox":"4.89520359039,52.3756484985,4.89570331573,52.3756980896",
    "geom:latitude":52.37567,
    "geom:longitude":4.895442,
    "iso:country":"NL",
    "mz:hierarchy_label":1,
    "mz:is_approximate":1,
    "mz:is_clustr":1,
    "src:geom":"oa",
    "wof:belongsto":[
        85687053,
        102191581,
        404474029,
        85633337,
        101751893
    ],
    "wof:breaches":[],
    "wof:country":"NL",
    "wof:created":1469665641,
    "wof:geomhash":"76f99e11d9ac6bdf945da56d71cc176c",
    "wof:hierarchy":[
        {
            "continent_id":102191581,
            "country_id":85633337,
            "localadmin_id":404474029,
            "locality_id":101751893,
            "postalcode_id":890574895,
            "region_id":85687053
        }
    ],
    "wof:id":890574895,
    "wof:lastmodified":1469665641,
    "wof:name":"1012LT",
    "wof:parent_id":101751893,
    "wof:placetype":"postalcode",
    "wof:repo":"whosonfirst-data-postalcode-nl",
    "wof:superseded_by":[],
    "wof:supersedes":[],
    "wof:tags":[]
},
  "bbox": [
    4.895203590393066,
    52.375648498535156,
    4.895703315734863,
    52.37569808959961
],
  "geometry": {"coordinates":[[[4.89530658721924,52.37565231323242],[4.89520359039307,52.37567901611328],[4.89548206329346,52.37569808959961],[4.89570331573486,52.37564849853516],[4.89530658721924,52.37565231323242]]],"type":"Polygon"}
}