{
  "id": 891140493,
  "type": "Feature",
  "properties": {
    "clustr:alpha":0.05,
    "clustr:area":13.19,
    "clustr:count":31,
    "clustr:density":2.35,
    "clustr:perimeter":0.38,
    "edtf:cessation":"uuuu",
    "edtf:inception":"uuuu",
    "geom:area":0.000001,
    "geom:bbox":"5.93763017654,50.9798088074,5.93892717361,50.9813346863",
    "geom:latitude":50.980577,
    "geom:longitude":5.938269,
    "iso:country":"NL",
    "mz:hierarchy_label":1,
    "mz:is_approximate":1,
    "mz:is_clustr":1,
    "src:geom":"oa",
    "wof:belongsto":[
        102191581,
        404474465,
        85633337,
        85687033
    ],
    "wof:breaches":[],
    "wof:country":"NL",
    "wof:created":1469688962,
    "wof:geomhash":"0fb7b77276e4e2e76f6f366f430555de",
    "wof:hierarchy":[
        {
            "continent_id":102191581,
            "country_id":85633337,
            "localadmin_id":404474465,
            "postalcode_id":891140493,
            "region_id":85687033
        }
    ],
    "wof:id":891140493,
    "wof:lastmodified":1469688962,
    "wof:name":"6454AL",
    "wof:parent_id":404474465,
    "wof:placetype":"postalcode",
    "wof:repo":"whosonfirst-data-postalcode-nl",
    "wof:superseded_by":[],
    "wof:supersedes":[],
    "wof:tags":[]
},
  "bbox": [
    5.937630176544189,
    50.97980880737305,
    5.938927173614502,
    50.9813346862793
],
  "geometry": {"coordinates":[[[5.93807172775269,50.97995376586914],[5.9380145072937,50.97991561889648],[5.93784236907959,50.97980880737305],[5.93763017654419,50.97992706298828],[5.93822622299194,50.98094177246094],[5.93849992752075,50.98122787475586],[5.93862962722778,50.9813346862793],[5.9389271736145,50.98124313354492],[5.93818664550781,50.98003387451172],[5.93807172775269,50.97995376586914]]],"type":"Polygon"}
}