{
  "id": 890746045,
  "type": "Feature",
  "properties": {
    "clustr:alpha":0.05,
    "clustr:area":39.84,
    "clustr:count":27,
    "clustr:density":0.68,
    "clustr:perimeter":0.7,
    "edtf:cessation":"uuuu",
    "edtf:inception":"uuuu",
    "geom:area":0.000002,
    "geom:bbox":"4.65149211884,52.1320610046,4.65629577637,52.1329498291",
    "geom:latitude":52.132544,
    "geom:longitude":4.653494,
    "iso:country":"NL",
    "mz:hierarchy_label":1,
    "mz:is_approximate":1,
    "mz:is_clustr":1,
    "src:geom":"oa",
    "wof:belongsto":[
        85687041,
        102191581,
        404474147,
        85633337,
        101751837
    ],
    "wof:breaches":[],
    "wof:country":"NL",
    "wof:created":1469673175,
    "wof:geomhash":"0d44e6ed8cbbb193982db200e46ca6f5",
    "wof:hierarchy":[
        {
            "continent_id":102191581,
            "country_id":85633337,
            "localadmin_id":404474147,
            "locality_id":101751837,
            "postalcode_id":890746045,
            "region_id":85687041
        }
    ],
    "wof:id":890746045,
    "wof:lastmodified":1469673175,
    "wof:name":"2404GA",
    "wof:parent_id":101751837,
    "wof:placetype":"postalcode",
    "wof:repo":"whosonfirst-data-postalcode-nl",
    "wof:superseded_by":[],
    "wof:supersedes":[],
    "wof:tags":[]
},
  "bbox": [
    4.651492118835449,
    52.13206100463867,
    4.656295776367188,
    52.13294982910156
],
  "geometry": {"coordinates":[[[4.6518235206604,52.13276290893555],[4.65446472167969,52.13291931152344],[4.65557670593262,52.13293838500977],[4.65597820281982,52.1329460144043],[4.65629577636719,52.13294982910156],[4.65347909927368,52.13206481933594],[4.65254592895508,52.13206100463867],[4.65226984024048,52.1320686340332],[4.65217781066895,52.13207244873047],[4.65150260925293,52.13261413574219],[4.65149211883545,52.13271713256836],[4.6518235206604,52.13276290893555]]],"type":"Polygon"}
}