{
  "id": 891279725,
  "type": "Feature",
  "properties": {
    "clustr:alpha":0.05,
    "clustr:area":35.92,
    "clustr:count":20,
    "clustr:density":0.56,
    "clustr:perimeter":0.72,
    "edtf:cessation":"uuuu",
    "edtf:inception":"uuuu",
    "geom:area":0.000002,
    "geom:bbox":"6.21519708633,52.6386070251,6.21911525726,52.6408653259",
    "geom:latitude":52.639488,
    "geom:longitude":6.217315,
    "iso:country":"NL",
    "mz:hierarchy_label":1,
    "mz:is_approximate":1,
    "mz:is_clustr":1,
    "src:geom":"oa",
    "wof:belongsto":[
        85687045,
        102191581,
        404473853,
        85633337,
        101837859
    ],
    "wof:breaches":[],
    "wof:country":"NL",
    "wof:created":1469694677,
    "wof:geomhash":"b9bd50eee8d050d88eccebdb0e7c0a7f",
    "wof:hierarchy":[
        {
            "continent_id":102191581,
            "country_id":85633337,
            "localadmin_id":404473853,
            "locality_id":101837859,
            "postalcode_id":891279725,
            "region_id":85687045
        }
    ],
    "wof:id":891279725,
    "wof:lastmodified":1469694677,
    "wof:name":"7951JN",
    "wof:parent_id":101837859,
    "wof:placetype":"postalcode",
    "wof:repo":"whosonfirst-data-postalcode-nl",
    "wof:superseded_by":[],
    "wof:supersedes":[],
    "wof:tags":[]
},
  "bbox": [
    6.215197086334229,
    52.638607025146484,
    6.219115257263184,
    52.640865325927734
],
  "geometry": {"coordinates":[[[6.21821403503418,52.63860702514648],[6.21704053878784,52.63907623291016],[6.21690940856934,52.63919448852539],[6.21574878692627,52.64032745361328],[6.21526527404785,52.64079666137695],[6.21519708633423,52.64086532592773],[6.21911525726318,52.63896942138672],[6.21887302398682,52.63886260986328],[6.21865701675415,52.63876724243164],[6.21852540969849,52.63871002197266],[6.21821403503418,52.63860702514648]]],"type":"Polygon"}
}