{
  "id": 890755473,
  "type": "Feature",
  "properties": {
    "clustr:alpha":0.05,
    "clustr:area":81.45,
    "clustr:count":34,
    "clustr:density":0.42,
    "clustr:perimeter":0.13,
    "edtf:cessation":"uuuu",
    "edtf:inception":"uuuu",
    "geom:area":0.0,
    "geom:bbox":"4.3142824173,52.0596046448,4.31520605087,52.0602455139",
    "geom:latitude":52.059915,
    "geom:longitude":4.314779,
    "iso:country":"NL",
    "mz:hierarchy_label":1,
    "mz:is_approximate":1,
    "mz:is_clustr":1,
    "src:geom":"oa",
    "wof:belongsto":[
        85687041,
        102191581,
        404474251,
        85633337,
        101754743
    ],
    "wof:breaches":[],
    "wof:country":"NL",
    "wof:created":1469673551,
    "wof:geomhash":"8c8b7ecbecbbe998e56e732348befb34",
    "wof:hierarchy":[
        {
            "continent_id":102191581,
            "country_id":85633337,
            "localadmin_id":404474251,
            "locality_id":101754743,
            "postalcode_id":890755473,
            "region_id":85687041
        }
    ],
    "wof:id":890755473,
    "wof:lastmodified":1469673551,
    "wof:name":"2521VJ",
    "wof:parent_id":101754743,
    "wof:placetype":"postalcode",
    "wof:repo":"whosonfirst-data-postalcode-nl",
    "wof:superseded_by":[],
    "wof:supersedes":[],
    "wof:tags":[]
},
  "bbox": [
    4.314282417297363,
    52.05960464477539,
    4.315206050872803,
    52.060245513916016
],
  "geometry": {"coordinates":[[[4.31498527526855,52.06024551391602],[4.31506061553955,52.06019973754883],[4.3152060508728,52.05995178222656],[4.31463956832886,52.05960464477539],[4.31442403793335,52.05973815917969],[4.31428241729736,52.0598258972168],[4.31498527526855,52.06024551391602]]],"type":"Polygon"}
}