{
  "id": 891140687,
  "type": "Feature",
  "properties": {
    "clustr:alpha":0.05,
    "clustr:area":7.08,
    "clustr:count":17,
    "clustr:density":2.4,
    "clustr:perimeter":0.25,
    "edtf:cessation":"uuuu",
    "edtf:inception":"uuuu",
    "geom:area":0.0,
    "geom:bbox":"6.06172466278,50.8635597229,6.06294393539,50.8643302917",
    "geom:latitude":50.864018,
    "geom:longitude":6.062391,
    "iso:country":"NL",
    "mz:hierarchy_label":1,
    "mz:is_approximate":1,
    "mz:is_clustr":1,
    "src:geom":"oa",
    "wof:belongsto":[
        85687033,
        102191581,
        404474489,
        85633337,
        101839255
    ],
    "wof:breaches":[],
    "wof:country":"NL",
    "wof:created":1469688970,
    "wof:geomhash":"44849a3492d3d0c3cf4bb51d6b2da2ff",
    "wof:hierarchy":[
        {
            "continent_id":102191581,
            "country_id":85633337,
            "localadmin_id":404474489,
            "locality_id":101839255,
            "postalcode_id":891140687,
            "region_id":85687033
        }
    ],
    "wof:id":891140687,
    "wof:lastmodified":1469688970,
    "wof:name":"6461EP",
    "wof:parent_id":101839255,
    "wof:placetype":"postalcode",
    "wof:repo":"whosonfirst-data-postalcode-nl",
    "wof:superseded_by":[],
    "wof:supersedes":[],
    "wof:tags":[]
},
  "bbox": [
    6.061724662780762,
    50.86355972290039,
    6.062943935394287,
    50.86433029174805
],
  "geometry": {"coordinates":[[[6.06179189682007,50.86433029174805],[6.0623369216919,50.86424255371094],[6.06246566772461,50.86421203613281],[6.06255388259888,50.86416625976562],[6.06270122528076,50.86402893066406],[6.06284618377685,50.86384582519531],[6.06291675567627,50.86369323730469],[6.06293773651123,50.86360549926758],[6.06294393539429,50.86355972290039],[6.06172466278076,50.86423873901367],[6.06179189682007,50.86433029174805]]],"type":"Polygon"}
}