{
  "id": 891161877,
  "type": "Feature",
  "properties": {
    "clustr:alpha":0.05,
    "clustr:area":19.11,
    "clustr:count":12,
    "clustr:density":0.63,
    "clustr:perimeter":0.15,
    "edtf:cessation":"uuuu",
    "edtf:inception":"uuuu",
    "geom:area":0.0,
    "geom:bbox":"5.86971139908,51.8665428162,5.87010335922,51.8671112061",
    "geom:latitude":51.866867,
    "geom:longitude":5.869936,
    "iso:country":"NL",
    "mz:hierarchy_label":1,
    "mz:is_approximate":1,
    "mz:is_clustr":1,
    "src:geom":"oa",
    "wof:belongsto":[
        85687043,
        102191581,
        404473925,
        85633337,
        101808623
    ],
    "wof:breaches":[],
    "wof:country":"NL",
    "wof:created":1469689856,
    "wof:geomhash":"b38213c7b9ce6799aaa9a7e3506564e4",
    "wof:hierarchy":[
        {
            "continent_id":102191581,
            "country_id":85633337,
            "localadmin_id":404473925,
            "locality_id":101808623,
            "postalcode_id":891161877,
            "region_id":85687043
        }
    ],
    "wof:id":891161877,
    "wof:lastmodified":1469689856,
    "wof:name":"6663EL",
    "wof:parent_id":101808623,
    "wof:placetype":"postalcode",
    "wof:repo":"whosonfirst-data-postalcode-nl",
    "wof:superseded_by":[],
    "wof:supersedes":[],
    "wof:tags":[]
},
  "bbox": [
    5.869711399078369,
    51.86654281616211,
    5.870103359222412,
    51.86711120605469
],
  "geometry": {"coordinates":[[[5.87003231048584,51.86711120605469],[5.87010335922241,51.86686325073242],[5.87007856369019,51.86654663085938],[5.86999416351318,51.86654281616211],[5.8697681427002,51.86684036254883],[5.86971139907837,51.86709213256836],[5.86987543106079,51.86710357666016],[5.87003231048584,51.86711120605469]]],"type":"Polygon"}
}