{
  "id": 890922783,
  "type": "Feature",
  "properties": {
    "clustr:alpha":0.05,
    "clustr:area":78.56,
    "clustr:count":8,
    "clustr:density":0.1,
    "clustr:perimeter":0.09,
    "edtf:cessation":"uuuu",
    "edtf:inception":"uuuu",
    "geom:area":0.0,
    "geom:bbox":"5.34464550018,52.038734436,5.34562158585,52.0388145447",
    "geom:latitude":52.038769,
    "geom:longitude":5.345087,
    "iso:country":"NL",
    "mz:hierarchy_label":1,
    "mz:is_approximate":1,
    "mz:is_clustr":1,
    "src:geom":"oa",
    "wof:belongsto":[
        85687039,
        102191581,
        404474547,
        85633337,
        101806997
    ],
    "wof:breaches":[],
    "wof:country":"NL",
    "wof:created":1469680153,
    "wof:geomhash":"4f9df1c9a882e7ade01abcde9910f8f4",
    "wof:hierarchy":[
        {
            "continent_id":102191581,
            "country_id":85633337,
            "localadmin_id":404474547,
            "locality_id":101806997,
            "postalcode_id":890922783,
            "region_id":85687039
        }
    ],
    "wof:id":890922783,
    "wof:lastmodified":1469680153,
    "wof:name":"3941GC",
    "wof:parent_id":101806997,
    "wof:placetype":"postalcode",
    "wof:repo":"whosonfirst-data-postalcode-nl",
    "wof:superseded_by":[],
    "wof:supersedes":[],
    "wof:tags":[]
},
  "bbox": [
    5.344645500183105,
    52.038734436035156,
    5.345621585845947,
    52.038814544677734
],
  "geometry": {"coordinates":[[[5.34541749954224,52.03878021240234],[5.34562158584595,52.03874206542969],[5.34533023834229,52.03873443603516],[5.3446455001831,52.03875350952148],[5.34477663040161,52.03881454467773],[5.34541749954224,52.03878021240234]]],"type":"Polygon"}
}