{
  "id": 891278555,
  "type": "Feature",
  "properties": {
    "clustr:alpha":0.05,
    "clustr:area":10.83,
    "clustr:count":20,
    "clustr:density":1.85,
    "clustr:perimeter":0.21,
    "edtf:cessation":"uuuu",
    "edtf:inception":"uuuu",
    "geom:area":0.0,
    "geom:bbox":"6.21899461746,52.6986503601,6.21907663345,52.6997299194",
    "geom:latitude":52.699113,
    "geom:longitude":6.219038,
    "iso:country":"NL",
    "mz:hierarchy_label":1,
    "mz:is_approximate":1,
    "mz:is_clustr":1,
    "src:geom":"oa",
    "wof:belongsto":[
        85687051,
        102191581,
        404473813,
        85633337,
        101807279
    ],
    "wof:breaches":[],
    "wof:country":"NL",
    "wof:created":1469694596,
    "wof:geomhash":"b96355e0b85ccf3e0dcb84c992fcb1fb",
    "wof:hierarchy":[
        {
            "continent_id":102191581,
            "country_id":85633337,
            "localadmin_id":404473813,
            "locality_id":101807279,
            "postalcode_id":891278555,
            "region_id":85687051
        }
    ],
    "wof:id":891278555,
    "wof:lastmodified":1469694596,
    "wof:name":"7943JR",
    "wof:parent_id":101807279,
    "wof:placetype":"postalcode",
    "wof:repo":"whosonfirst-data-postalcode-nl",
    "wof:superseded_by":[],
    "wof:supersedes":[],
    "wof:tags":[]
},
  "bbox": [
    6.218994617462158,
    52.69865036010742,
    6.219076633453369,
    52.699729919433594
],
  "geometry": {"coordinates":[[[6.21899461746216,52.69889831542969],[6.21901035308838,52.69923782348633],[6.21902656555176,52.6995849609375],[6.21903371810913,52.69972991943359],[6.21904802322388,52.69967651367188],[6.21907663345337,52.6987419128418],[6.21907424926758,52.69869613647461],[6.21905565261841,52.69865036010742],[6.21899461746216,52.69889831542969]]],"type":"Polygon"}
}