{
  "id": 891003541,
  "type": "Feature",
  "properties": {
    "clustr:alpha":0.05,
    "clustr:area":199.62,
    "clustr:count":20,
    "clustr:density":0.1,
    "clustr:perimeter":0.54,
    "edtf:cessation":"uuuu",
    "edtf:inception":"uuuu",
    "geom:area":0.0,
    "geom:bbox":"5.05009698868,51.5566596985,5.05478668213,51.5569992065",
    "geom:latitude":51.556834,
    "geom:longitude":5.052314,
    "iso:country":"NL",
    "mz:hierarchy_label":1,
    "mz:is_approximate":1,
    "mz:is_clustr":1,
    "src:geom":"oa",
    "wof:belongsto":[
        85687035,
        102191581,
        404474435,
        85633337,
        101751817
    ],
    "wof:breaches":[],
    "wof:country":"NL",
    "wof:created":1469683608,
    "wof:geomhash":"74ca1cf9a2a7ab51100c10879f770886",
    "wof:hierarchy":[
        {
            "continent_id":102191581,
            "country_id":85633337,
            "localadmin_id":404474435,
            "locality_id":101751817,
            "postalcode_id":891003541,
            "region_id":85687035
        }
    ],
    "wof:id":891003541,
    "wof:lastmodified":1469683608,
    "wof:name":"5037LH",
    "wof:parent_id":101751817,
    "wof:placetype":"postalcode",
    "wof:repo":"whosonfirst-data-postalcode-nl",
    "wof:superseded_by":[],
    "wof:supersedes":[],
    "wof:tags":[]
},
  "bbox": [
    5.050096988677979,
    51.55665969848633,
    5.054786682128906,
    51.55699920654297
],
  "geometry": {"coordinates":[[[5.05021476745605,51.55699920654297],[5.0518217086792,51.5568962097168],[5.0543041229248,51.55670928955078],[5.05467510223389,51.55667114257812],[5.05478668212891,51.55665969848633],[5.05334854125977,51.55673217773438],[5.05061149597168,51.55693435668945],[5.05009698867798,51.55698776245117],[5.05021476745605,51.55699920654297]]],"type":"Polygon"}
}