{
  "id": 891199811,
  "type": "Feature",
  "properties": {
    "clustr:alpha":0.05,
    "clustr:area":41.77,
    "clustr:count":25,
    "clustr:density":0.6,
    "clustr:perimeter":0.36,
    "edtf:cessation":"uuuu",
    "edtf:inception":"uuuu",
    "geom:area":0.0,
    "geom:bbox":"6.73844575882,51.9704437256,6.73924541473,51.9719963074",
    "geom:latitude":51.971439,
    "geom:longitude":6.738792,
    "iso:country":"NL",
    "mz:hierarchy_label":1,
    "mz:is_approximate":1,
    "mz:is_clustr":1,
    "src:geom":"oa",
    "wof:belongsto":[
        85687043,
        102191581,
        404473951,
        85633337,
        101809855
    ],
    "wof:breaches":[],
    "wof:country":"NL",
    "wof:created":1469691405,
    "wof:geomhash":"7ba509198a9f9c230a07cd04bea3c01e",
    "wof:hierarchy":[
        {
            "continent_id":102191581,
            "country_id":85633337,
            "localadmin_id":404473951,
            "locality_id":101809855,
            "postalcode_id":891199811,
            "region_id":85687043
        }
    ],
    "wof:id":891199811,
    "wof:lastmodified":1469691405,
    "wof:name":"7101LE",
    "wof:parent_id":101809855,
    "wof:placetype":"postalcode",
    "wof:repo":"whosonfirst-data-postalcode-nl",
    "wof:superseded_by":[],
    "wof:supersedes":[],
    "wof:tags":[]
},
  "bbox": [
    6.73844575881958,
    51.97044372558594,
    6.739245414733887,
    51.97199630737305
],
  "geometry": {"coordinates":[[[6.73901462554932,51.97192764282227],[6.73924541473389,51.97187042236328],[6.73844575881958,51.97044372558594],[6.73868179321289,51.97199630737305],[6.73901462554932,51.97192764282227]]],"type":"Polygon"}
}