{
  "id": 890645065,
  "type": "Feature",
  "properties": {
    "clustr:alpha":0.05,
    "clustr:area":27.34,
    "clustr:count":11,
    "clustr:density":0.4,
    "clustr:perimeter":0.1,
    "edtf:cessation":"uuuu",
    "edtf:inception":"uuuu",
    "geom:area":0.0,
    "geom:bbox":"4.75617408752,52.2342071533,4.7566409111,52.2346687317",
    "geom:latitude":52.234445,
    "geom:longitude":4.756407,
    "iso:country":"NL",
    "mz:hierarchy_label":1,
    "mz:is_approximate":1,
    "mz:is_clustr":1,
    "src:geom":"oa",
    "wof:belongsto":[
        85687053,
        102191581,
        404474023,
        85633337,
        101807363
    ],
    "wof:breaches":[],
    "wof:country":"NL",
    "wof:created":1469668776,
    "wof:geomhash":"78c5c874b569142a476bf800068c1b02",
    "wof:hierarchy":[
        {
            "continent_id":102191581,
            "country_id":85633337,
            "localadmin_id":404474023,
            "locality_id":101807363,
            "postalcode_id":890645065,
            "region_id":85687053
        }
    ],
    "wof:id":890645065,
    "wof:lastmodified":1469668776,
    "wof:name":"1433MB",
    "wof:parent_id":101807363,
    "wof:placetype":"postalcode",
    "wof:repo":"whosonfirst-data-postalcode-nl",
    "wof:superseded_by":[],
    "wof:supersedes":[],
    "wof:tags":[]
},
  "bbox": [
    4.756174087524414,
    52.23420715332031,
    4.756640911102295,
    52.23466873168945
],
  "geometry": {"coordinates":[[[4.75622606277466,52.23437118530273],[4.75617408752441,52.23441314697266],[4.75624847412109,52.23451614379883],[4.75664091110229,52.23466873168945],[4.75643634796143,52.23420715332031],[4.75622606277466,52.23437118530273]]],"type":"Polygon"}
}