{
  "id": 890828353,
  "type": "Feature",
  "properties": {
    "clustr:alpha":0.05,
    "clustr:area":79.25,
    "clustr:count":24,
    "clustr:density":0.3,
    "clustr:perimeter":0.09,
    "edtf:cessation":"uuuu",
    "edtf:inception":"uuuu",
    "geom:area":0.0,
    "geom:bbox":"4.46879196167,51.8927383423,4.46960449219,51.8931503296",
    "geom:latitude":51.893003,
    "geom:longitude":4.469102,
    "iso:country":"NL",
    "mz:hierarchy_label":1,
    "mz:is_approximate":1,
    "mz:is_clustr":1,
    "src:geom":"oa",
    "wof:belongsto":[
        85687041,
        102191581,
        404474245,
        85633337,
        101751843
    ],
    "wof:breaches":[],
    "wof:country":"NL",
    "wof:created":1469676321,
    "wof:geomhash":"1ac3c564d8cf0f939251d97069364598",
    "wof:hierarchy":[
        {
            "continent_id":102191581,
            "country_id":85633337,
            "localadmin_id":404474245,
            "locality_id":101751843,
            "postalcode_id":890828353,
            "region_id":85687041
        }
    ],
    "wof:id":890828353,
    "wof:lastmodified":1469676321,
    "wof:name":"3082AE",
    "wof:parent_id":101751843,
    "wof:placetype":"postalcode",
    "wof:repo":"whosonfirst-data-postalcode-nl",
    "wof:superseded_by":[],
    "wof:supersedes":[],
    "wof:tags":[]
},
  "bbox": [
    4.468791961669922,
    51.892738342285156,
    4.4696044921875,
    51.893150329589844
],
  "geometry": {"coordinates":[[[4.46898317337036,51.89303970336914],[4.46879196166992,51.89315032958984],[4.46888732910156,51.89314651489258],[4.4696044921875,51.89273834228516],[4.46898317337036,51.89303970336914]]],"type":"Polygon"}
}