{
  "id": 890613913,
  "type": "Feature",
  "properties": {
    "clustr:alpha":0.05,
    "clustr:area":4.56,
    "clustr:count":18,
    "clustr:density":3.95,
    "clustr:perimeter":0.27,
    "edtf:cessation":"uuuu",
    "edtf:inception":"uuuu",
    "geom:area":0.000001,
    "geom:bbox":"4.8560795784,52.3152961731,4.85732269287,52.3163490295",
    "geom:latitude":52.315718,
    "geom:longitude":4.856886,
    "iso:country":"NL",
    "mz:hierarchy_label":1,
    "mz:is_approximate":1,
    "mz:is_clustr":1,
    "src:geom":"oa",
    "wof:belongsto":[
        85687053,
        102191581,
        404474029,
        85633337,
        101751893
    ],
    "wof:breaches":[],
    "wof:country":"NL",
    "wof:created":1469667408,
    "wof:geomhash":"33bc8cc79bdc61a26f195ecba657b457",
    "wof:hierarchy":[
        {
            "continent_id":102191581,
            "country_id":85633337,
            "localadmin_id":404474029,
            "locality_id":101751893,
            "postalcode_id":890613913,
            "region_id":85687053
        }
    ],
    "wof:id":890613913,
    "wof:lastmodified":1469667408,
    "wof:name":"1181BT",
    "wof:parent_id":101751893,
    "wof:placetype":"postalcode",
    "wof:repo":"whosonfirst-data-postalcode-nl",
    "wof:superseded_by":[],
    "wof:supersedes":[],
    "wof:tags":[]
},
  "bbox": [
    4.856079578399658,
    52.3152961730957,
    4.857322692871094,
    52.316349029541016
],
  "geometry": {"coordinates":[[[4.85731554031372,52.31586837768555],[4.85729789733887,52.31578063964844],[4.85716009140015,52.31546783447266],[4.85607957839966,52.3152961730957],[4.85732269287109,52.31634902954102],[4.85731554031372,52.31586837768555]]],"type":"Polygon"}
}