{
  "id": 907118331,
  "type": "Feature",
  "properties": {
    "clustr:alpha":0.05,
    "clustr:area":104.88,
    "clustr:count":12,
    "clustr:density":0.11,
    "clustr:perimeter":0.24,
    "edtf:cessation":"uuuu",
    "edtf:inception":"uuuu",
    "geom:area":0.0,
    "geom:bbox":"6.56861829758,53.133895874,6.56949663162,53.1356582642",
    "geom:latitude":53.134835,
    "geom:longitude":6.56903,
    "iso:country":"NL",
    "mz:hierarchy_label":1,
    "mz:is_approximate":1,
    "mz:is_clustr":1,
    "src:geom":"oa",
    "wof:belongsto":[
        85687051,
        102191581,
        404474647,
        85633337,
        101837869
    ],
    "wof:breaches":[],
    "wof:country":"NL",
    "wof:created":1469700306,
    "wof:geomhash":"550bfc7cba7bb858d614b24cfde42e4b",
    "wof:hierarchy":[
        {
            "continent_id":102191581,
            "country_id":85633337,
            "localadmin_id":404474647,
            "locality_id":101837869,
            "postalcode_id":907118331,
            "region_id":85687051
        }
    ],
    "wof:id":907118331,
    "wof:lastmodified":1469700306,
    "wof:name":"9761BN",
    "wof:parent_id":101837869,
    "wof:placetype":"postalcode",
    "wof:repo":"whosonfirst-data-postalcode-nl",
    "wof:superseded_by":[],
    "wof:supersedes":[],
    "wof:tags":[]
},
  "bbox": [
    6.568618297576904,
    53.13389587402344,
    6.569496631622314,
    53.135658264160156
],
  "geometry": {"coordinates":[[[6.56942653656006,53.13405990600586],[6.56949663162231,53.13389587402344],[6.56946802139282,53.13394927978516],[6.56943988800049,53.13400268554688],[6.56898546218872,53.13488006591797],[6.5686182975769,53.13565826416016],[6.56866073608398,53.13560485839844],[6.56871843338013,53.13549423217773],[6.56942653656006,53.13405990600586]]],"type":"Polygon"}
}