{
  "id": 907112273,
  "type": "Feature",
  "properties": {
    "clustr:alpha":0.05,
    "clustr:area":6.31,
    "clustr:count":25,
    "clustr:density":3.96,
    "clustr:perimeter":0.11,
    "edtf:cessation":"uuuu",
    "edtf:inception":"uuuu",
    "geom:area":0.0,
    "geom:bbox":"6.55576562881,53.2117576599,6.556204319,53.2121925354",
    "geom:latitude":53.211946,
    "geom:longitude":6.555986,
    "iso:country":"NL",
    "mz:hierarchy_label":1,
    "mz:is_approximate":1,
    "mz:is_clustr":1,
    "src:geom":"oa",
    "wof:belongsto":[
        85687059,
        102191581,
        404473713,
        85633337,
        101751909
    ],
    "wof:breaches":[],
    "wof:country":"NL",
    "wof:created":1469700012,
    "wof:geomhash":"a5d07e9018095d61b78ecaebaaa78790",
    "wof:hierarchy":[
        {
            "continent_id":102191581,
            "country_id":85633337,
            "localadmin_id":404473713,
            "locality_id":101751909,
            "postalcode_id":907112273,
            "region_id":85687059
        }
    ],
    "wof:id":907112273,
    "wof:lastmodified":1469700012,
    "wof:name":"9726BE",
    "wof:parent_id":101751909,
    "wof:placetype":"postalcode",
    "wof:repo":"whosonfirst-data-postalcode-nl",
    "wof:superseded_by":[],
    "wof:supersedes":[],
    "wof:tags":[]
},
  "bbox": [
    6.555765628814697,
    53.21175765991211,
    6.556204319000244,
    53.21219253540039
],
  "geometry": {"coordinates":[[[6.55581855773926,53.21203994750977],[6.55577945709229,53.21211624145508],[6.5557689666748,53.21216583251953],[6.5557656288147,53.21219253540039],[6.55620431900024,53.21187210083008],[6.55612468719482,53.21175765991211],[6.55598211288452,53.21182250976562],[6.55591011047363,53.2119026184082],[6.55586338043213,53.21197128295898],[6.55581855773926,53.21203994750977]]],"type":"Polygon"}
}