{
  "id": 890947519,
  "type": "Feature",
  "properties": {
    "clustr:alpha":0.05,
    "clustr:area":295.08,
    "clustr:count":8,
    "clustr:density":0.03,
    "clustr:perimeter":0.67,
    "edtf:cessation":"uuuu",
    "edtf:inception":"uuuu",
    "geom:area":0.000005,
    "geom:bbox":"3.71125888824,51.7156677246,3.71471810341,51.7187919617",
    "geom:latitude":51.717236,
    "geom:longitude":3.713177,
    "iso:country":"NL",
    "mz:hierarchy_label":1,
    "mz:is_approximate":1,
    "mz:is_clustr":1,
    "src:geom":"oa",
    "wof:belongsto":[
        102191581,
        404474591,
        85633337,
        85687037
    ],
    "wof:breaches":[],
    "wof:country":"NL",
    "wof:created":1469681118,
    "wof:geomhash":"f65a7954741166ad40cc22c91c152d08",
    "wof:hierarchy":[
        {
            "continent_id":102191581,
            "country_id":85633337,
            "localadmin_id":404474591,
            "postalcode_id":890947519,
            "region_id":85687037
        }
    ],
    "wof:id":890947519,
    "wof:lastmodified":1469681118,
    "wof:name":"4328KN",
    "wof:parent_id":404474591,
    "wof:placetype":"postalcode",
    "wof:repo":"whosonfirst-data-postalcode-nl",
    "wof:superseded_by":[],
    "wof:supersedes":[],
    "wof:tags":[]
},
  "bbox": [
    3.711258888244629,
    51.715667724609375,
    3.714718103408813,
    51.71879196166992
],
  "geometry": {"coordinates":[[[3.71375608444214,51.71879196166992],[3.71471810340881,51.71566772460938],[3.71166157722473,51.71694183349609],[3.71125888824463,51.71742630004883],[3.71375608444214,51.71879196166992]]],"type":"Polygon"}
}