{
  "id": 891149693,
  "type": "Feature",
  "properties": {
    "clustr:alpha":0.05,
    "clustr:area":8.74,
    "clustr:count":8,
    "clustr:density":0.92,
    "clustr:perimeter":0.1,
    "edtf:cessation":"uuuu",
    "edtf:inception":"uuuu",
    "geom:area":0.0,
    "geom:bbox":"5.83486509323,51.8351249695,5.83524990082,51.8355941772",
    "geom:latitude":51.835368,
    "geom:longitude":5.835025,
    "iso:country":"NL",
    "mz:hierarchy_label":1,
    "mz:is_approximate":1,
    "mz:is_clustr":1,
    "src:geom":"oa",
    "wof:belongsto":[
        85687043,
        102191581,
        404473925,
        85633337,
        101751859
    ],
    "wof:breaches":[],
    "wof:country":"NL",
    "wof:created":1469689340,
    "wof:geomhash":"6f7e09c0b08d0cf675f8bb8ce650a2e5",
    "wof:hierarchy":[
        {
            "continent_id":102191581,
            "country_id":85633337,
            "localadmin_id":404473925,
            "locality_id":101751859,
            "postalcode_id":891149693,
            "region_id":85687043
        }
    ],
    "wof:id":891149693,
    "wof:lastmodified":1469689340,
    "wof:name":"6543ST",
    "wof:parent_id":101751859,
    "wof:placetype":"postalcode",
    "wof:repo":"whosonfirst-data-postalcode-nl",
    "wof:superseded_by":[],
    "wof:supersedes":[],
    "wof:tags":[]
},
  "bbox": [
    5.834865093231201,
    51.83512496948242,
    5.835249900817871,
    51.835594177246094
],
  "geometry": {"coordinates":[[[5.83491945266724,51.83544158935547],[5.8348650932312,51.83559417724609],[5.83491611480713,51.83554077148438],[5.83524990081787,51.83512496948242],[5.83508348464966,51.83525848388672],[5.83503770828247,51.83530426025391],[5.83496379852295,51.83538818359375],[5.83491945266724,51.83544158935547]]],"type":"Polygon"}
}