{
  "id": 891031631,
  "type": "Feature",
  "properties": {
    "clustr:alpha":0.05,
    "clustr:area":21.01,
    "clustr:count":10,
    "clustr:density":0.48,
    "clustr:perimeter":0.1,
    "edtf:cessation":"uuuu",
    "edtf:inception":"uuuu",
    "geom:area":0.0,
    "geom:bbox":"5.32763957977,51.5963363647,5.32821655273,51.596660614",
    "geom:latitude":51.596509,
    "geom:longitude":5.327938,
    "iso:country":"NL",
    "mz:hierarchy_label":1,
    "mz:is_approximate":1,
    "mz:is_clustr":1,
    "src:geom":"oa",
    "wof:belongsto":[
        85687035,
        102191581,
        404474361,
        85633337,
        101839333
    ],
    "wof:breaches":[],
    "wof:country":"NL",
    "wof:created":1469684673,
    "wof:geomhash":"c302891b5a0b4b35ee5df03d458f3e94",
    "wof:hierarchy":[
        {
            "continent_id":102191581,
            "country_id":85633337,
            "localadmin_id":404474361,
            "locality_id":101839333,
            "postalcode_id":891031631,
            "region_id":85687035
        }
    ],
    "wof:id":891031631,
    "wof:lastmodified":1469684673,
    "wof:name":"5283TH",
    "wof:parent_id":101839333,
    "wof:placetype":"postalcode",
    "wof:repo":"whosonfirst-data-postalcode-nl",
    "wof:superseded_by":[],
    "wof:supersedes":[],
    "wof:tags":[]
},
  "bbox": [
    5.327639579772949,
    51.596336364746094,
    5.328216552734375,
    51.59666061401367
],
  "geometry": {"coordinates":[[[5.32811546325684,51.59666061401367],[5.32821655273438,51.59657287597656],[5.32813024520874,51.59647369384766],[5.32805824279785,51.596435546875],[5.32782745361328,51.59633636474609],[5.32763957977295,51.59650039672852],[5.32794237136841,51.59663391113281],[5.32811546325684,51.59666061401367]]],"type":"Polygon"}
}