{
  "id": 890671665,
  "type": "Feature",
  "properties": {
    "clustr:alpha":0.05,
    "clustr:area":840.73,
    "clustr:count":9,
    "clustr:density":0.01,
    "clustr:perimeter":2.98,
    "edtf:cessation":"uuuu",
    "edtf:inception":"uuuu",
    "geom:area":0.000029,
    "geom:bbox":"4.8765335083,52.7072639465,4.89816474915,52.7173156738",
    "geom:latitude":52.711989,
    "geom:longitude":4.886108,
    "iso:country":"NL",
    "mz:hierarchy_label":1,
    "mz:is_approximate":1,
    "mz:is_clustr":1,
    "src:geom":"oa",
    "wof:belongsto":[
        102191581,
        404474089,
        85633337,
        85687053
    ],
    "wof:breaches":[],
    "wof:country":"NL",
    "wof:created":1469670043,
    "wof:geomhash":"b113bee838c1d061770f2b87508ad4ea",
    "wof:hierarchy":[
        {
            "continent_id":102191581,
            "country_id":85633337,
            "localadmin_id":404474089,
            "postalcode_id":890671665,
            "region_id":85687053
        }
    ],
    "wof:id":890671665,
    "wof:lastmodified":1469670043,
    "wof:name":"1734NB",
    "wof:parent_id":404474089,
    "wof:placetype":"postalcode",
    "wof:repo":"whosonfirst-data-postalcode-nl",
    "wof:superseded_by":[],
    "wof:supersedes":[],
    "wof:tags":[]
},
  "bbox": [
    4.876533508300781,
    52.7072639465332,
    4.898164749145508,
    52.717315673828125
],
  "geometry": {"coordinates":[[[4.87674808502197,52.71711349487305],[4.87653350830078,52.71731567382812],[4.89816474914551,52.7072639465332],[4.8978123664856,52.70730972290039],[4.89744663238525,52.70739364624023],[4.88324880599976,52.71156692504883],[4.87674808502197,52.71711349487305]]],"type":"Polygon"}
}