{
  "id": 891275627,
  "type": "Feature",
  "properties": {
    "clustr:alpha":0.05,
    "clustr:area":86.25,
    "clustr:count":10,
    "clustr:density":0.12,
    "clustr:perimeter":0.07,
    "edtf:cessation":"uuuu",
    "edtf:inception":"uuuu",
    "geom:area":0.0,
    "geom:bbox":"6.44598436356,52.7151298523,6.44673061371,52.7153549194",
    "geom:latitude":52.715276,
    "geom:longitude":6.446251,
    "iso:country":"NL",
    "mz:hierarchy_label":1,
    "mz:is_approximate":1,
    "mz:is_clustr":1,
    "src:geom":"oa",
    "wof:belongsto":[
        85687051,
        102191581,
        404473811,
        85633337,
        101837877
    ],
    "wof:breaches":[],
    "wof:country":"NL",
    "wof:created":1469694462,
    "wof:geomhash":"1e0a6532885f308b6120baed83a3896e",
    "wof:hierarchy":[
        {
            "continent_id":102191581,
            "country_id":85633337,
            "localadmin_id":404473811,
            "locality_id":101837877,
            "postalcode_id":891275627,
            "region_id":85687051
        }
    ],
    "wof:id":891275627,
    "wof:lastmodified":1469694462,
    "wof:name":"7908GJ",
    "wof:parent_id":101837877,
    "wof:placetype":"postalcode",
    "wof:repo":"whosonfirst-data-postalcode-nl",
    "wof:superseded_by":[],
    "wof:supersedes":[],
    "wof:tags":[]
},
  "bbox": [
    6.445984363555908,
    52.71512985229492,
    6.446730613708496,
    52.715354919433594
],
  "geometry": {"coordinates":[[[6.44598436355591,52.71512985229492],[6.44600486755371,52.7153205871582],[6.4462718963623,52.71535491943359],[6.44637537002563,52.71535491943359],[6.4467306137085,52.71535110473633],[6.44598436355591,52.71512985229492]]],"type":"Polygon"}
}