{
  "id": 907075765,
  "type": "Feature",
  "properties": {
    "clustr:alpha":0.05,
    "clustr:area":10.83,
    "clustr:count":27,
    "clustr:density":2.49,
    "clustr:perimeter":0.21,
    "edtf:cessation":"uuuu",
    "edtf:inception":"uuuu",
    "geom:area":0.0,
    "geom:bbox":"6.09754133224,53.1039505005,6.09863996506,53.1045684814",
    "geom:latitude":53.10426,
    "geom:longitude":6.098135,
    "iso:country":"NL",
    "mz:hierarchy_label":1,
    "mz:is_approximate":1,
    "mz:is_clustr":1,
    "src:geom":"oa",
    "wof:belongsto":[
        85687055,
        102191581,
        404473791,
        85633337,
        101806135
    ],
    "wof:breaches":[],
    "wof:country":"NL",
    "wof:created":1469697969,
    "wof:geomhash":"79bde4fa66b39dbd32cbda5854d958ae",
    "wof:hierarchy":[
        {
            "continent_id":102191581,
            "country_id":85633337,
            "localadmin_id":404473791,
            "locality_id":101806135,
            "postalcode_id":907075765,
            "region_id":85687055
        }
    ],
    "wof:id":907075765,
    "wof:lastmodified":1469697969,
    "wof:name":"9203DD",
    "wof:parent_id":101806135,
    "wof:placetype":"postalcode",
    "wof:repo":"whosonfirst-data-postalcode-nl",
    "wof:superseded_by":[],
    "wof:supersedes":[],
    "wof:tags":[]
},
  "bbox": [
    6.097541332244873,
    53.10395050048828,
    6.098639965057373,
    53.10456848144531
],
  "geometry": {"coordinates":[[[6.09778308868408,53.10404586791992],[6.09754133224487,53.10433959960938],[6.09863996505737,53.10456848144531],[6.09862279891968,53.10426330566406],[6.09817028045654,53.10398864746094],[6.09786367416382,53.10395050048828],[6.09778308868408,53.10404586791992]]],"type":"Polygon"}
}