{
  "id": 890857541,
  "type": "Feature",
  "properties": {
    "clustr:alpha":0.05,
    "clustr:area":23.63,
    "clustr:count":17,
    "clustr:density":0.72,
    "clustr:perimeter":0.19,
    "edtf:cessation":"uuuu",
    "edtf:inception":"uuuu",
    "geom:area":0.0,
    "geom:bbox":"4.61355352402,51.8151626587,4.61485052109,51.8153991699",
    "geom:latitude":51.815296,
    "geom:longitude":4.6143,
    "iso:country":"NL",
    "mz:hierarchy_label":1,
    "mz:is_approximate":1,
    "mz:is_clustr":1,
    "src:geom":"oa",
    "wof:belongsto":[
        85687041,
        102191581,
        404474291,
        85633337,
        101754703
    ],
    "wof:breaches":[],
    "wof:country":"NL",
    "wof:created":1469677399,
    "wof:geomhash":"48d2c68513283f5d9181efbbd2497b53",
    "wof:hierarchy":[
        {
            "continent_id":102191581,
            "country_id":85633337,
            "localadmin_id":404474291,
            "locality_id":101754703,
            "postalcode_id":890857541,
            "region_id":85687041
        }
    ],
    "wof:id":890857541,
    "wof:lastmodified":1469677399,
    "wof:name":"3334TK",
    "wof:parent_id":101754703,
    "wof:placetype":"postalcode",
    "wof:repo":"whosonfirst-data-postalcode-nl",
    "wof:superseded_by":[],
    "wof:supersedes":[],
    "wof:tags":[]
},
  "bbox": [
    4.613553524017334,
    51.815162658691406,
    4.614850521087646,
    51.815399169921875
],
  "geometry": {"coordinates":[[[4.61372756958008,51.81526565551758],[4.61355352401733,51.81536865234375],[4.6144642829895,51.81539916992188],[4.61485052108765,51.81536483764648],[4.61478900909424,51.81516265869141],[4.6144003868103,51.815185546875],[4.61391830444336,51.81524276733398],[4.61372756958008,51.81526565551758]]],"type":"Polygon"}
}