{
  "id": 890760005,
  "type": "Feature",
  "properties": {
    "clustr:alpha":0.05,
    "clustr:area":17.71,
    "clustr:count":24,
    "clustr:density":1.36,
    "clustr:perimeter":0.09,
    "edtf:cessation":"uuuu",
    "edtf:inception":"uuuu",
    "geom:area":0.0,
    "geom:bbox":"4.25122690201,52.0423660278,4.25177574158,52.0427131653",
    "geom:latitude":52.042549,
    "geom:longitude":4.251515,
    "iso:country":"NL",
    "mz:hierarchy_label":1,
    "mz:is_approximate":1,
    "mz:is_clustr":1,
    "src:geom":"oa",
    "wof:belongsto":[
        85687041,
        102191581,
        404474179,
        85633337,
        101752763
    ],
    "wof:breaches":[],
    "wof:country":"NL",
    "wof:created":1469673721,
    "wof:geomhash":"aa23ac8e5acaef40de092ba42cfc01a0",
    "wof:hierarchy":[
        {
            "continent_id":102191581,
            "country_id":85633337,
            "localadmin_id":404474179,
            "locality_id":101752763,
            "postalcode_id":890760005,
            "region_id":85687041
        }
    ],
    "wof:id":890760005,
    "wof:lastmodified":1469673721,
    "wof:name":"2544SK",
    "wof:parent_id":101752763,
    "wof:placetype":"postalcode",
    "wof:repo":"whosonfirst-data-postalcode-nl",
    "wof:superseded_by":[],
    "wof:supersedes":[],
    "wof:tags":[]
},
  "bbox": [
    4.251226902008057,
    52.04236602783203,
    4.251775741577148,
    52.0427131652832
],
  "geometry": {"coordinates":[[[4.25177574157715,52.0427131652832],[4.25158882141113,52.04259490966797],[4.25143194198608,52.04249572753906],[4.25122690200806,52.04236602783203],[4.25138759613037,52.0424690246582],[4.25162220001221,52.04261779785156],[4.25177574157715,52.0427131652832]]],"type":"Polygon"}
}