{
  "id": 891272905,
  "type": "Feature",
  "properties": {
    "clustr:alpha":0.05,
    "clustr:area":0.83,
    "clustr:count":6,
    "clustr:density":7.21,
    "clustr:perimeter":0.24,
    "edtf:cessation":"uuuu",
    "edtf:inception":"uuuu",
    "geom:area":0.0,
    "geom:bbox":"6.92961740494,52.7101249695,6.92996120453,52.711479187",
    "geom:latitude":52.710838,
    "geom:longitude":6.929818,
    "iso:country":"NL",
    "mz:hierarchy_label":1,
    "mz:is_approximate":1,
    "mz:is_clustr":1,
    "src:geom":"oa",
    "wof:belongsto":[
        85687051,
        102191581,
        404473809,
        85633337,
        101807299
    ],
    "wof:breaches":[],
    "wof:country":"NL",
    "wof:created":1469694355,
    "wof:geomhash":"d2b4edc9f2e44b72a773e3da1a442a02",
    "wof:hierarchy":[
        {
            "continent_id":102191581,
            "country_id":85633337,
            "localadmin_id":404473809,
            "locality_id":101807299,
            "postalcode_id":891272905,
            "region_id":85687051
        }
    ],
    "wof:id":891272905,
    "wof:lastmodified":1469694355,
    "wof:name":"7887GJ",
    "wof:parent_id":101807299,
    "wof:placetype":"postalcode",
    "wof:repo":"whosonfirst-data-postalcode-nl",
    "wof:superseded_by":[],
    "wof:supersedes":[],
    "wof:tags":[]
},
  "bbox": [
    6.929617404937744,
    52.71012496948242,
    6.929961204528809,
    52.71147918701172
],
  "geometry": {"coordinates":[[[6.92988252639771,52.71092987060547],[6.92961740493774,52.71012496948242],[6.92965221405029,52.71026992797852],[6.92996120452881,52.71147918701172],[6.92988252639771,52.71092987060547]]],"type":"Polygon"}
}