{
  "id": 890944827,
  "type": "Feature",
  "properties": {
    "clustr:alpha":0.05,
    "clustr:area":48.93,
    "clustr:count":14,
    "clustr:density":0.29,
    "clustr:perimeter":0.16,
    "edtf:cessation":"uuuu",
    "edtf:inception":"uuuu",
    "geom:area":0.0,
    "geom:bbox":"5.00072097778,51.8138656616,5.00150156021,51.8147735596",
    "geom:latitude":51.814357,
    "geom:longitude":5.001132,
    "iso:country":"NL",
    "mz:hierarchy_label":1,
    "mz:is_approximate":1,
    "mz:is_clustr":1,
    "src:geom":"oa",
    "wof:belongsto":[
        85687035,
        102191581,
        404474457,
        85633337,
        101809641
    ],
    "wof:breaches":[],
    "wof:country":"NL",
    "wof:created":1469681006,
    "wof:geomhash":"579198511c2b05b1f6a488d735000d59",
    "wof:hierarchy":[
        {
            "continent_id":102191581,
            "country_id":85633337,
            "localadmin_id":404474457,
            "locality_id":101809641,
            "postalcode_id":890944827,
            "region_id":85687035
        }
    ],
    "wof:id":890944827,
    "wof:lastmodified":1469681006,
    "wof:name":"4285BG",
    "wof:parent_id":101809641,
    "wof:placetype":"postalcode",
    "wof:repo":"whosonfirst-data-postalcode-nl",
    "wof:superseded_by":[],
    "wof:supersedes":[],
    "wof:tags":[]
},
  "bbox": [
    5.000720977783203,
    51.813865661621094,
    5.001501560211182,
    51.81477355957031
],
  "geometry": {"coordinates":[[[5.00117492675781,51.81443405151367],[5.00150156021118,51.81477355957031],[5.00088500976562,51.81405639648438],[5.00076389312744,51.81391525268555],[5.0007209777832,51.81386566162109],[5.00117492675781,51.81443405151367]]],"type":"Polygon"}
}