{
  "id": 890989661,
  "type": "Feature",
  "properties": {
    "clustr:alpha":0.05,
    "clustr:area":48.03,
    "clustr:count":9,
    "clustr:density":0.19,
    "clustr:perimeter":0.39,
    "edtf:cessation":"uuuu",
    "edtf:inception":"uuuu",
    "geom:area":0.000001,
    "geom:bbox":"4.76306962967,51.5687255859,4.76383304596,51.5705108643",
    "geom:latitude":51.569547,
    "geom:longitude":4.763461,
    "iso:country":"NL",
    "mz:hierarchy_label":1,
    "mz:is_approximate":1,
    "mz:is_clustr":1,
    "src:geom":"oa",
    "wof:belongsto":[
        85687035,
        102191581,
        404474363,
        85633337,
        101751811
    ],
    "wof:breaches":[],
    "wof:country":"NL",
    "wof:created":1469683049,
    "wof:geomhash":"d081cfe043918cac2ba970a6e4c22583",
    "wof:hierarchy":[
        {
            "continent_id":102191581,
            "country_id":85633337,
            "localadmin_id":404474363,
            "locality_id":101751811,
            "postalcode_id":890989661,
            "region_id":85687035
        }
    ],
    "wof:id":890989661,
    "wof:lastmodified":1469683049,
    "wof:name":"4837CV",
    "wof:parent_id":101751811,
    "wof:placetype":"postalcode",
    "wof:repo":"whosonfirst-data-postalcode-nl",
    "wof:superseded_by":[],
    "wof:supersedes":[],
    "wof:tags":[]
},
  "bbox": [
    4.763069629669189,
    51.5687255859375,
    4.763833045959473,
    51.57051086425781
],
  "geometry": {"coordinates":[[[4.76306962966919,51.5689811706543],[4.76311063766479,51.56970596313477],[4.76383304595947,51.57051086425781],[4.76382350921631,51.57012557983398],[4.7638087272644,51.56982803344727],[4.7637882232666,51.56958389282227],[4.76363277435303,51.56915283203125],[4.76343488693237,51.5687255859375],[4.76306962966919,51.5689811706543]]],"type":"Polygon"}
}