{
  "id": 891046527,
  "type": "Feature",
  "properties": {
    "clustr:alpha":0.05,
    "clustr:area":34.64,
    "clustr:count":4,
    "clustr:density":0.12,
    "clustr:perimeter":0.34,
    "edtf:cessation":"uuuu",
    "edtf:inception":"uuuu",
    "geom:area":0.0,
    "geom:bbox":"5.82854652405,51.6557502747,5.83070373535,51.6566886902",
    "geom:latitude":51.656225,
    "geom:longitude":5.829435,
    "iso:country":"NL",
    "mz:hierarchy_label":1,
    "mz:is_approximate":1,
    "mz:is_clustr":1,
    "src:geom":"oa",
    "wof:belongsto":[
        85687035,
        102191581,
        404474615,
        85633337,
        101809635
    ],
    "wof:breaches":[],
    "wof:country":"NL",
    "wof:created":1469685247,
    "wof:geomhash":"e85492f35c58786ed36060794f74e012",
    "wof:hierarchy":[
        {
            "continent_id":102191581,
            "country_id":85633337,
            "localadmin_id":404474615,
            "locality_id":101809635,
            "postalcode_id":891046527,
            "region_id":85687035
        }
    ],
    "wof:id":891046527,
    "wof:lastmodified":1469685247,
    "wof:name":"5446XS",
    "wof:parent_id":101809635,
    "wof:placetype":"postalcode",
    "wof:repo":"whosonfirst-data-postalcode-nl",
    "wof:superseded_by":[],
    "wof:supersedes":[],
    "wof:tags":[]
},
  "bbox": [
    5.828546524047852,
    51.6557502746582,
    5.830703735351562,
    51.65668869018555
],
  "geometry": {"coordinates":[[[5.82880163192749,51.65645599365234],[5.82854652404785,51.65668869018555],[5.83070373535156,51.6557502746582],[5.82908201217651,51.65622711181641],[5.82880163192749,51.65645599365234]]],"type":"Polygon"}
}