{
  "id": 890924695,
  "type": "Feature",
  "properties": {
    "clustr:alpha":0.05,
    "clustr:area":20.16,
    "clustr:count":21,
    "clustr:density":1.04,
    "clustr:perimeter":0.2,
    "edtf:cessation":"uuuu",
    "edtf:inception":"uuuu",
    "geom:area":0.0,
    "geom:bbox":"5.3232793808,51.9737663269,5.32424640656,51.9745521545",
    "geom:latitude":51.974197,
    "geom:longitude":5.323797,
    "iso:country":"NL",
    "mz:hierarchy_label":1,
    "mz:is_approximate":1,
    "mz:is_clustr":1,
    "src:geom":"oa",
    "wof:belongsto":[
        85687039,
        102191581,
        404474015,
        85633337,
        101809833
    ],
    "wof:breaches":[],
    "wof:country":"NL",
    "wof:created":1469680246,
    "wof:geomhash":"ed9aaa0d0d040f36790878bd00e9c020",
    "wof:hierarchy":[
        {
            "continent_id":102191581,
            "country_id":85633337,
            "localadmin_id":404474015,
            "locality_id":101809833,
            "postalcode_id":890924695,
            "region_id":85687039
        }
    ],
    "wof:id":890924695,
    "wof:lastmodified":1469680246,
    "wof:name":"3961HA",
    "wof:parent_id":101809833,
    "wof:placetype":"postalcode",
    "wof:repo":"whosonfirst-data-postalcode-nl",
    "wof:superseded_by":[],
    "wof:supersedes":[],
    "wof:tags":[]
},
  "bbox": [
    5.32327938079834,
    51.9737663269043,
    5.324246406555176,
    51.974552154541016
],
  "geometry": {"coordinates":[[[5.32405519485474,51.9738655090332],[5.32402610778809,51.97383117675781],[5.32386636734009,51.9737663269043],[5.32327938079834,51.97452545166016],[5.32352161407471,51.97455215454102],[5.32372903823853,51.97451782226562],[5.32377767562866,51.9744873046875],[5.32389450073242,51.97440719604492],[5.32417106628418,51.97419738769531],[5.32424640655518,51.97411346435547],[5.32405519485474,51.9738655090332]]],"type":"Polygon"}
}