{
  "id": 907068769,
  "type": "Feature",
  "properties": {
    "clustr:alpha":0.05,
    "clustr:area":189.41,
    "clustr:count":14,
    "clustr:density":0.07,
    "clustr:perimeter":0.2,
    "edtf:cessation":"uuuu",
    "edtf:inception":"uuuu",
    "geom:area":0.0,
    "geom:bbox":"5.6465716362,53.1947937012,5.6487660408,53.1952972412",
    "geom:latitude":53.194992,
    "geom:longitude":5.647898,
    "iso:country":"NL",
    "mz:hierarchy_label":1,
    "mz:is_approximate":1,
    "mz:is_clustr":1,
    "src:geom":"oa",
    "wof:belongsto":[
        85687055,
        102191581,
        404473783,
        85633337,
        101806141
    ],
    "wof:breaches":[],
    "wof:country":"NL",
    "wof:created":1469697602,
    "wof:geomhash":"5f08cdb95129b97f0c3e6a581390dc8f",
    "wof:hierarchy":[
        {
            "continent_id":102191581,
            "country_id":85633337,
            "localadmin_id":404473783,
            "locality_id":101806141,
            "postalcode_id":907068769,
            "region_id":85687055
        }
    ],
    "wof:id":907068769,
    "wof:lastmodified":1469697602,
    "wof:name":"9035CC",
    "wof:parent_id":101806141,
    "wof:placetype":"postalcode",
    "wof:repo":"whosonfirst-data-postalcode-nl",
    "wof:superseded_by":[],
    "wof:supersedes":[],
    "wof:tags":[]
},
  "bbox": [
    5.646571636199951,
    53.194793701171875,
    5.648766040802002,
    53.19529724121094
],
  "geometry": {"coordinates":[[[5.64856624603271,53.19482040405273],[5.64700412750244,53.19519424438477],[5.64657163619995,53.19529724121094],[5.64674520492554,53.19525909423828],[5.64800500869751,53.19498443603516],[5.64823913574219,53.19492721557617],[5.648766040802,53.19479370117188],[5.64856624603271,53.19482040405273]]],"type":"Polygon"}
}