{
  "id": 890672137,
  "type": "Feature",
  "properties": {
    "clustr:alpha":0.05,
    "clustr:area":9.4,
    "clustr:count":7,
    "clustr:density":0.74,
    "clustr:perimeter":0.18,
    "edtf:cessation":"uuuu",
    "edtf:inception":"uuuu",
    "geom:area":0.0,
    "geom:bbox":"4.80370998383,52.7896652222,4.80428504944,52.7905349731",
    "geom:latitude":52.790166,
    "geom:longitude":4.804005,
    "iso:country":"NL",
    "mz:hierarchy_label":1,
    "mz:is_approximate":1,
    "mz:is_clustr":1,
    "src:geom":"oa",
    "wof:belongsto":[
        85687053,
        102191581,
        404474113,
        85633337,
        101807377
    ],
    "wof:breaches":[],
    "wof:country":"NL",
    "wof:created":1469670067,
    "wof:geomhash":"88838fd1f5316aac9741334ef1839e84",
    "wof:hierarchy":[
        {
            "continent_id":102191581,
            "country_id":85633337,
            "localadmin_id":404474113,
            "locality_id":101807377,
            "postalcode_id":890672137,
            "region_id":85687053
        }
    ],
    "wof:id":890672137,
    "wof:lastmodified":1469670067,
    "wof:name":"1741HC",
    "wof:parent_id":101807377,
    "wof:placetype":"postalcode",
    "wof:repo":"whosonfirst-data-postalcode-nl",
    "wof:superseded_by":[],
    "wof:supersedes":[],
    "wof:tags":[]
},
  "bbox": [
    4.803709983825684,
    52.78966522216797,
    4.804285049438477,
    52.79053497314453
],
  "geometry": {"coordinates":[[[4.80374574661255,52.79006576538086],[4.80370998382568,52.79053497314453],[4.80417060852051,52.79046630859375],[4.80424976348877,52.79006195068359],[4.80428504943848,52.78966522216797],[4.80374574661255,52.79006576538086]]],"type":"Polygon"}
}