{
  "id": 890602717,
  "type": "Feature",
  "properties": {
    "clustr:alpha":0.05,
    "clustr:area":2.47,
    "clustr:count":16,
    "clustr:density":6.48,
    "clustr:perimeter":0.03,
    "edtf:cessation":"uuuu",
    "edtf:inception":"uuuu",
    "geom:area":0.0,
    "geom:bbox":"4.94033622742,52.3605003357,4.94039678574,52.360660553",
    "geom:latitude":52.360586,
    "geom:longitude":4.940363,
    "iso:country":"NL",
    "mz:hierarchy_label":1,
    "mz:is_approximate":1,
    "mz:is_clustr":1,
    "src:geom":"oa",
    "wof:belongsto":[
        85687053,
        102191581,
        404474029,
        85633337,
        101751893
    ],
    "wof:breaches":[],
    "wof:country":"NL",
    "wof:created":1469666942,
    "wof:geomhash":"78d7305264250c8d95f013ad1f9bffec",
    "wof:hierarchy":[
        {
            "continent_id":102191581,
            "country_id":85633337,
            "localadmin_id":404474029,
            "locality_id":101751893,
            "postalcode_id":890602717,
            "region_id":85687053
        }
    ],
    "wof:id":890602717,
    "wof:lastmodified":1469666942,
    "wof:name":"1095BD",
    "wof:parent_id":101751893,
    "wof:placetype":"postalcode",
    "wof:repo":"whosonfirst-data-postalcode-nl",
    "wof:superseded_by":[],
    "wof:supersedes":[],
    "wof:tags":[]
},
  "bbox": [
    4.940336227416992,
    52.36050033569336,
    4.940396785736084,
    52.360660552978516
],
  "geometry": {"coordinates":[[[4.94033622741699,52.36066055297852],[4.94039678573608,52.36050033569336],[4.94038152694702,52.36053466796875],[4.94035148620605,52.3606071472168],[4.94033622741699,52.36066055297852]]],"type":"Polygon"}
}