{
  "id": 891275789,
  "type": "Feature",
  "properties": {
    "clustr:alpha":0.05,
    "clustr:area":22.04,
    "clustr:count":45,
    "clustr:density":2.04,
    "clustr:perimeter":0.81,
    "edtf:cessation":"uuuu",
    "edtf:inception":"uuuu",
    "geom:area":0.000003,
    "geom:bbox":"6.43647432327,52.7166671753,6.4383263588,52.719959259",
    "geom:latitude":52.718514,
    "geom:longitude":6.437392,
    "iso:country":"NL",
    "mz:hierarchy_label":1,
    "mz:is_approximate":1,
    "mz:is_clustr":1,
    "src:geom":"oa",
    "wof:belongsto":[
        85687051,
        102191581,
        404473811,
        85633337,
        101837877
    ],
    "wof:breaches":[],
    "wof:country":"NL",
    "wof:created":1469694468,
    "wof:geomhash":"636be1f9b52718bf4db7b87973f6cabe",
    "wof:hierarchy":[
        {
            "continent_id":102191581,
            "country_id":85633337,
            "localadmin_id":404473811,
            "locality_id":101837877,
            "postalcode_id":891275789,
            "region_id":85687051
        }
    ],
    "wof:id":891275789,
    "wof:lastmodified":1469694468,
    "wof:name":"7908NV",
    "wof:parent_id":101837877,
    "wof:placetype":"postalcode",
    "wof:repo":"whosonfirst-data-postalcode-nl",
    "wof:superseded_by":[],
    "wof:supersedes":[],
    "wof:tags":[]
},
  "bbox": [
    6.436474323272705,
    52.71666717529297,
    6.438326358795166,
    52.7199592590332
],
  "geometry": {"coordinates":[[[6.43691539764404,52.71771240234375],[6.4364857673645,52.71954727172852],[6.43647432327271,52.71967315673828],[6.43658018112183,52.71977233886719],[6.43683481216431,52.71989440917969],[6.43769454956055,52.7199592590332],[6.43832635879517,52.71666717529297],[6.43812227249146,52.71680068969727],[6.43707323074341,52.71750259399414],[6.43691539764404,52.71771240234375]]],"type":"Polygon"}
}