{
  "id": 890895217,
  "type": "Feature",
  "properties": {
    "clustr:alpha":0.05,
    "clustr:area":60.41,
    "clustr:count":21,
    "clustr:density":0.35,
    "clustr:perimeter":0.7,
    "edtf:cessation":"uuuu",
    "edtf:inception":"uuuu",
    "geom:area":0.000001,
    "geom:bbox":"5.2635679245,52.2177886963,5.26876211166,52.2182693481",
    "geom:latitude":52.218003,
    "geom:longitude":5.266442,
    "iso:country":"NL",
    "mz:hierarchy_label":1,
    "mz:is_approximate":1,
    "mz:is_clustr":1,
    "src:geom":"oa",
    "wof:belongsto":[
        85687039,
        102191581,
        404473973,
        85633337,
        101837651
    ],
    "wof:breaches":[],
    "wof:country":"NL",
    "wof:created":1469678894,
    "wof:geomhash":"d317b0e67b75a5b5cadafef589c3184c",
    "wof:hierarchy":[
        {
            "continent_id":102191581,
            "country_id":85633337,
            "localadmin_id":404473973,
            "locality_id":101837651,
            "postalcode_id":890895217,
            "region_id":85687039
        }
    ],
    "wof:id":890895217,
    "wof:lastmodified":1469678894,
    "wof:name":"3743AJ",
    "wof:parent_id":101837651,
    "wof:placetype":"postalcode",
    "wof:repo":"whosonfirst-data-postalcode-nl",
    "wof:superseded_by":[],
    "wof:supersedes":[],
    "wof:tags":[]
},
  "bbox": [
    5.263567924499512,
    52.21778869628906,
    5.268762111663818,
    52.21826934814453
],
  "geometry": {"coordinates":[[[5.26826429367065,52.21826171875],[5.26876211166382,52.21826934814453],[5.26819229125977,52.21791839599609],[5.2646222114563,52.21778869628906],[5.26378774642944,52.2178955078125],[5.26356792449951,52.21794128417969],[5.26722574234009,52.21818923950195],[5.26826429367065,52.21826171875]]],"type":"Polygon"}
}