{
  "id": 890806927,
  "type": "Feature",
  "properties": {
    "clustr:alpha":0.05,
    "clustr:area":54.42,
    "clustr:count":7,
    "clustr:density":0.13,
    "clustr:perimeter":0.08,
    "edtf:cessation":"uuuu",
    "edtf:inception":"uuuu",
    "geom:area":0.0,
    "geom:bbox":"4.68838071823,51.8892593384,4.68914842606,51.8894615173",
    "geom:latitude":51.889372,
    "geom:longitude":4.688759,
    "iso:country":"NL",
    "mz:hierarchy_label":1,
    "mz:is_approximate":1,
    "mz:is_clustr":1,
    "src:geom":"oa",
    "wof:belongsto":[
        85687041,
        102191581,
        404474219,
        85633337,
        101837723
    ],
    "wof:breaches":[],
    "wof:country":"NL",
    "wof:created":1469675483,
    "wof:geomhash":"03aeea48a6b542ef18c24b8a99fbbf61",
    "wof:hierarchy":[
        {
            "continent_id":102191581,
            "country_id":85633337,
            "localadmin_id":404474219,
            "locality_id":101837723,
            "postalcode_id":890806927,
            "region_id":85687041
        }
    ],
    "wof:id":890806927,
    "wof:lastmodified":1469675483,
    "wof:name":"2957AG",
    "wof:parent_id":101837723,
    "wof:placetype":"postalcode",
    "wof:repo":"whosonfirst-data-postalcode-nl",
    "wof:superseded_by":[],
    "wof:supersedes":[],
    "wof:tags":[]
},
  "bbox": [
    4.688380718231201,
    51.889259338378906,
    4.689148426055908,
    51.889461517333984
],
  "geometry": {"coordinates":[[[4.68880939483643,51.88925933837891],[4.6883807182312,51.88943481445312],[4.68845796585083,51.88946151733398],[4.68914842605591,51.88938522338867],[4.68880939483643,51.88925933837891]]],"type":"Polygon"}
}