{
  "id": 907043501,
  "type": "Feature",
  "properties": {
    "clustr:alpha":0.05,
    "clustr:area":415.87,
    "clustr:count":14,
    "clustr:density":0.03,
    "clustr:perimeter":2.27,
    "edtf:cessation":"uuuu",
    "edtf:inception":"uuuu",
    "geom:area":0.000016,
    "geom:bbox":"6.14427471161,52.9101829529,6.15226888657,52.9214668274",
    "geom:latitude":52.915186,
    "geom:longitude":6.148615,
    "iso:country":"NL",
    "mz:hierarchy_label":1,
    "mz:is_approximate":1,
    "mz:is_clustr":1,
    "src:geom":"oa",
    "wof:belongsto":[
        102191581,
        404473801,
        85633337,
        85687055
    ],
    "wof:breaches":[],
    "wof:country":"NL",
    "wof:created":1469696467,
    "wof:geomhash":"65d586b3172ca543d2cc809169bdcd79",
    "wof:hierarchy":[
        {
            "continent_id":102191581,
            "country_id":85633337,
            "localadmin_id":404473801,
            "postalcode_id":907043501,
            "region_id":85687055
        }
    ],
    "wof:id":907043501,
    "wof:lastmodified":1469696467,
    "wof:name":"8389TH",
    "wof:parent_id":404473801,
    "wof:placetype":"postalcode",
    "wof:repo":"whosonfirst-data-postalcode-nl",
    "wof:superseded_by":[],
    "wof:supersedes":[],
    "wof:tags":[]
},
  "bbox": [
    6.144274711608887,
    52.91018295288086,
    6.152268886566162,
    52.92146682739258
],
  "geometry": {"coordinates":[[[6.15226888656616,52.91164016723633],[6.15223169326782,52.91018295288086],[6.15120553970337,52.91104507446289],[6.14694595336914,52.91566467285156],[6.14427471160889,52.92146682739258],[6.14717674255371,52.91808700561523],[6.14923858642578,52.91558074951172],[6.15226888656616,52.91164016723633]]],"type":"Polygon"}
}