{
  "id": 891137523,
  "type": "Feature",
  "properties": {
    "clustr:alpha":0.05,
    "clustr:area":225.79,
    "clustr:count":20,
    "clustr:density":0.09,
    "clustr:perimeter":0.33,
    "edtf:cessation":"uuuu",
    "edtf:inception":"uuuu",
    "geom:area":0.000001,
    "geom:bbox":"5.93186998367,50.9306106567,5.93491506577,50.9312973022",
    "geom:latitude":50.930976,
    "geom:longitude":5.933481,
    "iso:country":"NL",
    "mz:hierarchy_label":1,
    "mz:is_approximate":1,
    "mz:is_clustr":1,
    "src:geom":"oa",
    "wof:belongsto":[
        85687033,
        102191581,
        404474485,
        85633337,
        101839229
    ],
    "wof:breaches":[],
    "wof:country":"NL",
    "wof:created":1469688859,
    "wof:geomhash":"315b98bffc9474d509ff568923f322ec",
    "wof:hierarchy":[
        {
            "continent_id":102191581,
            "country_id":85633337,
            "localadmin_id":404474485,
            "locality_id":101839229,
            "postalcode_id":891137523,
            "region_id":85687033
        }
    ],
    "wof:id":891137523,
    "wof:lastmodified":1469688859,
    "wof:name":"6431EW",
    "wof:parent_id":101839229,
    "wof:placetype":"postalcode",
    "wof:repo":"whosonfirst-data-postalcode-nl",
    "wof:superseded_by":[],
    "wof:supersedes":[],
    "wof:tags":[]
},
  "bbox": [
    5.931869983673096,
    50.93061065673828,
    5.934915065765381,
    50.931297302246094
],
  "geometry": {"coordinates":[[[5.93481826782227,50.93080902099609],[5.93491506576538,50.93061065673828],[5.93463706970215,50.93064880371094],[5.9318699836731,50.93107604980469],[5.9330735206604,50.93129730224609],[5.93481826782227,50.93080902099609]]],"type":"Polygon"}
}