{
  "id": 907050791,
  "type": "Feature",
  "properties": {
    "clustr:alpha":0.05,
    "clustr:area":141.33,
    "clustr:count":16,
    "clustr:density":0.11,
    "clustr:perimeter":0.19,
    "edtf:cessation":"uuuu",
    "edtf:inception":"uuuu",
    "geom:area":0.0,
    "geom:bbox":"5.85025501251,53.0548706055,5.85159635544,53.0560379028",
    "geom:latitude":53.055434,
    "geom:longitude":5.850952,
    "iso:country":"NL",
    "mz:hierarchy_label":1,
    "mz:is_approximate":1,
    "mz:is_clustr":1,
    "src:geom":"oa",
    "wof:belongsto":[
        85687055,
        102191581,
        404473751,
        85633337,
        101806081
    ],
    "wof:breaches":[],
    "wof:country":"NL",
    "wof:created":1469696828,
    "wof:geomhash":"20a59f53b9926f71ab15ce3e150f4684",
    "wof:hierarchy":[
        {
            "continent_id":102191581,
            "country_id":85633337,
            "localadmin_id":404473751,
            "locality_id":101806081,
            "postalcode_id":907050791,
            "region_id":85687055
        }
    ],
    "wof:id":907050791,
    "wof:lastmodified":1469696828,
    "wof:name":"8494PL",
    "wof:parent_id":101806081,
    "wof:placetype":"postalcode",
    "wof:repo":"whosonfirst-data-postalcode-nl",
    "wof:superseded_by":[],
    "wof:supersedes":[],
    "wof:tags":[]
},
  "bbox": [
    5.850255012512207,
    53.05487060546875,
    5.851596355438232,
    53.05603790283203
],
  "geometry": {"coordinates":[[[5.85050916671753,53.05580902099609],[5.85032796859741,53.05596542358398],[5.85025501251221,53.05603790283203],[5.85044431686401,53.05587768554688],[5.85134553909302,53.05510330200195],[5.85152721405029,53.0549430847168],[5.85159635543823,53.05487060546875],[5.85050916671753,53.05580902099609]]],"type":"Polygon"}
}