{
  "id": 891027655,
  "type": "Feature",
  "properties": {
    "clustr:alpha":0.05,
    "clustr:area":23.29,
    "clustr:count":5,
    "clustr:density":0.21,
    "clustr:perimeter":0.06,
    "edtf:cessation":"uuuu",
    "edtf:inception":"uuuu",
    "geom:area":0.0,
    "geom:bbox":"5.13609600067,51.7237129211,5.13661241531,51.7238578796",
    "geom:latitude":51.723785,
    "geom:longitude":5.136363,
    "iso:country":"NL",
    "mz:hierarchy_label":1,
    "mz:is_approximate":1,
    "mz:is_clustr":1,
    "src:geom":"oa",
    "wof:belongsto":[
        85687035,
        102191581,
        404474395,
        85633337,
        101808229
    ],
    "wof:breaches":[],
    "wof:country":"NL",
    "wof:created":1469684527,
    "wof:geomhash":"9bc2a1ce94d7b03d0f00816f75be65c8",
    "wof:hierarchy":[
        {
            "continent_id":102191581,
            "country_id":85633337,
            "localadmin_id":404474395,
            "locality_id":101808229,
            "postalcode_id":891027655,
            "region_id":85687035
        }
    ],
    "wof:id":891027655,
    "wof:lastmodified":1469684527,
    "wof:name":"5256GS",
    "wof:parent_id":101808229,
    "wof:placetype":"postalcode",
    "wof:repo":"whosonfirst-data-postalcode-nl",
    "wof:superseded_by":[],
    "wof:supersedes":[],
    "wof:tags":[]
},
  "bbox": [
    5.136096000671387,
    51.72371292114258,
    5.136612415313721,
    51.72385787963867
],
  "geometry": {"coordinates":[[[5.13618564605713,51.72373580932617],[5.13609600067139,51.72371292114258],[5.13661241531372,51.72385787963867],[5.13637971878052,51.72378540039062],[5.13618564605713,51.72373580932617]]],"type":"Polygon"}
}