{
  "id": 891085555,
  "type": "Feature",
  "properties": {
    "clustr:alpha":0.05,
    "clustr:area":127.05,
    "clustr:count":4,
    "clustr:density":0.03,
    "clustr:perimeter":0.1,
    "edtf:cessation":"uuuu",
    "edtf:inception":"uuuu",
    "geom:area":0.0,
    "geom:bbox":"5.77865791321,51.5025596619,5.77969169617,51.5028076172",
    "geom:latitude":51.502681,
    "geom:longitude":5.779165,
    "iso:country":"NL",
    "mz:hierarchy_label":1,
    "mz:is_approximate":1,
    "mz:is_clustr":1,
    "src:geom":"oa",
    "wof:belongsto":[
        85687035,
        102191581,
        404474563,
        85633337,
        101809733
    ],
    "wof:breaches":[],
    "wof:country":"NL",
    "wof:created":1469686690,
    "wof:geomhash":"30602e7933e04da1b65b1e3007f18a10",
    "wof:hierarchy":[
        {
            "continent_id":102191581,
            "country_id":85633337,
            "localadmin_id":404474563,
            "locality_id":101809733,
            "postalcode_id":891085555,
            "region_id":85687035
        }
    ],
    "wof:id":891085555,
    "wof:lastmodified":1469686690,
    "wof:name":"5763BG",
    "wof:parent_id":101809733,
    "wof:placetype":"postalcode",
    "wof:repo":"whosonfirst-data-postalcode-nl",
    "wof:superseded_by":[],
    "wof:supersedes":[],
    "wof:tags":[]
},
  "bbox": [
    5.778657913208008,
    51.502559661865234,
    5.779691696166992,
    51.5028076171875
],
  "geometry": {"coordinates":[[[5.77865791320801,51.50274658203125],[5.77969169616699,51.5028076171875],[5.77947235107422,51.50257873535156],[5.77879762649536,51.50255966186523],[5.77865791320801,51.50274658203125]]],"type":"Polygon"}
}