{
  "id": 890824211,
  "type": "Feature",
  "properties": {
    "clustr:alpha":0.05,
    "clustr:area":6.98,
    "clustr:count":12,
    "clustr:density":1.72,
    "clustr:perimeter":0.04,
    "edtf:cessation":"uuuu",
    "edtf:inception":"uuuu",
    "geom:area":0.0,
    "geom:bbox":"4.4948964119,51.9137611389,4.49511814117,51.9138946533",
    "geom:latitude":51.913841,
    "geom:longitude":4.494977,
    "iso:country":"NL",
    "mz:hierarchy_label":1,
    "mz:is_approximate":1,
    "mz:is_clustr":1,
    "src:geom":"oa",
    "wof:belongsto":[
        85687041,
        102191581,
        404474245,
        85633337,
        101751843
    ],
    "wof:breaches":[],
    "wof:country":"NL",
    "wof:created":1469676147,
    "wof:geomhash":"e259a4ed5cf07353c8449c1c4f8d30a7",
    "wof:hierarchy":[
        {
            "continent_id":102191581,
            "country_id":85633337,
            "localadmin_id":404474245,
            "locality_id":101751843,
            "postalcode_id":890824211,
            "region_id":85687041
        }
    ],
    "wof:id":890824211,
    "wof:lastmodified":1469676147,
    "wof:name":"3071XB",
    "wof:parent_id":101751843,
    "wof:placetype":"postalcode",
    "wof:repo":"whosonfirst-data-postalcode-nl",
    "wof:superseded_by":[],
    "wof:supersedes":[],
    "wof:tags":[]
},
  "bbox": [
    4.494896411895752,
    51.913761138916016,
    4.495118141174316,
    51.91389465332031
],
  "geometry": {"coordinates":[[[4.49496173858643,51.91387939453125],[4.49511814117432,51.91389465332031],[4.49506807327271,51.91386413574219],[4.49489641189575,51.91376113891602],[4.49490118026733,51.91384124755859],[4.49496173858643,51.91387939453125]]],"type":"Polygon"}
}