{
  "id": 891187531,
  "type": "Feature",
  "properties": {
    "clustr:alpha":0.05,
    "clustr:area":2.66,
    "clustr:count":11,
    "clustr:density":4.14,
    "clustr:perimeter":0.13,
    "edtf:cessation":"uuuu",
    "edtf:inception":"uuuu",
    "geom:area":0.0,
    "geom:bbox":"6.12680721283,51.9454307556,6.12743186951,51.9458007812",
    "geom:latitude":51.945648,
    "geom:longitude":6.12721,
    "iso:country":"NL",
    "mz:hierarchy_label":1,
    "mz:is_approximate":1,
    "mz:is_clustr":1,
    "src:geom":"oa",
    "wof:belongsto":[
        85687043,
        102191581,
        404474689,
        85633337,
        101837755
    ],
    "wof:breaches":[],
    "wof:country":"NL",
    "wof:created":1469690912,
    "wof:geomhash":"6f7b1f30bfe21c6177de9951685a32d7",
    "wof:hierarchy":[
        {
            "continent_id":102191581,
            "country_id":85633337,
            "localadmin_id":404474689,
            "locality_id":101837755,
            "postalcode_id":891187531,
            "region_id":85687043
        }
    ],
    "wof:id":891187531,
    "wof:lastmodified":1469690912,
    "wof:name":"6941XN",
    "wof:parent_id":101837755,
    "wof:placetype":"postalcode",
    "wof:repo":"whosonfirst-data-postalcode-nl",
    "wof:superseded_by":[],
    "wof:supersedes":[],
    "wof:tags":[]
},
  "bbox": [
    6.12680721282959,
    51.945430755615234,
    6.127431869506836,
    51.94580078125
],
  "geometry": {"coordinates":[[[6.12741851806641,51.94574737548828],[6.12743186950684,51.94567489624023],[6.12738418579102,51.94543075561523],[6.12680721282959,51.94571304321289],[6.12739038467407,51.94580078125],[6.12741851806641,51.94574737548828]]],"type":"Polygon"}
}