{
  "id": 890632983,
  "type": "Feature",
  "properties": {
    "clustr:alpha":0.05,
    "clustr:area":14.92,
    "clustr:count":8,
    "clustr:density":0.54,
    "clustr:perimeter":0.08,
    "edtf:cessation":"uuuu",
    "edtf:inception":"uuuu",
    "geom:area":0.0,
    "geom:bbox":"5.28492069244,52.3986778259,5.28531646729,52.399017334",
    "geom:latitude":52.39884,
    "geom:longitude":5.285126,
    "iso:country":"NL",
    "mz:hierarchy_label":1,
    "mz:is_approximate":1,
    "mz:is_clustr":1,
    "src:geom":"oa",
    "wof:belongsto":[
        85687049,
        102191581,
        404473729,
        85633337,
        101751875
    ],
    "wof:breaches":[],
    "wof:country":"NL",
    "wof:created":1469668239,
    "wof:geomhash":"5dbb4ada1fed72484eaaf505bba9e74e",
    "wof:hierarchy":[
        {
            "continent_id":102191581,
            "country_id":85633337,
            "localadmin_id":404473729,
            "locality_id":101751875,
            "postalcode_id":890632983,
            "region_id":85687049
        }
    ],
    "wof:id":890632983,
    "wof:lastmodified":1469668239,
    "wof:name":"1335GA",
    "wof:parent_id":101751875,
    "wof:placetype":"postalcode",
    "wof:repo":"whosonfirst-data-postalcode-nl",
    "wof:superseded_by":[],
    "wof:supersedes":[],
    "wof:tags":[]
},
  "bbox": [
    5.284920692443848,
    52.398677825927734,
    5.285316467285156,
    52.399017333984375
],
  "geometry": {"coordinates":[[[5.28509378433228,52.39887237548828],[5.2852611541748,52.39872741699219],[5.28531646728516,52.39867782592773],[5.2851448059082,52.39881896972656],[5.28492069244385,52.39901733398438],[5.28498029708862,52.39896774291992],[5.28509378433228,52.39887237548828]]],"type":"Polygon"}
}