{
  "id": 890708615,
  "type": "Feature",
  "properties": {
    "clustr:alpha":0.05,
    "clustr:area":32.76,
    "clustr:count":9,
    "clustr:density":0.27,
    "clustr:perimeter":0.15,
    "edtf:cessation":"uuuu",
    "edtf:inception":"uuuu",
    "geom:area":0.0,
    "geom:bbox":"4.60743522644,52.3581695557,4.60861539841,52.3582992554",
    "geom:latitude":52.358218,
    "geom:longitude":4.60791,
    "iso:country":"NL",
    "mz:hierarchy_label":1,
    "mz:is_approximate":1,
    "mz:is_clustr":1,
    "src:geom":"oa",
    "wof:belongsto":[
        85687053,
        102191581,
        404474061,
        85633337,
        101751897
    ],
    "wof:breaches":[],
    "wof:country":"NL",
    "wof:created":1469671634,
    "wof:geomhash":"11ad3457055bb8d34f6afcd10a383c76",
    "wof:hierarchy":[
        {
            "continent_id":102191581,
            "country_id":85633337,
            "localadmin_id":404474061,
            "locality_id":101751897,
            "postalcode_id":890708615,
            "region_id":85687053
        }
    ],
    "wof:id":890708615,
    "wof:lastmodified":1469671634,
    "wof:name":"2106EM",
    "wof:parent_id":101751897,
    "wof:placetype":"postalcode",
    "wof:repo":"whosonfirst-data-postalcode-nl",
    "wof:superseded_by":[],
    "wof:supersedes":[],
    "wof:tags":[]
},
  "bbox": [
    4.60743522644043,
    52.35816955566406,
    4.608615398406982,
    52.358299255371094
],
  "geometry": {"coordinates":[[[4.60761976242065,52.35820388793945],[4.60749673843384,52.35823059082031],[4.60743522644043,52.35829925537109],[4.60861539840698,52.35817337036133],[4.60850048065185,52.35816955566406],[4.60818290710449,52.35816955566406],[4.60788822174072,52.35817718505859],[4.60761976242065,52.35820388793945]]],"type":"Polygon"}
}