{
  "id": 891277721,
  "type": "Feature",
  "properties": {
    "clustr:alpha":0.05,
    "clustr:area":117.58,
    "clustr:count":28,
    "clustr:density":0.24,
    "clustr:perimeter":0.24,
    "edtf:cessation":"uuuu",
    "edtf:inception":"uuuu",
    "geom:area":0.0,
    "geom:bbox":"6.18206787109,52.6953620911,6.18418979645,52.6959266663",
    "geom:latitude":52.695624,
    "geom:longitude":6.183152,
    "iso:country":"NL",
    "mz:hierarchy_label":1,
    "mz:is_approximate":1,
    "mz:is_clustr":1,
    "src:geom":"oa",
    "wof:belongsto":[
        85687051,
        102191581,
        404473813,
        85633337,
        101807279
    ],
    "wof:breaches":[],
    "wof:country":"NL",
    "wof:created":1469694556,
    "wof:geomhash":"7f8eaa4c92ab955c6757fef13fc461c9",
    "wof:hierarchy":[
        {
            "continent_id":102191581,
            "country_id":85633337,
            "localadmin_id":404473813,
            "locality_id":101807279,
            "postalcode_id":891277721,
            "region_id":85687051
        }
    ],
    "wof:id":891277721,
    "wof:lastmodified":1469694556,
    "wof:name":"7941EG",
    "wof:parent_id":101807279,
    "wof:placetype":"postalcode",
    "wof:repo":"whosonfirst-data-postalcode-nl",
    "wof:superseded_by":[],
    "wof:supersedes":[],
    "wof:tags":[]
},
  "bbox": [
    6.18206787109375,
    52.69536209106445,
    6.184189796447754,
    52.695926666259766
],
  "geometry": {"coordinates":[[[6.18266868591309,52.69573211669922],[6.18206787109375,52.69592666625977],[6.18221712112427,52.69588851928711],[6.18229150772095,52.69586944580078],[6.18236589431763,52.69585037231445],[6.1824369430542,52.69583129882812],[6.18382453918457,52.69546127319336],[6.18418979644775,52.69536209106445],[6.18369626998901,52.69545745849609],[6.18362045288086,52.69547653198242],[6.18266868591309,52.69573211669922]]],"type":"Polygon"}
}