{
  "id": 890860507,
  "type": "Feature",
  "properties": {
    "clustr:alpha":0.05,
    "clustr:area":10.76,
    "clustr:count":16,
    "clustr:density":1.49,
    "clustr:perimeter":0.25,
    "edtf:cessation":"uuuu",
    "edtf:inception":"uuuu",
    "geom:area":0.0,
    "geom:bbox":"4.78286886215,51.8211135864,4.78433227539,51.8216323853",
    "geom:latitude":51.821334,
    "geom:longitude":4.783383,
    "iso:country":"NL",
    "mz:hierarchy_label":1,
    "mz:is_approximate":1,
    "mz:is_clustr":1,
    "src:geom":"oa",
    "wof:belongsto":[
        85687041,
        102191581,
        404474257,
        85633337,
        101754745
    ],
    "wof:breaches":[],
    "wof:country":"NL",
    "wof:created":1469677508,
    "wof:geomhash":"1af9087569a9c27cebe64c4663696083",
    "wof:hierarchy":[
        {
            "continent_id":102191581,
            "country_id":85633337,
            "localadmin_id":404474257,
            "locality_id":101754745,
            "postalcode_id":890860507,
            "region_id":85687041
        }
    ],
    "wof:id":890860507,
    "wof:lastmodified":1469677508,
    "wof:name":"3362SN",
    "wof:parent_id":101754745,
    "wof:placetype":"postalcode",
    "wof:repo":"whosonfirst-data-postalcode-nl",
    "wof:superseded_by":[],
    "wof:supersedes":[],
    "wof:tags":[]
},
  "bbox": [
    4.7828688621521,
    51.82111358642578,
    4.784332275390625,
    51.821632385253906
],
  "geometry": {"coordinates":[[[4.78424549102783,51.82112121582031],[4.78372716903687,51.82117080688477],[4.7828688621521,51.82125854492188],[4.78289413452148,51.8214225769043],[4.78295087814331,51.82163238525391],[4.78433227539062,51.82111358642578],[4.78424549102783,51.82112121582031]]],"type":"Polygon"}
}