{
  "id": 907047349,
  "type": "Feature",
  "properties": {
    "clustr:alpha":0.05,
    "clustr:area":69.18,
    "clustr:count":15,
    "clustr:density":0.22,
    "clustr:perimeter":0.24,
    "edtf:cessation":"uuuu",
    "edtf:inception":"uuuu",
    "geom:area":0.0,
    "geom:bbox":"5.9371008873,52.9526977539,5.93841123581,52.9538192749",
    "geom:latitude":52.953252,
    "geom:longitude":5.937764,
    "iso:country":"NL",
    "mz:hierarchy_label":1,
    "mz:is_approximate":1,
    "mz:is_clustr":1,
    "src:geom":"oa",
    "wof:belongsto":[
        85687055,
        102191581,
        404473771,
        85633337,
        101837957
    ],
    "wof:breaches":[],
    "wof:country":"NL",
    "wof:created":1469696670,
    "wof:geomhash":"716ad91b0b52596f06c2b6aff29bf8b9",
    "wof:hierarchy":[
        {
            "continent_id":102191581,
            "country_id":85633337,
            "localadmin_id":404473771,
            "locality_id":101837957,
            "postalcode_id":907047349,
            "region_id":85687055
        }
    ],
    "wof:id":907047349,
    "wof:lastmodified":1469696670,
    "wof:name":"8442JX",
    "wof:parent_id":101837957,
    "wof:placetype":"postalcode",
    "wof:repo":"whosonfirst-data-postalcode-nl",
    "wof:superseded_by":[],
    "wof:supersedes":[],
    "wof:tags":[]
},
  "bbox": [
    5.937100887298584,
    52.95269775390625,
    5.938411235809326,
    52.953819274902344
],
  "geometry": {"coordinates":[[[5.93733644485474,52.95360946655273],[5.9371600151062,52.95376586914062],[5.93710088729858,52.95381927490234],[5.93741035461426,52.95356369018555],[5.9380578994751,52.9530143737793],[5.93835210800171,52.95275115966797],[5.93841123580933,52.95269775390625],[5.9378662109375,52.95315170288086],[5.93733644485474,52.95360946655273]]],"type":"Polygon"}
}