{
  "id": 890754967,
  "type": "Feature",
  "properties": {
    "clustr:alpha":0.05,
    "clustr:area":23.81,
    "clustr:count":14,
    "clustr:density":0.59,
    "clustr:perimeter":0.07,
    "edtf:cessation":"uuuu",
    "edtf:inception":"uuuu",
    "geom:area":0.0,
    "geom:bbox":"4.29060983658,52.0819282532,4.29108667374,52.0821838379",
    "geom:latitude":52.082057,
    "geom:longitude":4.29085,
    "iso:country":"NL",
    "mz:hierarchy_label":1,
    "mz:is_approximate":1,
    "mz:is_clustr":1,
    "src:geom":"oa",
    "wof:belongsto":[
        85687041,
        102191581,
        404474179,
        85633337,
        101752763
    ],
    "wof:breaches":[],
    "wof:country":"NL",
    "wof:created":1469673534,
    "wof:geomhash":"646f54248fdff281f7b0142036463f79",
    "wof:hierarchy":[
        {
            "continent_id":102191581,
            "country_id":85633337,
            "localadmin_id":404474179,
            "locality_id":101752763,
            "postalcode_id":890754967,
            "region_id":85687041
        }
    ],
    "wof:id":890754967,
    "wof:lastmodified":1469673534,
    "wof:name":"2518GH",
    "wof:parent_id":101752763,
    "wof:placetype":"postalcode",
    "wof:repo":"whosonfirst-data-postalcode-nl",
    "wof:superseded_by":[],
    "wof:supersedes":[],
    "wof:tags":[]
},
  "bbox": [
    4.290609836578369,
    52.08192825317383,
    4.291086673736572,
    52.082183837890625
],
  "geometry": {"coordinates":[[[4.2908821105957,52.08207321166992],[4.29060983657837,52.08192825317383],[4.29067850112915,52.08196640014648],[4.29081392288208,52.08203887939453],[4.29102754592896,52.0821533203125],[4.29108667373657,52.08218383789062],[4.2908821105957,52.08207321166992]]],"type":"Polygon"}
}