{
  "id": 890642309,
  "type": "Feature",
  "properties": {
    "clustr:alpha":0.05,
    "clustr:area":233.59,
    "clustr:count":15,
    "clustr:density":0.06,
    "clustr:perimeter":0.18,
    "edtf:cessation":"uuuu",
    "edtf:inception":"uuuu",
    "geom:area":0.0,
    "geom:bbox":"4.82557010651,52.2332687378,4.82738733292,52.2344322205",
    "geom:latitude":52.233849,
    "geom:longitude":4.826526,
    "iso:country":"NL",
    "mz:hierarchy_label":1,
    "mz:is_approximate":1,
    "mz:is_clustr":1,
    "src:geom":"oa",
    "wof:belongsto":[
        85687053,
        102191581,
        404474119,
        85633337,
        101807399
    ],
    "wof:breaches":[],
    "wof:country":"NL",
    "wof:created":1469668648,
    "wof:geomhash":"d3ee4a6deda55348db05b53e337f9145",
    "wof:hierarchy":[
        {
            "continent_id":102191581,
            "country_id":85633337,
            "localadmin_id":404474119,
            "locality_id":101807399,
            "postalcode_id":890642309,
            "region_id":85687053
        }
    ],
    "wof:id":890642309,
    "wof:lastmodified":1469668648,
    "wof:name":"1421TM",
    "wof:parent_id":101807399,
    "wof:placetype":"postalcode",
    "wof:repo":"whosonfirst-data-postalcode-nl",
    "wof:superseded_by":[],
    "wof:supersedes":[],
    "wof:tags":[]
},
  "bbox": [
    4.825570106506348,
    52.23326873779297,
    4.82738733291626,
    52.234432220458984
],
  "geometry": {"coordinates":[[[4.82557010650635,52.23443222045898],[4.82571935653687,52.234375],[4.82607173919678,52.23416900634766],[4.8267822265625,52.23371887207031],[4.82718801498413,52.23346328735352],[4.82738733291626,52.23326873779297],[4.82557010650635,52.23443222045898]]],"type":"Polygon"}
}