{
  "id": 891054029,
  "type": "Feature",
  "properties": {
    "clustr:alpha":0.05,
    "clustr:area":24.92,
    "clustr:count":66,
    "clustr:density":2.65,
    "clustr:perimeter":0.48,
    "edtf:cessation":"uuuu",
    "edtf:inception":"uuuu",
    "geom:area":0.000001,
    "geom:bbox":"5.30936098099,51.3608283997,5.312728405,51.3614273071",
    "geom:latitude":51.36114,
    "geom:longitude":5.311033,
    "iso:country":"NL",
    "mz:hierarchy_label":1,
    "mz:is_approximate":1,
    "mz:is_clustr":1,
    "src:geom":"oa",
    "wof:belongsto":[
        85687035,
        102191581,
        404474371,
        85633337,
        101839351
    ],
    "wof:breaches":[],
    "wof:country":"NL",
    "wof:created":1469685512,
    "wof:geomhash":"71226d2b3ccc1fcd178e65746a5c8368",
    "wof:hierarchy":[
        {
            "continent_id":102191581,
            "country_id":85633337,
            "localadmin_id":404474371,
            "locality_id":101839351,
            "postalcode_id":891054029,
            "region_id":85687035
        }
    ],
    "wof:id":891054029,
    "wof:lastmodified":1469685512,
    "wof:name":"5521CC",
    "wof:parent_id":101839351,
    "wof:placetype":"postalcode",
    "wof:repo":"whosonfirst-data-postalcode-nl",
    "wof:superseded_by":[],
    "wof:supersedes":[],
    "wof:tags":[]
},
  "bbox": [
    5.309360980987549,
    51.3608283996582,
    5.312728404998779,
    51.361427307128906
],
  "geometry": {"coordinates":[[[5.31155633926392,51.36110687255859],[5.31135034561157,51.36106872558594],[5.31124353408813,51.36104965209961],[5.3110203742981,51.36101150512695],[5.31079387664795,51.3609733581543],[5.31057262420654,51.36094284057617],[5.30936098098755,51.3608283996582],[5.30940103530884,51.36087417602539],[5.31072759628296,51.36125564575195],[5.31271409988403,51.36142730712891],[5.31272840499878,51.36140060424805],[5.31271839141846,51.36137008666992],[5.31258249282837,51.36133575439453],[5.31155633926392,51.36110687255859]]],"type":"Polygon"}
}