{
  "id": 890716471,
  "type": "Feature",
  "properties": {
    "clustr:alpha":0.05,
    "clustr:area":184.03,
    "clustr:count":15,
    "clustr:density":0.08,
    "clustr:perimeter":0.4,
    "edtf:cessation":"uuuu",
    "edtf:inception":"uuuu",
    "geom:area":0.000003,
    "geom:bbox":"4.59151172638,52.3098449707,4.5940618515,52.3122825623",
    "geom:latitude":52.3112,
    "geom:longitude":4.592825,
    "iso:country":"NL",
    "mz:hierarchy_label":1,
    "mz:is_approximate":1,
    "mz:is_clustr":1,
    "src:geom":"oa",
    "wof:belongsto":[
        102191581,
        404474189,
        85633337,
        85687041
    ],
    "wof:breaches":[],
    "wof:country":"NL",
    "wof:created":1469672015,
    "wof:geomhash":"d989b3ce56f2c5707dacce934bec7e06",
    "wof:hierarchy":[
        {
            "continent_id":102191581,
            "country_id":85633337,
            "localadmin_id":404474189,
            "postalcode_id":890716471,
            "region_id":85687041
        }
    ],
    "wof:id":890716471,
    "wof:lastmodified":1469672015,
    "wof:name":"2181HN",
    "wof:parent_id":404474189,
    "wof:placetype":"postalcode",
    "wof:repo":"whosonfirst-data-postalcode-nl",
    "wof:superseded_by":[],
    "wof:supersedes":[],
    "wof:tags":[]
},
  "bbox": [
    4.591511726379395,
    52.309844970703125,
    4.594061851501465,
    52.31228256225586
],
  "geometry": {"coordinates":[[[4.5915117263794,52.31228256225586],[4.59406185150146,52.31154251098633],[4.59354972839355,52.3106575012207],[4.59281635284424,52.30984497070312],[4.5915117263794,52.31228256225586]]],"type":"Polygon"}
}