{
  "id": 891147853,
  "type": "Feature",
  "properties": {
    "clustr:alpha":0.05,
    "clustr:area":12.87,
    "clustr:count":10,
    "clustr:density":0.78,
    "clustr:perimeter":0.18,
    "edtf:cessation":"uuuu",
    "edtf:inception":"uuuu",
    "geom:area":0.0,
    "geom:bbox":"5.80392980576,51.8019485474,5.80491685867,51.8024940491",
    "geom:latitude":51.802254,
    "geom:longitude":5.804446,
    "iso:country":"NL",
    "mz:hierarchy_label":1,
    "mz:is_approximate":1,
    "mz:is_clustr":1,
    "src:geom":"oa",
    "wof:belongsto":[
        85687043,
        102191581,
        404473925,
        85633337,
        101751859
    ],
    "wof:breaches":[],
    "wof:country":"NL",
    "wof:created":1469689258,
    "wof:geomhash":"34fc719337049f657e8c8339fbbcd656",
    "wof:hierarchy":[
        {
            "continent_id":102191581,
            "country_id":85633337,
            "localadmin_id":404473925,
            "locality_id":101751859,
            "postalcode_id":891147853,
            "region_id":85687043
        }
    ],
    "wof:id":891147853,
    "wof:lastmodified":1469689258,
    "wof:name":"6536JV",
    "wof:parent_id":101751859,
    "wof:placetype":"postalcode",
    "wof:repo":"whosonfirst-data-postalcode-nl",
    "wof:superseded_by":[],
    "wof:supersedes":[],
    "wof:tags":[]
},
  "bbox": [
    5.803929805755615,
    51.80194854736328,
    5.804916858673096,
    51.802494049072266
],
  "geometry": {"coordinates":[[[5.80485486984253,51.80230712890625],[5.8049168586731,51.8021125793457],[5.80459547042847,51.80194854736328],[5.80393648147583,51.80226516723633],[5.80392980575562,51.80239486694336],[5.80421304702759,51.80249404907227],[5.8044171333313,51.80249404907227],[5.80475950241089,51.80240249633789],[5.80485486984253,51.80230712890625]]],"type":"Polygon"}
}