{
  "id": 890689879,
  "type": "Feature",
  "properties": {
    "clustr:alpha":0.05,
    "clustr:area":35.06,
    "clustr:count":7,
    "clustr:density":0.2,
    "clustr:perimeter":0.09,
    "edtf:cessation":"uuuu",
    "edtf:inception":"uuuu",
    "geom:area":0.0,
    "geom:bbox":"4.70415830612,52.5267982483,4.70487833023,52.5270271301",
    "geom:latitude":52.526919,
    "geom:longitude":4.704519,
    "iso:country":"NL",
    "mz:hierarchy_label":1,
    "mz:is_approximate":1,
    "mz:is_clustr":1,
    "src:geom":"oa",
    "wof:belongsto":[
        85687053,
        102191581,
        404474117,
        85633337,
        101754853
    ],
    "wof:breaches":[],
    "wof:country":"NL",
    "wof:created":1469670797,
    "wof:geomhash":"7378757d7bd8683c93bc2ecabec8319e",
    "wof:hierarchy":[
        {
            "continent_id":102191581,
            "country_id":85633337,
            "localadmin_id":404474117,
            "locality_id":101754853,
            "postalcode_id":890689879,
            "region_id":85687053
        }
    ],
    "wof:id":890689879,
    "wof:lastmodified":1469670797,
    "wof:name":"1911HS",
    "wof:parent_id":101754853,
    "wof:placetype":"postalcode",
    "wof:repo":"whosonfirst-data-postalcode-nl",
    "wof:superseded_by":[],
    "wof:supersedes":[],
    "wof:tags":[]
},
  "bbox": [
    4.704158306121826,
    52.526798248291016,
    4.704878330230713,
    52.52702713012695
],
  "geometry": {"coordinates":[[[4.70444250106812,52.52695465087891],[4.7046160697937,52.52689743041992],[4.70487833023071,52.52679824829102],[4.70479202270508,52.52682495117188],[4.70415830612183,52.52702713012695],[4.70444250106812,52.52695465087891]]],"type":"Polygon"}
}