{
  "id": 891274117,
  "type": "Feature",
  "properties": {
    "clustr:alpha":0.05,
    "clustr:area":0.76,
    "clustr:count":48,
    "clustr:density":63.21,
    "clustr:perimeter":0.36,
    "edtf:cessation":"uuuu",
    "edtf:inception":"uuuu",
    "geom:area":0.000001,
    "geom:bbox":"6.4792342186,52.7273674011,6.48049259186,52.7288246155",
    "geom:latitude":52.728162,
    "geom:longitude":6.479841,
    "iso:country":"NL",
    "mz:hierarchy_label":1,
    "mz:is_approximate":1,
    "mz:is_clustr":1,
    "src:geom":"oa",
    "wof:belongsto":[
        85687051,
        102191581,
        404473811,
        85633337,
        101837877
    ],
    "wof:breaches":[],
    "wof:country":"NL",
    "wof:created":1469694403,
    "wof:geomhash":"08b05e47449a2a8076c25a5aed8d4e21",
    "wof:hierarchy":[
        {
            "continent_id":102191581,
            "country_id":85633337,
            "localadmin_id":404473811,
            "locality_id":101837877,
            "postalcode_id":891274117,
            "region_id":85687051
        }
    ],
    "wof:id":891274117,
    "wof:lastmodified":1469694403,
    "wof:name":"7902BK",
    "wof:parent_id":101837877,
    "wof:placetype":"postalcode",
    "wof:repo":"whosonfirst-data-postalcode-nl",
    "wof:superseded_by":[],
    "wof:supersedes":[],
    "wof:tags":[]
},
  "bbox": [
    6.479234218597412,
    52.72736740112305,
    6.48049259185791,
    52.728824615478516
],
  "geometry": {"coordinates":[[[6.47923564910889,52.72861862182617],[6.47925567626953,52.72882461547852],[6.47930002212524,52.72882461547852],[6.47934436798096,52.72882461547852],[6.47938871383667,52.72882461547852],[6.47943305969238,52.72882461547852],[6.48045969009399,52.72783279418945],[6.48049259185791,52.72736740112305],[6.47924518585205,52.7284049987793],[6.47923421859741,52.72856521606445],[6.47923564910889,52.72861862182617]]],"type":"Polygon"}
}