{
  "id": 891198209,
  "type": "Feature",
  "properties": {
    "clustr:alpha":0.05,
    "clustr:area":26.5,
    "clustr:count":12,
    "clustr:density":0.45,
    "clustr:perimeter":0.16,
    "edtf:cessation":"uuuu",
    "edtf:inception":"uuuu",
    "geom:area":0.0,
    "geom:bbox":"6.39172935486,51.8900947571,6.39296007156,51.8902931213",
    "geom:latitude":51.890196,
    "geom:longitude":6.392344,
    "iso:country":"NL",
    "mz:hierarchy_label":1,
    "mz:is_approximate":1,
    "mz:is_clustr":1,
    "src:geom":"oa",
    "wof:belongsto":[
        85687043,
        102191581,
        404474543,
        85633337,
        101837811
    ],
    "wof:breaches":[],
    "wof:country":"NL",
    "wof:created":1469691341,
    "wof:geomhash":"4564c9f848b2449d6884cdc4d24d99ad",
    "wof:hierarchy":[
        {
            "continent_id":102191581,
            "country_id":85633337,
            "localadmin_id":404474543,
            "locality_id":101837811,
            "postalcode_id":891198209,
            "region_id":85687043
        }
    ],
    "wof:id":891198209,
    "wof:lastmodified":1469691341,
    "wof:name":"7071PE",
    "wof:parent_id":101837811,
    "wof:placetype":"postalcode",
    "wof:repo":"whosonfirst-data-postalcode-nl",
    "wof:superseded_by":[],
    "wof:supersedes":[],
    "wof:tags":[]
},
  "bbox": [
    6.391729354858398,
    51.89009475708008,
    6.392960071563721,
    51.89029312133789
],
  "geometry": {"coordinates":[[[6.39195013046265,51.89012908935547],[6.3917293548584,51.89009475708008],[6.39227151870728,51.89019012451172],[6.39238739013672,51.89020919799805],[6.39251804351807,51.89022827148438],[6.39296007156372,51.89029312133789],[6.39284801483154,51.89027404785156],[6.39195013046265,51.89012908935547]]],"type":"Polygon"}
}