{
  "id": 890578997,
  "type": "Feature",
  "properties": {
    "clustr:alpha":0.05,
    "clustr:area":0.49,
    "clustr:count":30,
    "clustr:density":60.8,
    "clustr:perimeter":0.02,
    "edtf:cessation":"uuuu",
    "edtf:inception":"uuuu",
    "geom:area":0.0,
    "geom:bbox":"4.94186639786,52.3689994812,4.94186735153,52.3691139221",
    "geom:latitude":52.369055,
    "geom:longitude":4.941867,
    "iso:country":"NL",
    "mz:hierarchy_label":1,
    "mz:is_approximate":1,
    "mz:is_clustr":1,
    "src:geom":"oa",
    "wof:belongsto":[
        85687053,
        102191581,
        404474029,
        85633337,
        101751893
    ],
    "wof:breaches":[],
    "wof:country":"NL",
    "wof:created":1469665823,
    "wof:geomhash":"8f452935a1b8c673ae569d19a3dcbbd2",
    "wof:hierarchy":[
        {
            "continent_id":102191581,
            "country_id":85633337,
            "localadmin_id":404474029,
            "locality_id":101751893,
            "postalcode_id":890578997,
            "region_id":85687053
        }
    ],
    "wof:id":890578997,
    "wof:lastmodified":1469665823,
    "wof:name":"1019HN",
    "wof:parent_id":101751893,
    "wof:placetype":"postalcode",
    "wof:repo":"whosonfirst-data-postalcode-nl",
    "wof:superseded_by":[],
    "wof:supersedes":[],
    "wof:tags":[]
},
  "bbox": [
    4.941866397857666,
    52.36899948120117,
    4.941867351531982,
    52.36911392211914
],
  "geometry": {"coordinates":[[[4.94186639785767,52.36907958984375],[4.94186639785767,52.36908721923828],[4.94186639785767,52.36909866333008],[4.94186639785767,52.36910629272461],[4.94186639785767,52.36911392211914],[4.94186687469482,52.36907196044922],[4.94186735153198,52.36902618408203],[4.94186735153198,52.36901473999023],[4.94186735153198,52.3690071105957],[4.94186735153198,52.36899948120117],[4.94186687469482,52.36903381347656],[4.94186639785767,52.36907958984375]]],"type":"Polygon"}
}