{
  "id": 891144379,
  "type": "Feature",
  "properties": {
    "clustr:alpha":0.05,
    "clustr:area":16.09,
    "clustr:count":21,
    "clustr:density":1.31,
    "clustr:perimeter":0.41,
    "edtf:cessation":"uuuu",
    "edtf:inception":"uuuu",
    "geom:area":0.0,
    "geom:bbox":"5.87361621857,51.8467254639,5.87554693222,51.8481674194",
    "geom:latitude":51.847328,
    "geom:longitude":5.874623,
    "iso:country":"NL",
    "mz:hierarchy_label":1,
    "mz:is_approximate":1,
    "mz:is_clustr":1,
    "src:geom":"oa",
    "wof:belongsto":[
        85687043,
        102191581,
        404473925,
        85633337,
        101751859
    ],
    "wof:breaches":[],
    "wof:country":"NL",
    "wof:created":1469689100,
    "wof:geomhash":"c4809d7768b1439c307dcfad1f0914ab",
    "wof:hierarchy":[
        {
            "continent_id":102191581,
            "country_id":85633337,
            "localadmin_id":404473925,
            "locality_id":101751859,
            "postalcode_id":891144379,
            "region_id":85687043
        }
    ],
    "wof:id":891144379,
    "wof:lastmodified":1469689100,
    "wof:name":"6522KJ",
    "wof:parent_id":101751859,
    "wof:placetype":"postalcode",
    "wof:repo":"whosonfirst-data-postalcode-nl",
    "wof:superseded_by":[],
    "wof:supersedes":[],
    "wof:tags":[]
},
  "bbox": [
    5.873616218566895,
    51.84672546386719,
    5.875546932220459,
    51.848167419433594
],
  "geometry": {"coordinates":[[[5.8754186630249,51.84674072265625],[5.87483072280884,51.84705352783203],[5.87462949752808,51.84718322753906],[5.87445735931396,51.8473014831543],[5.8736162185669,51.84816741943359],[5.87554693222046,51.84672546386719],[5.8754186630249,51.84674072265625]]],"type":"Polygon"}
}