{
  "id": 890656009,
  "type": "Feature",
  "properties": {
    "clustr:alpha":0.05,
    "clustr:area":44.8,
    "clustr:count":20,
    "clustr:density":0.45,
    "clustr:perimeter":0.18,
    "edtf:cessation":"uuuu",
    "edtf:inception":"uuuu",
    "geom:area":0.0,
    "geom:bbox":"4.79053354263,52.4733123779,4.79107761383,52.4743690491",
    "geom:latitude":52.473825,
    "geom:longitude":4.790836,
    "iso:country":"NL",
    "mz:hierarchy_label":1,
    "mz:is_approximate":1,
    "mz:is_clustr":1,
    "src:geom":"oa",
    "wof:belongsto":[
        85687053,
        102191581,
        404474143,
        85633337,
        101754871
    ],
    "wof:breaches":[],
    "wof:country":"NL",
    "wof:created":1469669293,
    "wof:geomhash":"b06864378ef777877ec3b17a7a7d9018",
    "wof:hierarchy":[
        {
            "continent_id":102191581,
            "country_id":85633337,
            "localadmin_id":404474143,
            "locality_id":101754871,
            "postalcode_id":890656009,
            "region_id":85687053
        }
    ],
    "wof:id":890656009,
    "wof:lastmodified":1469669293,
    "wof:name":"1544MB",
    "wof:parent_id":101754871,
    "wof:placetype":"postalcode",
    "wof:repo":"whosonfirst-data-postalcode-nl",
    "wof:superseded_by":[],
    "wof:supersedes":[],
    "wof:tags":[]
},
  "bbox": [
    4.790533542633057,
    52.47331237792969,
    4.791077613830566,
    52.474369049072266
],
  "geometry": {"coordinates":[[[4.79106092453003,52.47346496582031],[4.79107761383057,52.47331237792969],[4.7910475730896,52.47336578369141],[4.79054880142212,52.47431564331055],[4.79053354263306,52.47436904907227],[4.79065370559692,52.47420883178711],[4.79074382781982,52.47406387329102],[4.79106092453003,52.47346496582031]]],"type":"Polygon"}
}