{
  "id": 890914127,
  "type": "Feature",
  "properties": {
    "clustr:alpha":0.05,
    "clustr:area":4.69,
    "clustr:count":9,
    "clustr:density":1.92,
    "clustr:perimeter":0.12,
    "edtf:cessation":"uuuu",
    "edtf:inception":"uuuu",
    "geom:area":0.0,
    "geom:bbox":"5.49004602432,52.2113189697,5.49045038223,52.211807251",
    "geom:latitude":52.211545,
    "geom:longitude":5.490224,
    "iso:country":"NL",
    "mz:hierarchy_label":1,
    "mz:is_approximate":1,
    "mz:is_clustr":1,
    "src:geom":"oa",
    "wof:belongsto":[
        85687043,
        102191581,
        404473921,
        85633337,
        101807075
    ],
    "wof:breaches":[],
    "wof:country":"NL",
    "wof:created":1469679786,
    "wof:geomhash":"8d3dba26fdd8ff5173460807a5846753",
    "wof:hierarchy":[
        {
            "continent_id":102191581,
            "country_id":85633337,
            "localadmin_id":404473921,
            "locality_id":101807075,
            "postalcode_id":890914127,
            "region_id":85687043
        }
    ],
    "wof:id":890914127,
    "wof:lastmodified":1469679786,
    "wof:name":"3862KJ",
    "wof:parent_id":101807075,
    "wof:placetype":"postalcode",
    "wof:repo":"whosonfirst-data-postalcode-nl",
    "wof:superseded_by":[],
    "wof:supersedes":[],
    "wof:tags":[]
},
  "bbox": [
    5.49004602432251,
    52.21131896972656,
    5.490450382232666,
    52.21180725097656
],
  "geometry": {"coordinates":[[[5.49014520645142,52.2114143371582],[5.49004602432251,52.21131896972656],[5.49017000198364,52.21153259277344],[5.49026489257812,52.21162796020508],[5.49045038223267,52.21180725097656],[5.49018859863281,52.21146011352539],[5.49014520645142,52.2114143371582]]],"type":"Polygon"}
}