{
  "id": 890930481,
  "type": "Feature",
  "properties": {
    "clustr:alpha":0.05,
    "clustr:area":70.56,
    "clustr:count":23,
    "clustr:density":0.33,
    "clustr:perimeter":0.16,
    "edtf:cessation":"uuuu",
    "edtf:inception":"uuuu",
    "geom:area":0.0,
    "geom:bbox":"5.44001293182,51.8969268799,5.44108963013,51.8974189758",
    "geom:latitude":51.897226,
    "geom:longitude":5.440646,
    "iso:country":"NL",
    "mz:hierarchy_label":1,
    "mz:is_approximate":1,
    "mz:is_clustr":1,
    "src:geom":"oa",
    "wof:belongsto":[
        85687043,
        102191581,
        404473939,
        85633337,
        101809879
    ],
    "wof:breaches":[],
    "wof:country":"NL",
    "wof:created":1469680473,
    "wof:geomhash":"f53e91bfbe12442ac36b46ba01d1ecc2",
    "wof:hierarchy":[
        {
            "continent_id":102191581,
            "country_id":85633337,
            "localadmin_id":404473939,
            "locality_id":101809879,
            "postalcode_id":890930481,
            "region_id":85687043
        }
    ],
    "wof:id":890930481,
    "wof:lastmodified":1469680473,
    "wof:name":"4005CN",
    "wof:parent_id":101809879,
    "wof:placetype":"postalcode",
    "wof:repo":"whosonfirst-data-postalcode-nl",
    "wof:superseded_by":[],
    "wof:supersedes":[],
    "wof:tags":[]
},
  "bbox": [
    5.44001293182373,
    51.89692687988281,
    5.441089630126953,
    51.89741897583008
],
  "geometry": {"coordinates":[[[5.44058990478516,51.89741897583008],[5.44074296951294,51.89735412597656],[5.44102096557617,51.8972282409668],[5.44108963012695,51.89719390869141],[5.44100618362427,51.89692687988281],[5.44064331054688,51.89708709716797],[5.44017267227173,51.89730834960938],[5.4400749206543,51.89736557006836],[5.44001293182373,51.89741134643555],[5.44058990478516,51.89741897583008]]],"type":"Polygon"}
}