{
  "id": 891137729,
  "type": "Feature",
  "properties": {
    "clustr:alpha":0.05,
    "clustr:area":16.83,
    "clustr:count":20,
    "clustr:density":1.19,
    "clustr:perimeter":0.2,
    "edtf:cessation":"uuuu",
    "edtf:inception":"uuuu",
    "geom:area":0.0,
    "geom:bbox":"5.94171285629,50.9229049683,5.94249343872,50.9236869812",
    "geom:latitude":50.923301,
    "geom:longitude":5.942107,
    "iso:country":"NL",
    "mz:hierarchy_label":1,
    "mz:is_approximate":1,
    "mz:is_clustr":1,
    "src:geom":"oa",
    "wof:belongsto":[
        85687033,
        102191581,
        404474485,
        85633337,
        101839229
    ],
    "wof:breaches":[],
    "wof:country":"NL",
    "wof:created":1469688867,
    "wof:geomhash":"5726a05c5e719462b82218aaace79011",
    "wof:hierarchy":[
        {
            "continent_id":102191581,
            "country_id":85633337,
            "localadmin_id":404474485,
            "locality_id":101839229,
            "postalcode_id":891137729,
            "region_id":85687033
        }
    ],
    "wof:id":891137729,
    "wof:lastmodified":1469688867,
    "wof:name":"6431TJ",
    "wof:parent_id":101839229,
    "wof:placetype":"postalcode",
    "wof:repo":"whosonfirst-data-postalcode-nl",
    "wof:superseded_by":[],
    "wof:supersedes":[],
    "wof:tags":[]
},
  "bbox": [
    5.941712856292725,
    50.92290496826172,
    5.942493438720703,
    50.92368698120117
],
  "geometry": {"coordinates":[[[5.94243574142456,50.92310333251953],[5.9424934387207,50.92299270629883],[5.9421272277832,50.92290496826172],[5.9419264793396,50.92321395874023],[5.94171285629272,50.92360687255859],[5.94211530685425,50.92368698120117],[5.94232559204102,50.92331314086914],[5.94243574142456,50.92310333251953]]],"type":"Polygon"}
}