{
  "id": 891168251,
  "type": "Feature",
  "properties": {
    "clustr:alpha":0.05,
    "clustr:area":65.01,
    "clustr:count":21,
    "clustr:density":0.32,
    "clustr:perimeter":0.17,
    "edtf:cessation":"uuuu",
    "edtf:inception":"uuuu",
    "geom:area":0.0,
    "geom:bbox":"5.6494808197,52.0468711853,5.65033721924,52.0475082397",
    "geom:latitude":52.047202,
    "geom:longitude":5.649923,
    "iso:country":"NL",
    "mz:hierarchy_label":1,
    "mz:is_approximate":1,
    "mz:is_clustr":1,
    "src:geom":"oa",
    "wof:belongsto":[
        85687043,
        102191581,
        404473893,
        85633337,
        101751855
    ],
    "wof:breaches":[],
    "wof:country":"NL",
    "wof:created":1469690124,
    "wof:geomhash":"0af3ad073f57791db198a59d17f72fcd",
    "wof:hierarchy":[
        {
            "continent_id":102191581,
            "country_id":85633337,
            "localadmin_id":404473893,
            "locality_id":101751855,
            "postalcode_id":891168251,
            "region_id":85687043
        }
    ],
    "wof:id":891168251,
    "wof:lastmodified":1469690124,
    "wof:name":"6714EZ",
    "wof:parent_id":101751855,
    "wof:placetype":"postalcode",
    "wof:repo":"whosonfirst-data-postalcode-nl",
    "wof:superseded_by":[],
    "wof:supersedes":[],
    "wof:tags":[]
},
  "bbox": [
    5.649480819702148,
    52.046871185302734,
    5.650337219238281,
    52.047508239746094
],
  "geometry": {"coordinates":[[[5.64959478378296,52.04709625244141],[5.64948081970215,52.04750823974609],[5.65019416809082,52.04740905761719],[5.65033721923828,52.04693222045898],[5.65016222000122,52.0468864440918],[5.65010356903076,52.04687118530273],[5.64959478378296,52.04709625244141]]],"type":"Polygon"}
}