{
  "id": 907112535,
  "type": "Feature",
  "properties": {
    "clustr:alpha":0.05,
    "clustr:area":12.75,
    "clustr:count":21,
    "clustr:density":1.65,
    "clustr:perimeter":0.06,
    "edtf:cessation":"uuuu",
    "edtf:inception":"uuuu",
    "geom:area":0.0,
    "geom:bbox":"6.55120563507,53.2073287964,6.55157709122,53.2074584961",
    "geom:latitude":53.207395,
    "geom:longitude":6.55139,
    "iso:country":"NL",
    "mz:hierarchy_label":1,
    "mz:is_approximate":1,
    "mz:is_clustr":1,
    "src:geom":"oa",
    "wof:belongsto":[
        85687059,
        102191581,
        404473713,
        85633337,
        101751909
    ],
    "wof:breaches":[],
    "wof:country":"NL",
    "wof:created":1469700027,
    "wof:geomhash":"6b2e4d3fdc8e268434e7d258bc7e6faf",
    "wof:hierarchy":[
        {
            "continent_id":102191581,
            "country_id":85633337,
            "localadmin_id":404473713,
            "locality_id":101751909,
            "postalcode_id":907112535,
            "region_id":85687059
        }
    ],
    "wof:id":907112535,
    "wof:lastmodified":1469700027,
    "wof:name":"9727CH",
    "wof:parent_id":101751909,
    "wof:placetype":"postalcode",
    "wof:repo":"whosonfirst-data-postalcode-nl",
    "wof:superseded_by":[],
    "wof:supersedes":[],
    "wof:tags":[]
},
  "bbox": [
    6.551205635070801,
    53.20732879638672,
    6.551577091217041,
    53.20745849609375
],
  "geometry": {"coordinates":[[[6.55137157440185,53.20743179321289],[6.55148315429688,53.20745086669922],[6.55153942108154,53.20745849609375],[6.55157709121704,53.20738983154297],[6.55124282836914,53.20732879638672],[6.55122089385986,53.20736694335938],[6.5512056350708,53.2073974609375],[6.55126190185547,53.20741271972656],[6.55137157440185,53.20743179321289]]],"type":"Polygon"}
}