{
  "id": 907125563,
  "type": "Feature",
  "properties": {
    "clustr:alpha":0.05,
    "clustr:area":45.33,
    "clustr:count":7,
    "clustr:density":0.15,
    "clustr:perimeter":0.26,
    "edtf:cessation":"uuuu",
    "edtf:inception":"uuuu",
    "geom:area":0.0,
    "geom:bbox":"6.93713855743,53.2591362,6.9392580986,53.25938797",
    "geom:latitude":53.259256,
    "geom:longitude":6.938392,
    "iso:country":"NL",
    "mz:hierarchy_label":1,
    "mz:is_approximate":1,
    "mz:is_clustr":1,
    "src:geom":"oa",
    "wof:belongsto":[
        85687059,
        102191581,
        404473711,
        85633337,
        101807527
    ],
    "wof:breaches":[],
    "wof:country":"NL",
    "wof:created":1469700575,
    "wof:geomhash":"d9a8cd1ea7e8609eda4fcd364c996f3c",
    "wof:hierarchy":[
        {
            "continent_id":102191581,
            "country_id":85633337,
            "localadmin_id":404473711,
            "locality_id":101807527,
            "postalcode_id":907125563,
            "region_id":85687059
        }
    ],
    "wof:id":907125563,
    "wof:lastmodified":1469700575,
    "wof:name":"9945VC",
    "wof:parent_id":101807527,
    "wof:placetype":"postalcode",
    "wof:repo":"whosonfirst-data-postalcode-nl",
    "wof:superseded_by":[],
    "wof:supersedes":[],
    "wof:tags":[]
},
  "bbox": [
    6.937138557434082,
    53.25913619995117,
    6.939258098602295,
    53.2593879699707
],
  "geometry": {"coordinates":[[[6.93888664245605,53.25923156738281],[6.93925809860229,53.25913619995117],[6.93713855743408,53.2593879699707],[6.93743753433228,53.25936508178711],[6.93888664245605,53.25923156738281]]],"type":"Polygon"}
}