{
  "id": 890958181,
  "type": "Feature",
  "properties": {
    "clustr:alpha":0.05,
    "clustr:area":57.89,
    "clustr:count":5,
    "clustr:density":0.09,
    "clustr:perimeter":0.08,
    "edtf:cessation":"uuuu",
    "edtf:inception":"uuuu",
    "geom:area":0.0,
    "geom:bbox":"3.74243426323,51.4687271118,3.74305295944,51.4690437317",
    "geom:latitude":51.468857,
    "geom:longitude":3.742787,
    "iso:country":"NL",
    "mz:hierarchy_label":1,
    "mz:is_approximate":1,
    "mz:is_clustr":1,
    "src:geom":"oa",
    "wof:belongsto":[
        85687037,
        102191581,
        404474299,
        85633337,
        101855267
    ],
    "wof:breaches":[],
    "wof:country":"NL",
    "wof:created":1469681559,
    "wof:geomhash":"5b44ca1637596aabea90883667db6207",
    "wof:hierarchy":[
        {
            "continent_id":102191581,
            "country_id":85633337,
            "localadmin_id":404474299,
            "locality_id":101855267,
            "postalcode_id":890958181,
            "region_id":85687037
        }
    ],
    "wof:id":890958181,
    "wof:lastmodified":1469681559,
    "wof:name":"4455BB",
    "wof:parent_id":101855267,
    "wof:placetype":"postalcode",
    "wof:repo":"whosonfirst-data-postalcode-nl",
    "wof:superseded_by":[],
    "wof:supersedes":[],
    "wof:tags":[]
},
  "bbox": [
    3.74243426322937,
    51.468727111816406,
    3.743052959442139,
    51.46904373168945
],
  "geometry": {"coordinates":[[[3.74291801452637,51.46904373168945],[3.74305295944214,51.46877288818359],[3.74276471138,51.46872711181641],[3.74249172210693,51.46879959106445],[3.74243426322937,51.46882629394531],[3.74291801452637,51.46904373168945]]],"type":"Polygon"}
}