{
  "id": 907110217,
  "type": "Feature",
  "properties": {
    "clustr:alpha":0.05,
    "clustr:area":16.09,
    "clustr:count":5,
    "clustr:density":0.31,
    "clustr:perimeter":0.2,
    "edtf:cessation":"uuuu",
    "edtf:inception":"uuuu",
    "geom:area":0.0,
    "geom:bbox":"6.58286714554,53.1912345886,6.58336877823,53.1922111511",
    "geom:latitude":53.191731,
    "geom:longitude":6.583107,
    "iso:country":"NL",
    "mz:hierarchy_label":1,
    "mz:is_approximate":1,
    "mz:is_clustr":1,
    "src:geom":"oa",
    "wof:belongsto":[
        85687059,
        102191581,
        404473713,
        85633337,
        101751909
    ],
    "wof:breaches":[],
    "wof:country":"NL",
    "wof:created":1469699903,
    "wof:geomhash":"47f9cd50f91b2272d0fec8ee687818ed",
    "wof:hierarchy":[
        {
            "continent_id":102191581,
            "country_id":85633337,
            "localadmin_id":404473713,
            "locality_id":101751909,
            "postalcode_id":907110217,
            "region_id":85687059
        }
    ],
    "wof:id":907110217,
    "wof:lastmodified":1469699903,
    "wof:name":"9721AP",
    "wof:parent_id":101751909,
    "wof:placetype":"postalcode",
    "wof:repo":"whosonfirst-data-postalcode-nl",
    "wof:superseded_by":[],
    "wof:supersedes":[],
    "wof:tags":[]
},
  "bbox": [
    6.58286714553833,
    53.19123458862305,
    6.58336877822876,
    53.19221115112305
],
  "geometry": {"coordinates":[[[6.58297729492188,53.1920051574707],[6.58320093154907,53.19157791137695],[6.58336877822876,53.19123458862305],[6.58306217193604,53.19177627563477],[6.58286714553833,53.19221115112305],[6.58297729492188,53.1920051574707]]],"type":"Polygon"}
}