{
  "id": 890978865,
  "type": "Feature",
  "properties": {
    "clustr:alpha":0.05,
    "clustr:area":18.29,
    "clustr:count":18,
    "clustr:density":0.98,
    "clustr:perimeter":0.5,
    "edtf:cessation":"uuuu",
    "edtf:inception":"uuuu",
    "geom:area":0.000001,
    "geom:bbox":"4.55629062653,51.5351829529,4.5599064827,51.5356216431",
    "geom:latitude":51.535444,
    "geom:longitude":4.557932,
    "iso:country":"NL",
    "mz:hierarchy_label":1,
    "mz:is_approximate":1,
    "mz:is_clustr":1,
    "src:geom":"oa",
    "wof:belongsto":[
        85687035,
        102191581,
        404474417,
        85633337,
        101809675
    ],
    "wof:breaches":[],
    "wof:country":"NL",
    "wof:created":1469682566,
    "wof:geomhash":"5c2b449ef56e0dd1a6ef65a5a306e277",
    "wof:hierarchy":[
        {
            "continent_id":102191581,
            "country_id":85633337,
            "localadmin_id":404474417,
            "locality_id":101809675,
            "postalcode_id":890978865,
            "region_id":85687035
        }
    ],
    "wof:id":890978865,
    "wof:lastmodified":1469682566,
    "wof:name":"4715AP",
    "wof:parent_id":101809675,
    "wof:placetype":"postalcode",
    "wof:repo":"whosonfirst-data-postalcode-nl",
    "wof:superseded_by":[],
    "wof:supersedes":[],
    "wof:tags":[]
},
  "bbox": [
    4.556290626525879,
    51.53518295288086,
    4.559906482696533,
    51.535621643066406
],
  "geometry": {"coordinates":[[[4.55643367767334,51.53518295288086],[4.55629062652588,51.53523635864258],[4.55793523788452,51.53562164306641],[4.55990648269653,51.53557205200195],[4.5598030090332,51.53556060791016],[4.55643367767334,51.53518295288086]]],"type":"Polygon"}
}