{
  "id": 891287063,
  "type": "Feature",
  "properties": {
    "clustr:alpha":0.05,
    "clustr:area":84.1,
    "clustr:count":18,
    "clustr:density":0.21,
    "clustr:perimeter":0.19,
    "edtf:cessation":"uuuu",
    "edtf:inception":"uuuu",
    "geom:area":0.0,
    "geom:bbox":"6.11212778091,52.5334854126,6.11354827881,52.534198761",
    "geom:latitude":52.533838,
    "geom:longitude":6.112852,
    "iso:country":"NL",
    "mz:hierarchy_label":1,
    "mz:is_approximate":1,
    "mz:is_clustr":1,
    "src:geom":"oa",
    "wof:belongsto":[
        85687045,
        102191581,
        404473861,
        85633337,
        101751861
    ],
    "wof:breaches":[],
    "wof:country":"NL",
    "wof:created":1469695035,
    "wof:geomhash":"344a62f3ce0f6e8003aba03309c1d047",
    "wof:hierarchy":[
        {
            "continent_id":102191581,
            "country_id":85633337,
            "localadmin_id":404473861,
            "locality_id":101751861,
            "postalcode_id":891287063,
            "region_id":85687045
        }
    ],
    "wof:id":891287063,
    "wof:lastmodified":1469695035,
    "wof:name":"8033BL",
    "wof:parent_id":101751861,
    "wof:placetype":"postalcode",
    "wof:repo":"whosonfirst-data-postalcode-nl",
    "wof:superseded_by":[],
    "wof:supersedes":[],
    "wof:tags":[]
},
  "bbox": [
    6.112127780914307,
    52.533485412597656,
    6.113548278808594,
    52.53419876098633
],
  "geometry": {"coordinates":[[[6.11315965652466,52.53372573852539],[6.11354827880859,52.53348541259766],[6.11332607269287,52.53354644775391],[6.11324977874756,52.5335693359375],[6.1131763458252,52.53359222412109],[6.11212778091431,52.53419876098633],[6.11220073699951,52.5341796875],[6.11242723464966,52.53411483764648],[6.11250305175781,52.53409194946289],[6.11315965652466,52.53372573852539]]],"type":"Polygon"}
}