{
  "id": 890574359,
  "type": "Feature",
  "properties": {
    "clustr:alpha":0.05,
    "clustr:area":5.85,
    "clustr:count":15,
    "clustr:density":2.56,
    "clustr:perimeter":0.03,
    "edtf:cessation":"uuuu",
    "edtf:inception":"uuuu",
    "geom:area":0.0,
    "geom:bbox":"4.90420103073,52.3705863953,4.90434932709,52.3707389832",
    "geom:latitude":52.370663,
    "geom:longitude":4.904275,
    "iso:country":"NL",
    "mz:hierarchy_label":1,
    "mz:is_approximate":1,
    "mz:is_clustr":1,
    "src:geom":"oa",
    "wof:belongsto":[
        85687053,
        102191581,
        404474029,
        85633337,
        101751893
    ],
    "wof:breaches":[],
    "wof:country":"NL",
    "wof:created":1469665623,
    "wof:geomhash":"328e05f6446545f8223cd9e73c0e583d",
    "wof:hierarchy":[
        {
            "continent_id":102191581,
            "country_id":85633337,
            "localadmin_id":404474029,
            "locality_id":101751893,
            "postalcode_id":890574359,
            "region_id":85687053
        }
    ],
    "wof:id":890574359,
    "wof:lastmodified":1469665623,
    "wof:name":"1011LJ",
    "wof:parent_id":101751893,
    "wof:placetype":"postalcode",
    "wof:repo":"whosonfirst-data-postalcode-nl",
    "wof:superseded_by":[],
    "wof:supersedes":[],
    "wof:tags":[]
},
  "bbox": [
    4.904201030731201,
    52.37058639526367,
    4.904349327087402,
    52.3707389831543
],
  "geometry": {"coordinates":[[[4.90424537658691,52.37068557739258],[4.9042010307312,52.3707389831543],[4.90430450439453,52.37063980102539],[4.9043493270874,52.37058639526367],[4.90424537658691,52.37068557739258]]],"type":"Polygon"}
}