{
  "id": 890642175,
  "type": "Feature",
  "properties": {
    "clustr:alpha":0.05,
    "clustr:area":17.48,
    "clustr:count":25,
    "clustr:density":1.43,
    "clustr:perimeter":0.25,
    "edtf:cessation":"uuuu",
    "edtf:inception":"uuuu",
    "geom:area":0.0,
    "geom:bbox":"4.82334280014,52.2366981506,4.8246011734,52.2375717163",
    "geom:latitude":52.237234,
    "geom:longitude":4.823873,
    "iso:country":"NL",
    "mz:hierarchy_label":1,
    "mz:is_approximate":1,
    "mz:is_clustr":1,
    "src:geom":"oa",
    "wof:belongsto":[
        85687053,
        102191581,
        404474119,
        85633337,
        101807399
    ],
    "wof:breaches":[],
    "wof:country":"NL",
    "wof:created":1469668637,
    "wof:geomhash":"bfd057df59f9ac67e528d97686433b59",
    "wof:hierarchy":[
        {
            "continent_id":102191581,
            "country_id":85633337,
            "localadmin_id":404474119,
            "locality_id":101807399,
            "postalcode_id":890642175,
            "region_id":85687053
        }
    ],
    "wof:id":890642175,
    "wof:lastmodified":1469668637,
    "wof:name":"1421BR",
    "wof:parent_id":101807399,
    "wof:placetype":"postalcode",
    "wof:repo":"whosonfirst-data-postalcode-nl",
    "wof:superseded_by":[],
    "wof:supersedes":[],
    "wof:tags":[]
},
  "bbox": [
    4.823342800140381,
    52.236698150634766,
    4.824601173400879,
    52.237571716308594
],
  "geometry": {"coordinates":[[[4.82349300384521,52.23749542236328],[4.8235650062561,52.23752593994141],[4.82367706298828,52.23757171630859],[4.82460117340088,52.23669815063477],[4.82334280014038,52.23743057250977],[4.82349300384521,52.23749542236328]]],"type":"Polygon"}
}