{
  "id": 890654471,
  "type": "Feature",
  "properties": {
    "clustr:alpha":0.05,
    "clustr:area":99.11,
    "clustr:count":32,
    "clustr:density":0.32,
    "clustr:perimeter":0.35,
    "edtf:cessation":"uuuu",
    "edtf:inception":"uuuu",
    "geom:area":0.0,
    "geom:bbox":"4.78197002411,52.4948883057,4.78488206863,52.4953422546",
    "geom:latitude":52.495117,
    "geom:longitude":4.783445,
    "iso:country":"NL",
    "mz:hierarchy_label":1,
    "mz:is_approximate":1,
    "mz:is_clustr":1,
    "src:geom":"oa",
    "wof:belongsto":[
        85687053,
        102191581,
        404474143,
        85633337,
        101754869
    ],
    "wof:breaches":[],
    "wof:country":"NL",
    "wof:created":1469669233,
    "wof:geomhash":"0cc94e2489751e456e03b90a81d16e26",
    "wof:hierarchy":[
        {
            "continent_id":102191581,
            "country_id":85633337,
            "localadmin_id":404474143,
            "locality_id":101754869,
            "postalcode_id":890654471,
            "region_id":85687053
        }
    ],
    "wof:id":890654471,
    "wof:lastmodified":1469669233,
    "wof:name":"1521VS",
    "wof:parent_id":101754869,
    "wof:placetype":"postalcode",
    "wof:repo":"whosonfirst-data-postalcode-nl",
    "wof:superseded_by":[],
    "wof:supersedes":[],
    "wof:tags":[]
},
  "bbox": [
    4.781970024108887,
    52.49488830566406,
    4.784882068634033,
    52.49534225463867
],
  "geometry": {"coordinates":[[[4.78399658203125,52.4950065612793],[4.78197002410889,52.49534225463867],[4.78201866149902,52.49533843994141],[4.78235816955566,52.49529647827148],[4.7826828956604,52.49525451660156],[4.78349447250366,52.49513244628906],[4.78454303741455,52.49494934082031],[4.78488206863403,52.49488830566406],[4.78480815887451,52.49489593505859],[4.78399658203125,52.4950065612793]]],"type":"Polygon"}
}