{
  "id": 907040905,
  "type": "Feature",
  "properties": {
    "clustr:alpha":0.05,
    "clustr:area":16.26,
    "clustr:count":21,
    "clustr:density":1.29,
    "clustr:perimeter":0.4,
    "edtf:cessation":"uuuu",
    "edtf:inception":"uuuu",
    "geom:area":0.0,
    "geom:bbox":"5.96287107468,52.6770057678,5.9636926651,52.6788368225",
    "geom:latitude":52.67792,
    "geom:longitude":5.963222,
    "iso:country":"NL",
    "mz:hierarchy_label":1,
    "mz:is_approximate":1,
    "mz:is_clustr":1,
    "src:geom":"oa",
    "wof:belongsto":[
        85687045,
        102191581,
        404474621,
        85633337,
        101808745
    ],
    "wof:breaches":[],
    "wof:country":"NL",
    "wof:created":1469696334,
    "wof:geomhash":"0b4efbcb8669cbd3066593ff5e5e5382",
    "wof:hierarchy":[
        {
            "continent_id":102191581,
            "country_id":85633337,
            "localadmin_id":404474621,
            "locality_id":101808745,
            "postalcode_id":907040905,
            "region_id":85687045
        }
    ],
    "wof:id":907040905,
    "wof:lastmodified":1469696334,
    "wof:name":"8325EP",
    "wof:parent_id":101808745,
    "wof:placetype":"postalcode",
    "wof:repo":"whosonfirst-data-postalcode-nl",
    "wof:superseded_by":[],
    "wof:supersedes":[],
    "wof:tags":[]
},
  "bbox": [
    5.962871074676514,
    52.677005767822266,
    5.963692665100098,
    52.678836822509766
],
  "geometry": {"coordinates":[[[5.9633731842041,52.67742156982422],[5.96334409713745,52.67746734619141],[5.96291351318359,52.678466796875],[5.96289920806885,52.67852020263672],[5.96287107467651,52.67862701416016],[5.96287393569946,52.67883682250977],[5.9636926651001,52.67700576782227],[5.96348905563354,52.67724227905273],[5.9633731842041,52.67742156982422]]],"type":"Polygon"}
}