{
  "id": 890676911,
  "type": "Feature",
  "properties": {
    "clustr:alpha":0.05,
    "clustr:area":18.12,
    "clustr:count":8,
    "clustr:density":0.44,
    "clustr:perimeter":0.1,
    "edtf:cessation":"uuuu",
    "edtf:inception":"uuuu",
    "geom:area":0.0,
    "geom:bbox":"4.74957752228,52.9560928345,4.75015497208,52.9564437866",
    "geom:latitude":52.956267,
    "geom:longitude":4.749885,
    "iso:country":"NL",
    "mz:hierarchy_label":1,
    "mz:is_approximate":1,
    "mz:is_clustr":1,
    "src:geom":"oa",
    "wof:belongsto":[
        85687053,
        102191581,
        404474079,
        85633337,
        101806071
    ],
    "wof:breaches":[],
    "wof:country":"NL",
    "wof:created":1469670271,
    "wof:geomhash":"ef22f73af8ed088f8df8d3f77220d59d",
    "wof:hierarchy":[
        {
            "continent_id":102191581,
            "country_id":85633337,
            "localadmin_id":404474079,
            "locality_id":101806071,
            "postalcode_id":890676911,
            "region_id":85687053
        }
    ],
    "wof:id":890676911,
    "wof:lastmodified":1469670271,
    "wof:name":"1782DS",
    "wof:parent_id":101806071,
    "wof:placetype":"postalcode",
    "wof:repo":"whosonfirst-data-postalcode-nl",
    "wof:superseded_by":[],
    "wof:supersedes":[],
    "wof:tags":[]
},
  "bbox": [
    4.749577522277832,
    52.956092834472656,
    4.750154972076416,
    52.956443786621094
],
  "geometry": {"coordinates":[[[4.74974822998047,52.95635604858398],[4.75010919570923,52.95644378662109],[4.75012159347534,52.95639419555664],[4.75014400482178,52.95628356933594],[4.75015497207642,52.95622634887695],[4.74959182739258,52.95609283447266],[4.74957752227783,52.95615005493164],[4.74974822998047,52.95635604858398]]],"type":"Polygon"}
}