{
  "id": 890695463,
  "type": "Feature",
  "properties": {
    "clustr:alpha":0.05,
    "clustr:area":18.99,
    "clustr:count":16,
    "clustr:density":0.84,
    "clustr:perimeter":0.17,
    "edtf:cessation":"uuuu",
    "edtf:inception":"uuuu",
    "geom:area":0.0,
    "geom:bbox":"4.61784934998,52.4612770081,4.61917114258,52.4614982605",
    "geom:latitude":52.461369,
    "geom:longitude":4.618362,
    "iso:country":"NL",
    "mz:hierarchy_label":1,
    "mz:is_approximate":1,
    "mz:is_clustr":1,
    "src:geom":"oa",
    "wof:belongsto":[
        85687053,
        102191581,
        404474123,
        85633337,
        101754823
    ],
    "wof:breaches":[],
    "wof:country":"NL",
    "wof:created":1469671043,
    "wof:geomhash":"b4402e08c83d1b963eaa2f67f22ee728",
    "wof:hierarchy":[
        {
            "continent_id":102191581,
            "country_id":85633337,
            "localadmin_id":404474123,
            "locality_id":101754823,
            "postalcode_id":890695463,
            "region_id":85687053
        }
    ],
    "wof:id":890695463,
    "wof:lastmodified":1469671043,
    "wof:name":"1972BE",
    "wof:parent_id":101754823,
    "wof:placetype":"postalcode",
    "wof:repo":"whosonfirst-data-postalcode-nl",
    "wof:superseded_by":[],
    "wof:supersedes":[],
    "wof:tags":[]
},
  "bbox": [
    4.617849349975586,
    52.46127700805664,
    4.619171142578125,
    52.46149826049805
],
  "geometry": {"coordinates":[[[4.61801052093506,52.46132278442383],[4.61857986450195,52.46141052246094],[4.61917114257812,52.46149826049805],[4.61903476715088,52.46147537231445],[4.61784934997559,52.46127700805664],[4.61801052093506,52.46132278442383]]],"type":"Polygon"}
}