{
  "id": 891159429,
  "type": "Feature",
  "properties": {
    "clustr:alpha":0.05,
    "clustr:area":76.91,
    "clustr:count":6,
    "clustr:density":0.08,
    "clustr:perimeter":0.08,
    "edtf:cessation":"uuuu",
    "edtf:inception":"uuuu",
    "geom:area":0.0,
    "geom:bbox":"5.60607528687,51.8936004639,5.60681915283,51.8939476013",
    "geom:latitude":51.893764,
    "geom:longitude":5.60652,
    "iso:country":"NL",
    "mz:hierarchy_label":1,
    "mz:is_approximate":1,
    "mz:is_clustr":1,
    "src:geom":"oa",
    "wof:belongsto":[
        85687043,
        102191581,
        404473889,
        85633337,
        101837761
    ],
    "wof:breaches":[],
    "wof:country":"NL",
    "wof:created":1469689765,
    "wof:geomhash":"8fca40c697d7552e5e42d7e6b3d098c4",
    "wof:hierarchy":[
        {
            "continent_id":102191581,
            "country_id":85633337,
            "localadmin_id":404473889,
            "locality_id":101837761,
            "postalcode_id":891159429,
            "region_id":85687043
        }
    ],
    "wof:id":891159429,
    "wof:lastmodified":1469689765,
    "wof:name":"6651TJ",
    "wof:parent_id":101837761,
    "wof:placetype":"postalcode",
    "wof:repo":"whosonfirst-data-postalcode-nl",
    "wof:superseded_by":[],
    "wof:supersedes":[],
    "wof:tags":[]
},
  "bbox": [
    5.606075286865234,
    51.89360046386719,
    5.606819152832031,
    51.89394760131836
],
  "geometry": {"coordinates":[[[5.60666561126709,51.89360046386719],[5.60607528686523,51.89394760131836],[5.60681915283203,51.89374542236328],[5.60670280456543,51.89363479614258],[5.60666561126709,51.89360046386719]]],"type":"Polygon"}
}