{
  "id": 890621675,
  "type": "Feature",
  "properties": {
    "clustr:alpha":0.05,
    "clustr:area":2.13,
    "clustr:count":14,
    "clustr:density":6.57,
    "clustr:perimeter":0.08,
    "edtf:cessation":"uuuu",
    "edtf:inception":"uuuu",
    "geom:area":0.0,
    "geom:bbox":"5.13627576828,52.1966972351,5.13673973083,52.1969528198",
    "geom:latitude":52.196826,
    "geom:longitude":5.136539,
    "iso:country":"NL",
    "mz:hierarchy_label":1,
    "mz:is_approximate":1,
    "mz:is_clustr":1,
    "src:geom":"oa",
    "wof:belongsto":[
        85687053,
        102191581,
        404474605,
        85633337,
        101754835
    ],
    "wof:breaches":[],
    "wof:country":"NL",
    "wof:created":1469667770,
    "wof:geomhash":"e1b3c161275d19ded02666dee17ad8e4",
    "wof:hierarchy":[
        {
            "continent_id":102191581,
            "country_id":85633337,
            "localadmin_id":404474605,
            "locality_id":101754835,
            "postalcode_id":890621675,
            "region_id":85687053
        }
    ],
    "wof:id":890621675,
    "wof:lastmodified":1469667770,
    "wof:name":"1231SW",
    "wof:parent_id":101754835,
    "wof:placetype":"postalcode",
    "wof:repo":"whosonfirst-data-postalcode-nl",
    "wof:superseded_by":[],
    "wof:supersedes":[],
    "wof:tags":[]
},
  "bbox": [
    5.136275768280029,
    52.19669723510742,
    5.136739730834961,
    52.19695281982422
],
  "geometry": {"coordinates":[[[5.13673973083496,52.1968879699707],[5.13667297363281,52.19680404663086],[5.13657712936401,52.19672393798828],[5.13652181625366,52.19669723510742],[5.13627576828003,52.19682693481445],[5.13672828674316,52.19695281982422],[5.13673973083496,52.1968879699707]]],"type":"Polygon"}
}