{
  "id": 891088059,
  "type": "Feature",
  "properties": {
    "clustr:alpha":0.05,
    "clustr:area":494.74,
    "clustr:count":7,
    "clustr:density":0.01,
    "clustr:perimeter":1.21,
    "edtf:cessation":"uuuu",
    "edtf:inception":"uuuu",
    "geom:area":0.000015,
    "geom:bbox":"5.96928024292,51.5843276978,5.97553682327,51.5893859863",
    "geom:latitude":51.587325,
    "geom:longitude":5.971941,
    "iso:country":"NL",
    "mz:hierarchy_label":1,
    "mz:is_approximate":1,
    "mz:is_clustr":1,
    "src:geom":"oa",
    "wof:belongsto":[
        102191581,
        404474359,
        85633337,
        85687035
    ],
    "wof:breaches":[],
    "wof:country":"NL",
    "wof:created":1469686787,
    "wof:geomhash":"ea9154c43f677f36d45adb1bc95c1fb2",
    "wof:hierarchy":[
        {
            "continent_id":102191581,
            "country_id":85633337,
            "localadmin_id":404474359,
            "postalcode_id":891088059,
            "region_id":85687035
        }
    ],
    "wof:id":891088059,
    "wof:lastmodified":1469686787,
    "wof:name":"5821EG",
    "wof:parent_id":404474359,
    "wof:placetype":"postalcode",
    "wof:repo":"whosonfirst-data-postalcode-nl",
    "wof:superseded_by":[],
    "wof:supersedes":[],
    "wof:tags":[]
},
  "bbox": [
    5.969280242919922,
    51.584327697753906,
    5.975536823272705,
    51.589385986328125
],
  "geometry": {"coordinates":[[[5.97341966629028,51.58916854858398],[5.97431898117065,51.58938598632812],[5.97553682327271,51.58868789672852],[5.97028589248657,51.58432769775391],[5.96928024291992,51.58804321289062],[5.97341966629028,51.58916854858398]]],"type":"Polygon"}
}