{
  "id": 890993681,
  "type": "Feature",
  "properties": {
    "clustr:alpha":0.05,
    "clustr:area":106.64,
    "clustr:count":17,
    "clustr:density":0.16,
    "clustr:perimeter":3.63,
    "edtf:cessation":"uuuu",
    "edtf:inception":"uuuu",
    "geom:area":0.000023,
    "geom:bbox":"4.64833831787,51.5303649902,4.65596818924,51.546546936",
    "geom:latitude":51.538268,
    "geom:longitude":4.652438,
    "iso:country":"NL",
    "mz:hierarchy_label":1,
    "mz:is_approximate":1,
    "mz:is_clustr":1,
    "src:geom":"oa",
    "wof:belongsto":[
        102191581,
        404474377,
        85633337,
        85687035
    ],
    "wof:breaches":[],
    "wof:country":"NL",
    "wof:created":1469683213,
    "wof:geomhash":"b0810d415da417a49a00d955de0c90b9",
    "wof:hierarchy":[
        {
            "continent_id":102191581,
            "country_id":85633337,
            "localadmin_id":404474377,
            "postalcode_id":890993681,
            "region_id":85687035
        }
    ],
    "wof:id":890993681,
    "wof:lastmodified":1469683213,
    "wof:name":"4876NL",
    "wof:parent_id":404474377,
    "wof:placetype":"postalcode",
    "wof:repo":"whosonfirst-data-postalcode-nl",
    "wof:superseded_by":[],
    "wof:supersedes":[],
    "wof:tags":[]
},
  "bbox": [
    4.648338317871094,
    51.530364990234375,
    4.655968189239502,
    51.546546936035156
],
  "geometry": {"coordinates":[[[4.64881181716919,51.54580307006836],[4.64956617355347,51.54459381103516],[4.65486764907837,51.53620910644531],[4.65492534637451,51.53591156005859],[4.6559681892395,51.53036499023438],[4.65515279769897,51.53124618530273],[4.65109157562256,51.53929901123047],[4.64859867095947,51.54413604736328],[4.64833831787109,51.54654693603516],[4.64881181716919,51.54580307006836]]],"type":"Polygon"}
}