{
  "id": 891255191,
  "type": "Feature",
  "properties": {
    "clustr:alpha":0.05,
    "clustr:area":1.13,
    "clustr:count":22,
    "clustr:density":19.43,
    "clustr:perimeter":0.3,
    "edtf:cessation":"uuuu",
    "edtf:inception":"uuuu",
    "geom:area":0.0,
    "geom:bbox":"6.75896310806,52.2907485962,6.75938558578,52.2920799255",
    "geom:latitude":52.291346,
    "geom:longitude":6.759155,
    "iso:country":"NL",
    "mz:hierarchy_label":1,
    "mz:is_approximate":1,
    "mz:is_clustr":1,
    "src:geom":"oa",
    "wof:belongsto":[
        85687045,
        102191581,
        404473821,
        85633337,
        101754771
    ],
    "wof:breaches":[],
    "wof:country":"NL",
    "wof:created":1469693615,
    "wof:geomhash":"864ee77548b1597e676f6cdfdbb30a96",
    "wof:hierarchy":[
        {
            "continent_id":102191581,
            "country_id":85633337,
            "localadmin_id":404473821,
            "locality_id":101754771,
            "postalcode_id":891255191,
            "region_id":85687045
        }
    ],
    "wof:id":891255191,
    "wof:lastmodified":1469693615,
    "wof:name":"7622XL",
    "wof:parent_id":101754771,
    "wof:placetype":"postalcode",
    "wof:repo":"whosonfirst-data-postalcode-nl",
    "wof:superseded_by":[],
    "wof:supersedes":[],
    "wof:tags":[]
},
  "bbox": [
    6.758963108062744,
    52.290748596191406,
    6.759385585784912,
    52.29207992553711
],
  "geometry": {"coordinates":[[[6.75896501541138,52.29080200195312],[6.75898122787476,52.29085540771484],[6.75934267044067,52.2919807434082],[6.75938558578491,52.29207992553711],[6.7593412399292,52.29191589355469],[6.75912237167358,52.29115676879883],[6.75902652740479,52.29089736938477],[6.75896310806274,52.29074859619141],[6.75896501541138,52.29080200195312]]],"type":"Polygon"}
}