{
  "id": 890990619,
  "type": "Feature",
  "properties": {
    "clustr:alpha":0.05,
    "clustr:area":95.22,
    "clustr:count":10,
    "clustr:density":0.11,
    "clustr:perimeter":0.43,
    "edtf:cessation":"uuuu",
    "edtf:inception":"uuuu",
    "geom:area":0.000002,
    "geom:bbox":"4.74128389359,51.662437439,4.74288702011,51.6645126343",
    "geom:latitude":51.663369,
    "geom:longitude":4.741927,
    "iso:country":"NL",
    "mz:hierarchy_label":1,
    "mz:is_approximate":1,
    "mz:is_clustr":1,
    "src:geom":"oa",
    "wof:belongsto":[
        85687035,
        102191581,
        404474631,
        85633337,
        101808343
    ],
    "wof:breaches":[],
    "wof:country":"NL",
    "wof:created":1469683090,
    "wof:geomhash":"3f5c363d0046a2bb3e5c7040d66e5c64",
    "wof:hierarchy":[
        {
            "continent_id":102191581,
            "country_id":85633337,
            "localadmin_id":404474631,
            "locality_id":101808343,
            "postalcode_id":890990619,
            "region_id":85687035
        }
    ],
    "wof:id":890990619,
    "wof:lastmodified":1469683090,
    "wof:name":"4845CJ",
    "wof:parent_id":101808343,
    "wof:placetype":"postalcode",
    "wof:repo":"whosonfirst-data-postalcode-nl",
    "wof:superseded_by":[],
    "wof:supersedes":[],
    "wof:tags":[]
},
  "bbox": [
    4.741283893585205,
    51.662437438964844,
    4.742887020111084,
    51.664512634277344
],
  "geometry": {"coordinates":[[[4.7420449256897,51.66243743896484],[4.74145984649658,51.66292953491211],[4.74128389358521,51.66310882568359],[4.74139404296875,51.66451263427734],[4.74196481704712,51.66401290893555],[4.74243354797363,51.66359329223633],[4.74288702011108,51.66318893432617],[4.7420449256897,51.66243743896484]]],"type":"Polygon"}
}