{
  "id": 891099745,
  "type": "Feature",
  "properties": {
    "clustr:alpha":0.05,
    "clustr:area":39.04,
    "clustr:count":10,
    "clustr:density":0.26,
    "clustr:perimeter":0.1,
    "edtf:cessation":"uuuu",
    "edtf:inception":"uuuu",
    "geom:area":0.0,
    "geom:bbox":"6.05574035645,51.2933578491,6.05620765686,51.2939529419",
    "geom:latitude":51.293663,
    "geom:longitude":6.055968,
    "iso:country":"NL",
    "mz:hierarchy_label":1,
    "mz:is_approximate":1,
    "mz:is_clustr":1,
    "src:geom":"oa",
    "wof:belongsto":[
        85687033,
        102191581,
        404474491,
        85633337,
        101809553
    ],
    "wof:breaches":[],
    "wof:country":"NL",
    "wof:created":1469687254,
    "wof:geomhash":"95468cfc3c6b03bf5cbabf55c35e6cb8",
    "wof:hierarchy":[
        {
            "continent_id":102191581,
            "country_id":85633337,
            "localadmin_id":404474491,
            "locality_id":101809553,
            "postalcode_id":891099745,
            "region_id":85687033
        }
    ],
    "wof:id":891099745,
    "wof:lastmodified":1469687254,
    "wof:name":"5995XH",
    "wof:parent_id":101809553,
    "wof:placetype":"postalcode",
    "wof:repo":"whosonfirst-data-postalcode-nl",
    "wof:superseded_by":[],
    "wof:supersedes":[],
    "wof:tags":[]
},
  "bbox": [
    6.055740356445312,
    51.293357849121094,
    6.056207656860352,
    51.29395294189453
],
  "geometry": {"coordinates":[[[6.05581903457642,51.29384994506836],[6.05578088760376,51.29389953613281],[6.05574035644531,51.29395294189453],[6.05595731735229,51.29368209838867],[6.05620765686035,51.29335784912109],[6.05609130859375,51.29350280761719],[6.05581903457642,51.29384994506836]]],"type":"Polygon"}
}