{
  "id": 890685575,
  "type": "Feature",
  "properties": {
    "clustr:alpha":0.05,
    "clustr:area":1.25,
    "clustr:count":13,
    "clustr:density":10.38,
    "clustr:perimeter":0.2,
    "edtf:cessation":"uuuu",
    "edtf:inception":"uuuu",
    "geom:area":0.0,
    "geom:bbox":"4.78819131851,52.6634712219,4.7891869545,52.664150238",
    "geom:latitude":52.663811,
    "geom:longitude":4.788713,
    "iso:country":"NL",
    "mz:hierarchy_label":1,
    "mz:is_approximate":1,
    "mz:is_clustr":1,
    "src:geom":"oa",
    "wof:belongsto":[
        85687053,
        102191581,
        404474093,
        85633337,
        101754879
    ],
    "wof:breaches":[],
    "wof:country":"NL",
    "wof:created":1469670610,
    "wof:geomhash":"5b4a1804753fbc9ea018de5cda7e9dec",
    "wof:hierarchy":[
        {
            "continent_id":102191581,
            "country_id":85633337,
            "localadmin_id":404474093,
            "locality_id":101754879,
            "postalcode_id":890685575,
            "region_id":85687053
        }
    ],
    "wof:id":890685575,
    "wof:lastmodified":1469670610,
    "wof:name":"1834EW",
    "wof:parent_id":101754879,
    "wof:placetype":"postalcode",
    "wof:repo":"whosonfirst-data-postalcode-nl",
    "wof:superseded_by":[],
    "wof:supersedes":[],
    "wof:tags":[]
},
  "bbox": [
    4.788191318511963,
    52.66347122192383,
    4.789186954498291,
    52.66415023803711
],
  "geometry": {"coordinates":[[[4.78820562362671,52.66350555419922],[4.78833627700806,52.66367721557617],[4.78918695449829,52.66415023803711],[4.78917264938354,52.66411209106445],[4.78912973403931,52.66402435302734],[4.78910064697266,52.66397857666016],[4.78904247283935,52.66389846801758],[4.78819131851196,52.66347122192383],[4.78820562362671,52.66350555419922]]],"type":"Polygon"}
}