{
  "id": 890667097,
  "type": "Feature",
  "properties": {
    "clustr:alpha":0.05,
    "clustr:area":37.85,
    "clustr:count":19,
    "clustr:density":0.5,
    "clustr:perimeter":0.24,
    "edtf:cessation":"uuuu",
    "edtf:inception":"uuuu",
    "geom:area":0.0,
    "geom:bbox":"4.84058046341,52.6742286682,4.84207439423,52.6750144958",
    "geom:latitude":52.674572,
    "geom:longitude":4.841276,
    "iso:country":"NL",
    "mz:hierarchy_label":1,
    "mz:is_approximate":1,
    "mz:is_clustr":1,
    "src:geom":"oa",
    "wof:belongsto":[
        85687053,
        102191581,
        404474075,
        85633337,
        101754815
    ],
    "wof:breaches":[],
    "wof:country":"NL",
    "wof:created":1469669813,
    "wof:geomhash":"84b0122d943be13a815c476b0d8c4eb5",
    "wof:hierarchy":[
        {
            "continent_id":102191581,
            "country_id":85633337,
            "localadmin_id":404474075,
            "locality_id":101754815,
            "postalcode_id":890667097,
            "region_id":85687053
        }
    ],
    "wof:id":890667097,
    "wof:lastmodified":1469669813,
    "wof:name":"1701AV",
    "wof:parent_id":101754815,
    "wof:placetype":"postalcode",
    "wof:repo":"whosonfirst-data-postalcode-nl",
    "wof:superseded_by":[],
    "wof:supersedes":[],
    "wof:tags":[]
},
  "bbox": [
    4.840580463409424,
    52.67422866821289,
    4.842074394226074,
    52.67501449584961
],
  "geometry": {"coordinates":[[[4.8408613204956,52.67470932006836],[4.84058046340942,52.67501449584961],[4.84207439422607,52.67422866821289],[4.84192514419556,52.67425537109375],[4.84163045883179,52.6743278503418],[4.84135961532593,52.67441177368164],[4.84115982055664,52.67452621459961],[4.8408613204956,52.67470932006836]]],"type":"Polygon"}
}