{
  "id": 890885919,
  "type": "Feature",
  "properties": {
    "clustr:alpha":0.05,
    "clustr:area":25.94,
    "clustr:count":15,
    "clustr:density":0.58,
    "clustr:perimeter":0.18,
    "edtf:cessation":"uuuu",
    "edtf:inception":"uuuu",
    "geom:area":0.0,
    "geom:bbox":"5.01966667175,52.1284484863,5.02082443237,52.1289634705",
    "geom:latitude":52.128713,
    "geom:longitude":5.020262,
    "iso:country":"NL",
    "mz:hierarchy_label":1,
    "mz:is_approximate":1,
    "mz:is_clustr":1,
    "src:geom":"oa",
    "wof:belongsto":[
        85687039,
        102191581,
        404474007,
        85633337,
        101751827
    ],
    "wof:breaches":[],
    "wof:country":"NL",
    "wof:created":1469678515,
    "wof:geomhash":"051614e4bfc92d035a6fc22347609f56",
    "wof:hierarchy":[
        {
            "continent_id":102191581,
            "country_id":85633337,
            "localadmin_id":404474007,
            "locality_id":101751827,
            "postalcode_id":890885919,
            "region_id":85687039
        }
    ],
    "wof:id":890885919,
    "wof:lastmodified":1469678515,
    "wof:name":"3607XE",
    "wof:parent_id":101751827,
    "wof:placetype":"postalcode",
    "wof:repo":"whosonfirst-data-postalcode-nl",
    "wof:superseded_by":[],
    "wof:supersedes":[],
    "wof:tags":[]
},
  "bbox": [
    5.01966667175293,
    52.128448486328125,
    5.020824432373047,
    52.128963470458984
],
  "geometry": {"coordinates":[[[5.02027654647827,52.12869644165039],[5.02005434036255,52.12860488891602],[5.01966667175293,52.12844848632812],[5.01986885070801,52.1285514831543],[5.02073383331299,52.12893676757812],[5.02082443237305,52.12896347045898],[5.02027654647827,52.12869644165039]]],"type":"Polygon"}
}