{
  "id": 890672685,
  "type": "Feature",
  "properties": {
    "clustr:alpha":0.05,
    "clustr:area":15.39,
    "clustr:count":18,
    "clustr:density":1.17,
    "clustr:perimeter":0.19,
    "edtf:cessation":"uuuu",
    "edtf:inception":"uuuu",
    "geom:area":0.0,
    "geom:bbox":"4.78189897537,52.7843971252,4.78321695328,52.7846870422",
    "geom:latitude":52.784504,
    "geom:longitude":4.782747,
    "iso:country":"NL",
    "mz:hierarchy_label":1,
    "mz:is_approximate":1,
    "mz:is_clustr":1,
    "src:geom":"oa",
    "wof:belongsto":[
        85687053,
        102191581,
        404474113,
        85633337,
        101807377
    ],
    "wof:breaches":[],
    "wof:country":"NL",
    "wof:created":1469670089,
    "wof:geomhash":"96cb0618bb327a32075937501807fd26",
    "wof:hierarchy":[
        {
            "continent_id":102191581,
            "country_id":85633337,
            "localadmin_id":404474113,
            "locality_id":101807377,
            "postalcode_id":890672685,
            "region_id":85687053
        }
    ],
    "wof:id":890672685,
    "wof:lastmodified":1469670089,
    "wof:name":"1742JK",
    "wof:parent_id":101807377,
    "wof:placetype":"postalcode",
    "wof:repo":"whosonfirst-data-postalcode-nl",
    "wof:superseded_by":[],
    "wof:supersedes":[],
    "wof:tags":[]
},
  "bbox": [
    4.781898975372314,
    52.78439712524414,
    4.783216953277588,
    52.78468704223633
],
  "geometry": {"coordinates":[[[4.78321552276611,52.78459167480469],[4.78321647644043,52.78453826904297],[4.78321695327759,52.78449249267578],[4.78318786621094,52.78443908691406],[4.78283262252808,52.78440856933594],[4.782151222229,52.78439712524414],[4.78207683563232,52.78439712524414],[4.7819881439209,52.78439712524414],[4.78189897537231,52.78439712524414],[4.7830958366394,52.78468704223633],[4.78321552276611,52.78459167480469]]],"type":"Polygon"}
}