{
  "id": 907056751,
  "type": "Feature",
  "properties": {
    "clustr:alpha":0.05,
    "clustr:area":17.32,
    "clustr:count":20,
    "clustr:density":1.16,
    "clustr:perimeter":0.35,
    "edtf:cessation":"uuuu",
    "edtf:inception":"uuuu",
    "geom:area":0.000001,
    "geom:bbox":"5.62453651428,53.0073699951,5.62639427185,53.0083808899",
    "geom:latitude":53.007908,
    "geom:longitude":5.62551,
    "iso:country":"NL",
    "mz:hierarchy_label":1,
    "mz:is_approximate":1,
    "mz:is_clustr":1,
    "src:geom":"oa",
    "wof:belongsto":[
        85687055,
        102191581,
        404474311,
        85633337,
        101806175
    ],
    "wof:breaches":[],
    "wof:country":"NL",
    "wof:created":1469697096,
    "wof:geomhash":"8b8d37ddf0ad724e7112cfdc02ce91c3",
    "wof:hierarchy":[
        {
            "continent_id":102191581,
            "country_id":85633337,
            "localadmin_id":404474311,
            "locality_id":101806175,
            "postalcode_id":907056751,
            "region_id":85687055
        }
    ],
    "wof:id":907056751,
    "wof:lastmodified":1469697096,
    "wof:name":"8651ED",
    "wof:parent_id":101806175,
    "wof:placetype":"postalcode",
    "wof:repo":"whosonfirst-data-postalcode-nl",
    "wof:superseded_by":[],
    "wof:supersedes":[],
    "wof:tags":[]
},
  "bbox": [
    5.624536514282227,
    53.00736999511719,
    5.626394271850586,
    53.00838088989258
],
  "geometry": {"coordinates":[[[5.62538051605225,53.00748062133789],[5.62530660629272,53.00755310058594],[5.62453651428223,53.00838088989258],[5.62574291229248,53.00831604003906],[5.62639427185059,53.0075569152832],[5.62551403045654,53.00736999511719],[5.62538051605225,53.00748062133789]]],"type":"Polygon"}
}