{
  "id": 890704299,
  "type": "Feature",
  "properties": {
    "clustr:alpha":0.05,
    "clustr:area":2.26,
    "clustr:count":16,
    "clustr:density":7.09,
    "clustr:perimeter":0.18,
    "edtf:cessation":"uuuu",
    "edtf:inception":"uuuu",
    "geom:area":0.0,
    "geom:bbox":"4.64581918716,52.3511314392,4.64592027664,52.3519744873",
    "geom:latitude":52.351536,
    "geom:longitude":4.645867,
    "iso:country":"NL",
    "mz:hierarchy_label":1,
    "mz:is_approximate":1,
    "mz:is_clustr":1,
    "src:geom":"oa",
    "wof:belongsto":[
        85687053,
        102191581,
        404474061,
        85633337,
        101751897
    ],
    "wof:breaches":[],
    "wof:country":"NL",
    "wof:created":1469671422,
    "wof:geomhash":"bf6efec291d142b1023f41336690e4a1",
    "wof:hierarchy":[
        {
            "continent_id":102191581,
            "country_id":85633337,
            "localadmin_id":404474061,
            "locality_id":101751897,
            "postalcode_id":890704299,
            "region_id":85687053
        }
    ],
    "wof:id":890704299,
    "wof:lastmodified":1469671422,
    "wof:name":"2036JH",
    "wof:parent_id":101751897,
    "wof:placetype":"postalcode",
    "wof:repo":"whosonfirst-data-postalcode-nl",
    "wof:superseded_by":[],
    "wof:supersedes":[],
    "wof:tags":[]
},
  "bbox": [
    4.645819187164307,
    52.351131439208984,
    4.645920276641846,
    52.35197448730469
],
  "geometry": {"coordinates":[[[4.64583158493042,52.3511848449707],[4.64582204818726,52.35137557983398],[4.64581918716431,52.35147094726562],[4.64588212966919,52.35197448730469],[4.6458911895752,52.35191345214844],[4.64592027664185,52.3515625],[4.64584541320801,52.35113143920898],[4.64583158493042,52.3511848449707]]],"type":"Polygon"}
}