{
  "id": 891149455,
  "type": "Feature",
  "properties": {
    "clustr:alpha":0.05,
    "clustr:area":8.66,
    "clustr:count":19,
    "clustr:density":2.19,
    "clustr:perimeter":0.17,
    "edtf:cessation":"uuuu",
    "edtf:inception":"uuuu",
    "geom:area":0.0,
    "geom:bbox":"5.84926509857,51.8415756226,5.84963750839,51.8424682617",
    "geom:latitude":51.841987,
    "geom:longitude":5.849462,
    "iso:country":"NL",
    "mz:hierarchy_label":1,
    "mz:is_approximate":1,
    "mz:is_clustr":1,
    "src:geom":"oa",
    "wof:belongsto":[
        85687043,
        102191581,
        404473925,
        85633337,
        101751859
    ],
    "wof:breaches":[],
    "wof:country":"NL",
    "wof:created":1469689332,
    "wof:geomhash":"37a9c832eee94098cd0e35880a3b65c2",
    "wof:hierarchy":[
        {
            "continent_id":102191581,
            "country_id":85633337,
            "localadmin_id":404473925,
            "locality_id":101751859,
            "postalcode_id":891149455,
            "region_id":85687043
        }
    ],
    "wof:id":891149455,
    "wof:lastmodified":1469689332,
    "wof:name":"6542XX",
    "wof:parent_id":101751859,
    "wof:placetype":"postalcode",
    "wof:repo":"whosonfirst-data-postalcode-nl",
    "wof:superseded_by":[],
    "wof:supersedes":[],
    "wof:tags":[]
},
  "bbox": [
    5.849265098571777,
    51.841575622558594,
    5.849637508392334,
    51.84246826171875
],
  "geometry": {"coordinates":[[[5.84961366653442,51.84231948852539],[5.84950876235962,51.84202194213867],[5.84945487976074,51.84188079833984],[5.84938764572144,51.84173202514648],[5.84934425354004,51.8416633605957],[5.84926509857178,51.84157562255859],[5.84961843490601,51.84242248535156],[5.84963750839233,51.84246826171875],[5.84961366653442,51.84231948852539]]],"type":"Polygon"}
}