{
  "id": 890677859,
  "type": "Feature",
  "properties": {
    "clustr:alpha":0.05,
    "clustr:area":435.5,
    "clustr:count":11,
    "clustr:density":0.03,
    "clustr:perimeter":1.82,
    "edtf:cessation":"uuuu",
    "edtf:inception":"uuuu",
    "geom:area":0.000029,
    "geom:bbox":"4.75383520126,52.9296836853,4.75758171082,52.9443435669",
    "geom:latitude":52.938522,
    "geom:longitude":4.755992,
    "iso:country":"NL",
    "mz:hierarchy_label":1,
    "mz:is_approximate":1,
    "mz:is_clustr":1,
    "src:geom":"oa",
    "wof:belongsto":[
        85687053,
        102191581,
        404474079,
        85633337,
        101806071
    ],
    "wof:breaches":[],
    "wof:country":"NL",
    "wof:created":1469670315,
    "wof:geomhash":"23eb01700788f77dd5d89072f9251e7d",
    "wof:hierarchy":[
        {
            "continent_id":102191581,
            "country_id":85633337,
            "localadmin_id":404474079,
            "locality_id":101806071,
            "postalcode_id":890677859,
            "region_id":85687053
        }
    ],
    "wof:id":890677859,
    "wof:lastmodified":1469670315,
    "wof:name":"1784PG",
    "wof:parent_id":101806071,
    "wof:placetype":"postalcode",
    "wof:repo":"whosonfirst-data-postalcode-nl",
    "wof:superseded_by":[],
    "wof:supersedes":[],
    "wof:tags":[]
},
  "bbox": [
    4.753835201263428,
    52.929683685302734,
    4.75758171081543,
    52.94434356689453
],
  "geometry": {"coordinates":[[[4.75620746612549,52.93005752563477],[4.75383520126343,52.94434356689453],[4.75415468215942,52.9443359375],[4.75448751449585,52.94430923461914],[4.75758171081543,52.94284820556641],[4.75679111480713,52.9301872253418],[4.75655889511108,52.92968368530273],[4.75620746612549,52.93005752563477]]],"type":"Polygon"}
}