{
  "id": 890745781,
  "type": "Feature",
  "properties": {
    "clustr:alpha":0.05,
    "clustr:area":5.84,
    "clustr:count":25,
    "clustr:density":4.28,
    "clustr:perimeter":0.1,
    "edtf:cessation":"uuuu",
    "edtf:inception":"uuuu",
    "geom:area":0.0,
    "geom:bbox":"4.6779999733,52.1492500305,4.67836713791,52.1496543884",
    "geom:latitude":52.149453,
    "geom:longitude":4.678194,
    "iso:country":"NL",
    "mz:hierarchy_label":1,
    "mz:is_approximate":1,
    "mz:is_clustr":1,
    "src:geom":"oa",
    "wof:belongsto":[
        85687041,
        102191581,
        404474147,
        85633337,
        101751837
    ],
    "wof:breaches":[],
    "wof:country":"NL",
    "wof:created":1469673166,
    "wof:geomhash":"380744fdd79cac98d4e90940f36e344b",
    "wof:hierarchy":[
        {
            "continent_id":102191581,
            "country_id":85633337,
            "localadmin_id":404474147,
            "locality_id":101751837,
            "postalcode_id":890745781,
            "region_id":85687041
        }
    ],
    "wof:id":890745781,
    "wof:lastmodified":1469673166,
    "wof:name":"2403RM",
    "wof:parent_id":101751837,
    "wof:placetype":"postalcode",
    "wof:repo":"whosonfirst-data-postalcode-nl",
    "wof:superseded_by":[],
    "wof:supersedes":[],
    "wof:tags":[]
},
  "bbox": [
    4.677999973297119,
    52.14925003051758,
    4.678367137908936,
    52.149654388427734
],
  "geometry": {"coordinates":[[[4.67812585830688,52.14960861206055],[4.67826843261719,52.14945220947266],[4.67834568023682,52.14935302734375],[4.67836713790894,52.14929962158203],[4.67828750610352,52.14925003051758],[4.67799997329712,52.14962387084961],[4.67808246612549,52.14965438842773],[4.67812585830688,52.14960861206055]]],"type":"Polygon"}
}