{
  "id": 890982215,
  "type": "Feature",
  "properties": {
    "clustr:alpha":0.05,
    "clustr:area":4.84,
    "clustr:count":12,
    "clustr:density":2.48,
    "clustr:perimeter":0.44,
    "edtf:cessation":"uuuu",
    "edtf:inception":"uuuu",
    "geom:area":0.000001,
    "geom:bbox":"4.59212732315,51.6464576721,4.59506559372,51.6471633911",
    "geom:latitude":51.646814,
    "geom:longitude":4.593185,
    "iso:country":"NL",
    "mz:hierarchy_label":1,
    "mz:is_approximate":1,
    "mz:is_clustr":1,
    "src:geom":"oa",
    "wof:belongsto":[
        85687035,
        102191581,
        404474623,
        85633337,
        101809653
    ],
    "wof:breaches":[],
    "wof:country":"NL",
    "wof:created":1469682736,
    "wof:geomhash":"e2818839c7abb10f0c2aee00f108b047",
    "wof:hierarchy":[
        {
            "continent_id":102191581,
            "country_id":85633337,
            "localadmin_id":404474623,
            "locality_id":101809653,
            "postalcode_id":890982215,
            "region_id":85687035
        }
    ],
    "wof:id":890982215,
    "wof:lastmodified":1469682736,
    "wof:name":"4761ST",
    "wof:parent_id":101809653,
    "wof:placetype":"postalcode",
    "wof:repo":"whosonfirst-data-postalcode-nl",
    "wof:superseded_by":[],
    "wof:supersedes":[],
    "wof:tags":[]
},
  "bbox": [
    4.592127323150635,
    51.64645767211914,
    4.595065593719482,
    51.64716339111328
],
  "geometry": {"coordinates":[[[4.59212732315063,51.64680099487305],[4.59506559371948,51.64716339111328],[4.59484529495239,51.6470832824707],[4.59217309951782,51.64645767211914],[4.59215068817139,51.64662551879883],[4.59212732315063,51.64680099487305]]],"type":"Polygon"}
}