{
  "id": 890677757,
  "type": "Feature",
  "properties": {
    "clustr:alpha":0.05,
    "clustr:area":4.05,
    "clustr:count":14,
    "clustr:density":3.46,
    "clustr:perimeter":0.11,
    "edtf:cessation":"uuuu",
    "edtf:inception":"uuuu",
    "geom:area":0.0,
    "geom:bbox":"4.74230051041,52.9356040955,4.74276065826,52.9360580444",
    "geom:latitude":52.935845,
    "geom:longitude":4.74253,
    "iso:country":"NL",
    "mz:hierarchy_label":1,
    "mz:is_approximate":1,
    "mz:is_clustr":1,
    "src:geom":"oa",
    "wof:belongsto":[
        85687053,
        102191581,
        404474079,
        85633337,
        101806071
    ],
    "wof:breaches":[],
    "wof:country":"NL",
    "wof:created":1469670312,
    "wof:geomhash":"dca5fd6267abdf37b4c0e578f6f46ce8",
    "wof:hierarchy":[
        {
            "continent_id":102191581,
            "country_id":85633337,
            "localadmin_id":404474079,
            "locality_id":101806071,
            "postalcode_id":890677757,
            "region_id":85687053
        }
    ],
    "wof:id":890677757,
    "wof:lastmodified":1469670312,
    "wof:name":"1784KN",
    "wof:parent_id":101806071,
    "wof:placetype":"postalcode",
    "wof:repo":"whosonfirst-data-postalcode-nl",
    "wof:superseded_by":[],
    "wof:supersedes":[],
    "wof:tags":[]
},
  "bbox": [
    4.742300510406494,
    52.935604095458984,
    4.74276065826416,
    52.936058044433594
],
  "geometry": {"coordinates":[[[4.74271726608276,52.93583679199219],[4.74269533157349,52.93578338623047],[4.74267339706421,52.93572998046875],[4.74262046813965,52.93560409545898],[4.74230051040649,52.93578720092773],[4.74241209030151,52.93605804443359],[4.74276065826416,52.93594360351562],[4.74271726608276,52.93583679199219]]],"type":"Polygon"}
}