{
  "id": 891249349,
  "type": "Feature",
  "properties": {
    "clustr:alpha":0.05,
    "clustr:area":5.69,
    "clustr:count":8,
    "clustr:density":1.4,
    "clustr:perimeter":3.62,
    "edtf:cessation":"uuuu",
    "edtf:inception":"uuuu",
    "geom:area":0.00002,
    "geom:bbox":"6.98863506317,52.2950439453,6.99555492401,52.3106918335",
    "geom:latitude":52.30295,
    "geom:longitude":6.991952,
    "iso:country":"NL",
    "mz:hierarchy_label":1,
    "mz:is_approximate":1,
    "mz:is_clustr":1,
    "src:geom":"oa",
    "wof:belongsto":[
        102191581,
        404473841,
        85633337,
        85687045
    ],
    "wof:breaches":[],
    "wof:country":"NL",
    "wof:created":1469693374,
    "wof:geomhash":"b202f794cb8cef77a2c58b57a83847f3",
    "wof:hierarchy":[
        {
            "continent_id":102191581,
            "country_id":85633337,
            "localadmin_id":404473841,
            "postalcode_id":891249349,
            "region_id":85687045
        }
    ],
    "wof:id":891249349,
    "wof:lastmodified":1469693374,
    "wof:name":"7587PZ",
    "wof:parent_id":404473841,
    "wof:placetype":"postalcode",
    "wof:repo":"whosonfirst-data-postalcode-nl",
    "wof:superseded_by":[],
    "wof:supersedes":[],
    "wof:tags":[]
},
  "bbox": [
    6.988635063171387,
    52.2950439453125,
    6.99555492401123,
    52.310691833496094
],
  "geometry": {"coordinates":[[[6.98867416381836,52.31063461303711],[6.99370050430298,52.30167007446289],[6.99382019042969,52.30130004882812],[6.99485301971435,52.29812622070312],[6.99555492401123,52.2950439453125],[6.98978662490845,52.30480194091797],[6.98863506317139,52.31069183349609],[6.98867416381836,52.31063461303711]]],"type":"Polygon"}
}