{
  "id": 891160657,
  "type": "Feature",
  "properties": {
    "clustr:alpha":0.05,
    "clustr:area":27.91,
    "clustr:count":14,
    "clustr:density":0.5,
    "clustr:perimeter":0.23,
    "edtf:cessation":"uuuu",
    "edtf:inception":"uuuu",
    "geom:area":0.0,
    "geom:bbox":"5.84610891342,51.9210853577,5.84710168839,51.9220581055",
    "geom:latitude":51.921676,
    "geom:longitude":5.846509,
    "iso:country":"NL",
    "mz:hierarchy_label":1,
    "mz:is_approximate":1,
    "mz:is_clustr":1,
    "src:geom":"oa",
    "wof:belongsto":[
        85687043,
        102191581,
        404474651,
        85633337,
        101808683
    ],
    "wof:breaches":[],
    "wof:country":"NL",
    "wof:created":1469689809,
    "wof:geomhash":"230e559761fac59f384ef96d2da24b32",
    "wof:hierarchy":[
        {
            "continent_id":102191581,
            "country_id":85633337,
            "localadmin_id":404474651,
            "locality_id":101808683,
            "postalcode_id":891160657,
            "region_id":85687043
        }
    ],
    "wof:id":891160657,
    "wof:lastmodified":1469689809,
    "wof:name":"6661DC",
    "wof:parent_id":101808683,
    "wof:placetype":"postalcode",
    "wof:repo":"whosonfirst-data-postalcode-nl",
    "wof:superseded_by":[],
    "wof:supersedes":[],
    "wof:tags":[]
},
  "bbox": [
    5.846108913421631,
    51.921085357666016,
    5.84710168838501,
    51.92205810546875
],
  "geometry": {"coordinates":[[[5.84631681442261,51.92188262939453],[5.84704542160034,51.921142578125],[5.84710168838501,51.92108535766602],[5.84616661071777,51.92200088500977],[5.84610891342163,51.92205810546875],[5.84631681442261,51.92188262939453]]],"type":"Polygon"}
}