{
  "id": 891104563,
  "type": "Feature",
  "properties": {
    "clustr:alpha":0.05,
    "clustr:area":66.84,
    "clustr:count":16,
    "clustr:density":0.24,
    "clustr:perimeter":0.35,
    "edtf:cessation":"uuuu",
    "edtf:inception":"uuuu",
    "geom:area":0.000001,
    "geom:bbox":"5.8210234642,51.2187690735,5.82313680649,51.2198829651",
    "geom:latitude":51.219393,
    "geom:longitude":5.82196,
    "iso:country":"NL",
    "mz:hierarchy_label":1,
    "mz:is_approximate":1,
    "mz:is_clustr":1,
    "src:geom":"oa",
    "wof:belongsto":[
        85687033,
        102191581,
        404474557,
        85633337,
        101855219
    ],
    "wof:breaches":[],
    "wof:country":"NL",
    "wof:created":1469687462,
    "wof:geomhash":"b4cbf72256d58daa902ae03fbe9a1d25",
    "wof:hierarchy":[
        {
            "continent_id":102191581,
            "country_id":85633337,
            "localadmin_id":404474557,
            "locality_id":101855219,
            "postalcode_id":891104563,
            "region_id":85687033
        }
    ],
    "wof:id":891104563,
    "wof:lastmodified":1469687462,
    "wof:name":"6037SP",
    "wof:parent_id":101855219,
    "wof:placetype":"postalcode",
    "wof:repo":"whosonfirst-data-postalcode-nl",
    "wof:superseded_by":[],
    "wof:supersedes":[],
    "wof:tags":[]
},
  "bbox": [
    5.821023464202881,
    51.21876907348633,
    5.823136806488037,
    51.21988296508789
],
  "geometry": {"coordinates":[[[5.82172441482544,51.21967697143555],[5.82241582870483,51.21939086914062],[5.82313680648804,51.21876907348633],[5.82207441329956,51.21918487548828],[5.82102346420288,51.21962738037109],[5.82121086120605,51.21988296508789],[5.82172441482544,51.21967697143555]]],"type":"Polygon"}
}