{
  "id": 891230401,
  "type": "Feature",
  "properties": {
    "clustr:alpha":0.05,
    "clustr:area":22.49,
    "clustr:count":15,
    "clustr:density":0.67,
    "clustr:perimeter":2.59,
    "edtf:cessation":"uuuu",
    "edtf:inception":"uuuu",
    "geom:area":0.00003,
    "geom:bbox":"6.51490259171,52.3157043457,6.52662706375,52.3244361877",
    "geom:latitude":52.320227,
    "geom:longitude":6.520313,
    "iso:country":"NL",
    "mz:hierarchy_label":1,
    "mz:is_approximate":1,
    "mz:is_clustr":1,
    "src:geom":"oa",
    "wof:belongsto":[
        85687045,
        102191581,
        404474657,
        85633337,
        101808761
    ],
    "wof:breaches":[],
    "wof:country":"NL",
    "wof:created":1469692626,
    "wof:geomhash":"2ae86e933a16dab2093a3370d254533d",
    "wof:hierarchy":[
        {
            "continent_id":102191581,
            "country_id":85633337,
            "localadmin_id":404474657,
            "locality_id":101808761,
            "postalcode_id":891230401,
            "region_id":85687045
        }
    ],
    "wof:id":891230401,
    "wof:lastmodified":1469692626,
    "wof:name":"7461JG",
    "wof:parent_id":101808761,
    "wof:placetype":"postalcode",
    "wof:repo":"whosonfirst-data-postalcode-nl",
    "wof:superseded_by":[],
    "wof:supersedes":[],
    "wof:tags":[]
},
  "bbox": [
    6.514902591705322,
    52.315704345703125,
    6.526627063751221,
    52.32443618774414
],
  "geometry": {"coordinates":[[[6.52628231048584,52.3174934387207],[6.52662706375122,52.31666946411133],[6.52619934082031,52.31570434570312],[6.51490259170532,52.32183456420898],[6.51506042480469,52.32443618774414],[6.51767301559448,52.32344818115234],[6.52612543106079,52.31772613525391],[6.52628231048584,52.3174934387207]]],"type":"Polygon"}
}