{
  "id": 890945233,
  "type": "Feature",
  "properties": {
    "clustr:alpha":0.05,
    "clustr:area":93.61,
    "clustr:count":16,
    "clustr:density":0.17,
    "clustr:perimeter":0.22,
    "edtf:cessation":"uuuu",
    "edtf:inception":"uuuu",
    "geom:area":0.0,
    "geom:bbox":"3.91718506813,51.6498298645,3.91913032532,51.6499404907",
    "geom:latitude":51.649886,
    "geom:longitude":3.918217,
    "iso:country":"NL",
    "mz:hierarchy_label":1,
    "mz:is_approximate":1,
    "mz:is_clustr":1,
    "src:geom":"oa",
    "wof:belongsto":[
        85687037,
        102191581,
        404474591,
        85633337,
        101808413
    ],
    "wof:breaches":[],
    "wof:country":"NL",
    "wof:created":1469681022,
    "wof:geomhash":"caa9688f51dc25145650d71afc08ad50",
    "wof:hierarchy":[
        {
            "continent_id":102191581,
            "country_id":85633337,
            "localadmin_id":404474591,
            "locality_id":101808413,
            "postalcode_id":890945233,
            "region_id":85687037
        }
    ],
    "wof:id":890945233,
    "wof:lastmodified":1469681022,
    "wof:name":"4301AA",
    "wof:parent_id":101808413,
    "wof:placetype":"postalcode",
    "wof:repo":"whosonfirst-data-postalcode-nl",
    "wof:superseded_by":[],
    "wof:supersedes":[],
    "wof:tags":[]
},
  "bbox": [
    3.917185068130493,
    51.64982986450195,
    3.919130325317383,
    51.649940490722656
],
  "geometry": {"coordinates":[[[3.91793704032898,51.64984130859375],[3.91718506813049,51.64994049072266],[3.91796636581421,51.64993286132812],[3.91913032531738,51.64989471435547],[3.91902661323547,51.64986038208008],[3.91866374015808,51.64983749389648],[3.91832733154297,51.64982986450195],[3.91793704032898,51.64984130859375]]],"type":"Polygon"}
}