{
  "id": 890926301,
  "type": "Feature",
  "properties": {
    "clustr:alpha":0.05,
    "clustr:area":50.62,
    "clustr:count":67,
    "clustr:density":1.32,
    "clustr:perimeter":0.44,
    "edtf:cessation":"uuuu",
    "edtf:inception":"uuuu",
    "geom:area":0.000002,
    "geom:bbox":"5.26951980591,52.0493888855,5.27175664902,52.0507888794",
    "geom:latitude":52.050193,
    "geom:longitude":5.270449,
    "iso:country":"NL",
    "mz:hierarchy_label":1,
    "mz:is_approximate":1,
    "mz:is_clustr":1,
    "src:geom":"oa",
    "wof:belongsto":[
        85687039,
        102191581,
        404474547,
        85633337,
        101806999
    ],
    "wof:breaches":[],
    "wof:country":"NL",
    "wof:created":1469680309,
    "wof:geomhash":"cbbcf262f2af74dce61de40d8e5f9a64",
    "wof:hierarchy":[
        {
            "continent_id":102191581,
            "country_id":85633337,
            "localadmin_id":404474547,
            "locality_id":101806999,
            "postalcode_id":890926301,
            "region_id":85687039
        }
    ],
    "wof:id":890926301,
    "wof:lastmodified":1469680309,
    "wof:name":"3972ZA",
    "wof:parent_id":101806999,
    "wof:placetype":"postalcode",
    "wof:repo":"whosonfirst-data-postalcode-nl",
    "wof:superseded_by":[],
    "wof:supersedes":[],
    "wof:tags":[]
},
  "bbox": [
    5.269519805908203,
    52.04938888549805,
    5.271756649017334,
    52.05078887939453
],
  "geometry": {"coordinates":[[[5.27130651473999,52.05011367797852],[5.27117729187012,52.05003356933594],[5.27104663848877,52.04995727539062],[5.2695198059082,52.04938888549805],[5.2698974609375,52.05078887939453],[5.2704005241394,52.05074691772461],[5.27175664901733,52.05046081542969],[5.27130651473999,52.05011367797852]]],"type":"Polygon"}
}