{
  "id": 890966807,
  "type": "Feature",
  "properties": {
    "clustr:alpha":0.05,
    "clustr:area":19.81,
    "clustr:count":19,
    "clustr:density":0.96,
    "clustr:perimeter":0.27,
    "edtf:cessation":"uuuu",
    "edtf:inception":"uuuu",
    "geom:area":0.0,
    "geom:bbox":"3.91607904434,51.2627182007,3.91807866096,51.2629890442",
    "geom:latitude":51.26288,
    "geom:longitude":3.91719,
    "iso:country":"NL",
    "mz:hierarchy_label":1,
    "mz:is_approximate":1,
    "mz:is_clustr":1,
    "src:geom":"oa",
    "wof:belongsto":[
        85687037,
        102191581,
        404474329,
        85633337,
        101809797
    ],
    "wof:breaches":[],
    "wof:country":"NL",
    "wof:created":1469682018,
    "wof:geomhash":"de5ffd291d0fb0972e89ca088738b3cf",
    "wof:hierarchy":[
        {
            "continent_id":102191581,
            "country_id":85633337,
            "localadmin_id":404474329,
            "locality_id":101809797,
            "postalcode_id":890966807,
            "region_id":85687037
        }
    ],
    "wof:id":890966807,
    "wof:lastmodified":1469682018,
    "wof:name":"4571AS",
    "wof:parent_id":101809797,
    "wof:placetype":"postalcode",
    "wof:repo":"whosonfirst-data-postalcode-nl",
    "wof:superseded_by":[],
    "wof:supersedes":[],
    "wof:tags":[]
},
  "bbox": [
    3.916079044342041,
    51.262718200683594,
    3.918078660964966,
    51.26298904418945
],
  "geometry": {"coordinates":[[[3.91765141487122,51.26296615600586],[3.91807866096497,51.26298904418945],[3.91782951354981,51.2629508972168],[3.91607904434204,51.26271820068359],[3.91616344451904,51.26273727416992],[3.91649389266968,51.26279067993164],[3.91683745384216,51.26284408569336],[3.91733241081238,51.26292037963867],[3.91749024391174,51.26294326782227],[3.91765141487122,51.26296615600586]]],"type":"Polygon"}
}