{
  "id": 890687771,
  "type": "Feature",
  "properties": {
    "clustr:alpha":0.05,
    "clustr:area":160.64,
    "clustr:count":20,
    "clustr:density":0.12,
    "clustr:perimeter":0.56,
    "edtf:cessation":"uuuu",
    "edtf:inception":"uuuu",
    "geom:area":0.000002,
    "geom:bbox":"4.69685125351,52.6945800781,4.70103740692,52.6957435608",
    "geom:latitude":52.695171,
    "geom:longitude":4.699285,
    "iso:country":"NL",
    "mz:hierarchy_label":1,
    "mz:is_approximate":1,
    "mz:is_clustr":1,
    "src:geom":"oa",
    "wof:belongsto":[
        102191581,
        404474041,
        85633337,
        85687053
    ],
    "wof:breaches":[],
    "wof:country":"NL",
    "wof:created":1469670704,
    "wof:geomhash":"53099bfd868c8233ac8f5c1e079f1d54",
    "wof:hierarchy":[
        {
            "continent_id":102191581,
            "country_id":85633337,
            "localadmin_id":404474041,
            "postalcode_id":890687771,
            "region_id":85687053
        }
    ],
    "wof:id":890687771,
    "wof:lastmodified":1469670704,
    "wof:name":"1871AD",
    "wof:parent_id":404474041,
    "wof:placetype":"postalcode",
    "wof:repo":"whosonfirst-data-postalcode-nl",
    "wof:superseded_by":[],
    "wof:supersedes":[],
    "wof:tags":[]
},
  "bbox": [
    4.696851253509521,
    52.694580078125,
    4.701037406921387,
    52.695743560791016
],
  "geometry": {"coordinates":[[[4.69967985153198,52.694580078125],[4.69706630706787,52.69561004638672],[4.69685125350952,52.69574356079102],[4.70054006576538,52.69538497924805],[4.70103740692139,52.69478607177734],[4.69967985153198,52.694580078125]]],"type":"Polygon"}
}