{
  "id": 891143651,
  "type": "Feature",
  "properties": {
    "clustr:alpha":0.05,
    "clustr:area":11.75,
    "clustr:count":15,
    "clustr:density":1.28,
    "clustr:perimeter":0.31,
    "edtf:cessation":"uuuu",
    "edtf:inception":"uuuu",
    "geom:area":0.0,
    "geom:bbox":"5.83999586105,51.8783416748,5.84188747406,51.8791313171",
    "geom:latitude":51.878821,
    "geom:longitude":5.840679,
    "iso:country":"NL",
    "mz:hierarchy_label":1,
    "mz:is_approximate":1,
    "mz:is_clustr":1,
    "src:geom":"oa",
    "wof:belongsto":[
        85687043,
        102191581,
        404473925,
        85633337,
        101808731
    ],
    "wof:breaches":[],
    "wof:country":"NL",
    "wof:created":1469689077,
    "wof:geomhash":"8707271225e2dc3340e684a468e2f5a3",
    "wof:hierarchy":[
        {
            "continent_id":102191581,
            "country_id":85633337,
            "localadmin_id":404473925,
            "locality_id":101808731,
            "postalcode_id":891143651,
            "region_id":85687043
        }
    ],
    "wof:id":891143651,
    "wof:lastmodified":1469689077,
    "wof:name":"6515BR",
    "wof:parent_id":101808731,
    "wof:placetype":"postalcode",
    "wof:repo":"whosonfirst-data-postalcode-nl",
    "wof:superseded_by":[],
    "wof:supersedes":[],
    "wof:tags":[]
},
  "bbox": [
    5.839995861053467,
    51.87834167480469,
    5.841887474060059,
    51.87913131713867
],
  "geometry": {"coordinates":[[[5.84022903442383,51.87910079956055],[5.84188747406006,51.87834167480469],[5.84182929992676,51.87836074829102],[5.83999586105347,51.87898635864258],[5.84013557434082,51.87913131713867],[5.84022903442383,51.87910079956055]]],"type":"Polygon"}
}