{
  "id": 890973057,
  "type": "Feature",
  "properties": {
    "clustr:alpha":0.05,
    "clustr:area":304.62,
    "clustr:count":6,
    "clustr:density":0.02,
    "clustr:perimeter":0.43,
    "edtf:cessation":"uuuu",
    "edtf:inception":"uuuu",
    "geom:area":0.000002,
    "geom:bbox":"4.2828578949,51.547908783,4.28629827499,51.5491714478",
    "geom:latitude":51.548611,
    "geom:longitude":4.284632,
    "iso:country":"NL",
    "mz:hierarchy_label":1,
    "mz:is_approximate":1,
    "mz:is_clustr":1,
    "src:geom":"oa",
    "wof:belongsto":[
        102191581,
        404474351,
        85633337,
        85687035
    ],
    "wof:breaches":[],
    "wof:country":"NL",
    "wof:created":1469682317,
    "wof:geomhash":"09827df7f1ecb494514199ad7e9d7991",
    "wof:hierarchy":[
        {
            "continent_id":102191581,
            "country_id":85633337,
            "localadmin_id":404474351,
            "postalcode_id":890973057,
            "region_id":85687035
        }
    ],
    "wof:id":890973057,
    "wof:lastmodified":1469682317,
    "wof:name":"4664RZ",
    "wof:parent_id":404474351,
    "wof:placetype":"postalcode",
    "wof:repo":"whosonfirst-data-postalcode-nl",
    "wof:superseded_by":[],
    "wof:supersedes":[],
    "wof:tags":[]
},
  "bbox": [
    4.282857894897461,
    51.547908782958984,
    4.286298274993896,
    51.549171447753906
],
  "geometry": {"coordinates":[[[4.28530931472778,51.54898834228516],[4.2862982749939,51.54790878295898],[4.28549242019653,51.54803466796875],[4.2836537361145,51.54845809936523],[4.28285789489746,51.54917144775391],[4.28530931472778,51.54898834228516]]],"type":"Polygon"}
}