{
  "id": 890778059,
  "type": "Feature",
  "properties": {
    "clustr:alpha":0.05,
    "clustr:area":32.0,
    "clustr:count":15,
    "clustr:density":0.47,
    "clustr:perimeter":0.32,
    "edtf:cessation":"uuuu",
    "edtf:inception":"uuuu",
    "geom:area":0.0,
    "geom:bbox":"4.40082406998,52.0469398499,4.40263843536,52.0480270386",
    "geom:latitude":52.047482,
    "geom:longitude":4.401729,
    "iso:country":"NL",
    "mz:hierarchy_label":1,
    "mz:is_approximate":1,
    "mz:is_clustr":1,
    "src:geom":"oa",
    "wof:belongsto":[
        85687041,
        102191581,
        404474687,
        85633337,
        101754635
    ],
    "wof:breaches":[],
    "wof:country":"NL",
    "wof:created":1469674407,
    "wof:geomhash":"0a5827d42c1cf559a85ed5f7a60a0b83",
    "wof:hierarchy":[
        {
            "continent_id":102191581,
            "country_id":85633337,
            "localadmin_id":404474687,
            "locality_id":101754635,
            "postalcode_id":890778059,
            "region_id":85687041
        }
    ],
    "wof:id":890778059,
    "wof:lastmodified":1469674407,
    "wof:name":"2631HZ",
    "wof:parent_id":101754635,
    "wof:placetype":"postalcode",
    "wof:repo":"whosonfirst-data-postalcode-nl",
    "wof:superseded_by":[],
    "wof:supersedes":[],
    "wof:tags":[]
},
  "bbox": [
    4.400824069976807,
    52.046939849853516,
    4.40263843536377,
    52.04802703857422
],
  "geometry": {"coordinates":[[[4.40235996246338,52.04783248901367],[4.40082406997681,52.04693984985352],[4.40089988708496,52.04699325561523],[4.40110874176025,52.04713821411133],[4.40187168121338,52.04758071899414],[4.40263843536377,52.04802703857422],[4.40235996246338,52.04783248901367]]],"type":"Polygon"}
}