{
  "id": 891087771,
  "type": "Feature",
  "properties": {
    "clustr:alpha":0.05,
    "clustr:area":22.21,
    "clustr:count":18,
    "clustr:density":0.81,
    "clustr:perimeter":0.32,
    "edtf:cessation":"uuuu",
    "edtf:inception":"uuuu",
    "geom:area":0.0,
    "geom:bbox":"5.89552640915,51.4877471924,5.89784955978,51.4881019592",
    "geom:latitude":51.487904,
    "geom:longitude":5.896848,
    "iso:country":"NL",
    "mz:hierarchy_label":1,
    "mz:is_approximate":1,
    "mz:is_clustr":1,
    "src:geom":"oa",
    "wof:belongsto":[
        85687033,
        102191581,
        404474527,
        85633337,
        101809603
    ],
    "wof:breaches":[],
    "wof:country":"NL",
    "wof:created":1469686776,
    "wof:geomhash":"fdc6251af50268096bb716648ce518ce",
    "wof:hierarchy":[
        {
            "continent_id":102191581,
            "country_id":85633337,
            "localadmin_id":404474527,
            "locality_id":101809603,
            "postalcode_id":891087771,
            "region_id":85687033
        }
    ],
    "wof:id":891087771,
    "wof:lastmodified":1469686776,
    "wof:name":"5813BW",
    "wof:parent_id":101809603,
    "wof:placetype":"postalcode",
    "wof:repo":"whosonfirst-data-postalcode-nl",
    "wof:superseded_by":[],
    "wof:supersedes":[],
    "wof:tags":[]
},
  "bbox": [
    5.89552640914917,
    51.48774719238281,
    5.897849559783936,
    51.488101959228516
],
  "geometry": {"coordinates":[[[5.89758396148682,51.4879150390625],[5.89739513397217,51.48783874511719],[5.89711141586304,51.48777389526367],[5.89701175689697,51.48775482177734],[5.89678192138672,51.48774719238281],[5.8956356048584,51.48786163330078],[5.89552640914917,51.48787307739258],[5.89784955978394,51.48810195922852],[5.89778280258179,51.48805236816406],[5.8976583480835,51.48796463012695],[5.89758396148682,51.4879150390625]]],"type":"Polygon"}
}