{
  "id": 890640083,
  "type": "Feature",
  "properties": {
    "clustr:alpha":0.05,
    "clustr:area":1.27,
    "clustr:count":15,
    "clustr:density":11.77,
    "clustr:perimeter":0.09,
    "edtf:cessation":"uuuu",
    "edtf:inception":"uuuu",
    "geom:area":0.0,
    "geom:bbox":"5.18649816513,52.2677497864,5.18652582169,52.2682113647",
    "geom:latitude":52.267981,
    "geom:longitude":5.186513,
    "iso:country":"NL",
    "mz:hierarchy_label":1,
    "mz:is_approximate":1,
    "mz:is_clustr":1,
    "src:geom":"oa",
    "wof:belongsto":[
        85687053,
        102191581,
        404474051,
        85633337,
        101753097
    ],
    "wof:breaches":[],
    "wof:country":"NL",
    "wof:created":1469668510,
    "wof:geomhash":"7dd9b4fb3a49048c7464e03f0ed2a841",
    "wof:hierarchy":[
        {
            "continent_id":102191581,
            "country_id":85633337,
            "localadmin_id":404474051,
            "locality_id":101753097,
            "postalcode_id":890640083,
            "region_id":85687053
        }
    ],
    "wof:id":890640083,
    "wof:lastmodified":1469668510,
    "wof:name":"1403GH",
    "wof:parent_id":101753097,
    "wof:placetype":"postalcode",
    "wof:repo":"whosonfirst-data-postalcode-nl",
    "wof:superseded_by":[],
    "wof:supersedes":[],
    "wof:tags":[]
},
  "bbox": [
    5.186498165130615,
    52.26774978637695,
    5.186525821685791,
    52.268211364746094
],
  "geometry": {"coordinates":[[[5.18652582168579,52.26780319213867],[5.18652582168579,52.26778793334961],[5.18652582168579,52.26776885986328],[5.18652582168579,52.26774978637695],[5.18649816513062,52.26811981201172],[5.18649816513062,52.26813888549805],[5.18649816513062,52.26815795898438],[5.18649816513062,52.26817321777344],[5.18649816513062,52.26819229125977],[5.18649816513062,52.26821136474609],[5.18652534484863,52.26789474487305],[5.18652582168579,52.26780319213867]]],"type":"Polygon"}
}