{
  "id": 891140991,
  "type": "Feature",
  "properties": {
    "clustr:alpha":0.05,
    "clustr:area":0.07,
    "clustr:count":36,
    "clustr:density":490.88,
    "clustr:perimeter":0.21,
    "edtf:cessation":"uuuu",
    "edtf:inception":"uuuu",
    "geom:area":0.0,
    "geom:bbox":"6.06947231293,50.8543777466,6.07031011581,50.8550033569",
    "geom:latitude":50.854653,
    "geom:longitude":6.069919,
    "iso:country":"NL",
    "mz:hierarchy_label":1,
    "mz:is_approximate":1,
    "mz:is_clustr":1,
    "src:geom":"oa",
    "wof:belongsto":[
        85687033,
        102191581,
        404474489,
        85633337,
        101839255
    ],
    "wof:breaches":[],
    "wof:country":"NL",
    "wof:created":1469688981,
    "wof:geomhash":"e82c00efa9c87fd9160920453711253e",
    "wof:hierarchy":[
        {
            "continent_id":102191581,
            "country_id":85633337,
            "localadmin_id":404474489,
            "locality_id":101839255,
            "postalcode_id":891140991,
            "region_id":85687033
        }
    ],
    "wof:id":891140991,
    "wof:lastmodified":1469688981,
    "wof:name":"6462BZ",
    "wof:parent_id":101839255,
    "wof:placetype":"postalcode",
    "wof:repo":"whosonfirst-data-postalcode-nl",
    "wof:superseded_by":[],
    "wof:supersedes":[],
    "wof:tags":[]
},
  "bbox": [
    6.069472312927246,
    50.85437774658203,
    6.070310115814209,
    50.855003356933594
],
  "geometry": {"coordinates":[[[6.07030344009399,50.8545036315918],[6.07029390335083,50.85442733764648],[6.07029056549072,50.85440444946289],[6.07028388977051,50.85437774658203],[6.06947231292725,50.85443115234375],[6.06948041915894,50.8544807434082],[6.06948947906494,50.85453414916992],[6.0694990158081,50.85458374023438],[6.06950378417969,50.85460662841797],[6.06983089447021,50.85500335693359],[6.07010889053345,50.8549919128418],[6.07031011581421,50.85455703735352],[6.0703067779541,50.85453033447266],[6.07030344009399,50.8545036315918]]],"type":"Polygon"}
}