{
  "id": 891079103,
  "type": "Feature",
  "properties": {
    "clustr:alpha":0.05,
    "clustr:area":8.58,
    "clustr:count":8,
    "clustr:density":0.93,
    "clustr:perimeter":0.07,
    "edtf:cessation":"uuuu",
    "edtf:inception":"uuuu",
    "geom:area":0.0,
    "geom:bbox":"5.64390182495,51.4741592407,5.6443977356,51.4742622375",
    "geom:latitude":51.47422,
    "geom:longitude":5.644189,
    "iso:country":"NL",
    "mz:hierarchy_label":1,
    "mz:is_approximate":1,
    "mz:is_clustr":1,
    "src:geom":"oa",
    "wof:belongsto":[
        85687035,
        102191581,
        404474389,
        85633337,
        101751805
    ],
    "wof:breaches":[],
    "wof:country":"NL",
    "wof:created":1469686450,
    "wof:geomhash":"91414bb009262bf42aef87128e60ebc9",
    "wof:hierarchy":[
        {
            "continent_id":102191581,
            "country_id":85633337,
            "localadmin_id":404474389,
            "locality_id":101751805,
            "postalcode_id":891079103,
            "region_id":85687035
        }
    ],
    "wof:id":891079103,
    "wof:lastmodified":1469686450,
    "wof:name":"5707XV",
    "wof:parent_id":101751805,
    "wof:placetype":"postalcode",
    "wof:repo":"whosonfirst-data-postalcode-nl",
    "wof:superseded_by":[],
    "wof:supersedes":[],
    "wof:tags":[]
},
  "bbox": [
    5.643901824951172,
    51.474159240722656,
    5.644397735595703,
    51.47426223754883
],
  "geometry": {"coordinates":[[[5.64432716369629,51.47424697875977],[5.64390182495117,51.47415924072266],[5.64404344558716,51.47418975830078],[5.64425611495972,51.47423553466797],[5.6443977355957,51.47426223754883],[5.64432716369629,51.47424697875977]]],"type":"Polygon"}
}