{
  "id": 907086423,
  "type": "Feature",
  "properties": {
    "clustr:alpha":0.05,
    "clustr:area":67.67,
    "clustr:count":14,
    "clustr:density":0.21,
    "clustr:perimeter":0.13,
    "edtf:cessation":"uuuu",
    "edtf:inception":"uuuu",
    "geom:area":0.0,
    "geom:bbox":"6.55505800247,52.9983253479,6.55624103546,52.9986305237",
    "geom:latitude":52.998457,
    "geom:longitude":6.555542,
    "iso:country":"NL",
    "mz:hierarchy_label":1,
    "mz:is_approximate":1,
    "mz:is_clustr":1,
    "src:geom":"oa",
    "wof:belongsto":[
        85687051,
        102191581,
        404473805,
        85633337,
        101751879
    ],
    "wof:breaches":[],
    "wof:country":"NL",
    "wof:created":1469698597,
    "wof:geomhash":"1fbf9a16e7b6ebad2b577f4b471b36c1",
    "wof:hierarchy":[
        {
            "continent_id":102191581,
            "country_id":85633337,
            "localadmin_id":404473805,
            "locality_id":101751879,
            "postalcode_id":907086423,
            "region_id":85687051
        }
    ],
    "wof:id":907086423,
    "wof:lastmodified":1469698597,
    "wof:name":"9402AL",
    "wof:parent_id":101751879,
    "wof:placetype":"postalcode",
    "wof:repo":"whosonfirst-data-postalcode-nl",
    "wof:superseded_by":[],
    "wof:supersedes":[],
    "wof:tags":[]
},
  "bbox": [
    6.555058002471924,
    52.99832534790039,
    6.556241035461426,
    52.99863052368164
],
  "geometry": {"coordinates":[[[6.55513095855713,52.99832534790039],[6.55505800247192,52.99839019775391],[6.55510330200195,52.99840927124023],[6.55624103546143,52.99863052368164],[6.55616617202759,52.99860382080078],[6.55609083175659,52.99857711791992],[6.5560154914856,52.99855041503906],[6.55571508407593,52.99844741821289],[6.55513095855713,52.99832534790039]]],"type":"Polygon"}
}