{
  "id": 891013691,
  "type": "Feature",
  "properties": {
    "clustr:alpha":0.05,
    "clustr:area":29.05,
    "clustr:count":9,
    "clustr:density":0.31,
    "clustr:perimeter":0.15,
    "edtf:cessation":"uuuu",
    "edtf:inception":"uuuu",
    "geom:area":0.0,
    "geom:bbox":"4.93178892136,51.4449005127,4.93255710602,51.4455070496",
    "geom:latitude":51.44516,
    "geom:longitude":4.932225,
    "iso:country":"NL",
    "mz:hierarchy_label":1,
    "mz:is_approximate":1,
    "mz:is_clustr":1,
    "src:geom":"oa",
    "wof:belongsto":[
        85687035,
        102191581,
        404474349,
        85633337,
        101809689
    ],
    "wof:breaches":[],
    "wof:country":"NL",
    "wof:created":1469683995,
    "wof:geomhash":"ab7bb558008095b2dba0ebad639e82cb",
    "wof:hierarchy":[
        {
            "continent_id":102191581,
            "country_id":85633337,
            "localadmin_id":404474349,
            "locality_id":101809689,
            "postalcode_id":891013691,
            "region_id":85687035
        }
    ],
    "wof:id":891013691,
    "wof:lastmodified":1469683995,
    "wof:name":"5111VE",
    "wof:parent_id":101809689,
    "wof:placetype":"postalcode",
    "wof:repo":"whosonfirst-data-postalcode-nl",
    "wof:superseded_by":[],
    "wof:supersedes":[],
    "wof:tags":[]
},
  "bbox": [
    4.931788921356201,
    51.44490051269531,
    4.932557106018066,
    51.44550704956055
],
  "geometry": {"coordinates":[[[4.93218040466309,51.4452018737793],[4.93255710601807,51.44490051269531],[4.93244123458862,51.44498062133789],[4.9317889213562,51.44550704956055],[4.93196249008179,51.44537353515625],[4.93218040466309,51.4452018737793]]],"type":"Polygon"}
}