{
  "id": 907060231,
  "type": "Feature",
  "properties": {
    "clustr:alpha":0.05,
    "clustr:area":543.08,
    "clustr:count":10,
    "clustr:density":0.02,
    "clustr:perimeter":1.81,
    "edtf:cessation":"uuuu",
    "edtf:inception":"uuuu",
    "geom:area":0.000035,
    "geom:bbox":"5.54723358154,53.2031440735,5.55550050735,53.21118927",
    "geom:latitude":53.207563,
    "geom:longitude":5.551859,
    "iso:country":"NL",
    "mz:hierarchy_label":1,
    "mz:is_approximate":1,
    "mz:is_clustr":1,
    "src:geom":"oa",
    "wof:belongsto":[
        102191581,
        404473767,
        85633337,
        85687055
    ],
    "wof:breaches":[],
    "wof:country":"NL",
    "wof:created":1469697251,
    "wof:geomhash":"0de648822deaa646c6bcc2888952eaee",
    "wof:hierarchy":[
        {
            "continent_id":102191581,
            "country_id":85633337,
            "localadmin_id":404473767,
            "postalcode_id":907060231,
            "region_id":85687055
        }
    ],
    "wof:id":907060231,
    "wof:lastmodified":1469697251,
    "wof:name":"8808HM",
    "wof:parent_id":404473767,
    "wof:placetype":"postalcode",
    "wof:repo":"whosonfirst-data-postalcode-nl",
    "wof:superseded_by":[],
    "wof:supersedes":[],
    "wof:tags":[]
},
  "bbox": [
    5.547233581542969,
    53.20314407348633,
    5.555500507354736,
    53.21118927001953
],
  "geometry": {"coordinates":[[[5.55550050735474,53.20912551879883],[5.55368137359619,53.20314407348633],[5.54723358154297,53.20777893066406],[5.55112314224243,53.21118927001953],[5.55550050735474,53.20912551879883]]],"type":"Polygon"}
}