{
  "id": 907110003,
  "type": "Feature",
  "properties": {
    "clustr:alpha":0.05,
    "clustr:area":5.36,
    "clustr:count":15,
    "clustr:density":2.8,
    "clustr:perimeter":0.14,
    "edtf:cessation":"uuuu",
    "edtf:inception":"uuuu",
    "geom:area":0.0,
    "geom:bbox":"6.54551124573,53.2178268433,6.54646015167,53.218082428",
    "geom:latitude":53.21794,
    "geom:longitude":6.545989,
    "iso:country":"NL",
    "mz:hierarchy_label":1,
    "mz:is_approximate":1,
    "mz:is_clustr":1,
    "src:geom":"oa",
    "wof:belongsto":[
        85687059,
        102191581,
        404473713,
        85633337,
        101751909
    ],
    "wof:breaches":[],
    "wof:country":"NL",
    "wof:created":1469699895,
    "wof:geomhash":"cb82dcd7e040a0b893bb994e69f5a981",
    "wof:hierarchy":[
        {
            "continent_id":102191581,
            "country_id":85633337,
            "localadmin_id":404473713,
            "locality_id":101751909,
            "postalcode_id":907110003,
            "region_id":85687059
        }
    ],
    "wof:id":907110003,
    "wof:lastmodified":1469699895,
    "wof:name":"9718MA",
    "wof:parent_id":101751909,
    "wof:placetype":"postalcode",
    "wof:repo":"whosonfirst-data-postalcode-nl",
    "wof:superseded_by":[],
    "wof:supersedes":[],
    "wof:tags":[]
},
  "bbox": [
    6.545511245727539,
    53.21782684326172,
    6.546460151672363,
    53.218082427978516
],
  "geometry": {"coordinates":[[[6.54632663726807,53.21796798706055],[6.54627799987793,53.21793365478516],[6.54622602462769,53.21789932250977],[6.54617738723755,53.21786880493164],[6.54571056365967,53.21782684326172],[6.54566764831543,53.21784973144531],[6.54551124572754,53.21793365478516],[6.54646015167236,53.21808242797852],[6.54632663726807,53.21796798706055]]],"type":"Polygon"}
}