{
  "id": 907076049,
  "type": "Feature",
  "properties": {
    "clustr:alpha":0.05,
    "clustr:area":133.16,
    "clustr:count":14,
    "clustr:density":0.11,
    "clustr:perimeter":0.27,
    "edtf:cessation":"uuuu",
    "edtf:inception":"uuuu",
    "geom:area":0.0,
    "geom:bbox":"6.08797121048,53.0956993103,6.0904841423,53.0960731506",
    "geom:latitude":53.095861,
    "geom:longitude":6.089131,
    "iso:country":"NL",
    "mz:hierarchy_label":1,
    "mz:is_approximate":1,
    "mz:is_clustr":1,
    "src:geom":"oa",
    "wof:belongsto":[
        85687055,
        102191581,
        404473791,
        85633337,
        101806135
    ],
    "wof:breaches":[],
    "wof:country":"NL",
    "wof:created":1469697988,
    "wof:geomhash":"935fe093c7b183db60361f0719a36ced",
    "wof:hierarchy":[
        {
            "continent_id":102191581,
            "country_id":85633337,
            "localadmin_id":404473791,
            "locality_id":101806135,
            "postalcode_id":907076049,
            "region_id":85687055
        }
    ],
    "wof:id":907076049,
    "wof:lastmodified":1469697988,
    "wof:name":"9203NZ",
    "wof:parent_id":101806135,
    "wof:placetype":"postalcode",
    "wof:repo":"whosonfirst-data-postalcode-nl",
    "wof:superseded_by":[],
    "wof:supersedes":[],
    "wof:tags":[]
},
  "bbox": [
    6.087971210479736,
    53.095699310302734,
    6.090484142303467,
    53.096073150634766
],
  "geometry": {"coordinates":[[[6.08925676345825,53.09578704833984],[6.08893299102783,53.09580993652344],[6.08797121047974,53.09607315063477],[6.09048414230347,53.09569931030273],[6.09037017822266,53.09570693969727],[6.08925676345825,53.09578704833984]]],"type":"Polygon"}
}