{
  "id": 890863153,
  "type": "Feature",
  "properties": {
    "clustr:alpha":0.05,
    "clustr:area":136.96,
    "clustr:count":24,
    "clustr:density":0.18,
    "clustr:perimeter":0.16,
    "edtf:cessation":"uuuu",
    "edtf:inception":"uuuu",
    "geom:area":0.0,
    "geom:bbox":"5.03429508209,52.0125961304,5.03595256805,52.0130081177",
    "geom:latitude":52.012799,
    "geom:longitude":5.035086,
    "iso:country":"NL",
    "mz:hierarchy_label":1,
    "mz:is_approximate":1,
    "mz:is_clustr":1,
    "src:geom":"oa",
    "wof:belongsto":[
        85687039,
        102191581,
        404474017,
        85633337,
        101754605
    ],
    "wof:breaches":[],
    "wof:country":"NL",
    "wof:created":1469677610,
    "wof:geomhash":"4dfbb1250a17f04f05fc00ddc313adcf",
    "wof:hierarchy":[
        {
            "continent_id":102191581,
            "country_id":85633337,
            "localadmin_id":404474017,
            "locality_id":101754605,
            "postalcode_id":890863153,
            "region_id":85687039
        }
    ],
    "wof:id":890863153,
    "wof:lastmodified":1469677610,
    "wof:name":"3404KN",
    "wof:parent_id":101754605,
    "wof:placetype":"postalcode",
    "wof:repo":"whosonfirst-data-postalcode-nl",
    "wof:superseded_by":[],
    "wof:supersedes":[],
    "wof:tags":[]
},
  "bbox": [
    5.034295082092285,
    52.012596130371094,
    5.035952568054199,
    52.01300811767578
],
  "geometry": {"coordinates":[[[5.035719871521,52.01296234130859],[5.0359525680542,52.01300811767578],[5.03588008880615,52.01298904418945],[5.03429508209229,52.01259613037109],[5.03433895111084,52.01261520385742],[5.03457117080688,52.01268005371094],[5.035719871521,52.01296234130859]]],"type":"Polygon"}
}