{
  "id": 891058333,
  "type": "Feature",
  "properties": {
    "clustr:alpha":0.05,
    "clustr:area":4.07,
    "clustr:count":18,
    "clustr:density":4.43,
    "clustr:perimeter":0.09,
    "edtf:cessation":"uuuu",
    "edtf:inception":"uuuu",
    "geom:area":0.0,
    "geom:bbox":"5.31977939606,51.2892570496,5.32033729553,51.289440155",
    "geom:latitude":51.289357,
    "geom:longitude":5.320049,
    "iso:country":"NL",
    "mz:hierarchy_label":1,
    "mz:is_approximate":1,
    "mz:is_clustr":1,
    "src:geom":"oa",
    "wof:belongsto":[
        85687035,
        102191581,
        404474639,
        85633337,
        101809697
    ],
    "wof:breaches":[],
    "wof:country":"NL",
    "wof:created":1469685673,
    "wof:geomhash":"04dd5c839a54b043c8b09cf5d773adab",
    "wof:hierarchy":[
        {
            "continent_id":102191581,
            "country_id":85633337,
            "localadmin_id":404474639,
            "locality_id":101809697,
            "postalcode_id":891058333,
            "region_id":85687035
        }
    ],
    "wof:id":891058333,
    "wof:lastmodified":1469685673,
    "wof:name":"5575AK",
    "wof:parent_id":101809697,
    "wof:placetype":"postalcode",
    "wof:repo":"whosonfirst-data-postalcode-nl",
    "wof:superseded_by":[],
    "wof:supersedes":[],
    "wof:tags":[]
},
  "bbox": [
    5.319779396057129,
    51.28925704956055,
    5.320337295532227,
    51.2894401550293
],
  "geometry": {"coordinates":[[[5.32033729553223,51.28938293457031],[5.32029867172241,51.28933334350586],[5.32009124755859,51.28925704956055],[5.31993913650513,51.28926849365234],[5.31977939605713,51.28938293457031],[5.31978702545166,51.28942108154297],[5.31982755661011,51.2894401550293],[5.32031488418579,51.28940963745117],[5.32033729553223,51.28938293457031]]],"type":"Polygon"}
}