{
  "id": 891147323,
  "type": "Feature",
  "properties": {
    "clustr:alpha":0.05,
    "clustr:area":9.25,
    "clustr:count":16,
    "clustr:density":1.73,
    "clustr:perimeter":0.19,
    "edtf:cessation":"uuuu",
    "edtf:inception":"uuuu",
    "geom:area":0.0,
    "geom:bbox":"5.8221077919,51.8035964966,5.82296657562,51.804271698",
    "geom:latitude":51.803863,
    "geom:longitude":5.822602,
    "iso:country":"NL",
    "mz:hierarchy_label":1,
    "mz:is_approximate":1,
    "mz:is_clustr":1,
    "src:geom":"oa",
    "wof:belongsto":[
        85687043,
        102191581,
        404473925,
        85633337,
        101751859
    ],
    "wof:breaches":[],
    "wof:country":"NL",
    "wof:created":1469689236,
    "wof:geomhash":"fc34b17e7830ad98b2fb2db707b32856",
    "wof:hierarchy":[
        {
            "continent_id":102191581,
            "country_id":85633337,
            "localadmin_id":404473925,
            "locality_id":101751859,
            "postalcode_id":891147323,
            "region_id":85687043
        }
    ],
    "wof:id":891147323,
    "wof:lastmodified":1469689236,
    "wof:name":"6535KW",
    "wof:parent_id":101751859,
    "wof:placetype":"postalcode",
    "wof:repo":"whosonfirst-data-postalcode-nl",
    "wof:superseded_by":[],
    "wof:supersedes":[],
    "wof:tags":[]
},
  "bbox": [
    5.822107791900635,
    51.80359649658203,
    5.822966575622559,
    51.80427169799805
],
  "geometry": {"coordinates":[[[5.82281112670898,51.80363845825195],[5.82273101806641,51.80359649658203],[5.82210779190063,51.80427169799805],[5.82296657562256,51.8037223815918],[5.82281112670898,51.80363845825195]]],"type":"Polygon"}
}