{
  "id": 891135723,
  "type": "Feature",
  "properties": {
    "clustr:alpha":0.05,
    "clustr:area":25.39,
    "clustr:count":22,
    "clustr:density":0.87,
    "clustr:perimeter":0.21,
    "edtf:cessation":"uuuu",
    "edtf:inception":"uuuu",
    "geom:area":0.0,
    "geom:bbox":"5.96455144882,50.9257736206,5.96519899368,50.9267234802",
    "geom:latitude":50.926267,
    "geom:longitude":5.964823,
    "iso:country":"NL",
    "mz:hierarchy_label":1,
    "mz:is_approximate":1,
    "mz:is_clustr":1,
    "src:geom":"oa",
    "wof:belongsto":[
        85687033,
        102191581,
        404474485,
        85633337,
        101839247
    ],
    "wof:breaches":[],
    "wof:country":"NL",
    "wof:created":1469688789,
    "wof:geomhash":"315b085dfe76b9a6a96822a634afd584",
    "wof:hierarchy":[
        {
            "continent_id":102191581,
            "country_id":85633337,
            "localadmin_id":404474485,
            "locality_id":101839247,
            "postalcode_id":891135723,
            "region_id":85687033
        }
    ],
    "wof:id":891135723,
    "wof:lastmodified":1469688789,
    "wof:name":"6414PE",
    "wof:parent_id":101839247,
    "wof:placetype":"postalcode",
    "wof:repo":"whosonfirst-data-postalcode-nl",
    "wof:superseded_by":[],
    "wof:supersedes":[],
    "wof:tags":[]
},
  "bbox": [
    5.964551448822021,
    50.92577362060547,
    5.965198993682861,
    50.92672348022461
],
  "geometry": {"coordinates":[[[5.96507978439331,50.92667007446289],[5.96519899368286,50.92672348022461],[5.96463441848755,50.92577362060547],[5.96455144882202,50.92602920532227],[5.96486377716065,50.92654418945312],[5.96507978439331,50.92667007446289]]],"type":"Polygon"}
}