{
  "id": 890616837,
  "type": "Feature",
  "properties": {
    "clustr:alpha":0.05,
    "clustr:area":5.62,
    "clustr:count":22,
    "clustr:density":3.91,
    "clustr:perimeter":0.2,
    "edtf:cessation":"uuuu",
    "edtf:inception":"uuuu",
    "geom:area":0.0,
    "geom:bbox":"4.84624862671,52.2844696045,4.84665727615,52.2853355408",
    "geom:latitude":52.284897,
    "geom:longitude":4.846468,
    "iso:country":"NL",
    "mz:hierarchy_label":1,
    "mz:is_approximate":1,
    "mz:is_clustr":1,
    "src:geom":"oa",
    "wof:belongsto":[
        85687053,
        102191581,
        404474027,
        85633337,
        101751891
    ],
    "wof:breaches":[],
    "wof:country":"NL",
    "wof:created":1469667561,
    "wof:geomhash":"43e58c85b442941397342b703f516bb1",
    "wof:hierarchy":[
        {
            "continent_id":102191581,
            "country_id":85633337,
            "localadmin_id":404474027,
            "locality_id":101751891,
            "postalcode_id":890616837,
            "region_id":85687053
        }
    ],
    "wof:id":890616837,
    "wof:lastmodified":1469667561,
    "wof:name":"1188DJ",
    "wof:parent_id":101751891,
    "wof:placetype":"postalcode",
    "wof:repo":"whosonfirst-data-postalcode-nl",
    "wof:superseded_by":[],
    "wof:supersedes":[],
    "wof:tags":[]
},
  "bbox": [
    4.846248626708984,
    52.28446960449219,
    4.846657276153564,
    52.285335540771484
],
  "geometry": {"coordinates":[[[4.84629487991333,52.28481292724609],[4.84624862670898,52.28486633300781],[4.8463282585144,52.28506851196289],[4.8465166091919,52.28533554077148],[4.84665727615356,52.28446960449219],[4.84659004211426,52.28452682495117],[4.84650182723999,52.28461074829102],[4.84633779525757,52.28477096557617],[4.84629487991333,52.28481292724609]]],"type":"Polygon"}
}