{
  "id": 891217415,
  "type": "Feature",
  "properties": {
    "clustr:alpha":0.05,
    "clustr:area":30.06,
    "clustr:count":12,
    "clustr:density":0.4,
    "clustr:perimeter":0.14,
    "edtf:cessation":"uuuu",
    "edtf:inception":"uuuu",
    "geom:area":0.0,
    "geom:bbox":"6.01502180099,52.1887130737,6.01579666138,52.1892051697",
    "geom:latitude":52.188954,
    "geom:longitude":6.015389,
    "iso:country":"NL",
    "mz:hierarchy_label":1,
    "mz:is_approximate":1,
    "mz:is_clustr":1,
    "src:geom":"oa",
    "wof:belongsto":[
        102191581,
        404473867,
        85633337,
        85687043
    ],
    "wof:breaches":[],
    "wof:country":"NL",
    "wof:created":1469692126,
    "wof:geomhash":"3fcdc7f56b8c34696f8a1e48f35770d8",
    "wof:hierarchy":[
        {
            "continent_id":102191581,
            "country_id":85633337,
            "localadmin_id":404473867,
            "postalcode_id":891217415,
            "region_id":85687043
        }
    ],
    "wof:id":891217415,
    "wof:lastmodified":1469692126,
    "wof:name":"7326XG",
    "wof:parent_id":404473867,
    "wof:placetype":"postalcode",
    "wof:repo":"whosonfirst-data-postalcode-nl",
    "wof:superseded_by":[],
    "wof:supersedes":[],
    "wof:tags":[]
},
  "bbox": [
    6.015021800994873,
    52.18871307373047,
    6.015796661376953,
    52.189205169677734
],
  "geometry": {"coordinates":[[[6.01511096954346,52.1888427734375],[6.01507520675659,52.18888854980469],[6.01502180099487,52.18906784057617],[6.01547574996948,52.18920516967773],[6.01563596725464,52.18906021118164],[6.01567459106445,52.18901824951172],[6.01579666137695,52.18885803222656],[6.01534461975098,52.18871307373047],[6.01511096954346,52.1888427734375]]],"type":"Polygon"}
}