{
  "id": 891117013,
  "type": "Feature",
  "properties": {
    "clustr:alpha":0.05,
    "clustr:area":6.82,
    "clustr:count":6,
    "clustr:density":0.88,
    "clustr:perimeter":0.38,
    "edtf:cessation":"uuuu",
    "edtf:inception":"uuuu",
    "geom:area":0.0,
    "geom:bbox":"5.8165807724,50.9676208496,5.81835842133,50.9689445496",
    "geom:latitude":50.968371,
    "geom:longitude":5.817581,
    "iso:country":"NL",
    "mz:hierarchy_label":1,
    "mz:is_approximate":1,
    "mz:is_clustr":1,
    "src:geom":"oa",
    "wof:belongsto":[
        85687033,
        102191581,
        404474675,
        85633337,
        101839721
    ],
    "wof:breaches":[],
    "wof:country":"NL",
    "wof:created":1469687914,
    "wof:geomhash":"edbf86dec599abcf33423f6d7ba73208",
    "wof:hierarchy":[
        {
            "continent_id":102191581,
            "country_id":85633337,
            "localadmin_id":404474675,
            "locality_id":101839721,
            "postalcode_id":891117013,
            "region_id":85687033
        }
    ],
    "wof:id":891117013,
    "wof:lastmodified":1469687914,
    "wof:name":"6161XX",
    "wof:parent_id":101839721,
    "wof:placetype":"postalcode",
    "wof:repo":"whosonfirst-data-postalcode-nl",
    "wof:superseded_by":[],
    "wof:supersedes":[],
    "wof:tags":[]
},
  "bbox": [
    5.816580772399902,
    50.967620849609375,
    5.818358421325684,
    50.96894454956055
],
  "geometry": {"coordinates":[[[5.81835842132568,50.96894454956055],[5.81665277481079,50.96767425537109],[5.8165807723999,50.96762084960938],[5.81738376617432,50.96823120117188],[5.81745529174805,50.96828460693359],[5.8183012008667,50.96891021728516],[5.81835842132568,50.96894454956055]]],"type":"Polygon"}
}