{
  "id": 891007671,
  "type": "Feature",
  "properties": {
    "clustr:alpha":0.05,
    "clustr:area":63.41,
    "clustr:count":10,
    "clustr:density":0.16,
    "clustr:perimeter":0.08,
    "edtf:cessation":"uuuu",
    "edtf:inception":"uuuu",
    "geom:area":0.0,
    "geom:bbox":"5.05525255203,51.5180854797,5.0559463501,51.5183982849",
    "geom:latitude":51.518238,
    "geom:longitude":5.055622,
    "iso:country":"NL",
    "mz:hierarchy_label":1,
    "mz:is_approximate":1,
    "mz:is_clustr":1,
    "src:geom":"oa",
    "wof:belongsto":[
        85687035,
        102191581,
        404474383,
        85633337,
        101754577
    ],
    "wof:breaches":[],
    "wof:country":"NL",
    "wof:created":1469683766,
    "wof:geomhash":"871bc531d78f937f8c838b2c1c45805b",
    "wof:hierarchy":[
        {
            "continent_id":102191581,
            "country_id":85633337,
            "localadmin_id":404474383,
            "locality_id":101754577,
            "postalcode_id":891007671,
            "region_id":85687035
        }
    ],
    "wof:id":891007671,
    "wof:lastmodified":1469683766,
    "wof:name":"5051HV",
    "wof:parent_id":101754577,
    "wof:placetype":"postalcode",
    "wof:repo":"whosonfirst-data-postalcode-nl",
    "wof:superseded_by":[],
    "wof:supersedes":[],
    "wof:tags":[]
},
  "bbox": [
    5.055252552032471,
    51.51808547973633,
    5.055946350097656,
    51.51839828491211
],
  "geometry": {"coordinates":[[[5.05588865280151,51.51812362670898],[5.05594635009766,51.51808547973633],[5.05525255203247,51.51839828491211],[5.05532503128052,51.51837158203125],[5.05539703369141,51.51834487915039],[5.05588865280151,51.51812362670898]]],"type":"Polygon"}
}