{
  "id": 890977433,
  "type": "Feature",
  "properties": {
    "clustr:alpha":0.05,
    "clustr:area":8.24,
    "clustr:count":27,
    "clustr:density":3.28,
    "clustr:perimeter":0.4,
    "edtf:cessation":"uuuu",
    "edtf:inception":"uuuu",
    "geom:area":0.0,
    "geom:bbox":"4.44770050049,51.5131072998,4.45012807846,51.5140914917",
    "geom:latitude":51.513462,
    "geom:longitude":4.449149,
    "iso:country":"NL",
    "mz:hierarchy_label":1,
    "mz:is_approximate":1,
    "mz:is_clustr":1,
    "src:geom":"oa",
    "wof:belongsto":[
        85687035,
        102191581,
        404474587,
        85633337,
        101751815
    ],
    "wof:breaches":[],
    "wof:country":"NL",
    "wof:created":1469682514,
    "wof:geomhash":"fc67c6773c764368cce28931e12d9e9e",
    "wof:hierarchy":[
        {
            "continent_id":102191581,
            "country_id":85633337,
            "localadmin_id":404474587,
            "locality_id":101751815,
            "postalcode_id":890977433,
            "region_id":85687035
        }
    ],
    "wof:id":890977433,
    "wof:lastmodified":1469682514,
    "wof:name":"4707NZ",
    "wof:parent_id":101751815,
    "wof:placetype":"postalcode",
    "wof:repo":"whosonfirst-data-postalcode-nl",
    "wof:superseded_by":[],
    "wof:supersedes":[],
    "wof:tags":[]
},
  "bbox": [
    4.447700500488281,
    51.51310729980469,
    4.450128078460693,
    51.51409149169922
],
  "geometry": {"coordinates":[[[4.44975566864014,51.51313400268555],[4.44870805740356,51.51359939575195],[4.44864273071289,51.51362991333008],[4.44857740402222,51.5136604309082],[4.44770050048828,51.51409149169922],[4.45006513595581,51.51314544677734],[4.45012807846069,51.51311874389648],[4.44982004165649,51.51310729980469],[4.44975566864014,51.51313400268555]]],"type":"Polygon"}
}