{
  "id": 890682693,
  "type": "Feature",
  "properties": {
    "clustr:alpha":0.05,
    "clustr:area":268.02,
    "clustr:count":5,
    "clustr:density":0.02,
    "clustr:perimeter":0.22,
    "edtf:cessation":"uuuu",
    "edtf:inception":"uuuu",
    "geom:area":0.000001,
    "geom:bbox":"4.73535490036,52.6376075745,4.73764753342,52.6382865906",
    "geom:latitude":52.638043,
    "geom:longitude":4.736159,
    "iso:country":"NL",
    "mz:hierarchy_label":1,
    "mz:is_approximate":1,
    "mz:is_clustr":1,
    "src:geom":"oa",
    "wof:belongsto":[
        85687053,
        102191581,
        404474025,
        85633337,
        101751887
    ],
    "wof:breaches":[],
    "wof:country":"NL",
    "wof:created":1469670495,
    "wof:geomhash":"dc735fe53410f73c0a11ac7c3d1a2277",
    "wof:hierarchy":[
        {
            "continent_id":102191581,
            "country_id":85633337,
            "localadmin_id":404474025,
            "locality_id":101751887,
            "postalcode_id":890682693,
            "region_id":85687053
        }
    ],
    "wof:id":890682693,
    "wof:lastmodified":1469670495,
    "wof:name":"1817BH",
    "wof:parent_id":101751887,
    "wof:placetype":"postalcode",
    "wof:repo":"whosonfirst-data-postalcode-nl",
    "wof:superseded_by":[],
    "wof:supersedes":[],
    "wof:tags":[]
},
  "bbox": [
    4.735354900360107,
    52.63760757446289,
    4.737647533416748,
    52.63828659057617
],
  "geometry": {"coordinates":[[[4.73535490036011,52.63760757446289],[4.73545789718628,52.63821792602539],[4.73600149154663,52.63825225830078],[4.73764753341675,52.63828659057617],[4.73535490036011,52.63760757446289]]],"type":"Polygon"}
}