{
  "id": 907092301,
  "type": "Feature",
  "properties": {
    "clustr:alpha":0.05,
    "clustr:area":424.66,
    "clustr:count":15,
    "clustr:density":0.04,
    "clustr:perimeter":0.75,
    "edtf:cessation":"uuuu",
    "edtf:inception":"uuuu",
    "geom:area":0.000002,
    "geom:bbox":"6.79932832718,52.9807815552,6.80306339264,52.9859046936",
    "geom:latitude":52.982837,
    "geom:longitude":6.801362,
    "iso:country":"NL",
    "mz:hierarchy_label":1,
    "mz:is_approximate":1,
    "mz:is_clustr":1,
    "src:geom":"oa",
    "wof:belongsto":[
        102191581,
        404474593,
        85633337,
        85687051
    ],
    "wof:breaches":[],
    "wof:country":"NL",
    "wof:created":1469698922,
    "wof:geomhash":"a6c798523edf1484bd5a86fea3d8493f",
    "wof:hierarchy":[
        {
            "continent_id":102191581,
            "country_id":85633337,
            "localadmin_id":404474593,
            "postalcode_id":907092301,
            "region_id":85687051
        }
    ],
    "wof:id":907092301,
    "wof:lastmodified":1469698922,
    "wof:name":"9462TN",
    "wof:parent_id":404474593,
    "wof:placetype":"postalcode",
    "wof:repo":"whosonfirst-data-postalcode-nl",
    "wof:superseded_by":[],
    "wof:supersedes":[],
    "wof:tags":[]
},
  "bbox": [
    6.799328327178955,
    52.98078155517578,
    6.80306339263916,
    52.985904693603516
],
  "geometry": {"coordinates":[[[6.80236625671387,52.98176956176758],[6.8026933670044,52.98130798339844],[6.80306339263916,52.98078155517578],[6.80189657211304,52.98152542114258],[6.79939651489258,52.9857063293457],[6.79932832717896,52.98590469360352],[6.80236625671387,52.98176956176758]]],"type":"Polygon"}
}