{
  "id": 891109047,
  "type": "Feature",
  "properties": {
    "clustr:alpha":0.05,
    "clustr:area":41.37,
    "clustr:count":10,
    "clustr:density":0.24,
    "clustr:perimeter":0.14,
    "edtf:cessation":"uuuu",
    "edtf:inception":"uuuu",
    "geom:area":0.0,
    "geom:bbox":"6.00116968155,51.1474266052,6.00209665298,51.1479034424",
    "geom:latitude":51.147704,
    "geom:longitude":6.001664,
    "iso:country":"NL",
    "mz:hierarchy_label":1,
    "mz:is_approximate":1,
    "mz:is_clustr":1,
    "src:geom":"oa",
    "wof:belongsto":[
        85687033,
        102191581,
        404474581,
        85633337,
        101809581
    ],
    "wof:breaches":[],
    "wof:country":"NL",
    "wof:created":1469687619,
    "wof:geomhash":"ee384ce7e07f229e3002690b6816d1cd",
    "wof:hierarchy":[
        {
            "continent_id":102191581,
            "country_id":85633337,
            "localadmin_id":404474581,
            "locality_id":101809581,
            "postalcode_id":891109047,
            "region_id":85687033
        }
    ],
    "wof:id":891109047,
    "wof:lastmodified":1469687619,
    "wof:name":"6077AD",
    "wof:parent_id":101809581,
    "wof:placetype":"postalcode",
    "wof:repo":"whosonfirst-data-postalcode-nl",
    "wof:superseded_by":[],
    "wof:supersedes":[],
    "wof:tags":[]
},
  "bbox": [
    6.001169681549072,
    51.14742660522461,
    6.002096652984619,
    51.14790344238281
],
  "geometry": {"coordinates":[[[6.00209665298462,51.14753723144531],[6.00200414657593,51.14742660522461],[6.00123929977417,51.14775466918945],[6.00116968154907,51.14790344238281],[6.00180244445801,51.14785766601562],[6.00209665298462,51.14753723144531]]],"type":"Polygon"}
}