{
  "id": 890603153,
  "type": "Feature",
  "properties": {
    "clustr:alpha":0.05,
    "clustr:area":33.52,
    "clustr:count":25,
    "clustr:density":0.75,
    "clustr:perimeter":0.04,
    "edtf:cessation":"uuuu",
    "edtf:inception":"uuuu",
    "geom:area":0.0,
    "geom:bbox":"4.91623401642,52.3437614441,4.91668844223,52.3438072205",
    "geom:latitude":52.343782,
    "geom:longitude":4.916471,
    "iso:country":"NL",
    "mz:hierarchy_label":1,
    "mz:is_approximate":1,
    "mz:is_clustr":1,
    "src:geom":"oa",
    "wof:belongsto":[
        85687053,
        102191581,
        404474029,
        85633337,
        101751893
    ],
    "wof:breaches":[],
    "wof:country":"NL",
    "wof:created":1469666957,
    "wof:geomhash":"0ca620b40bd448d4767e10a37f5cf315",
    "wof:hierarchy":[
        {
            "continent_id":102191581,
            "country_id":85633337,
            "localadmin_id":404474029,
            "locality_id":101751893,
            "postalcode_id":890603153,
            "region_id":85687053
        }
    ],
    "wof:id":890603153,
    "wof:lastmodified":1469666957,
    "wof:name":"1096HL",
    "wof:parent_id":101751893,
    "wof:placetype":"postalcode",
    "wof:repo":"whosonfirst-data-postalcode-nl",
    "wof:superseded_by":[],
    "wof:supersedes":[],
    "wof:tags":[]
},
  "bbox": [
    4.916234016418457,
    52.3437614440918,
    4.916688442230225,
    52.343807220458984
],
  "geometry": {"coordinates":[[[4.91665935516357,52.34380722045898],[4.91667413711548,52.34380722045898],[4.91668844223022,52.34380722045898],[4.91665935516357,52.34379959106445],[4.91661548614502,52.34378814697266],[4.91651296615601,52.34376907348633],[4.91623401641846,52.3437614440918],[4.91638088226318,52.34378814697266],[4.91665935516357,52.34380722045898]]],"type":"Polygon"}
}