{
  "id": 891055403,
  "type": "Feature",
  "properties": {
    "clustr:alpha":0.05,
    "clustr:area":3.69,
    "clustr:count":6,
    "clustr:density":1.63,
    "clustr:perimeter":0.08,
    "edtf:cessation":"uuuu",
    "edtf:inception":"uuuu",
    "geom:area":0.0,
    "geom:bbox":"5.21082353592,51.3651580811,5.21092653275,51.3655433655",
    "geom:latitude":51.365331,
    "geom:longitude":5.210877,
    "iso:country":"NL",
    "mz:hierarchy_label":1,
    "mz:is_approximate":1,
    "mz:is_clustr":1,
    "src:geom":"oa",
    "wof:belongsto":[
        85687035,
        102191581,
        404474641,
        85633337,
        101810317
    ],
    "wof:breaches":[],
    "wof:country":"NL",
    "wof:created":1469685557,
    "wof:geomhash":"f3daf26b81e957762b223e869ee49c99",
    "wof:hierarchy":[
        {
            "continent_id":102191581,
            "country_id":85633337,
            "localadmin_id":404474641,
            "locality_id":101810317,
            "postalcode_id":891055403,
            "region_id":85687035
        }
    ],
    "wof:id":891055403,
    "wof:lastmodified":1469685557,
    "wof:name":"5531MS",
    "wof:parent_id":101810317,
    "wof:placetype":"postalcode",
    "wof:repo":"whosonfirst-data-postalcode-nl",
    "wof:superseded_by":[],
    "wof:supersedes":[],
    "wof:tags":[]
},
  "bbox": [
    5.210823535919189,
    51.36515808105469,
    5.210926532745361,
    51.365543365478516
],
  "geometry": {"coordinates":[[[5.21090269088745,51.36521530151367],[5.21086025238037,51.36538314819336],[5.21083354949951,51.3654899597168],[5.21082353591919,51.36554336547852],[5.21092653274536,51.36515808105469],[5.21090269088745,51.36521530151367]]],"type":"Polygon"}
}