{
  "id": 890764707,
  "type": "Feature",
  "properties": {
    "clustr:alpha":0.05,
    "clustr:area":5.11,
    "clustr:count":37,
    "clustr:density":7.25,
    "clustr:perimeter":0.16,
    "edtf:cessation":"uuuu",
    "edtf:inception":"uuuu",
    "geom:area":0.0,
    "geom:bbox":"4.27963733673,52.0739631653,4.28038883209,52.0745239258",
    "geom:latitude":52.074199,
    "geom:longitude":4.280034,
    "iso:country":"NL",
    "mz:hierarchy_label":1,
    "mz:is_approximate":1,
    "mz:is_clustr":1,
    "src:geom":"oa",
    "wof:belongsto":[
        85687041,
        102191581,
        404474179,
        85633337,
        101752763
    ],
    "wof:breaches":[],
    "wof:country":"NL",
    "wof:created":1469673922,
    "wof:geomhash":"54591955c9419c9d2cc4c1b7628a52d2",
    "wof:hierarchy":[
        {
            "continent_id":102191581,
            "country_id":85633337,
            "localadmin_id":404474179,
            "locality_id":101752763,
            "postalcode_id":890764707,
            "region_id":85687041
        }
    ],
    "wof:id":890764707,
    "wof:lastmodified":1469673922,
    "wof:name":"2562VW",
    "wof:parent_id":101752763,
    "wof:placetype":"postalcode",
    "wof:repo":"whosonfirst-data-postalcode-nl",
    "wof:superseded_by":[],
    "wof:supersedes":[],
    "wof:tags":[]
},
  "bbox": [
    4.279637336730957,
    52.0739631652832,
    4.280388832092285,
    52.07452392578125
],
  "geometry": {"coordinates":[[[4.28008651733398,52.07399368286133],[4.280029296875,52.0739631652832],[4.27992486953735,52.07398986816406],[4.27963733673096,52.07413101196289],[4.27971696853638,52.07417297363281],[4.27990579605103,52.07427215576172],[4.28029680252075,52.07447814941406],[4.28038883209229,52.07452392578125],[4.28013038635254,52.07402038574219],[4.28008651733398,52.07399368286133]]],"type":"Polygon"}
}