{
  "id": 891279821,
  "type": "Feature",
  "properties": {
    "clustr:alpha":0.05,
    "clustr:area":201.54,
    "clustr:count":6,
    "clustr:density":0.03,
    "clustr:perimeter":2.5,
    "edtf:cessation":"uuuu",
    "edtf:inception":"uuuu",
    "geom:area":0.000014,
    "geom:bbox":"6.23153591156,52.6398010254,6.24851179123,52.6452713013",
    "geom:latitude":52.643113,
    "geom:longitude":6.242443,
    "iso:country":"NL",
    "mz:hierarchy_label":1,
    "mz:is_approximate":1,
    "mz:is_clustr":1,
    "src:geom":"oa",
    "wof:belongsto":[
        102191581,
        404473853,
        85633337,
        85687045
    ],
    "wof:breaches":[],
    "wof:country":"NL",
    "wof:created":1469694682,
    "wof:geomhash":"c2c8cc8aae4008c80bc1160cda94ebf9",
    "wof:hierarchy":[
        {
            "continent_id":102191581,
            "country_id":85633337,
            "localadmin_id":404473853,
            "postalcode_id":891279821,
            "region_id":85687045
        }
    ],
    "wof:id":891279821,
    "wof:lastmodified":1469694682,
    "wof:name":"7951NJ",
    "wof:parent_id":404473853,
    "wof:placetype":"postalcode",
    "wof:repo":"whosonfirst-data-postalcode-nl",
    "wof:superseded_by":[],
    "wof:supersedes":[],
    "wof:tags":[]
},
  "bbox": [
    6.231535911560059,
    52.639801025390625,
    6.248511791229248,
    52.64527130126953
],
  "geometry": {"coordinates":[[[6.24841213226318,52.64473342895508],[6.24851179122925,52.64463806152344],[6.24815130233765,52.64402389526367],[6.23153591156006,52.63980102539062],[6.24679803848267,52.64527130126953],[6.24841213226318,52.64473342895508]]],"type":"Polygon"}
}