{
  "id": 907098477,
  "type": "Feature",
  "properties": {
    "clustr:alpha":0.05,
    "clustr:area":1.29,
    "clustr:count":18,
    "clustr:density":13.93,
    "clustr:perimeter":0.12,
    "edtf:cessation":"uuuu",
    "edtf:inception":"uuuu",
    "geom:area":0.0,
    "geom:bbox":"6.74477672577,53.1595687866,6.745054245,53.1600151062",
    "geom:latitude":53.159792,
    "geom:longitude":6.744915,
    "iso:country":"NL",
    "mz:hierarchy_label":1,
    "mz:is_approximate":1,
    "mz:is_clustr":1,
    "src:geom":"oa",
    "wof:belongsto":[
        85687059,
        102191581,
        404473719,
        85633337,
        101837993
    ],
    "wof:breaches":[],
    "wof:country":"NL",
    "wof:created":1469699272,
    "wof:geomhash":"0b195f07cdb95ca8d1c3db7adae13e11",
    "wof:hierarchy":[
        {
            "continent_id":102191581,
            "country_id":85633337,
            "localadmin_id":404473719,
            "locality_id":101837993,
            "postalcode_id":907098477,
            "region_id":85687059
        }
    ],
    "wof:id":907098477,
    "wof:lastmodified":1469699272,
    "wof:name":"9602AW",
    "wof:parent_id":101837993,
    "wof:placetype":"postalcode",
    "wof:repo":"whosonfirst-data-postalcode-nl",
    "wof:superseded_by":[],
    "wof:supersedes":[],
    "wof:tags":[]
},
  "bbox": [
    6.744776725769043,
    53.159568786621094,
    6.745054244995117,
    53.16001510620117
],
  "geometry": {"coordinates":[[[6.74504518508911,53.15962982177734],[6.74504232406616,53.15956878662109],[6.74477672576904,53.15956878662109],[6.74477815628052,53.1596794128418],[6.74478435516357,53.15990447998047],[6.74478626251221,53.15995788574219],[6.744788646698,53.16001510620117],[6.74505424499512,53.16001510620117],[6.7450475692749,53.15973281860352],[6.74504518508911,53.15962982177734]]],"type":"Polygon"}
}