{
  "id": 891038697,
  "type": "Feature",
  "properties": {
    "clustr:alpha":0.05,
    "clustr:area":244.14,
    "clustr:count":6,
    "clustr:density":0.02,
    "clustr:perimeter":0.39,
    "edtf:cessation":"uuuu",
    "edtf:inception":"uuuu",
    "geom:area":0.000001,
    "geom:bbox":"5.64497518539,51.7980079651,5.64771699905,51.8008460999",
    "geom:latitude":51.799714,
    "geom:longitude":5.646666,
    "iso:country":"NL",
    "mz:hierarchy_label":1,
    "mz:is_approximate":1,
    "mz:is_clustr":1,
    "src:geom":"oa",
    "wof:belongsto":[
        102191581,
        404474415,
        85633337,
        85687035
    ],
    "wof:breaches":[],
    "wof:country":"NL",
    "wof:created":1469684971,
    "wof:geomhash":"2ddbab1ba86cf41fb4965e4dbde5c852",
    "wof:hierarchy":[
        {
            "continent_id":102191581,
            "country_id":85633337,
            "localadmin_id":404474415,
            "postalcode_id":891038697,
            "region_id":85687035
        }
    ],
    "wof:id":891038697,
    "wof:lastmodified":1469684971,
    "wof:name":"5371LS",
    "wof:parent_id":404474415,
    "wof:placetype":"postalcode",
    "wof:repo":"whosonfirst-data-postalcode-nl",
    "wof:superseded_by":[],
    "wof:supersedes":[],
    "wof:tags":[]
},
  "bbox": [
    5.644975185394287,
    51.79800796508789,
    5.647716999053955,
    51.800846099853516
],
  "geometry": {"coordinates":[[[5.64727401733398,51.80084609985352],[5.64771699905396,51.80035018920898],[5.64760303497315,51.80016326904297],[5.64497518539429,51.79800796508789],[5.64727401733398,51.80084609985352]]],"type":"Polygon"}
}