{
  "id": 890669453,
  "type": "Feature",
  "properties": {
    "clustr:alpha":0.05,
    "clustr:area":9.52,
    "clustr:count":30,
    "clustr:density":3.15,
    "clustr:perimeter":0.26,
    "edtf:cessation":"uuuu",
    "edtf:inception":"uuuu",
    "geom:area":0.0,
    "geom:bbox":"4.91173791885,52.6742248535,4.91311216354,52.6750030518",
    "geom:latitude":52.674619,
    "geom:longitude":4.912433,
    "iso:country":"NL",
    "mz:hierarchy_label":1,
    "mz:is_approximate":1,
    "mz:is_clustr":1,
    "src:geom":"oa",
    "wof:belongsto":[
        85687053,
        102191581,
        404474551,
        85633337,
        101807385
    ],
    "wof:breaches":[],
    "wof:country":"NL",
    "wof:created":1469669948,
    "wof:geomhash":"26f43270ca4bc11162ddb009d0117014",
    "wof:hierarchy":[
        {
            "continent_id":102191581,
            "country_id":85633337,
            "localadmin_id":404474551,
            "locality_id":101807385,
            "postalcode_id":890669453,
            "region_id":85687053
        }
    ],
    "wof:id":890669453,
    "wof:lastmodified":1469669948,
    "wof:name":"1713BE",
    "wof:parent_id":101807385,
    "wof:placetype":"postalcode",
    "wof:repo":"whosonfirst-data-postalcode-nl",
    "wof:superseded_by":[],
    "wof:supersedes":[],
    "wof:tags":[]
},
  "bbox": [
    4.91173791885376,
    52.674224853515625,
    4.913112163543701,
    52.67500305175781
],
  "geometry": {"coordinates":[[[4.91287326812744,52.67428970336914],[4.91271448135376,52.67433929443359],[4.91263675689697,52.67436599731445],[4.91256380081177,52.67439270019531],[4.91249084472656,52.67441940307617],[4.91224002838135,52.67452621459961],[4.9121732711792,52.674560546875],[4.91204309463501,52.67462921142578],[4.91185617446899,52.67474365234375],[4.91179180145264,52.67478561401367],[4.91173791885376,52.67482376098633],[4.91198587417603,52.67500305175781],[4.9127025604248,52.67466354370117],[4.91300916671753,52.67451095581055],[4.9131121635437,52.67422485351562],[4.9130277633667,52.67424392700195],[4.91295051574707,52.67426681518555],[4.91287326812744,52.67428970336914]]],"type":"Polygon"}
}