{
  "id": 907070155,
  "type": "Feature",
  "properties": {
    "clustr:alpha":0.05,
    "clustr:area":48.08,
    "clustr:count":4,
    "clustr:density":0.08,
    "clustr:perimeter":0.14,
    "edtf:cessation":"uuuu",
    "edtf:inception":"uuuu",
    "geom:area":0.0,
    "geom:bbox":"5.89324855804,53.241230011,5.89433717728,53.2416534424",
    "geom:latitude":53.241436,
    "geom:longitude":5.893829,
    "iso:country":"NL",
    "mz:hierarchy_label":1,
    "mz:is_approximate":1,
    "mz:is_clustr":1,
    "src:geom":"oa",
    "wof:belongsto":[
        85687055,
        102191581,
        404474343,
        85633337,
        101803719
    ],
    "wof:breaches":[],
    "wof:country":"NL",
    "wof:created":1469697677,
    "wof:geomhash":"2e04a00941ff9135cbce76b6ef1cddc7",
    "wof:hierarchy":[
        {
            "continent_id":102191581,
            "country_id":85633337,
            "localadmin_id":404474343,
            "locality_id":101803719,
            "postalcode_id":907070155,
            "region_id":85687055
        }
    ],
    "wof:id":907070155,
    "wof:lastmodified":1469697677,
    "wof:name":"9061AC",
    "wof:parent_id":101803719,
    "wof:placetype":"postalcode",
    "wof:repo":"whosonfirst-data-postalcode-nl",
    "wof:superseded_by":[],
    "wof:supersedes":[],
    "wof:tags":[]
},
  "bbox": [
    5.893248558044434,
    53.24123001098633,
    5.894337177276611,
    53.24165344238281
],
  "geometry": {"coordinates":[[[5.89394998550415,53.24140930175781],[5.89433717727661,53.24123001098633],[5.89356184005737,53.24152755737305],[5.89324855804443,53.24165344238281],[5.89394998550415,53.24140930175781]]],"type":"Polygon"}
}