{
  "id": 907106421,
  "type": "Feature",
  "properties": {
    "clustr:alpha":0.05,
    "clustr:area":605.59,
    "clustr:count":17,
    "clustr:density":0.03,
    "clustr:perimeter":2.02,
    "edtf:cessation":"uuuu",
    "edtf:inception":"uuuu",
    "geom:area":0.000017,
    "geom:bbox":"7.07552433014,53.0929946899,7.08788156509,53.1011772156",
    "geom:latitude":53.097067,
    "geom:longitude":7.082688,
    "iso:country":"NL",
    "mz:hierarchy_label":1,
    "mz:is_approximate":1,
    "mz:is_clustr":1,
    "src:geom":"oa",
    "wof:belongsto":[
        85687059,
        102191581,
        404473705,
        85633337,
        101806197
    ],
    "wof:breaches":[],
    "wof:country":"NL",
    "wof:created":1469699721,
    "wof:geomhash":"002ed4134f41d906f633279085164fc4",
    "wof:hierarchy":[
        {
            "continent_id":102191581,
            "country_id":85633337,
            "localadmin_id":404473705,
            "locality_id":101806197,
            "postalcode_id":907106421,
            "region_id":85687059
        }
    ],
    "wof:id":907106421,
    "wof:lastmodified":1469699721,
    "wof:name":"9697VB",
    "wof:parent_id":101806197,
    "wof:placetype":"postalcode",
    "wof:repo":"whosonfirst-data-postalcode-nl",
    "wof:superseded_by":[],
    "wof:supersedes":[],
    "wof:tags":[]
},
  "bbox": [
    7.07552433013916,
    53.092994689941406,
    7.087881565093994,
    53.10117721557617
],
  "geometry": {"coordinates":[[[7.07575511932373,53.10097503662109],[7.07552433013916,53.10117721557617],[7.08554077148438,53.09690093994141],[7.08788156509399,53.09299468994141],[7.08039808273315,53.09750366210938],[7.07575511932373,53.10097503662109]]],"type":"Polygon"}
}