{
  "id": 890902325,
  "type": "Feature",
  "properties": {
    "clustr:alpha":0.05,
    "clustr:area":2.35,
    "clustr:count":6,
    "clustr:density":2.56,
    "clustr:perimeter":0.05,
    "edtf:cessation":"uuuu",
    "edtf:inception":"uuuu",
    "geom:area":0.0,
    "geom:bbox":"5.35650873184,52.1628913879,5.35659360886,52.1631584167",
    "geom:latitude":52.163041,
    "geom:longitude":5.356554,
    "iso:country":"NL",
    "mz:hierarchy_label":1,
    "mz:is_approximate":1,
    "mz:is_clustr":1,
    "src:geom":"oa",
    "wof:belongsto":[
        85687039,
        102191581,
        404473971,
        85633337,
        101751821
    ],
    "wof:breaches":[],
    "wof:country":"NL",
    "wof:created":1469679265,
    "wof:geomhash":"aeeffea9b9d417f8a6e13f8c265d79d6",
    "wof:hierarchy":[
        {
            "continent_id":102191581,
            "country_id":85633337,
            "localadmin_id":404473971,
            "locality_id":101751821,
            "postalcode_id":890902325,
            "region_id":85687039
        }
    ],
    "wof:id":890902325,
    "wof:lastmodified":1469679265,
    "wof:name":"3812LK",
    "wof:parent_id":101751821,
    "wof:placetype":"postalcode",
    "wof:repo":"whosonfirst-data-postalcode-nl",
    "wof:superseded_by":[],
    "wof:supersedes":[],
    "wof:tags":[]
},
  "bbox": [
    5.356508731842041,
    52.16289138793945,
    5.356593608856201,
    52.16315841674805
],
  "geometry": {"coordinates":[[[5.3565936088562,52.16315841674805],[5.3565263748169,52.16294479370117],[5.35650873184204,52.16289138793945],[5.35653734207153,52.16299438476562],[5.35656881332397,52.16310119628906],[5.3565936088562,52.16315841674805]]],"type":"Polygon"}
}