{
  "id": 891198223,
  "type": "Feature",
  "properties": {
    "clustr:alpha":0.05,
    "clustr:area":7.91,
    "clustr:count":72,
    "clustr:density":9.11,
    "clustr:perimeter":0.58,
    "edtf:cessation":"uuuu",
    "edtf:inception":"uuuu",
    "geom:area":0.000003,
    "geom:bbox":"6.37218523026,51.8867034912,6.37523126602,51.888004303",
    "geom:latitude":51.887386,
    "geom:longitude":6.373886,
    "iso:country":"NL",
    "mz:hierarchy_label":1,
    "mz:is_approximate":1,
    "mz:is_clustr":1,
    "src:geom":"oa",
    "wof:belongsto":[
        85687043,
        102191581,
        404474543,
        85633337,
        101837811
    ],
    "wof:breaches":[],
    "wof:country":"NL",
    "wof:created":1469691341,
    "wof:geomhash":"01c43dd6654868eb78805284c09350aa",
    "wof:hierarchy":[
        {
            "continent_id":102191581,
            "country_id":85633337,
            "localadmin_id":404474543,
            "locality_id":101837811,
            "postalcode_id":891198223,
            "region_id":85687043
        }
    ],
    "wof:id":891198223,
    "wof:lastmodified":1469691341,
    "wof:name":"7071PN",
    "wof:parent_id":101837811,
    "wof:placetype":"postalcode",
    "wof:repo":"whosonfirst-data-postalcode-nl",
    "wof:superseded_by":[],
    "wof:supersedes":[],
    "wof:tags":[]
},
  "bbox": [
    6.372185230255127,
    51.88670349121094,
    6.375231266021729,
    51.888004302978516
],
  "geometry": {"coordinates":[[[6.37518167495728,51.88718414306641],[6.37507629394531,51.88684844970703],[6.3750205039978,51.88670349121094],[6.37397241592407,51.8867073059082],[6.37240123748779,51.88716125488281],[6.37218523025513,51.88783264160156],[6.37474727630615,51.88798522949219],[6.37516927719116,51.88800430297852],[6.37523126602173,51.88789367675781],[6.37522983551025,51.88783645629883],[6.37521886825562,51.88755416870117],[6.37518167495728,51.88718414306641]]],"type":"Polygon"}
}