{
  "id": 907079789,
  "type": "Feature",
  "properties": {
    "clustr:alpha":0.05,
    "clustr:area":348.84,
    "clustr:count":15,
    "clustr:density":0.04,
    "clustr:perimeter":2.15,
    "edtf:cessation":"uuuu",
    "edtf:inception":"uuuu",
    "geom:area":0.000016,
    "geom:bbox":"6.03240919113,53.2228507996,6.04887104034,53.2249755859",
    "geom:latitude":53.224041,
    "geom:longitude":6.039481,
    "iso:country":"NL",
    "mz:hierarchy_label":1,
    "mz:is_approximate":1,
    "mz:is_clustr":1,
    "src:geom":"oa",
    "wof:belongsto":[
        102191581,
        404474343,
        85633337,
        85687055
    ],
    "wof:breaches":[],
    "wof:country":"NL",
    "wof:created":1469698224,
    "wof:geomhash":"11e85d92b8ba1aaf4879063cdbec1f4a",
    "wof:hierarchy":[
        {
            "continent_id":102191581,
            "country_id":85633337,
            "localadmin_id":404474343,
            "postalcode_id":907079789,
            "region_id":85687055
        }
    ],
    "wof:id":907079789,
    "wof:lastmodified":1469698224,
    "wof:name":"9258CX",
    "wof:parent_id":404474343,
    "wof:placetype":"postalcode",
    "wof:repo":"whosonfirst-data-postalcode-nl",
    "wof:superseded_by":[],
    "wof:supersedes":[],
    "wof:tags":[]
},
  "bbox": [
    6.032409191131592,
    53.22285079956055,
    6.048871040344238,
    53.2249755859375
],
  "geometry": {"coordinates":[[[6.04747200012207,53.2249755859375],[6.04887104034424,53.22443771362305],[6.03291606903076,53.22285079956055],[6.03240919113159,53.22421646118164],[6.03982973098755,53.22458648681641],[6.0403242111206,53.22461700439453],[6.04450511932373,53.22483825683594],[6.04747200012207,53.2249755859375]]],"type":"Polygon"}
}