{
  "id": 891214953,
  "type": "Feature",
  "properties": {
    "clustr:alpha":0.05,
    "clustr:area":27.17,
    "clustr:count":8,
    "clustr:density":0.29,
    "clustr:perimeter":0.16,
    "edtf:cessation":"uuuu",
    "edtf:inception":"uuuu",
    "geom:area":0.0,
    "geom:bbox":"5.96159887314,52.2315597534,5.96283340454,52.23179245",
    "geom:latitude":52.231676,
    "geom:longitude":5.962174,
    "iso:country":"NL",
    "mz:hierarchy_label":1,
    "mz:is_approximate":1,
    "mz:is_clustr":1,
    "src:geom":"oa",
    "wof:belongsto":[
        85687043,
        102191581,
        404473867,
        85633337,
        101751853
    ],
    "wof:breaches":[],
    "wof:country":"NL",
    "wof:created":1469692033,
    "wof:geomhash":"97c6dde6c8abb94d478a91736b612cbe",
    "wof:hierarchy":[
        {
            "continent_id":102191581,
            "country_id":85633337,
            "localadmin_id":404473867,
            "locality_id":101751853,
            "postalcode_id":891214953,
            "region_id":85687043
        }
    ],
    "wof:id":891214953,
    "wof:lastmodified":1469692033,
    "wof:name":"7316KD",
    "wof:parent_id":101751853,
    "wof:placetype":"postalcode",
    "wof:repo":"whosonfirst-data-postalcode-nl",
    "wof:superseded_by":[],
    "wof:supersedes":[],
    "wof:tags":[]
},
  "bbox": [
    5.961598873138428,
    52.23155975341797,
    5.962833404541016,
    52.23179244995117
],
  "geometry": {"coordinates":[[[5.96159887313843,52.23155975341797],[5.96183347702026,52.23165130615234],[5.9627742767334,52.23178482055664],[5.96283340454102,52.23179244995117],[5.96254444122315,52.23171234130859],[5.96159887313843,52.23155975341797]]],"type":"Polygon"}
}