{
  "id": 891115829,
  "type": "Feature",
  "properties": {
    "clustr:alpha":0.05,
    "clustr:area":27.19,
    "clustr:count":15,
    "clustr:density":0.55,
    "clustr:perimeter":0.33,
    "edtf:cessation":"uuuu",
    "edtf:inception":"uuuu",
    "geom:area":0.0,
    "geom:bbox":"5.88172626495,50.9980583191,5.88187646866,50.9998474121",
    "geom:latitude":50.999055,
    "geom:longitude":5.881822,
    "iso:country":"NL",
    "mz:hierarchy_label":1,
    "mz:is_approximate":1,
    "mz:is_clustr":1,
    "src:geom":"oa",
    "wof:belongsto":[
        85687033,
        102191581,
        404474675,
        85633337,
        101839313
    ],
    "wof:breaches":[],
    "wof:country":"NL",
    "wof:created":1469687872,
    "wof:geomhash":"53b75f2ffd8433d91abdf93506da431a",
    "wof:hierarchy":[
        {
            "continent_id":102191581,
            "country_id":85633337,
            "localadmin_id":404474675,
            "locality_id":101839313,
            "postalcode_id":891115829,
            "region_id":85687033
        }
    ],
    "wof:id":891115829,
    "wof:lastmodified":1469687872,
    "wof:name":"6137PL",
    "wof:parent_id":101839313,
    "wof:placetype":"postalcode",
    "wof:repo":"whosonfirst-data-postalcode-nl",
    "wof:superseded_by":[],
    "wof:supersedes":[],
    "wof:tags":[]
},
  "bbox": [
    5.881726264953613,
    50.9980583190918,
    5.881876468658447,
    50.999847412109375
],
  "geometry": {"coordinates":[[[5.88187646865845,50.99926376342773],[5.88186693191528,50.99833679199219],[5.88186502456665,50.99816513061523],[5.88186359405518,50.9980583190918],[5.88172626495361,50.99984741210938],[5.88187646865845,50.99926376342773]]],"type":"Polygon"}
}