{
  "id": 890863925,
  "type": "Feature",
  "properties": {
    "clustr:alpha":0.05,
    "clustr:area":72.99,
    "clustr:count":12,
    "clustr:density":0.16,
    "clustr:perimeter":0.14,
    "edtf:cessation":"uuuu",
    "edtf:inception":"uuuu",
    "geom:area":0.0,
    "geom:bbox":"5.04751157761,51.9910163879,5.0486369133,51.9914054871",
    "geom:latitude":51.991253,
    "geom:longitude":5.048124,
    "iso:country":"NL",
    "mz:hierarchy_label":1,
    "mz:is_approximate":1,
    "mz:is_clustr":1,
    "src:geom":"oa",
    "wof:belongsto":[
        102191581,
        404473993,
        85633337,
        85687039
    ],
    "wof:breaches":[],
    "wof:country":"NL",
    "wof:created":1469677637,
    "wof:geomhash":"4fe51f34dca00c156187e98fae508f92",
    "wof:hierarchy":[
        {
            "continent_id":102191581,
            "country_id":85633337,
            "localadmin_id":404473993,
            "postalcode_id":890863925,
            "region_id":85687039
        }
    ],
    "wof:id":890863925,
    "wof:lastmodified":1469677637,
    "wof:name":"3412LX",
    "wof:parent_id":404473993,
    "wof:placetype":"postalcode",
    "wof:repo":"whosonfirst-data-postalcode-nl",
    "wof:superseded_by":[],
    "wof:supersedes":[],
    "wof:tags":[]
},
  "bbox": [
    5.047511577606201,
    51.99101638793945,
    5.048636913299561,
    51.99140548706055
],
  "geometry": {"coordinates":[[[5.04822587966919,51.99101638793945],[5.04765319824219,51.99127197265625],[5.0475115776062,51.99133682250977],[5.04863691329956,51.99140548706055],[5.04822587966919,51.99101638793945]]],"type":"Polygon"}
}