{
  "id": 891172261,
  "type": "Feature",
  "properties": {
    "clustr:alpha":0.05,
    "clustr:area":27.03,
    "clustr:count":12,
    "clustr:density":0.44,
    "clustr:perimeter":0.12,
    "edtf:cessation":"uuuu",
    "edtf:inception":"uuuu",
    "geom:area":0.0,
    "geom:bbox":"5.87839412689,51.9946212769,5.87873029709,51.995349884",
    "geom:latitude":51.995034,
    "geom:longitude":5.878556,
    "iso:country":"NL",
    "mz:hierarchy_label":1,
    "mz:is_approximate":1,
    "mz:is_clustr":1,
    "src:geom":"oa",
    "wof:belongsto":[
        85687043,
        102191581,
        404473871,
        85633337,
        101751857
    ],
    "wof:breaches":[],
    "wof:country":"NL",
    "wof:created":1469690295,
    "wof:geomhash":"dc63a4da1c97f8ee0d843eac5d27ed2d",
    "wof:hierarchy":[
        {
            "continent_id":102191581,
            "country_id":85633337,
            "localadmin_id":404473871,
            "locality_id":101751857,
            "postalcode_id":891172261,
            "region_id":85687043
        }
    ],
    "wof:id":891172261,
    "wof:lastmodified":1469690295,
    "wof:name":"6813HG",
    "wof:parent_id":101751857,
    "wof:placetype":"postalcode",
    "wof:repo":"whosonfirst-data-postalcode-nl",
    "wof:superseded_by":[],
    "wof:supersedes":[],
    "wof:tags":[]
},
  "bbox": [
    5.87839412689209,
    51.99462127685547,
    5.878730297088623,
    51.9953498840332
],
  "geometry": {"coordinates":[[[5.87849426269531,51.99521636962891],[5.87866973876953,51.99481964111328],[5.87873029708862,51.99462127685547],[5.87839412689209,51.9953498840332],[5.87844038009644,51.99531936645508],[5.87849426269531,51.99521636962891]]],"type":"Polygon"}
}