{
  "id": 907053551,
  "type": "Feature",
  "properties": {
    "clustr:alpha":0.05,
    "clustr:area":139.76,
    "clustr:count":19,
    "clustr:density":0.14,
    "clustr:perimeter":0.19,
    "edtf:cessation":"uuuu",
    "edtf:inception":"uuuu",
    "geom:area":0.0,
    "geom:bbox":"5.59252357483,52.9072265625,5.59409141541,52.9081230164",
    "geom:latitude":52.907672,
    "geom:longitude":5.593318,
    "iso:country":"NL",
    "mz:hierarchy_label":1,
    "mz:is_approximate":1,
    "mz:is_clustr":1,
    "src:geom":"oa",
    "wof:belongsto":[
        102191581,
        404474297,
        85633337,
        85687055
    ],
    "wof:breaches":[],
    "wof:country":"NL",
    "wof:created":1469696970,
    "wof:geomhash":"8418066c1c59c6a54cef33df9cdc22ef",
    "wof:hierarchy":[
        {
            "continent_id":102191581,
            "country_id":85633337,
            "localadmin_id":404474297,
            "postalcode_id":907053551,
            "region_id":85687055
        }
    ],
    "wof:id":907053551,
    "wof:lastmodified":1469696970,
    "wof:name":"8561HD",
    "wof:parent_id":404474297,
    "wof:placetype":"postalcode",
    "wof:repo":"whosonfirst-data-postalcode-nl",
    "wof:superseded_by":[],
    "wof:supersedes":[],
    "wof:tags":[]
},
  "bbox": [
    5.592523574829102,
    52.9072265625,
    5.594091415405273,
    52.90812301635742
],
  "geometry": {"coordinates":[[[5.59409141540527,52.90744781494141],[5.59395360946655,52.90731811523438],[5.59376001358032,52.9072265625],[5.5925235748291,52.90791702270508],[5.59284496307373,52.90812301635742],[5.59298276901245,52.90805053710938],[5.59409141540527,52.90744781494141]]],"type":"Polygon"}
}