{
  "id": 891024173,
  "type": "Feature",
  "properties": {
    "clustr:alpha":0.05,
    "clustr:area":22.64,
    "clustr:count":12,
    "clustr:density":0.53,
    "clustr:perimeter":0.12,
    "edtf:cessation":"uuuu",
    "edtf:inception":"uuuu",
    "geom:area":0.0,
    "geom:bbox":"5.30748558044,51.7221755981,5.30807638168,51.7225952148",
    "geom:latitude":51.722385,
    "geom:longitude":5.307783,
    "iso:country":"NL",
    "mz:hierarchy_label":1,
    "mz:is_approximate":1,
    "mz:is_clustr":1,
    "src:geom":"oa",
    "wof:belongsto":[
        85687035,
        102191581,
        404474393,
        85633337,
        101751809
    ],
    "wof:breaches":[],
    "wof:country":"NL",
    "wof:created":1469684398,
    "wof:geomhash":"31101d247999875f64cd9c6670c5ea54",
    "wof:hierarchy":[
        {
            "continent_id":102191581,
            "country_id":85633337,
            "localadmin_id":404474393,
            "locality_id":101751809,
            "postalcode_id":891024173,
            "region_id":85687035
        }
    ],
    "wof:id":891024173,
    "wof:lastmodified":1469684398,
    "wof:name":"5235GC",
    "wof:parent_id":101751809,
    "wof:placetype":"postalcode",
    "wof:repo":"whosonfirst-data-postalcode-nl",
    "wof:superseded_by":[],
    "wof:supersedes":[],
    "wof:tags":[]
},
  "bbox": [
    5.307485580444336,
    51.72217559814453,
    5.30807638168335,
    51.72259521484375
],
  "geometry": {"coordinates":[[[5.30807638168335,51.72247695922852],[5.308030128479,51.72224807739258],[5.30765295028687,51.72217559814453],[5.30748558044434,51.72231292724609],[5.30752515792847,51.72251129150391],[5.3079047203064,51.72259521484375],[5.30807638168335,51.72247695922852]]],"type":"Polygon"}
}