{
  "id": 890803937,
  "type": "Feature",
  "properties": {
    "clustr:alpha":0.05,
    "clustr:area":26.62,
    "clustr:count":20,
    "clustr:density":0.75,
    "clustr:perimeter":0.19,
    "edtf:cessation":"uuuu",
    "edtf:inception":"uuuu",
    "geom:area":0.0,
    "geom:bbox":"4.62308120728,51.9715385437,4.62368392944,51.9723930359",
    "geom:latitude":51.972021,
    "geom:longitude":4.623306,
    "iso:country":"NL",
    "mz:hierarchy_label":1,
    "mz:is_approximate":1,
    "mz:is_clustr":1,
    "src:geom":"oa",
    "wof:belongsto":[
        85687041,
        102191581,
        404474213,
        85633337,
        101808529
    ],
    "wof:breaches":[],
    "wof:country":"NL",
    "wof:created":1469675370,
    "wof:geomhash":"7a4215a9fd5a27638712ee85cddc0d5a",
    "wof:hierarchy":[
        {
            "continent_id":102191581,
            "country_id":85633337,
            "localadmin_id":404474213,
            "locality_id":101808529,
            "postalcode_id":890803937,
            "region_id":85687041
        }
    ],
    "wof:id":890803937,
    "wof:lastmodified":1469675370,
    "wof:name":"2914CJ",
    "wof:parent_id":101808529,
    "wof:placetype":"postalcode",
    "wof:repo":"whosonfirst-data-postalcode-nl",
    "wof:superseded_by":[],
    "wof:supersedes":[],
    "wof:tags":[]
},
  "bbox": [
    4.623081207275391,
    51.97153854370117,
    4.623683929443359,
    51.97239303588867
],
  "geometry": {"coordinates":[[[4.62329387664795,51.97222137451172],[4.62352418899536,51.97235870361328],[4.6235818862915,51.97238540649414],[4.62368392944336,51.97239303588867],[4.62310171127319,51.97153854370117],[4.62308645248413,51.97158050537109],[4.62308406829834,51.97169876098633],[4.62308120727539,51.97187042236328],[4.62310791015625,51.97202301025391],[4.62313652038574,51.97206878662109],[4.62329387664795,51.97222137451172]]],"type":"Polygon"}
}