{
  "id": 890612947,
  "type": "Feature",
  "properties": {
    "clustr:alpha":0.05,
    "clustr:area":37.94,
    "clustr:count":10,
    "clustr:density":0.26,
    "clustr:perimeter":0.15,
    "edtf:cessation":"uuuu",
    "edtf:inception":"uuuu",
    "geom:area":0.0,
    "geom:bbox":"4.74411582947,52.3817672729,4.74510622025,52.3822746277",
    "geom:latitude":52.381989,
    "geom:longitude":4.744661,
    "iso:country":"NL",
    "mz:hierarchy_label":1,
    "mz:is_approximate":1,
    "mz:is_clustr":1,
    "src:geom":"oa",
    "wof:belongsto":[
        85687053,
        102191581,
        404474065,
        85633337,
        101754847
    ],
    "wof:breaches":[],
    "wof:country":"NL",
    "wof:created":1469667358,
    "wof:geomhash":"b82c4a62f81a55d53ab154224bfd4488",
    "wof:hierarchy":[
        {
            "continent_id":102191581,
            "country_id":85633337,
            "localadmin_id":404474065,
            "locality_id":101754847,
            "postalcode_id":890612947,
            "region_id":85687053
        }
    ],
    "wof:id":890612947,
    "wof:lastmodified":1469667358,
    "wof:name":"1161VZ",
    "wof:parent_id":101754847,
    "wof:placetype":"postalcode",
    "wof:repo":"whosonfirst-data-postalcode-nl",
    "wof:superseded_by":[],
    "wof:supersedes":[],
    "wof:tags":[]
},
  "bbox": [
    4.744115829467773,
    52.38176727294922,
    4.745106220245361,
    52.38227462768555
],
  "geometry": {"coordinates":[[[4.74480438232422,52.38190078735352],[4.74459600448608,52.38201141357422],[4.74438333511353,52.38212585449219],[4.74431371688843,52.38216400146484],[4.74411582946777,52.38227462768555],[4.74498844146729,52.38183212280273],[4.74510622024536,52.38176727294922],[4.74480438232422,52.38190078735352]]],"type":"Polygon"}
}