{
  "id": 891252111,
  "type": "Feature",
  "properties": {
    "clustr:alpha":0.05,
    "clustr:area":51.1,
    "clustr:count":24,
    "clustr:density":0.47,
    "clustr:perimeter":0.1,
    "edtf:cessation":"uuuu",
    "edtf:inception":"uuuu",
    "geom:area":0.0,
    "geom:bbox":"6.65793657303,52.3413352966,6.65879821777,52.3415603638",
    "geom:latitude":52.341447,
    "geom:longitude":6.658372,
    "iso:country":"NL",
    "mz:hierarchy_label":1,
    "mz:is_approximate":1,
    "mz:is_clustr":1,
    "src:geom":"oa",
    "wof:belongsto":[
        85687045,
        102191581,
        404473819,
        85633337,
        101751863
    ],
    "wof:breaches":[],
    "wof:country":"NL",
    "wof:created":1469693487,
    "wof:geomhash":"48a71716a5fe5e8fb43a3e4dea9e25c4",
    "wof:hierarchy":[
        {
            "continent_id":102191581,
            "country_id":85633337,
            "localadmin_id":404473819,
            "locality_id":101751863,
            "postalcode_id":891252111,
            "region_id":85687045
        }
    ],
    "wof:id":891252111,
    "wof:lastmodified":1469693487,
    "wof:name":"7606AV",
    "wof:parent_id":101751863,
    "wof:placetype":"postalcode",
    "wof:repo":"whosonfirst-data-postalcode-nl",
    "wof:superseded_by":[],
    "wof:supersedes":[],
    "wof:tags":[]
},
  "bbox": [
    6.657936573028564,
    52.34133529663086,
    6.658798217773438,
    52.34156036376953
],
  "geometry": {"coordinates":[[[6.65845966339111,52.34145736694336],[6.65879821777344,52.34137725830078],[6.65877342224121,52.34133529663086],[6.65865850448608,52.34135437011719],[6.65793657302856,52.34151840209961],[6.6579647064209,52.34156036376953],[6.6580491065979,52.34154510498047],[6.65845966339111,52.34145736694336]]],"type":"Polygon"}
}