{
  "id": 907098463,
  "type": "Feature",
  "properties": {
    "clustr:alpha":0.05,
    "clustr:area":0.82,
    "clustr:count":14,
    "clustr:density":17.17,
    "clustr:perimeter":0.1,
    "edtf:cessation":"uuuu",
    "edtf:inception":"uuuu",
    "geom:area":0.0,
    "geom:bbox":"6.75054836273,53.1595115662,6.75082063675,53.1598472595",
    "geom:latitude":53.15968,
    "geom:longitude":6.750683,
    "iso:country":"NL",
    "mz:hierarchy_label":1,
    "mz:is_approximate":1,
    "mz:is_clustr":1,
    "src:geom":"oa",
    "wof:belongsto":[
        85687059,
        102191581,
        404473719,
        85633337,
        101837993
    ],
    "wof:breaches":[],
    "wof:country":"NL",
    "wof:created":1469699271,
    "wof:geomhash":"45bccb047957fbbe7631b78a012fcc3c",
    "wof:hierarchy":[
        {
            "continent_id":102191581,
            "country_id":85633337,
            "localadmin_id":404473719,
            "locality_id":101837993,
            "postalcode_id":907098463,
            "region_id":85687059
        }
    ],
    "wof:id":907098463,
    "wof:lastmodified":1469699271,
    "wof:name":"9602AN",
    "wof:parent_id":101837993,
    "wof:placetype":"postalcode",
    "wof:repo":"whosonfirst-data-postalcode-nl",
    "wof:superseded_by":[],
    "wof:supersedes":[],
    "wof:tags":[]
},
  "bbox": [
    6.750548362731934,
    53.15951156616211,
    6.750820636749268,
    53.159847259521484
],
  "geometry": {"coordinates":[[[6.75054883956909,53.15957260131836],[6.75055170059204,53.15979385375977],[6.75055360794067,53.15984725952148],[6.75082063674927,53.15984344482422],[6.75081920623779,53.1597900390625],[6.75081253051758,53.15956878662109],[6.75081062316895,53.15951156616211],[6.75054836273193,53.15951538085938],[6.75054883956909,53.15957260131836]]],"type":"Polygon"}
}