{
  "id": 890939615,
  "type": "Feature",
  "properties": {
    "clustr:alpha":0.05,
    "clustr:area":31.34,
    "clustr:count":12,
    "clustr:density":0.38,
    "clustr:perimeter":0.13,
    "edtf:cessation":"uuuu",
    "edtf:inception":"uuuu",
    "geom:area":0.0,
    "geom:bbox":"4.97459220886,51.8313903809,4.97535276413,51.8318710327",
    "geom:latitude":51.831605,
    "geom:longitude":4.974968,
    "iso:country":"NL",
    "mz:hierarchy_label":1,
    "mz:is_approximate":1,
    "mz:is_clustr":1,
    "src:geom":"oa",
    "wof:belongsto":[
        85687041,
        102191581,
        404474173,
        85633337,
        101808515
    ],
    "wof:breaches":[],
    "wof:country":"NL",
    "wof:created":1469680811,
    "wof:geomhash":"3a19428dfe6157da6b45591fdd2d481c",
    "wof:hierarchy":[
        {
            "continent_id":102191581,
            "country_id":85633337,
            "localadmin_id":404474173,
            "locality_id":101808515,
            "postalcode_id":890939615,
            "region_id":85687041
        }
    ],
    "wof:id":890939615,
    "wof:lastmodified":1469680811,
    "wof:name":"4201KP",
    "wof:parent_id":101808515,
    "wof:placetype":"postalcode",
    "wof:repo":"whosonfirst-data-postalcode-nl",
    "wof:superseded_by":[],
    "wof:supersedes":[],
    "wof:tags":[]
},
  "bbox": [
    4.974592208862305,
    51.831390380859375,
    4.975352764129639,
    51.831871032714844
],
  "geometry": {"coordinates":[[[4.97535276412964,51.83145141601562],[4.97529983520508,51.83139038085938],[4.9745922088623,51.83149719238281],[4.97480058670044,51.83187103271484],[4.97512769699097,51.83176803588867],[4.97535276412964,51.83145141601562]]],"type":"Polygon"}
}