{
  "id": 907122495,
  "type": "Feature",
  "properties": {
    "clustr:alpha":0.05,
    "clustr:area":33.49,
    "clustr:count":4,
    "clustr:density":0.12,
    "clustr:perimeter":0.07,
    "edtf:cessation":"uuuu",
    "edtf:inception":"uuuu",
    "geom:area":0.0,
    "geom:bbox":"6.48974227905,53.3039207458,6.49035835266,53.3040351868",
    "geom:latitude":53.303973,
    "geom:longitude":6.490048,
    "iso:country":"NL",
    "mz:hierarchy_label":1,
    "mz:is_approximate":1,
    "mz:is_clustr":1,
    "src:geom":"oa",
    "wof:belongsto":[
        102191581,
        404473749,
        85633337,
        85687059
    ],
    "wof:breaches":[],
    "wof:country":"NL",
    "wof:created":1469700464,
    "wof:geomhash":"138754f8b2a801b7a51fac73815226c2",
    "wof:hierarchy":[
        {
            "continent_id":102191581,
            "country_id":85633337,
            "localadmin_id":404473749,
            "postalcode_id":907122495,
            "region_id":85687059
        }
    ],
    "wof:id":907122495,
    "wof:lastmodified":1469700464,
    "wof:name":"9893PR",
    "wof:parent_id":404473749,
    "wof:placetype":"postalcode",
    "wof:repo":"whosonfirst-data-postalcode-nl",
    "wof:superseded_by":[],
    "wof:supersedes":[],
    "wof:tags":[]
},
  "bbox": [
    6.489742279052734,
    53.30392074584961,
    6.490358352661133,
    53.30403518676758
],
  "geometry": {"coordinates":[[[6.49002742767334,53.30393600463867],[6.48974227905273,53.30392074584961],[6.49004507064819,53.30403518676758],[6.49035835266113,53.30397033691406],[6.49002742767334,53.30393600463867]]],"type":"Polygon"}
}