{
  "id": 907066837,
  "type": "Feature",
  "properties": {
    "clustr:alpha":0.05,
    "clustr:area":61.17,
    "clustr:count":13,
    "clustr:density":0.21,
    "clustr:perimeter":0.24,
    "edtf:cessation":"uuuu",
    "edtf:inception":"uuuu",
    "geom:area":0.0,
    "geom:bbox":"5.82272148132,53.1860122681,5.82345056534,53.1870994568",
    "geom:latitude":53.186449,
    "geom:longitude":5.823131,
    "iso:country":"NL",
    "mz:hierarchy_label":1,
    "mz:is_approximate":1,
    "mz:is_clustr":1,
    "src:geom":"oa",
    "wof:belongsto":[
        85687055,
        102191581,
        404473775,
        85633337,
        101751907
    ],
    "wof:breaches":[],
    "wof:country":"NL",
    "wof:created":1469697512,
    "wof:geomhash":"ffb764fc080d72f36f0d7e3888b5f0ef",
    "wof:hierarchy":[
        {
            "continent_id":102191581,
            "country_id":85633337,
            "localadmin_id":404473775,
            "locality_id":101751907,
            "postalcode_id":907066837,
            "region_id":85687055
        }
    ],
    "wof:id":907066837,
    "wof:lastmodified":1469697512,
    "wof:name":"8935JL",
    "wof:parent_id":101751907,
    "wof:placetype":"postalcode",
    "wof:repo":"whosonfirst-data-postalcode-nl",
    "wof:superseded_by":[],
    "wof:supersedes":[],
    "wof:tags":[]
},
  "bbox": [
    5.822721481323242,
    53.186012268066406,
    5.823450565338135,
    53.18709945678711
],
  "geometry": {"coordinates":[[[5.82272148132324,53.18601226806641],[5.82293605804443,53.1865348815918],[5.82345056533813,53.18709945678711],[5.82344818115234,53.18689346313477],[5.82324600219727,53.18609237670898],[5.82272148132324,53.18601226806641]]],"type":"Polygon"}
}