{
  "id": 891044445,
  "type": "Feature",
  "properties": {
    "clustr:alpha":0.05,
    "clustr:area":251.6,
    "clustr:count":11,
    "clustr:density":0.04,
    "clustr:perimeter":0.24,
    "edtf:cessation":"uuuu",
    "edtf:inception":"uuuu",
    "geom:area":0.0,
    "geom:bbox":"5.67792034149,51.602016449,5.68050432205,51.6024742126",
    "geom:latitude":51.602228,
    "geom:longitude":5.679023,
    "iso:country":"NL",
    "mz:hierarchy_label":1,
    "mz:is_approximate":1,
    "mz:is_clustr":1,
    "src:geom":"oa",
    "wof:belongsto":[
        85687035,
        102191581,
        404474357,
        85633337,
        101808169
    ],
    "wof:breaches":[],
    "wof:country":"NL",
    "wof:created":1469685173,
    "wof:geomhash":"6b1ea5a33fbf64e01f4eb950d4aaf848",
    "wof:hierarchy":[
        {
            "continent_id":102191581,
            "country_id":85633337,
            "localadmin_id":404474357,
            "locality_id":101808169,
            "postalcode_id":891044445,
            "region_id":85687035
        }
    ],
    "wof:id":891044445,
    "wof:lastmodified":1469685173,
    "wof:name":"5427AG",
    "wof:parent_id":101808169,
    "wof:placetype":"postalcode",
    "wof:repo":"whosonfirst-data-postalcode-nl",
    "wof:superseded_by":[],
    "wof:supersedes":[],
    "wof:tags":[]
},
  "bbox": [
    5.677920341491699,
    51.60201644897461,
    5.680504322052002,
    51.602474212646484
],
  "geometry": {"coordinates":[[[5.67848348617554,51.60219192504883],[5.6779203414917,51.60247421264648],[5.67821407318115,51.60243225097656],[5.67843580245972,51.60239791870117],[5.67878818511963,51.60233688354492],[5.68008279800415,51.60211563110352],[5.680504322052,51.60201644897461],[5.67848348617554,51.60219192504883]]],"type":"Polygon"}
}