{
  "id": 907085821,
  "type": "Feature",
  "properties": {
    "clustr:alpha":0.05,
    "clustr:area":17.16,
    "clustr:count":11,
    "clustr:density":0.64,
    "clustr:perimeter":0.39,
    "edtf:cessation":"uuuu",
    "edtf:inception":"uuuu",
    "geom:area":0.0,
    "geom:bbox":"6.25274038315,53.1185035706,6.25318241119,53.1203346252",
    "geom:latitude":53.119356,
    "geom:longitude":6.252975,
    "iso:country":"NL",
    "mz:hierarchy_label":1,
    "mz:is_approximate":1,
    "mz:is_clustr":1,
    "src:geom":"oa",
    "wof:belongsto":[
        85687059,
        102191581,
        404473727,
        85633337,
        101806211
    ],
    "wof:breaches":[],
    "wof:country":"NL",
    "wof:created":1469698556,
    "wof:geomhash":"51f53c6c93745b024b97515fc043db97",
    "wof:hierarchy":[
        {
            "continent_id":102191581,
            "country_id":85633337,
            "localadmin_id":404473727,
            "locality_id":101806211,
            "postalcode_id":907085821,
            "region_id":85687059
        }
    ],
    "wof:id":907085821,
    "wof:lastmodified":1469698556,
    "wof:name":"9367PT",
    "wof:parent_id":101806211,
    "wof:placetype":"postalcode",
    "wof:repo":"whosonfirst-data-postalcode-nl",
    "wof:superseded_by":[],
    "wof:supersedes":[],
    "wof:tags":[]
},
  "bbox": [
    6.252740383148193,
    53.11850357055664,
    6.253182411193848,
    53.12033462524414
],
  "geometry": {"coordinates":[[[6.25315761566162,53.12008285522461],[6.25318241119385,53.11981201171875],[6.2529468536377,53.11850357055664],[6.25274038314819,53.1186408996582],[6.25279331207275,53.11903381347656],[6.25304317474365,53.12033462524414],[6.25315761566162,53.12008285522461]]],"type":"Polygon"}
}