{
  "id": 890973097,
  "type": "Feature",
  "properties": {
    "clustr:alpha":0.05,
    "clustr:area":7.61,
    "clustr:count":24,
    "clustr:density":3.15,
    "clustr:perimeter":0.19,
    "edtf:cessation":"uuuu",
    "edtf:inception":"uuuu",
    "geom:area":0.0,
    "geom:bbox":"4.36673879623,51.6320877075,4.36750602722,51.6327972412",
    "geom:latitude":51.632409,
    "geom:longitude":4.367139,
    "iso:country":"NL",
    "mz:hierarchy_label":1,
    "mz:is_approximate":1,
    "mz:is_clustr":1,
    "src:geom":"oa",
    "wof:belongsto":[
        85687035,
        102191581,
        404474431,
        85633337,
        101808217
    ],
    "wof:breaches":[],
    "wof:country":"NL",
    "wof:created":1469682319,
    "wof:geomhash":"6d7313c1238af32f385d68b7f1a49e5b",
    "wof:hierarchy":[
        {
            "continent_id":102191581,
            "country_id":85633337,
            "localadmin_id":404474431,
            "locality_id":101808217,
            "postalcode_id":890973097,
            "region_id":85687035
        }
    ],
    "wof:id":890973097,
    "wof:lastmodified":1469682319,
    "wof:name":"4671BB",
    "wof:parent_id":101808217,
    "wof:placetype":"postalcode",
    "wof:repo":"whosonfirst-data-postalcode-nl",
    "wof:superseded_by":[],
    "wof:supersedes":[],
    "wof:tags":[]
},
  "bbox": [
    4.366738796234131,
    51.63208770751953,
    4.36750602722168,
    51.63279724121094
],
  "geometry": {"coordinates":[[[4.3671989440918,51.63218688964844],[4.36712884902954,51.63208770751953],[4.36673879623413,51.6320915222168],[4.36676645278931,51.63213729858398],[4.36717176437378,51.63274383544922],[4.3672137260437,51.63279724121094],[4.36750602722168,51.63265609741211],[4.3671989440918,51.63218688964844]]],"type":"Polygon"}
}