{
  "id": 890945443,
  "type": "Feature",
  "properties": {
    "clustr:alpha":0.05,
    "clustr:area":5.86,
    "clustr:count":13,
    "clustr:density":2.22,
    "clustr:perimeter":0.21,
    "edtf:cessation":"uuuu",
    "edtf:inception":"uuuu",
    "geom:area":0.0,
    "geom:bbox":"3.9204146862,51.6525764465,3.92069101334,51.6537590027",
    "geom:latitude":51.653136,
    "geom:longitude":3.920524,
    "iso:country":"NL",
    "mz:hierarchy_label":1,
    "mz:is_approximate":1,
    "mz:is_clustr":1,
    "src:geom":"oa",
    "wof:belongsto":[
        85687037,
        102191581,
        404474591,
        85633337,
        101808413
    ],
    "wof:breaches":[],
    "wof:country":"NL",
    "wof:created":1469681030,
    "wof:geomhash":"e16f4bcc24809fe1edb2cc08fcb2fdde",
    "wof:hierarchy":[
        {
            "continent_id":102191581,
            "country_id":85633337,
            "localadmin_id":404474591,
            "locality_id":101808413,
            "postalcode_id":890945443,
            "region_id":85687037
        }
    ],
    "wof:id":890945443,
    "wof:lastmodified":1469681030,
    "wof:name":"4301HK",
    "wof:parent_id":101808413,
    "wof:placetype":"postalcode",
    "wof:repo":"whosonfirst-data-postalcode-nl",
    "wof:superseded_by":[],
    "wof:supersedes":[],
    "wof:tags":[]
},
  "bbox": [
    3.920414686203003,
    51.6525764465332,
    3.920691013336182,
    51.65375900268555
],
  "geometry": {"coordinates":[[[3.92049741744995,51.65319061279297],[3.92051649093628,51.65327835083008],[3.92054414749146,51.65335464477539],[3.92069101333618,51.65375900268555],[3.92042136192322,51.6525764465332],[3.920414686203,51.65272521972656],[3.92049741744995,51.65319061279297]]],"type":"Polygon"}
}