{
  "id": 890725539,
  "type": "Feature",
  "properties": {
    "clustr:alpha":0.05,
    "clustr:area":20.2,
    "clustr:count":6,
    "clustr:density":0.3,
    "clustr:perimeter":0.06,
    "edtf:cessation":"uuuu",
    "edtf:inception":"uuuu",
    "geom:area":0.0,
    "geom:bbox":"4.44364786148,52.1299171448,4.44404888153,52.1301193237",
    "geom:latitude":52.130021,
    "geom:longitude":4.44384,
    "iso:country":"NL",
    "mz:hierarchy_label":1,
    "mz:is_approximate":1,
    "mz:is_clustr":1,
    "src:geom":"oa",
    "wof:belongsto":[
        85687041,
        102191581,
        404474277,
        85633337,
        101754713
    ],
    "wof:breaches":[],
    "wof:country":"NL",
    "wof:created":1469672367,
    "wof:geomhash":"c59d4e6d7dd22a7db5f68890eddd9902",
    "wof:hierarchy":[
        {
            "continent_id":102191581,
            "country_id":85633337,
            "localadmin_id":404474277,
            "locality_id":101754713,
            "postalcode_id":890725539,
            "region_id":85687041
        }
    ],
    "wof:id":890725539,
    "wof:lastmodified":1469672367,
    "wof:name":"2252KD",
    "wof:parent_id":101754713,
    "wof:placetype":"postalcode",
    "wof:repo":"whosonfirst-data-postalcode-nl",
    "wof:superseded_by":[],
    "wof:supersedes":[],
    "wof:tags":[]
},
  "bbox": [
    4.443647861480713,
    52.12991714477539,
    4.444048881530762,
    52.13011932373047
],
  "geometry": {"coordinates":[[[4.4438066482544,52.13003540039062],[4.44364786148071,52.13011932373047],[4.44389057159424,52.12999725341797],[4.44404888153076,52.12991714477539],[4.44397020339966,52.12995529174805],[4.4438066482544,52.13003540039062]]],"type":"Polygon"}
}