{
  "id": 890745223,
  "type": "Feature",
  "properties": {
    "clustr:alpha":0.05,
    "clustr:area":869.79,
    "clustr:count":8,
    "clustr:density":0.01,
    "clustr:perimeter":1.79,
    "edtf:cessation":"uuuu",
    "edtf:inception":"uuuu",
    "geom:area":0.000006,
    "geom:bbox":"4.67570352554,52.1523323059,4.69192886353,52.1545829773",
    "geom:latitude":52.153325,
    "geom:longitude":4.683968,
    "iso:country":"NL",
    "mz:hierarchy_label":1,
    "mz:is_approximate":1,
    "mz:is_clustr":1,
    "src:geom":"oa",
    "wof:belongsto":[
        85687041,
        102191581,
        404474147,
        85633337,
        101751837
    ],
    "wof:breaches":[],
    "wof:country":"NL",
    "wof:created":1469673147,
    "wof:geomhash":"243cbdf61cd0648bebfdc3f905324940",
    "wof:hierarchy":[
        {
            "continent_id":102191581,
            "country_id":85633337,
            "localadmin_id":404474147,
            "locality_id":101751837,
            "postalcode_id":890745223,
            "region_id":85687041
        }
    ],
    "wof:id":890745223,
    "wof:lastmodified":1469673147,
    "wof:name":"2402NJ",
    "wof:parent_id":101751837,
    "wof:placetype":"postalcode",
    "wof:repo":"whosonfirst-data-postalcode-nl",
    "wof:superseded_by":[],
    "wof:supersedes":[],
    "wof:tags":[]
},
  "bbox": [
    4.675703525543213,
    52.1523323059082,
    4.691928863525391,
    52.15458297729492
],
  "geometry": {"coordinates":[[[4.67570352554321,52.1543083190918],[4.67581272125244,52.15458297729492],[4.67839813232422,52.15420913696289],[4.69192886352539,52.15252304077148],[4.68971967697144,52.1523323059082],[4.68275928497315,52.15325546264648],[4.67570352554321,52.1543083190918]]],"type":"Polygon"}
}