{
  "id": 907031135,
  "type": "Feature",
  "properties": {
    "clustr:alpha":0.05,
    "clustr:area":3.5,
    "clustr:count":14,
    "clustr:density":4.0,
    "clustr:perimeter":0.16,
    "edtf:cessation":"uuuu",
    "edtf:inception":"uuuu",
    "geom:area":0.0,
    "geom:bbox":"5.44431495667,52.5183448792,5.44466018677,52.5190200806",
    "geom:latitude":52.518691,
    "geom:longitude":5.444478,
    "iso:country":"NL",
    "mz:hierarchy_label":1,
    "mz:is_approximate":1,
    "mz:is_clustr":1,
    "src:geom":"oa",
    "wof:belongsto":[
        85687049,
        102191581,
        404474539,
        85633337,
        101751873
    ],
    "wof:breaches":[],
    "wof:country":"NL",
    "wof:created":1469695862,
    "wof:geomhash":"42d97aa9b6eef59c63765064f36a251b",
    "wof:hierarchy":[
        {
            "continent_id":102191581,
            "country_id":85633337,
            "localadmin_id":404474539,
            "locality_id":101751873,
            "postalcode_id":907031135,
            "region_id":85687049
        }
    ],
    "wof:id":907031135,
    "wof:lastmodified":1469695862,
    "wof:name":"8242GK",
    "wof:parent_id":101751873,
    "wof:placetype":"postalcode",
    "wof:repo":"whosonfirst-data-postalcode-nl",
    "wof:superseded_by":[],
    "wof:supersedes":[],
    "wof:tags":[]
},
  "bbox": [
    5.444314956665039,
    52.51834487915039,
    5.444660186767578,
    52.519020080566406
],
  "geometry": {"coordinates":[[[5.44431495666504,52.51847839355469],[5.44437551498413,52.51872253417969],[5.44441556930542,52.51888275146484],[5.44442749023438,52.51892471313477],[5.44448709487915,52.51901245117188],[5.44466018676758,52.51902008056641],[5.44449377059937,52.51834487915039],[5.44433355331421,52.51838302612305],[5.44431495666504,52.51847839355469]]],"type":"Polygon"}
}