{
  "id": 891058467,
  "type": "Feature",
  "properties": {
    "clustr:alpha":0.05,
    "clustr:area":26.21,
    "clustr:count":19,
    "clustr:density":0.73,
    "clustr:perimeter":0.92,
    "edtf:cessation":"uuuu",
    "edtf:inception":"uuuu",
    "geom:area":0.000002,
    "geom:bbox":"5.43636751175,51.3885993958,5.44290065765,51.3896522522",
    "geom:latitude":51.389033,
    "geom:longitude":5.439114,
    "iso:country":"NL",
    "mz:hierarchy_label":1,
    "mz:is_approximate":1,
    "mz:is_clustr":1,
    "src:geom":"oa",
    "wof:belongsto":[
        85687035,
        102191581,
        404474449,
        85633337,
        101809751
    ],
    "wof:breaches":[],
    "wof:country":"NL",
    "wof:created":1469685677,
    "wof:geomhash":"0794c174051ab248189df29140f11009",
    "wof:hierarchy":[
        {
            "continent_id":102191581,
            "country_id":85633337,
            "localadmin_id":404474449,
            "locality_id":101809751,
            "postalcode_id":891058467,
            "region_id":85687035
        }
    ],
    "wof:id":891058467,
    "wof:lastmodified":1469685677,
    "wof:name":"5581AH",
    "wof:parent_id":101809751,
    "wof:placetype":"postalcode",
    "wof:repo":"whosonfirst-data-postalcode-nl",
    "wof:superseded_by":[],
    "wof:supersedes":[],
    "wof:tags":[]
},
  "bbox": [
    5.436367511749268,
    51.38859939575195,
    5.442900657653809,
    51.389652252197266
],
  "geometry": {"coordinates":[[[5.4383225440979,51.38863754272461],[5.43810701370239,51.38859939575195],[5.43659400939941,51.38882064819336],[5.43636751174927,51.38886260986328],[5.4426155090332,51.38961410522461],[5.44290065765381,51.38965225219727],[5.4383225440979,51.38863754272461]]],"type":"Polygon"}
}