{
  "id": 891251695,
  "type": "Feature",
  "properties": {
    "clustr:alpha":0.05,
    "clustr:area":6.28,
    "clustr:count":20,
    "clustr:density":3.19,
    "clustr:perimeter":0.15,
    "edtf:cessation":"uuuu",
    "edtf:inception":"uuuu",
    "geom:area":0.0,
    "geom:bbox":"6.63213300705,52.3573150635,6.6326622963,52.3581848145",
    "geom:latitude":52.357699,
    "geom:longitude":6.632402,
    "iso:country":"NL",
    "mz:hierarchy_label":1,
    "mz:is_approximate":1,
    "mz:is_clustr":1,
    "src:geom":"oa",
    "wof:belongsto":[
        85687045,
        102191581,
        404473819,
        85633337,
        101751863
    ],
    "wof:breaches":[],
    "wof:country":"NL",
    "wof:created":1469693472,
    "wof:geomhash":"8dfc12f97ceb77b507c3324cd3efe7bc",
    "wof:hierarchy":[
        {
            "continent_id":102191581,
            "country_id":85633337,
            "localadmin_id":404473819,
            "locality_id":101751863,
            "postalcode_id":891251695,
            "region_id":85687045
        }
    ],
    "wof:id":891251695,
    "wof:lastmodified":1469693472,
    "wof:name":"7604HL",
    "wof:parent_id":101751863,
    "wof:placetype":"postalcode",
    "wof:repo":"whosonfirst-data-postalcode-nl",
    "wof:superseded_by":[],
    "wof:supersedes":[],
    "wof:tags":[]
},
  "bbox": [
    6.632133007049561,
    52.35731506347656,
    6.632662296295166,
    52.358184814453125
],
  "geometry": {"coordinates":[[[6.6326093673706,52.35734176635742],[6.63252067565918,52.35732269287109],[6.63241815567017,52.35731506347656],[6.63213920593262,52.35731887817383],[6.63213300704956,52.35761642456055],[6.63214111328125,52.35791015625],[6.63261842727661,52.35818481445312],[6.63266229629517,52.3581657409668],[6.6326093673706,52.35734176635742]]],"type":"Polygon"}
}