{
  "id": 891083029,
  "type": "Feature",
  "properties": {
    "clustr:alpha":0.05,
    "clustr:area":567.58,
    "clustr:count":5,
    "clustr:density":0.01,
    "clustr:perimeter":0.49,
    "edtf:cessation":"uuuu",
    "edtf:inception":"uuuu",
    "geom:area":0.000001,
    "geom:bbox":"5.55719852448,51.5463600159,5.56212520599,51.5494308472",
    "geom:latitude":51.548159,
    "geom:longitude":5.560337,
    "iso:country":"NL",
    "mz:hierarchy_label":1,
    "mz:is_approximate":1,
    "mz:is_clustr":1,
    "src:geom":"oa",
    "wof:belongsto":[
        102191581,
        404474569,
        85633337,
        85687035
    ],
    "wof:breaches":[],
    "wof:country":"NL",
    "wof:created":1469686606,
    "wof:geomhash":"b2fef392bfa398898fe95e27f4268c56",
    "wof:hierarchy":[
        {
            "continent_id":102191581,
            "country_id":85633337,
            "localadmin_id":404474569,
            "postalcode_id":891083029,
            "region_id":85687035
        }
    ],
    "wof:id":891083029,
    "wof:lastmodified":1469686606,
    "wof:name":"5738RM",
    "wof:parent_id":404474569,
    "wof:placetype":"postalcode",
    "wof:repo":"whosonfirst-data-postalcode-nl",
    "wof:superseded_by":[],
    "wof:supersedes":[],
    "wof:tags":[]
},
  "bbox": [
    5.557198524475098,
    51.54636001586914,
    5.562125205993652,
    51.54943084716797
],
  "geometry": {"coordinates":[[[5.56212520599365,51.54943084716797],[5.56185007095337,51.5488166809082],[5.56030416488647,51.54795455932617],[5.5571985244751,51.54636001586914],[5.56212520599365,51.54943084716797]]],"type":"Polygon"}
}