{
  "id": 907055363,
  "type": "Feature",
  "properties": {
    "clustr:alpha":0.05,
    "clustr:area":80.64,
    "clustr:count":43,
    "clustr:density":0.53,
    "clustr:perimeter":0.53,
    "edtf:cessation":"uuuu",
    "edtf:inception":"uuuu",
    "geom:area":0.000003,
    "geom:bbox":"5.6666264534,53.0225791931,5.66953277588,53.0246353149",
    "geom:latitude":53.023505,
    "geom:longitude":5.667893,
    "iso:country":"NL",
    "mz:hierarchy_label":1,
    "mz:is_approximate":1,
    "mz:is_clustr":1,
    "src:geom":"oa",
    "wof:belongsto":[
        85687055,
        102191581,
        404473793,
        85633337,
        101837971
    ],
    "wof:breaches":[],
    "wof:country":"NL",
    "wof:created":1469697043,
    "wof:geomhash":"46c46302c9d4f43e6803c0e9e3e0daf0",
    "wof:hierarchy":[
        {
            "continent_id":102191581,
            "country_id":85633337,
            "localadmin_id":404473793,
            "locality_id":101837971,
            "postalcode_id":907055363,
            "region_id":85687055
        }
    ],
    "wof:id":907055363,
    "wof:lastmodified":1469697043,
    "wof:name":"8607AC",
    "wof:parent_id":101837971,
    "wof:placetype":"postalcode",
    "wof:repo":"whosonfirst-data-postalcode-nl",
    "wof:superseded_by":[],
    "wof:supersedes":[],
    "wof:tags":[]
},
  "bbox": [
    5.666626453399658,
    53.022579193115234,
    5.669532775878906,
    53.024635314941406
],
  "geometry": {"coordinates":[[[5.66718912124634,53.02315902709961],[5.66662645339966,53.02423477172852],[5.66665649414062,53.02441787719727],[5.66698551177979,53.02453994750977],[5.66727685928345,53.02463531494141],[5.66753911972046,53.02458190917969],[5.66943740844727,53.02277374267578],[5.66953277587891,53.02257919311523],[5.6679744720459,53.02264022827148],[5.66740798950195,53.02301025390625],[5.66718912124634,53.02315902709961]]],"type":"Polygon"}
}