{
  "id": 891286909,
  "type": "Feature",
  "properties": {
    "clustr:alpha":0.05,
    "clustr:area":4.69,
    "clustr:count":42,
    "clustr:density":8.95,
    "clustr:perimeter":0.41,
    "edtf:cessation":"uuuu",
    "edtf:inception":"uuuu",
    "geom:area":0.000001,
    "geom:bbox":"6.09980583191,52.5330238342,6.10062503815,52.5347366333",
    "geom:latitude":52.534041,
    "geom:longitude":6.100257,
    "iso:country":"NL",
    "mz:hierarchy_label":1,
    "mz:is_approximate":1,
    "mz:is_clustr":1,
    "src:geom":"oa",
    "wof:belongsto":[
        85687045,
        102191581,
        404473861,
        85633337,
        101751861
    ],
    "wof:breaches":[],
    "wof:country":"NL",
    "wof:created":1469695029,
    "wof:geomhash":"3b21320705c325a14ca751137217c137",
    "wof:hierarchy":[
        {
            "continent_id":102191581,
            "country_id":85633337,
            "localadmin_id":404473861,
            "locality_id":101751861,
            "postalcode_id":891286909,
            "region_id":85687045
        }
    ],
    "wof:id":891286909,
    "wof:lastmodified":1469695029,
    "wof:name":"8032TZ",
    "wof:parent_id":101751861,
    "wof:placetype":"postalcode",
    "wof:repo":"whosonfirst-data-postalcode-nl",
    "wof:superseded_by":[],
    "wof:supersedes":[],
    "wof:tags":[]
},
  "bbox": [
    6.09980583190918,
    52.533023834228516,
    6.100625038146973,
    52.53473663330078
],
  "geometry": {"coordinates":[[[6.09988307952881,52.53473663330078],[6.10061120986938,52.53432846069336],[6.10062503814697,52.5342903137207],[6.10035037994385,52.53302383422852],[6.09980583190918,52.53472900390625],[6.09984350204468,52.53473281860352],[6.09988307952881,52.53473663330078]]],"type":"Polygon"}
}