{
  "id": 890856179,
  "type": "Feature",
  "properties": {
    "clustr:alpha":0.05,
    "clustr:area":8.81,
    "clustr:count":51,
    "clustr:density":5.79,
    "clustr:perimeter":0.58,
    "edtf:cessation":"uuuu",
    "edtf:inception":"uuuu",
    "geom:area":0.000001,
    "geom:bbox":"4.64722156525,51.8161048889,4.64903306961,51.8184928894",
    "geom:latitude":51.817175,
    "geom:longitude":4.64797,
    "iso:country":"NL",
    "mz:hierarchy_label":1,
    "mz:is_approximate":1,
    "mz:is_clustr":1,
    "src:geom":"oa",
    "wof:belongsto":[
        85687041,
        102191581,
        404474291,
        85633337,
        101754703
    ],
    "wof:breaches":[],
    "wof:country":"NL",
    "wof:created":1469677346,
    "wof:geomhash":"e9700558a9a91f1c1af18c6a75def4fc",
    "wof:hierarchy":[
        {
            "continent_id":102191581,
            "country_id":85633337,
            "localadmin_id":404474291,
            "locality_id":101754703,
            "postalcode_id":890856179,
            "region_id":85687041
        }
    ],
    "wof:id":890856179,
    "wof:lastmodified":1469677346,
    "wof:name":"3331AC",
    "wof:parent_id":101754703,
    "wof:placetype":"postalcode",
    "wof:repo":"whosonfirst-data-postalcode-nl",
    "wof:superseded_by":[],
    "wof:supersedes":[],
    "wof:tags":[]
},
  "bbox": [
    4.647221565246582,
    51.816104888916016,
    4.649033069610596,
    51.8184928894043
],
  "geometry": {"coordinates":[[[4.64866828918457,51.81789398193359],[4.64762592315674,51.81636810302734],[4.64756870269775,51.81628799438477],[4.64732933044434,51.81610488891602],[4.64722156524658,51.81659317016602],[4.64725828170776,51.81664657592773],[4.64731454849243,51.81672668457031],[4.64733219146729,51.81674957275391],[4.64883661270142,51.81839752197266],[4.6490330696106,51.8184928894043],[4.64901256561279,51.81842422485352],[4.64875078201294,51.81801605224609],[4.64866828918457,51.81789398193359]]],"type":"Polygon"}
}