{
  "id": 890638549,
  "type": "Feature",
  "properties": {
    "clustr:alpha":0.05,
    "clustr:area":25.44,
    "clustr:count":20,
    "clustr:density":0.79,
    "clustr:perimeter":0.32,
    "edtf:cessation":"uuuu",
    "edtf:inception":"uuuu",
    "geom:area":0.000001,
    "geom:bbox":"5.08155441284,52.2515602112,5.08274793625,52.2529067993",
    "geom:latitude":52.252356,
    "geom:longitude":5.082084,
    "iso:country":"NL",
    "mz:hierarchy_label":1,
    "mz:is_approximate":1,
    "mz:is_clustr":1,
    "src:geom":"oa",
    "wof:belongsto":[
        102191581,
        404474605,
        85633337,
        85687053
    ],
    "wof:breaches":[],
    "wof:country":"NL",
    "wof:created":1469668455,
    "wof:geomhash":"7552d19a6c6a58169f796b3085635092",
    "wof:hierarchy":[
        {
            "continent_id":102191581,
            "country_id":85633337,
            "localadmin_id":404474605,
            "postalcode_id":890638549,
            "region_id":85687053
        }
    ],
    "wof:id":890638549,
    "wof:lastmodified":1469668455,
    "wof:name":"1394PC",
    "wof:parent_id":404474605,
    "wof:placetype":"postalcode",
    "wof:repo":"whosonfirst-data-postalcode-nl",
    "wof:superseded_by":[],
    "wof:supersedes":[],
    "wof:tags":[]
},
  "bbox": [
    5.081554412841797,
    52.25156021118164,
    5.082747936248779,
    52.252906799316406
],
  "geometry": {"coordinates":[[[5.08173608779907,52.25202560424805],[5.0815544128418,52.25290679931641],[5.0825662612915,52.25271987915039],[5.08274793624878,52.25246810913086],[5.08190059661865,52.25156021118164],[5.08173608779907,52.25202560424805]]],"type":"Polygon"}
}