{
  "id": 890772769,
  "type": "Feature",
  "properties": {
    "clustr:alpha":0.05,
    "clustr:area":45.06,
    "clustr:count":23,
    "clustr:density":0.51,
    "clustr:perimeter":0.08,
    "edtf:cessation":"uuuu",
    "edtf:inception":"uuuu",
    "geom:area":0.0,
    "geom:bbox":"4.34335899353,52.0830230713,4.34403753281,52.0833091736",
    "geom:latitude":52.08317,
    "geom:longitude":4.343707,
    "iso:country":"NL",
    "mz:hierarchy_label":1,
    "mz:is_approximate":1,
    "mz:is_clustr":1,
    "src:geom":"oa",
    "wof:belongsto":[
        85687041,
        102191581,
        404474179,
        85633337,
        101752763
    ],
    "wof:breaches":[],
    "wof:country":"NL",
    "wof:created":1469674216,
    "wof:geomhash":"48e7cf0a4800377b38c3be1f00968d0e",
    "wof:hierarchy":[
        {
            "continent_id":102191581,
            "country_id":85633337,
            "localadmin_id":404474179,
            "locality_id":101752763,
            "postalcode_id":890772769,
            "region_id":85687041
        }
    ],
    "wof:id":890772769,
    "wof:lastmodified":1469674216,
    "wof:name":"2593XG",
    "wof:parent_id":101752763,
    "wof:placetype":"postalcode",
    "wof:repo":"whosonfirst-data-postalcode-nl",
    "wof:superseded_by":[],
    "wof:supersedes":[],
    "wof:tags":[]
},
  "bbox": [
    4.343358993530273,
    52.08302307128906,
    4.344037532806396,
    52.083309173583984
],
  "geometry": {"coordinates":[[[4.34393548965454,52.08326721191406],[4.3440375328064,52.08330917358398],[4.34384298324585,52.08322525024414],[4.34335899353027,52.08302307128906],[4.3435525894165,52.08310699462891],[4.34393548965454,52.08326721191406]]],"type":"Polygon"}
}