{
  "id": 891107525,
  "type": "Feature",
  "properties": {
    "clustr:alpha":0.05,
    "clustr:area":42.78,
    "clustr:count":38,
    "clustr:density":0.89,
    "clustr:perimeter":0.6,
    "edtf:cessation":"uuuu",
    "edtf:inception":"uuuu",
    "geom:area":0.000003,
    "geom:bbox":"6.03713226318,51.1184501648,6.0385222435,51.1216583252",
    "geom:latitude":51.120209,
    "geom:longitude":6.037795,
    "iso:country":"NL",
    "mz:hierarchy_label":1,
    "mz:is_approximate":1,
    "mz:is_clustr":1,
    "src:geom":"oa",
    "wof:belongsto":[
        85687033,
        102191581,
        404474581,
        85633337,
        101809605
    ],
    "wof:breaches":[],
    "wof:country":"NL",
    "wof:created":1469687567,
    "wof:geomhash":"35fb94c35527d77c8afbcab475e0f65a",
    "wof:hierarchy":[
        {
            "continent_id":102191581,
            "country_id":85633337,
            "localadmin_id":404474581,
            "locality_id":101809605,
            "postalcode_id":891107525,
            "region_id":85687033
        }
    ],
    "wof:id":891107525,
    "wof:lastmodified":1469687567,
    "wof:name":"6061CC",
    "wof:parent_id":101809605,
    "wof:placetype":"postalcode",
    "wof:repo":"whosonfirst-data-postalcode-nl",
    "wof:superseded_by":[],
    "wof:supersedes":[],
    "wof:tags":[]
},
  "bbox": [
    6.037132263183594,
    51.11845016479492,
    6.038522243499756,
    51.12165832519531
],
  "geometry": {"coordinates":[[[6.03852224349976,51.11952590942383],[6.03749418258667,51.11845016479492],[6.03733158111572,51.11852645874023],[6.03713226318359,51.12165832519531],[6.03840160369873,51.12141036987305],[6.03852224349976,51.11952590942383]]],"type":"Polygon"}
}