{
  "id": 890798739,
  "type": "Feature",
  "properties": {
    "clustr:alpha":0.05,
    "clustr:area":10.37,
    "clustr:count":20,
    "clustr:density":1.93,
    "clustr:perimeter":0.25,
    "edtf:cessation":"uuuu",
    "edtf:inception":"uuuu",
    "geom:area":0.0,
    "geom:bbox":"4.73054838181,52.0487480164,4.73225879669,52.0491714478",
    "geom:latitude":52.048992,
    "geom:longitude":4.731326,
    "iso:country":"NL",
    "mz:hierarchy_label":1,
    "mz:is_approximate":1,
    "mz:is_clustr":1,
    "src:geom":"oa",
    "wof:belongsto":[
        85687041,
        102191581,
        404474241,
        85633337,
        101754735
    ],
    "wof:breaches":[],
    "wof:country":"NL",
    "wof:created":1469675177,
    "wof:geomhash":"841bb554bfdc712ae806018f00d91004",
    "wof:hierarchy":[
        {
            "continent_id":102191581,
            "country_id":85633337,
            "localadmin_id":404474241,
            "locality_id":101754735,
            "postalcode_id":890798739,
            "region_id":85687041
        }
    ],
    "wof:id":890798739,
    "wof:lastmodified":1469675177,
    "wof:name":"2811RD",
    "wof:parent_id":101754735,
    "wof:placetype":"postalcode",
    "wof:repo":"whosonfirst-data-postalcode-nl",
    "wof:superseded_by":[],
    "wof:supersedes":[],
    "wof:tags":[]
},
  "bbox": [
    4.73054838180542,
    52.04874801635742,
    4.732258796691895,
    52.049171447753906
],
  "geometry": {"coordinates":[[[4.73057651519775,52.04913711547852],[4.73066377639771,52.04916381835938],[4.73075103759766,52.04917144775391],[4.73137950897217,52.0490608215332],[4.73148202896118,52.04904174804688],[4.73181819915771,52.0489616394043],[4.7320384979248,52.04885482788086],[4.7322587966919,52.04874801635742],[4.73054838180542,52.04907989501953],[4.73057651519775,52.04913711547852]]],"type":"Polygon"}
}