{
  "id": 890986711,
  "type": "Feature",
  "properties": {
    "clustr:alpha":0.05,
    "clustr:area":183.54,
    "clustr:count":18,
    "clustr:density":0.1,
    "clustr:perimeter":0.63,
    "edtf:cessation":"uuuu",
    "edtf:inception":"uuuu",
    "geom:area":0.000003,
    "geom:bbox":"4.78518772125,51.5772895813,4.78910541534,51.5791778564",
    "geom:latitude":51.578099,
    "geom:longitude":4.787607,
    "iso:country":"NL",
    "mz:hierarchy_label":1,
    "mz:is_approximate":1,
    "mz:is_clustr":1,
    "src:geom":"oa",
    "wof:belongsto":[
        85687035,
        102191581,
        404474363,
        85633337,
        101751811
    ],
    "wof:breaches":[],
    "wof:country":"NL",
    "wof:created":1469682916,
    "wof:geomhash":"53eed0c06705c3940c017450f04aff34",
    "wof:hierarchy":[
        {
            "continent_id":102191581,
            "country_id":85633337,
            "localadmin_id":404474363,
            "locality_id":101751811,
            "postalcode_id":890986711,
            "region_id":85687035
        }
    ],
    "wof:id":890986711,
    "wof:lastmodified":1469682916,
    "wof:name":"4818GL",
    "wof:parent_id":101751811,
    "wof:placetype":"postalcode",
    "wof:repo":"whosonfirst-data-postalcode-nl",
    "wof:superseded_by":[],
    "wof:supersedes":[],
    "wof:tags":[]
},
  "bbox": [
    4.785187721252441,
    51.57728958129883,
    4.789105415344238,
    51.57917785644531
],
  "geometry": {"coordinates":[[[4.78758096694946,51.57764053344727],[4.78601455688477,51.57732391357422],[4.78518772125244,51.57728958129883],[4.78879308700562,51.57917785644531],[4.78910541534424,51.57804107666016],[4.78758096694946,51.57764053344727]]],"type":"Polygon"}
}