{
  "id": 890642067,
  "type": "Feature",
  "properties": {
    "clustr:alpha":0.05,
    "clustr:area":182.86,
    "clustr:count":16,
    "clustr:density":0.09,
    "clustr:perimeter":0.27,
    "edtf:cessation":"uuuu",
    "edtf:inception":"uuuu",
    "geom:area":0.0,
    "geom:bbox":"5.16916036606,52.2825202942,5.17188215256,52.2829399109",
    "geom:latitude":52.282725,
    "geom:longitude":5.170516,
    "iso:country":"NL",
    "mz:hierarchy_label":1,
    "mz:is_approximate":1,
    "mz:is_clustr":1,
    "src:geom":"oa",
    "wof:belongsto":[
        85687053,
        102191581,
        404474051,
        85633337,
        101753097
    ],
    "wof:breaches":[],
    "wof:country":"NL",
    "wof:created":1469668622,
    "wof:geomhash":"1c084d4e386242b17ce997eb167144b5",
    "wof:hierarchy":[
        {
            "continent_id":102191581,
            "country_id":85633337,
            "localadmin_id":404474051,
            "locality_id":101753097,
            "postalcode_id":890642067,
            "region_id":85687053
        }
    ],
    "wof:id":890642067,
    "wof:lastmodified":1469668622,
    "wof:name":"1412JT",
    "wof:parent_id":101753097,
    "wof:placetype":"postalcode",
    "wof:repo":"whosonfirst-data-postalcode-nl",
    "wof:superseded_by":[],
    "wof:supersedes":[],
    "wof:tags":[]
},
  "bbox": [
    5.16916036605835,
    52.28252029418945,
    5.171882152557373,
    52.28293991088867
],
  "geometry": {"coordinates":[[[5.1706919670105,52.28276062011719],[5.17132997512817,52.28286361694336],[5.17188215255737,52.28293991088867],[5.17033386230469,52.28268051147461],[5.16963291168213,52.2825813293457],[5.16952180862427,52.28256607055664],[5.16940450668335,52.28255081176758],[5.16916036605835,52.28252029418945],[5.1706919670105,52.28276062011719]]],"type":"Polygon"}
}