{
  "id": 891287197,
  "type": "Feature",
  "properties": {
    "clustr:alpha":0.05,
    "clustr:area":85.1,
    "clustr:count":28,
    "clustr:density":0.33,
    "clustr:perimeter":0.72,
    "edtf:cessation":"uuuu",
    "edtf:inception":"uuuu",
    "geom:area":0.000005,
    "geom:bbox":"6.12349891663,52.5329437256,6.12658643723,52.5354347229",
    "geom:latitude":52.534388,
    "geom:longitude":6.125163,
    "iso:country":"NL",
    "mz:hierarchy_label":1,
    "mz:is_approximate":1,
    "mz:is_clustr":1,
    "src:geom":"oa",
    "wof:belongsto":[
        85687045,
        102191581,
        404473861,
        85633337,
        101751861
    ],
    "wof:breaches":[],
    "wof:country":"NL",
    "wof:created":1469695040,
    "wof:geomhash":"81b7601659735d2902d2051322d224c8",
    "wof:hierarchy":[
        {
            "continent_id":102191581,
            "country_id":85633337,
            "localadmin_id":404473861,
            "locality_id":101751861,
            "postalcode_id":891287197,
            "region_id":85687045
        }
    ],
    "wof:id":891287197,
    "wof:lastmodified":1469695040,
    "wof:name":"8034PT",
    "wof:parent_id":101751861,
    "wof:placetype":"postalcode",
    "wof:repo":"whosonfirst-data-postalcode-nl",
    "wof:superseded_by":[],
    "wof:supersedes":[],
    "wof:tags":[]
},
  "bbox": [
    6.123498916625977,
    52.53294372558594,
    6.126586437225342,
    52.53543472290039
],
  "geometry": {"coordinates":[[[6.12594318389893,52.53542709350586],[6.12625646591187,52.53543472290039],[6.12650918960571,52.5347785949707],[6.12658643722534,52.53422927856445],[6.12644958496094,52.53400802612305],[6.12509250640869,52.53294372558594],[6.12459373474121,52.53326034545898],[6.12442398071289,52.53342819213867],[6.12349891662598,52.53502655029297],[6.12387561798096,52.53518676757812],[6.12523126602173,52.53537750244141],[6.12594318389893,52.53542709350586]]],"type":"Polygon"}
}