{
  "id": 890744303,
  "type": "Feature",
  "properties": {
    "clustr:alpha":0.05,
    "clustr:area":2.46,
    "clustr:count":9,
    "clustr:density":3.66,
    "clustr:perimeter":0.09,
    "edtf:cessation":"uuuu",
    "edtf:inception":"uuuu",
    "geom:area":0.0,
    "geom:bbox":"4.60281419754,52.1316223145,4.60293865204,52.1320724487",
    "geom:latitude":52.131811,
    "geom:longitude":4.602866,
    "iso:country":"NL",
    "mz:hierarchy_label":1,
    "mz:is_approximate":1,
    "mz:is_clustr":1,
    "src:geom":"oa",
    "wof:belongsto":[
        85687041,
        102191581,
        404474585,
        85633337,
        101754667
    ],
    "wof:breaches":[],
    "wof:country":"NL",
    "wof:created":1469673117,
    "wof:geomhash":"927753f9bacabd6703e7d3792022ad1d",
    "wof:hierarchy":[
        {
            "continent_id":102191581,
            "country_id":85633337,
            "localadmin_id":404474585,
            "locality_id":101754667,
            "postalcode_id":890744303,
            "region_id":85687041
        }
    ],
    "wof:id":890744303,
    "wof:lastmodified":1469673117,
    "wof:name":"2396EG",
    "wof:parent_id":101754667,
    "wof:placetype":"postalcode",
    "wof:repo":"whosonfirst-data-postalcode-nl",
    "wof:superseded_by":[],
    "wof:supersedes":[],
    "wof:tags":[]
},
  "bbox": [
    4.602814197540283,
    52.131622314453125,
    4.602938652038574,
    52.13207244873047
],
  "geometry": {"coordinates":[[[4.60285711288452,52.13178253173828],[4.60289573669434,52.13191986083984],[4.60293865203857,52.13207244873047],[4.60281419754028,52.13162231445312],[4.60282802581787,52.13167572021484],[4.60285711288452,52.13178253173828]]],"type":"Polygon"}
}