{
  "id": 907048981,
  "type": "Feature",
  "properties": {
    "clustr:alpha":0.05,
    "clustr:area":65.96,
    "clustr:count":16,
    "clustr:density":0.24,
    "clustr:perimeter":0.21,
    "edtf:cessation":"uuuu",
    "edtf:inception":"uuuu",
    "geom:area":0.0,
    "geom:bbox":"5.9467124939,52.9969596863,5.94761228561,52.9978675842",
    "geom:latitude":52.997388,
    "geom:longitude":5.947127,
    "iso:country":"NL",
    "mz:hierarchy_label":1,
    "mz:is_approximate":1,
    "mz:is_clustr":1,
    "src:geom":"oa",
    "wof:belongsto":[
        102191581,
        404473771,
        85633337,
        85687055
    ],
    "wof:breaches":[],
    "wof:country":"NL",
    "wof:created":1469696748,
    "wof:geomhash":"dbfb75fc9728803f39d36433f0a917c0",
    "wof:hierarchy":[
        {
            "continent_id":102191581,
            "country_id":85633337,
            "localadmin_id":404473771,
            "postalcode_id":907048981,
            "region_id":85687055
        }
    ],
    "wof:id":907048981,
    "wof:lastmodified":1469696748,
    "wof:name":"8458CB",
    "wof:parent_id":404473771,
    "wof:placetype":"postalcode",
    "wof:repo":"whosonfirst-data-postalcode-nl",
    "wof:superseded_by":[],
    "wof:supersedes":[],
    "wof:tags":[]
},
  "bbox": [
    5.946712493896484,
    52.9969596862793,
    5.947612285614014,
    52.997867584228516
],
  "geometry": {"coordinates":[[[5.94704484939575,52.9969596862793],[5.94671249389648,52.99775314331055],[5.94707107543945,52.99786758422852],[5.94742202758789,52.99735260009766],[5.94761228561401,52.99707412719727],[5.94704484939575,52.9969596862793]]],"type":"Polygon"}
}