{
  "id": 890886973,
  "type": "Feature",
  "properties": {
    "clustr:alpha":0.05,
    "clustr:area":19.6,
    "clustr:count":5,
    "clustr:density":0.26,
    "clustr:perimeter":0.09,
    "edtf:cessation":"uuuu",
    "edtf:inception":"uuuu",
    "geom:area":0.0,
    "geom:bbox":"5.02122116089,52.20860672,5.02190494537,52.2088356018",
    "geom:latitude":52.208748,
    "geom:longitude":5.021539,
    "iso:country":"NL",
    "mz:hierarchy_label":1,
    "mz:is_approximate":1,
    "mz:is_clustr":1,
    "src:geom":"oa",
    "wof:belongsto":[
        85687039,
        102191581,
        404473991,
        85633337,
        101806991
    ],
    "wof:breaches":[],
    "wof:country":"NL",
    "wof:created":1469678560,
    "wof:geomhash":"92e676af72f14311e6916292b62828e7",
    "wof:hierarchy":[
        {
            "continent_id":102191581,
            "country_id":85633337,
            "localadmin_id":404473991,
            "locality_id":101806991,
            "postalcode_id":890886973,
            "region_id":85687039
        }
    ],
    "wof:id":890886973,
    "wof:lastmodified":1469678560,
    "wof:name":"3632AX",
    "wof:parent_id":101806991,
    "wof:placetype":"postalcode",
    "wof:repo":"whosonfirst-data-postalcode-nl",
    "wof:superseded_by":[],
    "wof:supersedes":[],
    "wof:tags":[]
},
  "bbox": [
    5.021221160888672,
    52.2086067199707,
    5.021904945373535,
    52.20883560180664
],
  "geometry": {"coordinates":[[[5.02147531509399,52.20880508422852],[5.02163076400757,52.20873641967773],[5.02190494537354,52.2086067199707],[5.02122116088867,52.20883560180664],[5.02147531509399,52.20880508422852]]],"type":"Polygon"}
}