{
  "id": 891254843,
  "type": "Feature",
  "properties": {
    "clustr:alpha":0.05,
    "clustr:area":94.61,
    "clustr:count":20,
    "clustr:density":0.21,
    "clustr:perimeter":0.53,
    "edtf:cessation":"uuuu",
    "edtf:inception":"uuuu",
    "geom:area":0.000002,
    "geom:bbox":"6.76159906387,52.2969512939,6.76404047012,52.2989311218",
    "geom:latitude":52.297958,
    "geom:longitude":6.762878,
    "iso:country":"NL",
    "mz:hierarchy_label":1,
    "mz:is_approximate":1,
    "mz:is_clustr":1,
    "src:geom":"oa",
    "wof:belongsto":[
        85687045,
        102191581,
        404473821,
        85633337,
        101754771
    ],
    "wof:breaches":[],
    "wof:country":"NL",
    "wof:created":1469693601,
    "wof:geomhash":"7fc3c7a8bd2f14d8a9ed9b4c14c838f6",
    "wof:hierarchy":[
        {
            "continent_id":102191581,
            "country_id":85633337,
            "localadmin_id":404473821,
            "locality_id":101754771,
            "postalcode_id":891254843,
            "region_id":85687045
        }
    ],
    "wof:id":891254843,
    "wof:lastmodified":1469693601,
    "wof:name":"7622DB",
    "wof:parent_id":101754771,
    "wof:placetype":"postalcode",
    "wof:repo":"whosonfirst-data-postalcode-nl",
    "wof:superseded_by":[],
    "wof:supersedes":[],
    "wof:tags":[]
},
  "bbox": [
    6.761599063873291,
    52.29695129394531,
    6.764040470123291,
    52.29893112182617
],
  "geometry": {"coordinates":[[[6.76324510574341,52.29695129394531],[6.76159906387329,52.2987174987793],[6.76179647445679,52.29893112182617],[6.76257133483887,52.29886627197266],[6.76390886306763,52.29755783081055],[6.76404047012329,52.29706954956055],[6.76324510574341,52.29695129394531]]],"type":"Polygon"}
}