{
  "id": 907094683,
  "type": "Feature",
  "properties": {
    "clustr:alpha":0.05,
    "clustr:area":192.45,
    "clustr:count":26,
    "clustr:density":0.14,
    "clustr:perimeter":0.28,
    "edtf:cessation":"uuuu",
    "edtf:inception":"uuuu",
    "geom:area":0.0,
    "geom:bbox":"6.96567201614,52.9824943542,6.96831703186,52.9834403992",
    "geom:latitude":52.98292,
    "geom:longitude":6.966991,
    "iso:country":"NL",
    "mz:hierarchy_label":1,
    "mz:is_approximate":1,
    "mz:is_clustr":1,
    "src:geom":"oa",
    "wof:belongsto":[
        85687059,
        102191581,
        404473731,
        85633337,
        101837895
    ],
    "wof:breaches":[],
    "wof:country":"NL",
    "wof:created":1469699068,
    "wof:geomhash":"578132ccb9c0f115cf0d92abc45dd042",
    "wof:hierarchy":[
        {
            "continent_id":102191581,
            "country_id":85633337,
            "localadmin_id":404473731,
            "locality_id":101837895,
            "postalcode_id":907094683,
            "region_id":85687059
        }
    ],
    "wof:id":907094683,
    "wof:lastmodified":1469699068,
    "wof:name":"9501ZC",
    "wof:parent_id":101837895,
    "wof:placetype":"postalcode",
    "wof:repo":"whosonfirst-data-postalcode-nl",
    "wof:superseded_by":[],
    "wof:supersedes":[],
    "wof:tags":[]
},
  "bbox": [
    6.965672016143799,
    52.98249435424805,
    6.968317031860352,
    52.98344039916992
],
  "geometry": {"coordinates":[[[6.96654748916626,52.9826545715332],[6.9656720161438,52.98249435424805],[6.96617317199707,52.98268508911133],[6.96710681915283,52.9830322265625],[6.96831703186035,52.98344039916992],[6.96825885772705,52.98336791992188],[6.96654748916626,52.9826545715332]]],"type":"Polygon"}
}