{
  "id": 891142235,
  "type": "Feature",
  "properties": {
    "clustr:alpha":0.05,
    "clustr:area":11.98,
    "clustr:count":24,
    "clustr:density":2.0,
    "clustr:perimeter":0.44,
    "edtf:cessation":"uuuu",
    "edtf:inception":"uuuu",
    "geom:area":0.0,
    "geom:bbox":"6.04087495804,50.8660964966,6.0430355072,50.8675193787",
    "geom:latitude":50.866771,
    "geom:longitude":6.042233,
    "iso:country":"NL",
    "mz:hierarchy_label":1,
    "mz:is_approximate":1,
    "mz:is_clustr":1,
    "src:geom":"oa",
    "wof:belongsto":[
        85687033,
        102191581,
        404474489,
        85633337,
        101839255
    ],
    "wof:breaches":[],
    "wof:country":"NL",
    "wof:created":1469689032,
    "wof:geomhash":"e1ddbc91f59cb0d515ed1c036cc0361c",
    "wof:hierarchy":[
        {
            "continent_id":102191581,
            "country_id":85633337,
            "localadmin_id":404474489,
            "locality_id":101839255,
            "postalcode_id":891142235,
            "region_id":85687033
        }
    ],
    "wof:id":891142235,
    "wof:lastmodified":1469689032,
    "wof:name":"6467AK",
    "wof:parent_id":101839255,
    "wof:placetype":"postalcode",
    "wof:repo":"whosonfirst-data-postalcode-nl",
    "wof:superseded_by":[],
    "wof:supersedes":[],
    "wof:tags":[]
},
  "bbox": [
    6.04087495803833,
    50.86609649658203,
    6.043035507202148,
    50.86751937866211
],
  "geometry": {"coordinates":[[[6.04283237457275,50.86659622192383],[6.04287433624268,50.86655426025391],[6.0429859161377,50.86628341674805],[6.04303550720215,50.86609649658203],[6.04087495803833,50.86751937866211],[6.04094171524048,50.86749267578125],[6.04100847244263,50.86746597290039],[6.04118728637695,50.86738967895508],[6.04213714599609,50.86698532104492],[6.04234075546265,50.86689758300781],[6.04244947433472,50.86684799194336],[6.04263544082642,50.86675643920898],[6.04274654388428,50.86667633056641],[6.04283237457275,50.86659622192383]]],"type":"Polygon"}
}