{
  "id": 890945673,
  "type": "Feature",
  "properties": {
    "clustr:alpha":0.05,
    "clustr:area":0.91,
    "clustr:count":22,
    "clustr:density":24.18,
    "clustr:perimeter":0.16,
    "edtf:cessation":"uuuu",
    "edtf:inception":"uuuu",
    "geom:area":0.0,
    "geom:bbox":"3.90547943115,51.6491355896,3.90549039841,51.6498908997",
    "geom:latitude":51.649494,
    "geom:longitude":3.905485,
    "iso:country":"NL",
    "mz:hierarchy_label":1,
    "mz:is_approximate":1,
    "mz:is_clustr":1,
    "src:geom":"oa",
    "wof:belongsto":[
        85687037,
        102191581,
        404474591,
        85633337,
        101808413
    ],
    "wof:breaches":[],
    "wof:country":"NL",
    "wof:created":1469681044,
    "wof:geomhash":"9314cfb126ba623dca4ee7238d972a55",
    "wof:hierarchy":[
        {
            "continent_id":102191581,
            "country_id":85633337,
            "localadmin_id":404474591,
            "locality_id":101808413,
            "postalcode_id":890945673,
            "region_id":85687037
        }
    ],
    "wof:id":890945673,
    "wof:lastmodified":1469681044,
    "wof:name":"4301VX",
    "wof:parent_id":101808413,
    "wof:placetype":"postalcode",
    "wof:repo":"whosonfirst-data-postalcode-nl",
    "wof:superseded_by":[],
    "wof:supersedes":[],
    "wof:tags":[]
},
  "bbox": [
    3.905479431152344,
    51.64913558959961,
    3.905490398406982,
    51.6498908996582
],
  "geometry": {"coordinates":[[[3.90548181533814,51.6493034362793],[3.90548348426819,51.64941787719727],[3.90548539161682,51.64955139160156],[3.90548706054688,51.64966583251953],[3.90548872947693,51.64977645874023],[3.90549039840698,51.6498908996582],[3.90548968315125,51.64983367919922],[3.90548801422119,51.64972305297852],[3.90548634529114,51.64960861206055],[3.90548276901245,51.64936065673828],[3.90548038482666,51.64919281005859],[3.90547943115234,51.64913558959961],[3.90548181533814,51.6493034362793]]],"type":"Polygon"}
}