{
  "id": 891086171,
  "type": "Feature",
  "properties": {
    "clustr:alpha":0.05,
    "clustr:area":2.64,
    "clustr:count":16,
    "clustr:density":6.07,
    "clustr:perimeter":0.23,
    "edtf:cessation":"uuuu",
    "edtf:inception":"uuuu",
    "geom:area":0.0,
    "geom:bbox":"5.97070455551,51.5296554565,5.9717206955,51.5304145813",
    "geom:latitude":51.530102,
    "geom:longitude":5.971102,
    "iso:country":"NL",
    "mz:hierarchy_label":1,
    "mz:is_approximate":1,
    "mz:is_clustr":1,
    "src:geom":"oa",
    "wof:belongsto":[
        85687033,
        102191581,
        404474527,
        85633337,
        101839289
    ],
    "wof:breaches":[],
    "wof:country":"NL",
    "wof:created":1469686710,
    "wof:geomhash":"dc9b0fa6eb622ee8ac9db31486310a9f",
    "wof:hierarchy":[
        {
            "continent_id":102191581,
            "country_id":85633337,
            "localadmin_id":404474527,
            "locality_id":101839289,
            "postalcode_id":891086171,
            "region_id":85687033
        }
    ],
    "wof:id":891086171,
    "wof:lastmodified":1469686710,
    "wof:name":"5801EX",
    "wof:parent_id":101839289,
    "wof:placetype":"postalcode",
    "wof:repo":"whosonfirst-data-postalcode-nl",
    "wof:superseded_by":[],
    "wof:supersedes":[],
    "wof:tags":[]
},
  "bbox": [
    5.970704555511475,
    51.52965545654297,
    5.971720695495605,
    51.53041458129883
],
  "geometry": {"coordinates":[[[5.97084617614746,51.53022766113281],[5.9709529876709,51.53041458129883],[5.9717206954956,51.53025054931641],[5.97070455551147,51.52965545654297],[5.97073173522949,51.52987670898438],[5.97081327438354,51.53012847900391],[5.97084617614746,51.53022766113281]]],"type":"Polygon"}
}