{
  "id": 890696667,
  "type": "Feature",
  "properties": {
    "clustr:alpha":0.05,
    "clustr:area":2.7,
    "clustr:count":11,
    "clustr:density":4.07,
    "clustr:perimeter":0.18,
    "edtf:cessation":"uuuu",
    "edtf:inception":"uuuu",
    "geom:area":0.0,
    "geom:bbox":"4.6508808136,52.460308075,4.65093708038,52.4611930847",
    "geom:latitude":52.460749,
    "geom:longitude":4.650909,
    "iso:country":"NL",
    "mz:hierarchy_label":1,
    "mz:is_approximate":1,
    "mz:is_clustr":1,
    "src:geom":"oa",
    "wof:belongsto":[
        85687053,
        102191581,
        404474123,
        85633337,
        101754859
    ],
    "wof:breaches":[],
    "wof:country":"NL",
    "wof:created":1469671090,
    "wof:geomhash":"14503103420c8f132c740147fbde1f44",
    "wof:hierarchy":[
        {
            "continent_id":102191581,
            "country_id":85633337,
            "localadmin_id":404474123,
            "locality_id":101754859,
            "postalcode_id":890696667,
            "region_id":85687053
        }
    ],
    "wof:id":890696667,
    "wof:lastmodified":1469671090,
    "wof:name":"1981AH",
    "wof:parent_id":101754859,
    "wof:placetype":"postalcode",
    "wof:repo":"whosonfirst-data-postalcode-nl",
    "wof:superseded_by":[],
    "wof:supersedes":[],
    "wof:tags":[]
},
  "bbox": [
    4.650880813598633,
    52.46030807495117,
    4.650937080383301,
    52.4611930847168
],
  "geometry": {"coordinates":[[[4.65092468261719,52.46041870117188],[4.65091037750244,52.46058654785156],[4.65088081359863,52.4611930847168],[4.65089845657349,52.46102142333984],[4.65090370178223,52.46096801757812],[4.6509370803833,52.46030807495117],[4.65092468261719,52.46041870117188]]],"type":"Polygon"}
}