{
  "id": 907031217,
  "type": "Feature",
  "properties": {
    "clustr:alpha":0.05,
    "clustr:area":2.66,
    "clustr:count":17,
    "clustr:density":6.39,
    "clustr:perimeter":0.16,
    "edtf:cessation":"uuuu",
    "edtf:inception":"uuuu",
    "geom:area":0.0,
    "geom:bbox":"5.4578294754,52.5208358765,5.45884180069,52.5211219788",
    "geom:latitude":52.520934,
    "geom:longitude":5.458491,
    "iso:country":"NL",
    "mz:hierarchy_label":1,
    "mz:is_approximate":1,
    "mz:is_clustr":1,
    "src:geom":"oa",
    "wof:belongsto":[
        85687049,
        102191581,
        404474539,
        85633337,
        101751873
    ],
    "wof:breaches":[],
    "wof:country":"NL",
    "wof:created":1469695865,
    "wof:geomhash":"76fdd977e724af8c58d8c1a043c923fc",
    "wof:hierarchy":[
        {
            "continent_id":102191581,
            "country_id":85633337,
            "localadmin_id":404474539,
            "locality_id":101751873,
            "postalcode_id":907031217,
            "region_id":85687049
        }
    ],
    "wof:id":907031217,
    "wof:lastmodified":1469695865,
    "wof:name":"8242VB",
    "wof:parent_id":101751873,
    "wof:placetype":"postalcode",
    "wof:repo":"whosonfirst-data-postalcode-nl",
    "wof:superseded_by":[],
    "wof:supersedes":[],
    "wof:tags":[]
},
  "bbox": [
    5.457829475402832,
    52.520835876464844,
    5.458841800689697,
    52.521121978759766
],
  "geometry": {"coordinates":[[[5.4588418006897,52.52095794677734],[5.45879507064819,52.52085113525391],[5.45846891403198,52.52083587646484],[5.45782947540283,52.52083587646484],[5.45882511138916,52.52112197875977],[5.45883083343506,52.52106857299805],[5.4588418006897,52.52095794677734]]],"type":"Polygon"}
}