{
  "id": 891020829,
  "type": "Feature",
  "properties": {
    "clustr:alpha":0.05,
    "clustr:area":7.12,
    "clustr:count":24,
    "clustr:density":3.37,
    "clustr:perimeter":0.14,
    "edtf:cessation":"uuuu",
    "edtf:inception":"uuuu",
    "geom:area":0.0,
    "geom:bbox":"5.32486391068,51.6981010437,5.32539653778,51.6985397339",
    "geom:latitude":51.698367,
    "geom:longitude":5.325087,
    "iso:country":"NL",
    "mz:hierarchy_label":1,
    "mz:is_approximate":1,
    "mz:is_clustr":1,
    "src:geom":"oa",
    "wof:belongsto":[
        85687035,
        102191581,
        404474393,
        85633337,
        101751809
    ],
    "wof:breaches":[],
    "wof:country":"NL",
    "wof:created":1469684274,
    "wof:geomhash":"be2d1ac39d7ab7b19a053886f954c7fc",
    "wof:hierarchy":[
        {
            "continent_id":102191581,
            "country_id":85633337,
            "localadmin_id":404474393,
            "locality_id":101751809,
            "postalcode_id":891020829,
            "region_id":85687035
        }
    ],
    "wof:id":891020829,
    "wof:lastmodified":1469684274,
    "wof:name":"5213BV",
    "wof:parent_id":101751809,
    "wof:placetype":"postalcode",
    "wof:repo":"whosonfirst-data-postalcode-nl",
    "wof:superseded_by":[],
    "wof:supersedes":[],
    "wof:tags":[]
},
  "bbox": [
    5.324863910675049,
    51.69810104370117,
    5.325396537780762,
    51.69853973388672
],
  "geometry": {"coordinates":[[[5.32495975494385,51.69810104370117],[5.32491302490234,51.69824600219727],[5.32490301132202,51.69829559326172],[5.32487344741821,51.69844818115234],[5.32486391067505,51.69850158691406],[5.3252158164978,51.69852828979492],[5.32538843154907,51.69853973388672],[5.32539653778076,51.6984977722168],[5.32501697540283,51.69810485839844],[5.32495975494385,51.69810104370117]]],"type":"Polygon"}
}