{
  "id": 890783707,
  "type": "Feature",
  "properties": {
    "clustr:alpha":0.05,
    "clustr:area":225.87,
    "clustr:count":16,
    "clustr:density":0.07,
    "clustr:perimeter":0.21,
    "edtf:cessation":"uuuu",
    "edtf:inception":"uuuu",
    "geom:area":0.0,
    "geom:bbox":"4.20180988312,51.9999732971,4.20402002335,52.0009651184",
    "geom:latitude":52.000401,
    "geom:longitude":4.202754,
    "iso:country":"NL",
    "mz:hierarchy_label":1,
    "mz:is_approximate":1,
    "mz:is_clustr":1,
    "src:geom":"oa",
    "wof:belongsto":[
        85687041,
        102191581,
        404474667,
        85633337,
        101837719
    ],
    "wof:breaches":[],
    "wof:country":"NL",
    "wof:created":1469674634,
    "wof:geomhash":"660d18b2593b6eff0874d343f7fca97f",
    "wof:hierarchy":[
        {
            "continent_id":102191581,
            "country_id":85633337,
            "localadmin_id":404474667,
            "locality_id":101837719,
            "postalcode_id":890783707,
            "region_id":85687041
        }
    ],
    "wof:id":890783707,
    "wof:lastmodified":1469674634,
    "wof:name":"2673BH",
    "wof:parent_id":101837719,
    "wof:placetype":"postalcode",
    "wof:repo":"whosonfirst-data-postalcode-nl",
    "wof:superseded_by":[],
    "wof:supersedes":[],
    "wof:tags":[]
},
  "bbox": [
    4.201809883117676,
    51.99997329711914,
    4.204020023345947,
    52.0009651184082
],
  "geometry": {"coordinates":[[[4.20180988311768,51.99997329711914],[4.20194482803345,52.00004577636719],[4.20252847671509,52.00030899047852],[4.20327949523926,52.00064086914062],[4.2038722038269,52.00090026855469],[4.20402002334595,52.0009651184082],[4.20372819900513,52.00083160400391],[4.20180988311768,51.99997329711914]]],"type":"Polygon"}
}