{
  "id": 891142923,
  "type": "Feature",
  "properties": {
    "clustr:alpha":0.05,
    "clustr:area":18.62,
    "clustr:count":16,
    "clustr:density":0.86,
    "clustr:perimeter":0.1,
    "edtf:cessation":"uuuu",
    "edtf:inception":"uuuu",
    "geom:area":0.0,
    "geom:bbox":"5.85915279388,51.8458938599,5.85960817337,51.8462867737",
    "geom:latitude":51.84609,
    "geom:longitude":5.859372,
    "iso:country":"NL",
    "mz:hierarchy_label":1,
    "mz:is_approximate":1,
    "mz:is_clustr":1,
    "src:geom":"oa",
    "wof:belongsto":[
        85687043,
        102191581,
        404473925,
        85633337,
        101751859
    ],
    "wof:breaches":[],
    "wof:country":"NL",
    "wof:created":1469689054,
    "wof:geomhash":"ef947b71e43ec6b891b7c6626b07b1c9",
    "wof:hierarchy":[
        {
            "continent_id":102191581,
            "country_id":85633337,
            "localadmin_id":404473925,
            "locality_id":101751859,
            "postalcode_id":891142923,
            "region_id":85687043
        }
    ],
    "wof:id":891142923,
    "wof:lastmodified":1469689054,
    "wof:name":"6511DH",
    "wof:parent_id":101751859,
    "wof:placetype":"postalcode",
    "wof:repo":"whosonfirst-data-postalcode-nl",
    "wof:superseded_by":[],
    "wof:supersedes":[],
    "wof:tags":[]
},
  "bbox": [
    5.859152793884277,
    51.84589385986328,
    5.859608173370361,
    51.84628677368164
],
  "geometry": {"coordinates":[[[5.85947942733765,51.84622192382812],[5.85960817337036,51.84616088867188],[5.85947370529175,51.84601211547852],[5.85930681228638,51.84593200683594],[5.8592381477356,51.84590911865234],[5.85915279388428,51.84589385986328],[5.85933542251587,51.84628677368164],[5.85947942733765,51.84622192382812]]],"type":"Polygon"}
}