{
  "id": 891131425,
  "type": "Feature",
  "properties": {
    "clustr:alpha":0.05,
    "clustr:area":30.6,
    "clustr:count":7,
    "clustr:density":0.23,
    "clustr:perimeter":0.12,
    "edtf:cessation":"uuuu",
    "edtf:inception":"uuuu",
    "geom:area":0.0,
    "geom:bbox":"5.87941217422,50.9059677124,5.88000869751,50.9064674377",
    "geom:latitude":50.906186,
    "geom:longitude":5.879759,
    "iso:country":"NL",
    "mz:hierarchy_label":1,
    "mz:is_approximate":1,
    "mz:is_clustr":1,
    "src:geom":"oa",
    "wof:belongsto":[
        85687033,
        102191581,
        404474509,
        85633337,
        101809601
    ],
    "wof:breaches":[],
    "wof:country":"NL",
    "wof:created":1469688576,
    "wof:geomhash":"0b1aeba605d2e0e2679929c80f50b451",
    "wof:hierarchy":[
        {
            "continent_id":102191581,
            "country_id":85633337,
            "localadmin_id":404474509,
            "locality_id":101809601,
            "postalcode_id":891131425,
            "region_id":85687033
        }
    ],
    "wof:id":891131425,
    "wof:lastmodified":1469688576,
    "wof:name":"6363BC",
    "wof:parent_id":101809601,
    "wof:placetype":"postalcode",
    "wof:repo":"whosonfirst-data-postalcode-nl",
    "wof:superseded_by":[],
    "wof:supersedes":[],
    "wof:tags":[]
},
  "bbox": [
    5.879412174224854,
    50.905967712402344,
    5.880008697509766,
    50.90646743774414
],
  "geometry": {"coordinates":[[[5.87963771820068,50.90596771240234],[5.87941217422485,50.9061279296875],[5.87994146347046,50.90646743774414],[5.87999582290649,50.90622711181641],[5.88000869750977,50.90610885620117],[5.87963771820068,50.90596771240234]]],"type":"Polygon"}
}