{
  "id": 890746729,
  "type": "Feature",
  "properties": {
    "clustr:alpha":0.05,
    "clustr:area":10.01,
    "clustr:count":31,
    "clustr:density":3.1,
    "clustr:perimeter":0.24,
    "edtf:cessation":"uuuu",
    "edtf:inception":"uuuu",
    "geom:area":0.0,
    "geom:bbox":"4.66409492493,52.1332817078,4.66565847397,52.1337738037",
    "geom:latitude":52.133491,
    "geom:longitude":4.664894,
    "iso:country":"NL",
    "mz:hierarchy_label":1,
    "mz:is_approximate":1,
    "mz:is_clustr":1,
    "src:geom":"oa",
    "wof:belongsto":[
        85687041,
        102191581,
        404474147,
        85633337,
        101751837
    ],
    "wof:breaches":[],
    "wof:country":"NL",
    "wof:created":1469673202,
    "wof:geomhash":"da3aa21c7cd4f53ec78ba6cee0909bd5",
    "wof:hierarchy":[
        {
            "continent_id":102191581,
            "country_id":85633337,
            "localadmin_id":404474147,
            "locality_id":101751837,
            "postalcode_id":890746729,
            "region_id":85687041
        }
    ],
    "wof:id":890746729,
    "wof:lastmodified":1469673202,
    "wof:name":"2406GS",
    "wof:parent_id":101751837,
    "wof:placetype":"postalcode",
    "wof:repo":"whosonfirst-data-postalcode-nl",
    "wof:superseded_by":[],
    "wof:supersedes":[],
    "wof:tags":[]
},
  "bbox": [
    4.664094924926758,
    52.13328170776367,
    4.665658473968506,
    52.13377380371094
],
  "geometry": {"coordinates":[[[4.66418123245239,52.13345336914062],[4.66506481170654,52.13377380371094],[4.66565847396851,52.13344573974609],[4.6653470993042,52.13337326049805],[4.66518402099609,52.13335037231445],[4.66463327407837,52.13328170776367],[4.66410160064697,52.13339233398438],[4.66409492492676,52.1334114074707],[4.66418123245239,52.13345336914062]]],"type":"Polygon"}
}