{
  "id": 891279377,
  "type": "Feature",
  "properties": {
    "clustr:alpha":0.05,
    "clustr:area":11.66,
    "clustr:count":20,
    "clustr:density":1.72,
    "clustr:perimeter":0.53,
    "edtf:cessation":"uuuu",
    "edtf:inception":"uuuu",
    "geom:area":0.000002,
    "geom:bbox":"6.16533231735,52.7351608276,6.16850757599,52.7364120483",
    "geom:latitude":52.735914,
    "geom:longitude":6.167187,
    "iso:country":"NL",
    "mz:hierarchy_label":1,
    "mz:is_approximate":1,
    "mz:is_clustr":1,
    "src:geom":"oa",
    "wof:belongsto":[
        85687051,
        102191581,
        404473813,
        85633337,
        101807283
    ],
    "wof:breaches":[],
    "wof:country":"NL",
    "wof:created":1469694640,
    "wof:geomhash":"100d90ae65b17a058dc32926d9c18da2",
    "wof:hierarchy":[
        {
            "continent_id":102191581,
            "country_id":85633337,
            "localadmin_id":404473813,
            "locality_id":101807283,
            "postalcode_id":891279377,
            "region_id":85687051
        }
    ],
    "wof:id":891279377,
    "wof:lastmodified":1469694640,
    "wof:name":"7948DJ",
    "wof:parent_id":101807283,
    "wof:placetype":"postalcode",
    "wof:repo":"whosonfirst-data-postalcode-nl",
    "wof:superseded_by":[],
    "wof:supersedes":[],
    "wof:tags":[]
},
  "bbox": [
    6.165332317352295,
    52.73516082763672,
    6.16850757598877,
    52.736412048339844
],
  "geometry": {"coordinates":[[[6.16845226287842,52.73557281494141],[6.16847515106201,52.73552322387695],[6.16850757598877,52.73526763916016],[6.16850662231445,52.73516082763672],[6.16533231735229,52.7361946105957],[6.16542720794678,52.7362174987793],[6.16571187973022,52.73628234863281],[6.16597652435303,52.73633575439453],[6.16653442382812,52.73640823364258],[6.16664552688599,52.73641204833984],[6.16688299179077,52.73640823364258],[6.16699409484863,52.73639678955078],[6.16722202301025,52.73635101318359],[6.16729688644409,52.73633193969727],[6.16768169403076,52.7362060546875],[6.16790437698364,52.73610305786133],[6.16822147369385,52.73588943481445],[6.16832876205444,52.73576354980469],[6.16837072372437,52.73571014404297],[6.16845226287842,52.73557281494141]]],"type":"Polygon"}
}