{
  "id": 890836645,
  "type": "Feature",
  "properties": {
    "clustr:alpha":0.05,
    "clustr:area":1.76,
    "clustr:count":6,
    "clustr:density":3.41,
    "clustr:perimeter":1.24,
    "edtf:cessation":"uuuu",
    "edtf:inception":"uuuu",
    "geom:area":0.000001,
    "geom:bbox":"4.12098121643,51.9830322266,4.12290620804,51.9886436462",
    "geom:latitude":51.986561,
    "geom:longitude":4.122251,
    "iso:country":"NL",
    "mz:hierarchy_label":1,
    "mz:is_approximate":1,
    "mz:is_clustr":1,
    "src:geom":"oa",
    "wof:belongsto":[
        85687041,
        102191581,
        404474245,
        85633337,
        101808077
    ],
    "wof:breaches":[],
    "wof:country":"NL",
    "wof:created":1469676633,
    "wof:geomhash":"40c56b0ad988c76390928ff15fa1848d",
    "wof:hierarchy":[
        {
            "continent_id":102191581,
            "country_id":85633337,
            "localadmin_id":404474245,
            "locality_id":101808077,
            "postalcode_id":890836645,
            "region_id":85687041
        }
    ],
    "wof:id":890836645,
    "wof:lastmodified":1469676633,
    "wof:name":"3151VC",
    "wof:parent_id":101808077,
    "wof:placetype":"postalcode",
    "wof:repo":"whosonfirst-data-postalcode-nl",
    "wof:superseded_by":[],
    "wof:supersedes":[],
    "wof:tags":[]
},
  "bbox": [
    4.120981216430664,
    51.9830322265625,
    4.12290620803833,
    51.988643646240234
],
  "geometry": {"coordinates":[[[4.12289476394653,51.98831558227539],[4.12283945083618,51.98793411254883],[4.12098121643066,51.9830322265625],[4.12290620803833,51.98864364624023],[4.12289476394653,51.98831558227539]]],"type":"Polygon"}
}