{
  "id": 890987501,
  "type": "Feature",
  "properties": {
    "clustr:alpha":0.05,
    "clustr:area":5.35,
    "clustr:count":36,
    "clustr:density":6.73,
    "clustr:perimeter":0.5,
    "edtf:cessation":"uuuu",
    "edtf:inception":"uuuu",
    "geom:area":0.000001,
    "geom:bbox":"4.75180244446,51.6229171753,4.75494003296,51.6237068176",
    "geom:latitude":51.623365,
    "geom:longitude":4.753107,
    "iso:country":"NL",
    "mz:hierarchy_label":1,
    "mz:is_approximate":1,
    "mz:is_clustr":1,
    "src:geom":"oa",
    "wof:belongsto":[
        85687035,
        102191581,
        404474363,
        85633337,
        101751811
    ],
    "wof:breaches":[],
    "wof:country":"NL",
    "wof:created":1469682960,
    "wof:geomhash":"dcdb5e01007df7fded083039145e4015",
    "wof:hierarchy":[
        {
            "continent_id":102191581,
            "country_id":85633337,
            "localadmin_id":404474363,
            "locality_id":101751811,
            "postalcode_id":890987501,
            "region_id":85687035
        }
    ],
    "wof:id":890987501,
    "wof:lastmodified":1469682960,
    "wof:name":"4823GA",
    "wof:parent_id":101751811,
    "wof:placetype":"postalcode",
    "wof:repo":"whosonfirst-data-postalcode-nl",
    "wof:superseded_by":[],
    "wof:supersedes":[],
    "wof:tags":[]
},
  "bbox": [
    4.751802444458008,
    51.62291717529297,
    4.754940032958984,
    51.62370681762695
],
  "geometry": {"coordinates":[[[4.75239706039429,51.62296295166016],[4.7523603439331,51.62300872802734],[4.75217437744141,51.62324142456055],[4.75180244445801,51.62370681762695],[4.75494003295898,51.62353897094727],[4.75390577316284,51.62321853637695],[4.75333976745605,51.62304306030273],[4.75326108932495,51.62302017211914],[4.75243616104126,51.62291717529297],[4.75239706039429,51.62296295166016]]],"type":"Polygon"}
}