{
  "id": 890778991,
  "type": "Feature",
  "properties": {
    "clustr:alpha":0.05,
    "clustr:area":8.29,
    "clustr:count":6,
    "clustr:density":0.72,
    "clustr:perimeter":0.05,
    "edtf:cessation":"uuuu",
    "edtf:inception":"uuuu",
    "geom:area":0.0,
    "geom:bbox":"4.31561231613,51.9733924866,4.31576156616,51.9736480713",
    "geom:latitude":51.973527,
    "geom:longitude":4.315683,
    "iso:country":"NL",
    "mz:hierarchy_label":1,
    "mz:is_approximate":1,
    "mz:is_clustr":1,
    "src:geom":"oa",
    "wof:belongsto":[
        85687041,
        102191581,
        404474669,
        85633337,
        101754687
    ],
    "wof:breaches":[],
    "wof:country":"NL",
    "wof:created":1469674439,
    "wof:geomhash":"b95a1791726414354cbe3770f062dc51",
    "wof:hierarchy":[
        {
            "continent_id":102191581,
            "country_id":85633337,
            "localadmin_id":404474669,
            "locality_id":101754687,
            "postalcode_id":890778991,
            "region_id":85687041
        }
    ],
    "wof:id":890778991,
    "wof:lastmodified":1469674439,
    "wof:name":"2636EX",
    "wof:parent_id":101754687,
    "wof:placetype":"postalcode",
    "wof:repo":"whosonfirst-data-postalcode-nl",
    "wof:superseded_by":[],
    "wof:supersedes":[],
    "wof:tags":[]
},
  "bbox": [
    4.315612316131592,
    51.973392486572266,
    4.315761566162109,
    51.97364807128906
],
  "geometry": {"coordinates":[[[4.31567192077637,51.97354888916016],[4.31576156616211,51.97339248657227],[4.31573247909546,51.97344207763672],[4.31561231613159,51.97364807128906],[4.31567192077637,51.97354888916016]]],"type":"Polygon"}
}