{
  "id": 890910371,
  "type": "Feature",
  "properties": {
    "clustr:alpha":0.05,
    "clustr:area":8.18,
    "clustr:count":22,
    "clustr:density":2.69,
    "clustr:perimeter":0.55,
    "edtf:cessation":"uuuu",
    "edtf:inception":"uuuu",
    "geom:area":0.000001,
    "geom:bbox":"5.6414847374,52.342628479,5.64275455475,52.3449211121",
    "geom:latitude":52.343626,
    "geom:longitude":5.642224,
    "iso:country":"NL",
    "mz:hierarchy_label":1,
    "mz:is_approximate":1,
    "mz:is_clustr":1,
    "src:geom":"oa",
    "wof:belongsto":[
        85687043,
        102191581,
        404473907,
        85633337,
        101837769
    ],
    "wof:breaches":[],
    "wof:country":"NL",
    "wof:created":1469679639,
    "wof:geomhash":"382429e7cd4a8e3374046eaa276cf94c",
    "wof:hierarchy":[
        {
            "continent_id":102191581,
            "country_id":85633337,
            "localadmin_id":404473907,
            "locality_id":101837769,
            "postalcode_id":890910371,
            "region_id":85687043
        }
    ],
    "wof:id":890910371,
    "wof:lastmodified":1469679639,
    "wof:name":"3842GW",
    "wof:parent_id":101837769,
    "wof:placetype":"postalcode",
    "wof:repo":"whosonfirst-data-postalcode-nl",
    "wof:superseded_by":[],
    "wof:supersedes":[],
    "wof:tags":[]
},
  "bbox": [
    5.64148473739624,
    52.342628479003906,
    5.642754554748535,
    52.34492111206055
],
  "geometry": {"coordinates":[[[5.64195346832275,52.34262847900391],[5.64148473739624,52.34269332885742],[5.64238262176514,52.34492111206055],[5.64261102676392,52.34454345703125],[5.64268922805786,52.34438323974609],[5.64270925521851,52.34432983398438],[5.64273500442505,52.34421157836914],[5.64273929595947,52.34415817260742],[5.64275455474854,52.34358978271484],[5.64256811141968,52.3432502746582],[5.64202833175659,52.34268951416016],[5.64195346832275,52.34262847900391]]],"type":"Polygon"}
}