{
  "id": 891121939,
  "type": "Feature",
  "properties": {
    "clustr:alpha":0.05,
    "clustr:area":42.9,
    "clustr:count":63,
    "clustr:density":1.47,
    "clustr:perimeter":0.31,
    "edtf:cessation":"uuuu",
    "edtf:inception":"uuuu",
    "geom:area":0.000001,
    "geom:bbox":"5.65484333038,50.8412475586,5.65662431717,50.8419494629",
    "geom:latitude":50.841625,
    "geom:longitude":5.655714,
    "iso:country":"NL",
    "mz:hierarchy_label":1,
    "mz:is_approximate":1,
    "mz:is_clustr":1,
    "src:geom":"oa",
    "wof:belongsto":[
        85687033,
        102191581,
        404474495,
        85633337,
        101751803
    ],
    "wof:breaches":[],
    "wof:country":"NL",
    "wof:created":1469688093,
    "wof:geomhash":"59677d71135541bd041bb5106ef3e2b0",
    "wof:hierarchy":[
        {
            "continent_id":102191581,
            "country_id":85633337,
            "localadmin_id":404474495,
            "locality_id":101751803,
            "postalcode_id":891121939,
            "region_id":85687033
        }
    ],
    "wof:id":891121939,
    "wof:lastmodified":1469688093,
    "wof:name":"6215TN",
    "wof:parent_id":101751803,
    "wof:placetype":"postalcode",
    "wof:repo":"whosonfirst-data-postalcode-nl",
    "wof:superseded_by":[],
    "wof:supersedes":[],
    "wof:tags":[]
},
  "bbox": [
    5.654843330383301,
    50.84124755859375,
    5.656624317169189,
    50.841949462890625
],
  "geometry": {"coordinates":[[[5.65626859664917,50.84149169921875],[5.65506505966187,50.84124755859375],[5.65496158599854,50.84135437011719],[5.65484428405762,50.84170150756836],[5.6548433303833,50.84176254272461],[5.65662431716919,50.84194946289062],[5.65662288665771,50.84160614013672],[5.65626859664917,50.84149169921875]]],"type":"Polygon"}
}