{
  "id": 891090011,
  "type": "Feature",
  "properties": {
    "clustr:alpha":0.05,
    "clustr:area":23.71,
    "clustr:count":12,
    "clustr:density":0.51,
    "clustr:perimeter":0.18,
    "edtf:cessation":"uuuu",
    "edtf:inception":"uuuu",
    "geom:area":0.0,
    "geom:bbox":"6.05532407761,51.602230072,6.05614948273,51.6029319763",
    "geom:latitude":51.602682,
    "geom:longitude":6.055678,
    "iso:country":"NL",
    "mz:hierarchy_label":1,
    "mz:is_approximate":1,
    "mz:is_clustr":1,
    "src:geom":"oa",
    "wof:belongsto":[
        85687033,
        102191581,
        404474475,
        85633337,
        101808155
    ],
    "wof:breaches":[],
    "wof:country":"NL",
    "wof:created":1469686853,
    "wof:geomhash":"f10a9d2967c2be640e633384d071fd71",
    "wof:hierarchy":[
        {
            "continent_id":102191581,
            "country_id":85633337,
            "localadmin_id":404474475,
            "locality_id":101808155,
            "postalcode_id":891090011,
            "region_id":85687033
        }
    ],
    "wof:id":891090011,
    "wof:lastmodified":1469686853,
    "wof:name":"5854EK",
    "wof:parent_id":101808155,
    "wof:placetype":"postalcode",
    "wof:repo":"whosonfirst-data-postalcode-nl",
    "wof:superseded_by":[],
    "wof:supersedes":[],
    "wof:tags":[]
},
  "bbox": [
    6.055324077606201,
    51.602230072021484,
    6.056149482727051,
    51.60293197631836
],
  "geometry": {"coordinates":[[[6.05558347702026,51.60287857055664],[6.05562448501587,51.60284042358398],[6.05584764480591,51.60258483886719],[6.05614948272705,51.60223007202148],[6.0553240776062,51.6029052734375],[6.05539798736572,51.60293197631836],[6.05558347702026,51.60287857055664]]],"type":"Polygon"}
}