{
  "id": 890923719,
  "type": "Feature",
  "properties": {
    "clustr:alpha":0.05,
    "clustr:area":134.09,
    "clustr:count":9,
    "clustr:density":0.07,
    "clustr:perimeter":0.24,
    "edtf:cessation":"uuuu",
    "edtf:inception":"uuuu",
    "geom:area":0.0,
    "geom:bbox":"5.37244653702,52.0611114502,5.37454605103,52.0618209839",
    "geom:latitude":52.061552,
    "geom:longitude":5.373699,
    "iso:country":"NL",
    "mz:hierarchy_label":1,
    "mz:is_approximate":1,
    "mz:is_clustr":1,
    "src:geom":"oa",
    "wof:belongsto":[
        85687039,
        102191581,
        404474547,
        85633337,
        101837663
    ],
    "wof:breaches":[],
    "wof:country":"NL",
    "wof:created":1469680194,
    "wof:geomhash":"8d35c8fc0360f022ffdb0eff99918bd6",
    "wof:hierarchy":[
        {
            "continent_id":102191581,
            "country_id":85633337,
            "localadmin_id":404474547,
            "locality_id":101837663,
            "postalcode_id":890923719,
            "region_id":85687039
        }
    ],
    "wof:id":890923719,
    "wof:lastmodified":1469680194,
    "wof:name":"3951XL",
    "wof:parent_id":101837663,
    "wof:placetype":"postalcode",
    "wof:repo":"whosonfirst-data-postalcode-nl",
    "wof:superseded_by":[],
    "wof:supersedes":[],
    "wof:tags":[]
},
  "bbox": [
    5.372446537017822,
    52.06111145019531,
    5.374546051025391,
    52.06182098388672
],
  "geometry": {"coordinates":[[[5.37358379364014,52.06148147583008],[5.37244653701782,52.06111145019531],[5.37380218505859,52.0616340637207],[5.37412309646606,52.06173324584961],[5.37444400787354,52.06182098388672],[5.37454605102539,52.06180572509766],[5.37358379364014,52.06148147583008]]],"type":"Polygon"}
}