{
  "id": 890864405,
  "type": "Feature",
  "properties": {
    "clustr:alpha":0.05,
    "clustr:area":9.37,
    "clustr:count":16,
    "clustr:density":1.71,
    "clustr:perimeter":0.15,
    "edtf:cessation":"uuuu",
    "edtf:inception":"uuuu",
    "geom:area":0.0,
    "geom:bbox":"4.95512390137,52.0371704102,4.95543861389,52.0377845764",
    "geom:latitude":52.037406,
    "geom:longitude":4.955243,
    "iso:country":"NL",
    "mz:hierarchy_label":1,
    "mz:is_approximate":1,
    "mz:is_clustr":1,
    "src:geom":"oa",
    "wof:belongsto":[
        85687039,
        102191581,
        404473999,
        85633337,
        101807011
    ],
    "wof:breaches":[],
    "wof:country":"NL",
    "wof:created":1469677659,
    "wof:geomhash":"293a01443543bb066b3940d2d7627567",
    "wof:hierarchy":[
        {
            "continent_id":102191581,
            "country_id":85633337,
            "localadmin_id":404473999,
            "locality_id":101807011,
            "postalcode_id":890864405,
            "region_id":85687039
        }
    ],
    "wof:id":890864405,
    "wof:lastmodified":1469677659,
    "wof:name":"3417WP",
    "wof:parent_id":101807011,
    "wof:placetype":"postalcode",
    "wof:repo":"whosonfirst-data-postalcode-nl",
    "wof:superseded_by":[],
    "wof:supersedes":[],
    "wof:tags":[]
},
  "bbox": [
    4.955123901367188,
    52.03717041015625,
    4.955438613891602,
    52.037784576416016
],
  "geometry": {"coordinates":[[[4.95535850524902,52.03723526000977],[4.95512390136719,52.03717041015625],[4.95516204833984,52.03778457641602],[4.9554386138916,52.03727340698242],[4.95535850524902,52.03723526000977]]],"type":"Polygon"}
}