{
  "id": 890981963,
  "type": "Feature",
  "properties": {
    "clustr:alpha":0.05,
    "clustr:area":18.56,
    "clustr:count":15,
    "clustr:density":0.81,
    "clustr:perimeter":0.13,
    "edtf:cessation":"uuuu",
    "edtf:inception":"uuuu",
    "geom:area":0.0,
    "geom:bbox":"4.596367836,51.6498413086,4.59712791443,51.6502151489",
    "geom:latitude":51.650012,
    "geom:longitude":4.596745,
    "iso:country":"NL",
    "mz:hierarchy_label":1,
    "mz:is_approximate":1,
    "mz:is_clustr":1,
    "src:geom":"oa",
    "wof:belongsto":[
        85687035,
        102191581,
        404474623,
        85633337,
        101809653
    ],
    "wof:breaches":[],
    "wof:country":"NL",
    "wof:created":1469682722,
    "wof:geomhash":"1accb796fe6448f9608b11054d6b9ebc",
    "wof:hierarchy":[
        {
            "continent_id":102191581,
            "country_id":85633337,
            "localadmin_id":404474623,
            "locality_id":101809653,
            "postalcode_id":890981963,
            "region_id":85687035
        }
    ],
    "wof:id":890981963,
    "wof:lastmodified":1469682722,
    "wof:name":"4761HV",
    "wof:parent_id":101809653,
    "wof:placetype":"postalcode",
    "wof:repo":"whosonfirst-data-postalcode-nl",
    "wof:superseded_by":[],
    "wof:supersedes":[],
    "wof:tags":[]
},
  "bbox": [
    4.596367835998535,
    51.64984130859375,
    4.597127914428711,
    51.65021514892578
],
  "geometry": {"coordinates":[[[4.59641742706299,51.65004730224609],[4.59636783599854,51.650146484375],[4.59690475463867,51.65021514892578],[4.59703350067139,51.65000152587891],[4.59709215164185,51.64990234375],[4.59712791442871,51.64984130859375],[4.59654951095581,51.64984130859375],[4.59641742706299,51.65004730224609]]],"type":"Polygon"}
}