{
  "id": 890664781,
  "type": "Feature",
  "properties": {
    "clustr:alpha":0.05,
    "clustr:area":47.9,
    "clustr:count":20,
    "clustr:density":0.42,
    "clustr:perimeter":0.25,
    "edtf:cessation":"uuuu",
    "edtf:inception":"uuuu",
    "geom:area":0.0,
    "geom:bbox":"5.1068854332,52.7689666748,5.10865402222,52.7693481445",
    "geom:latitude":52.769125,
    "geom:longitude":5.107778,
    "iso:country":"NL",
    "mz:hierarchy_label":1,
    "mz:is_approximate":1,
    "mz:is_clustr":1,
    "src:geom":"oa",
    "wof:belongsto":[
        85687053,
        102191581,
        404474097,
        85633337,
        101837913
    ],
    "wof:breaches":[],
    "wof:country":"NL",
    "wof:created":1469669672,
    "wof:geomhash":"5c507f92c982f69fcbd740b2a386a4a5",
    "wof:hierarchy":[
        {
            "continent_id":102191581,
            "country_id":85633337,
            "localadmin_id":404474097,
            "locality_id":101837913,
            "postalcode_id":890664781,
            "region_id":85687053
        }
    ],
    "wof:id":890664781,
    "wof:lastmodified":1469669672,
    "wof:name":"1671HS",
    "wof:parent_id":101837913,
    "wof:placetype":"postalcode",
    "wof:repo":"whosonfirst-data-postalcode-nl",
    "wof:superseded_by":[],
    "wof:supersedes":[],
    "wof:tags":[]
},
  "bbox": [
    5.106885433197021,
    52.76896667480469,
    5.108654022216797,
    52.76934814453125
],
  "geometry": {"coordinates":[[[5.10701942443848,52.76896667480469],[5.10688591003418,52.76897811889648],[5.10688543319702,52.76906585693359],[5.10771369934082,52.76934814453125],[5.10862398147583,52.76918411254883],[5.1086540222168,52.76903915405273],[5.10741949081421,52.76897048950195],[5.10701942443848,52.76896667480469]]],"type":"Polygon"}
}