{
  "id": 890849611,
  "type": "Feature",
  "properties": {
    "clustr:alpha":0.05,
    "clustr:area":3.76,
    "clustr:count":5,
    "clustr:density":1.33,
    "clustr:perimeter":0.11,
    "edtf:cessation":"uuuu",
    "edtf:inception":"uuuu",
    "geom:area":0.0,
    "geom:bbox":"4.47330188751,51.825428009,4.47367095947,51.8258476257",
    "geom:latitude":51.825606,
    "geom:longitude":4.473462,
    "iso:country":"NL",
    "mz:hierarchy_label":1,
    "mz:is_approximate":1,
    "mz:is_clustr":1,
    "src:geom":"oa",
    "wof:belongsto":[
        85687041,
        102191581,
        404474233,
        85633337,
        101808489
    ],
    "wof:breaches":[],
    "wof:country":"NL",
    "wof:created":1469677110,
    "wof:geomhash":"8651617510339fbe5cf8123833c86a86",
    "wof:hierarchy":[
        {
            "continent_id":102191581,
            "country_id":85633337,
            "localadmin_id":404474233,
            "locality_id":101808489,
            "postalcode_id":890849611,
            "region_id":85687041
        }
    ],
    "wof:id":890849611,
    "wof:lastmodified":1469677110,
    "wof:name":"3274BL",
    "wof:parent_id":101808489,
    "wof:placetype":"postalcode",
    "wof:repo":"whosonfirst-data-postalcode-nl",
    "wof:superseded_by":[],
    "wof:supersedes":[],
    "wof:tags":[]
},
  "bbox": [
    4.473301887512207,
    51.8254280090332,
    4.473670959472656,
    51.82584762573242
],
  "geometry": {"coordinates":[[[4.47330188751221,51.82574844360352],[4.47333717346191,51.82579803466797],[4.47340869903565,51.82584762573242],[4.47367095947266,51.825439453125],[4.47342491149902,51.8254280090332],[4.47330188751221,51.82574844360352]]],"type":"Polygon"}
}