{
  "id": 891260927,
  "type": "Feature",
  "properties": {
    "clustr:alpha":0.05,
    "clustr:area":33.44,
    "clustr:count":15,
    "clustr:density":0.45,
    "clustr:perimeter":1.03,
    "edtf:cessation":"uuuu",
    "edtf:inception":"uuuu",
    "geom:area":0.000006,
    "geom:bbox":"6.48787021637,52.5995674133,6.49286794662,52.6029586792",
    "geom:latitude":52.601471,
    "geom:longitude":6.489948,
    "iso:country":"NL",
    "mz:hierarchy_label":1,
    "mz:is_approximate":1,
    "mz:is_clustr":1,
    "src:geom":"oa",
    "wof:belongsto":[
        85687045,
        102191581,
        404473831,
        85633337,
        101807167
    ],
    "wof:breaches":[],
    "wof:country":"NL",
    "wof:created":1469693839,
    "wof:geomhash":"83526c5f9effb0cd4b2866d2c5e31483",
    "wof:hierarchy":[
        {
            "continent_id":102191581,
            "country_id":85633337,
            "localadmin_id":404473831,
            "locality_id":101807167,
            "postalcode_id":891260927,
            "region_id":85687045
        }
    ],
    "wof:id":891260927,
    "wof:lastmodified":1469693839,
    "wof:name":"7701SE",
    "wof:parent_id":101807167,
    "wof:placetype":"postalcode",
    "wof:repo":"whosonfirst-data-postalcode-nl",
    "wof:superseded_by":[],
    "wof:supersedes":[],
    "wof:tags":[]
},
  "bbox": [
    6.487870216369629,
    52.59956741333008,
    6.492867946624756,
    52.60295867919922
],
  "geometry": {"coordinates":[[[6.49213838577271,52.60042190551758],[6.49286794662476,52.59956741333008],[6.48888158798218,52.60111999511719],[6.48787021636963,52.60206604003906],[6.48834657669067,52.60295867919922],[6.48930168151855,52.60295867919922],[6.49188804626465,52.60065078735352],[6.49213838577271,52.60042190551758]]],"type":"Polygon"}
}