{
  "id": 891174741,
  "type": "Feature",
  "properties": {
    "clustr:alpha":0.05,
    "clustr:area":10.62,
    "clustr:count":32,
    "clustr:density":3.01,
    "clustr:perimeter":0.12,
    "edtf:cessation":"uuuu",
    "edtf:inception":"uuuu",
    "geom:area":0.0,
    "geom:bbox":"5.96656322479,51.9833908081,5.96717453003,51.9838485718",
    "geom:latitude":51.983585,
    "geom:longitude":5.966904,
    "iso:country":"NL",
    "mz:hierarchy_label":1,
    "mz:is_approximate":1,
    "mz:is_clustr":1,
    "src:geom":"oa",
    "wof:belongsto":[
        85687043,
        102191581,
        404473871,
        85633337,
        101751857
    ],
    "wof:breaches":[],
    "wof:country":"NL",
    "wof:created":1469690397,
    "wof:geomhash":"e8964be1b65754341b14fc006ba80757",
    "wof:hierarchy":[
        {
            "continent_id":102191581,
            "country_id":85633337,
            "localadmin_id":404473871,
            "locality_id":101751857,
            "postalcode_id":891174741,
            "region_id":85687043
        }
    ],
    "wof:id":891174741,
    "wof:lastmodified":1469690397,
    "wof:name":"6825DN",
    "wof:parent_id":101751857,
    "wof:placetype":"postalcode",
    "wof:repo":"whosonfirst-data-postalcode-nl",
    "wof:superseded_by":[],
    "wof:supersedes":[],
    "wof:tags":[]
},
  "bbox": [
    5.96656322479248,
    51.98339080810547,
    5.967174530029297,
    51.983848571777344
],
  "geometry": {"coordinates":[[[5.96658992767334,51.98382568359375],[5.96656322479248,51.98384857177734],[5.9671745300293,51.98339080810547],[5.96700239181519,51.98349380493164],[5.9668116569519,51.98364639282227],[5.96667003631592,51.98376083374023],[5.96658992767334,51.98382568359375]]],"type":"Polygon"}
}