{
  "id": 890809991,
  "type": "Feature",
  "properties": {
    "clustr:alpha":0.05,
    "clustr:area":25.28,
    "clustr:count":39,
    "clustr:density":1.54,
    "clustr:perimeter":0.8,
    "edtf:cessation":"uuuu",
    "edtf:inception":"uuuu",
    "geom:area":0.000002,
    "geom:bbox":"4.54782867432,51.8517608643,4.55313158035,51.8531951904",
    "geom:latitude":51.852255,
    "geom:longitude":4.550461,
    "iso:country":"NL",
    "mz:hierarchy_label":1,
    "mz:is_approximate":1,
    "mz:is_clustr":1,
    "src:geom":"oa",
    "wof:belongsto":[
        85687041,
        102191581,
        404474149,
        85633337,
        101754615
    ],
    "wof:breaches":[],
    "wof:country":"NL",
    "wof:created":1469675599,
    "wof:geomhash":"8f5e55129edb77b961c85ee639151927",
    "wof:hierarchy":[
        {
            "continent_id":102191581,
            "country_id":85633337,
            "localadmin_id":404474149,
            "locality_id":101754615,
            "postalcode_id":890809991,
            "region_id":85687041
        }
    ],
    "wof:id":890809991,
    "wof:lastmodified":1469675599,
    "wof:name":"2991CH",
    "wof:parent_id":101754615,
    "wof:placetype":"postalcode",
    "wof:repo":"whosonfirst-data-postalcode-nl",
    "wof:superseded_by":[],
    "wof:supersedes":[],
    "wof:tags":[]
},
  "bbox": [
    4.547828674316406,
    51.85176086425781,
    4.553131580352783,
    51.85319519042969
],
  "geometry": {"coordinates":[[[4.55023145675659,51.85182189941406],[4.54976511001587,51.85176086425781],[4.54782867431641,51.85177993774414],[4.55313158035278,51.85319519042969],[4.55083560943604,51.85197830200195],[4.55044078826904,51.85186004638672],[4.55023145675659,51.85182189941406]]],"type":"Polygon"}
}