{
  "id": 907104655,
  "type": "Feature",
  "properties": {
    "clustr:alpha":0.05,
    "clustr:area":3.61,
    "clustr:count":19,
    "clustr:density":5.27,
    "clustr:perimeter":0.39,
    "edtf:cessation":"uuuu",
    "edtf:inception":"uuuu",
    "geom:area":0.000001,
    "geom:bbox":"7.02722215652,53.1493988037,7.02923631668,53.1506233215",
    "geom:latitude":53.150074,
    "geom:longitude":7.028049,
    "iso:country":"NL",
    "mz:hierarchy_label":1,
    "mz:is_approximate":1,
    "mz:is_clustr":1,
    "src:geom":"oa",
    "wof:belongsto":[
        85687059,
        102191581,
        404473747,
        85633337,
        101838027
    ],
    "wof:breaches":[],
    "wof:country":"NL",
    "wof:created":1469699638,
    "wof:geomhash":"477c624f28f6423451bd763510fcd611",
    "wof:hierarchy":[
        {
            "continent_id":102191581,
            "country_id":85633337,
            "localadmin_id":404473747,
            "locality_id":101838027,
            "postalcode_id":907104655,
            "region_id":85687059
        }
    ],
    "wof:id":907104655,
    "wof:lastmodified":1469699638,
    "wof:name":"9675GK",
    "wof:parent_id":101838027,
    "wof:placetype":"postalcode",
    "wof:repo":"whosonfirst-data-postalcode-nl",
    "wof:superseded_by":[],
    "wof:supersedes":[],
    "wof:tags":[]
},
  "bbox": [
    7.027222156524658,
    53.14939880371094,
    7.029236316680908,
    53.1506233215332
],
  "geometry": {"coordinates":[[[7.02733087539673,53.1496696472168],[7.02760171890259,53.15007019042969],[7.02780389785767,53.15027236938477],[7.02798652648926,53.15036010742188],[7.02806234359741,53.15038681030273],[7.02910804748535,53.15060043334961],[7.0291485786438,53.15060806274414],[7.02923631668091,53.1506233215332],[7.02732229232788,53.14939880371094],[7.02722215652466,53.14947128295898],[7.02729320526123,53.14960861206055],[7.02733087539673,53.1496696472168]]],"type":"Polygon"}
}