{
  "id": 890938123,
  "type": "Feature",
  "properties": {
    "clustr:alpha":0.05,
    "clustr:area":100.07,
    "clustr:count":34,
    "clustr:density":0.34,
    "clustr:perimeter":0.4,
    "edtf:cessation":"uuuu",
    "edtf:inception":"uuuu",
    "geom:area":0.000001,
    "geom:bbox":"5.20763397217,51.8156204224,5.21035718918,51.8165397644",
    "geom:latitude":51.816209,
    "geom:longitude":5.208913,
    "iso:country":"NL",
    "mz:hierarchy_label":1,
    "mz:is_approximate":1,
    "mz:is_clustr":1,
    "src:geom":"oa",
    "wof:belongsto":[
        85687043,
        102191581,
        404473967,
        85633337,
        101808701
    ],
    "wof:breaches":[],
    "wof:country":"NL",
    "wof:created":1469680750,
    "wof:geomhash":"5b9d7d1adc0726bdff7e3dda13740592",
    "wof:hierarchy":[
        {
            "continent_id":102191581,
            "country_id":85633337,
            "localadmin_id":404473967,
            "locality_id":101808701,
            "postalcode_id":890938123,
            "region_id":85687043
        }
    ],
    "wof:id":890938123,
    "wof:lastmodified":1469680750,
    "wof:name":"4175CW",
    "wof:parent_id":101808701,
    "wof:placetype":"postalcode",
    "wof:repo":"whosonfirst-data-postalcode-nl",
    "wof:superseded_by":[],
    "wof:supersedes":[],
    "wof:tags":[]
},
  "bbox": [
    5.207633972167969,
    51.81562042236328,
    5.210357189178467,
    51.8165397644043
],
  "geometry": {"coordinates":[[[5.20851564407349,51.81585311889648],[5.20773887634277,51.81623840332031],[5.20763397216797,51.81650161743164],[5.21035718917847,51.8165397644043],[5.20901441574097,51.81562042236328],[5.20851564407349,51.81585311889648]]],"type":"Polygon"}
}