{
  "id": 891285997,
  "type": "Feature",
  "properties": {
    "clustr:alpha":0.05,
    "clustr:area":6.16,
    "clustr:count":18,
    "clustr:density":2.92,
    "clustr:perimeter":0.13,
    "edtf:cessation":"uuuu",
    "edtf:inception":"uuuu",
    "geom:area":0.0,
    "geom:bbox":"6.09148597717,52.5215988159,6.09164857864,52.5222511292",
    "geom:latitude":52.521948,
    "geom:longitude":6.091569,
    "iso:country":"NL",
    "mz:hierarchy_label":1,
    "mz:is_approximate":1,
    "mz:is_clustr":1,
    "src:geom":"oa",
    "wof:belongsto":[
        85687045,
        102191581,
        404473861,
        85633337,
        101751861
    ],
    "wof:breaches":[],
    "wof:country":"NL",
    "wof:created":1469694991,
    "wof:geomhash":"40d6187f8dc32ad35c137565526b8cde",
    "wof:hierarchy":[
        {
            "continent_id":102191581,
            "country_id":85633337,
            "localadmin_id":404473861,
            "locality_id":101751861,
            "postalcode_id":891285997,
            "region_id":85687045
        }
    ],
    "wof:id":891285997,
    "wof:lastmodified":1469694991,
    "wof:name":"8031DS",
    "wof:parent_id":101751861,
    "wof:placetype":"postalcode",
    "wof:repo":"whosonfirst-data-postalcode-nl",
    "wof:superseded_by":[],
    "wof:supersedes":[],
    "wof:tags":[]
},
  "bbox": [
    6.091485977172852,
    52.52159881591797,
    6.091648578643799,
    52.52225112915039
],
  "geometry": {"coordinates":[[[6.0915789604187,52.52182006835938],[6.09148597717285,52.52224349975586],[6.09150552749634,52.52225112915039],[6.09157180786133,52.52206039428711],[6.0916485786438,52.5216064453125],[6.09163570404053,52.52159881591797],[6.09161329269409,52.52167892456055],[6.0915789604187,52.52182006835938]]],"type":"Polygon"}
}