{
  "id": 890615271,
  "type": "Feature",
  "properties": {
    "clustr:alpha":0.05,
    "clustr:area":9.44,
    "clustr:count":14,
    "clustr:density":1.48,
    "clustr:perimeter":0.1,
    "edtf:cessation":"uuuu",
    "edtf:inception":"uuuu",
    "geom:area":0.0,
    "geom:bbox":"4.86296844482,52.2961997986,4.86347961426,52.296585083",
    "geom:latitude":52.296393,
    "geom:longitude":4.863223,
    "iso:country":"NL",
    "mz:hierarchy_label":1,
    "mz:is_approximate":1,
    "mz:is_clustr":1,
    "src:geom":"oa",
    "wof:belongsto":[
        85687053,
        102191581,
        404474027,
        85633337,
        101751891
    ],
    "wof:breaches":[],
    "wof:country":"NL",
    "wof:created":1469667479,
    "wof:geomhash":"2bcb1e5304fb5737606bd40c9d3464fc",
    "wof:hierarchy":[
        {
            "continent_id":102191581,
            "country_id":85633337,
            "localadmin_id":404474027,
            "locality_id":101751891,
            "postalcode_id":890615271,
            "region_id":85687053
        }
    ],
    "wof:id":890615271,
    "wof:lastmodified":1469667479,
    "wof:name":"1185BK",
    "wof:parent_id":101751891,
    "wof:placetype":"postalcode",
    "wof:repo":"whosonfirst-data-postalcode-nl",
    "wof:superseded_by":[],
    "wof:supersedes":[],
    "wof:tags":[]
},
  "bbox": [
    4.862968444824219,
    52.296199798583984,
    4.863479614257812,
    52.29658508300781
],
  "geometry": {"coordinates":[[[4.86312484741211,52.29653549194336],[4.86315536499023,52.29658508300781],[4.86347961425781,52.29651260375977],[4.86332178115845,52.29624938964844],[4.86329126358032,52.29619979858398],[4.86296844482422,52.29627227783203],[4.86299896240234,52.29632568359375],[4.86303329467773,52.29638290405273],[4.86312484741211,52.29653549194336]]],"type":"Polygon"}
}