{
  "id": 890849555,
  "type": "Feature",
  "properties": {
    "clustr:alpha":0.05,
    "clustr:area":20.37,
    "clustr:count":24,
    "clustr:density":1.18,
    "clustr:perimeter":0.25,
    "edtf:cessation":"uuuu",
    "edtf:inception":"uuuu",
    "geom:area":0.000001,
    "geom:bbox":"4.47378826141,51.7837409973,4.47482776642,51.7846565247",
    "geom:latitude":51.784168,
    "geom:longitude":4.474261,
    "iso:country":"NL",
    "mz:hierarchy_label":1,
    "mz:is_approximate":1,
    "mz:is_clustr":1,
    "src:geom":"oa",
    "wof:belongsto":[
        85687041,
        102191581,
        404474233,
        85633337,
        101837725
    ],
    "wof:breaches":[],
    "wof:country":"NL",
    "wof:created":1469677107,
    "wof:geomhash":"de2d19b313a2291966616ae91560afd8",
    "wof:hierarchy":[
        {
            "continent_id":102191581,
            "country_id":85633337,
            "localadmin_id":404474233,
            "locality_id":101837725,
            "postalcode_id":890849555,
            "region_id":85687041
        }
    ],
    "wof:id":890849555,
    "wof:lastmodified":1469677107,
    "wof:name":"3273XJ",
    "wof:parent_id":101837725,
    "wof:placetype":"postalcode",
    "wof:repo":"whosonfirst-data-postalcode-nl",
    "wof:superseded_by":[],
    "wof:supersedes":[],
    "wof:tags":[]
},
  "bbox": [
    4.473788261413574,
    51.78374099731445,
    4.474827766418457,
    51.7846565246582
],
  "geometry": {"coordinates":[[[4.47400045394897,51.78376388549805],[4.47385740280151,51.78401947021484],[4.47378826141357,51.78457641601562],[4.47380113601685,51.7846565246582],[4.47418737411499,51.78456115722656],[4.47482395172119,51.78424453735352],[4.47482776641846,51.78405380249023],[4.47474431991577,51.78388214111328],[4.4740948677063,51.78374099731445],[4.47400045394897,51.78376388549805]]],"type":"Polygon"}
}