{
  "id": 891137209,
  "type": "Feature",
  "properties": {
    "clustr:alpha":0.05,
    "clustr:area":2.03,
    "clustr:count":4,
    "clustr:density":1.97,
    "clustr:perimeter":0.12,
    "edtf:cessation":"uuuu",
    "edtf:inception":"uuuu",
    "geom:area":0.0,
    "geom:bbox":"5.9696059227,50.8772621155,5.97040605545,50.8775558472",
    "geom:latitude":50.877394,
    "geom:longitude":5.969898,
    "iso:country":"NL",
    "mz:hierarchy_label":1,
    "mz:is_approximate":1,
    "mz:is_clustr":1,
    "src:geom":"oa",
    "wof:belongsto":[
        85687033,
        102191581,
        404474485,
        85633337,
        101839245
    ],
    "wof:breaches":[],
    "wof:country":"NL",
    "wof:created":1469688849,
    "wof:geomhash":"71fb5e61ba20993b729116707d4bee86",
    "wof:hierarchy":[
        {
            "continent_id":102191581,
            "country_id":85633337,
            "localadmin_id":404474485,
            "locality_id":101839245,
            "postalcode_id":891137209,
            "region_id":85687033
        }
    ],
    "wof:id":891137209,
    "wof:lastmodified":1469688849,
    "wof:name":"6419CP",
    "wof:parent_id":101839245,
    "wof:placetype":"postalcode",
    "wof:repo":"whosonfirst-data-postalcode-nl",
    "wof:superseded_by":[],
    "wof:supersedes":[],
    "wof:tags":[]
},
  "bbox": [
    5.969605922698975,
    50.877262115478516,
    5.970406055450439,
    50.87755584716797
],
  "geometry": {"coordinates":[[[5.96960592269897,50.87726211547852],[5.96961832046509,50.87750625610352],[5.96982908248901,50.87755584716797],[5.97040605545044,50.8773307800293],[5.96960592269897,50.87726211547852]]],"type":"Polygon"}
}