{
  "id": 890945279,
  "type": "Feature",
  "properties": {
    "clustr:alpha":0.05,
    "clustr:area":4.8,
    "clustr:count":18,
    "clustr:density":3.75,
    "clustr:perimeter":0.14,
    "edtf:cessation":"uuuu",
    "edtf:inception":"uuuu",
    "geom:area":0.0,
    "geom:bbox":"3.9160284996,51.6476593018,3.91623210907,51.6484832764",
    "geom:latitude":51.648093,
    "geom:longitude":3.916101,
    "iso:country":"NL",
    "mz:hierarchy_label":1,
    "mz:is_approximate":1,
    "mz:is_clustr":1,
    "src:geom":"oa",
    "wof:belongsto":[
        85687037,
        102191581,
        404474591,
        85633337,
        101808413
    ],
    "wof:breaches":[],
    "wof:country":"NL",
    "wof:created":1469681024,
    "wof:geomhash":"54442fec1bfc0421355e612551d4030c",
    "wof:hierarchy":[
        {
            "continent_id":102191581,
            "country_id":85633337,
            "localadmin_id":404474591,
            "locality_id":101808413,
            "postalcode_id":890945279,
            "region_id":85687037
        }
    ],
    "wof:id":890945279,
    "wof:lastmodified":1469681024,
    "wof:name":"4301BC",
    "wof:parent_id":101808413,
    "wof:placetype":"postalcode",
    "wof:repo":"whosonfirst-data-postalcode-nl",
    "wof:superseded_by":[],
    "wof:supersedes":[],
    "wof:tags":[]
},
  "bbox": [
    3.916028499603271,
    51.64765930175781,
    3.916232109069824,
    51.64848327636719
],
  "geometry": {"coordinates":[[[3.91602849960327,51.64817810058594],[3.91620802879333,51.64845657348633],[3.91623210906982,51.64848327636719],[3.91605567932129,51.64765930175781],[3.91603398323059,51.64773941040039],[3.91602849960327,51.64817810058594]]],"type":"Polygon"}
}