{
  "id": 890890431,
  "type": "Feature",
  "properties": {
    "clustr:alpha":0.05,
    "clustr:area":13.7,
    "clustr:count":16,
    "clustr:density":1.17,
    "clustr:perimeter":0.09,
    "edtf:cessation":"uuuu",
    "edtf:inception":"uuuu",
    "geom:area":0.0,
    "geom:bbox":"5.2379155159,52.0995788574,5.23825931549,52.1000099182",
    "geom:latitude":52.099802,
    "geom:longitude":5.238083,
    "iso:country":"NL",
    "mz:hierarchy_label":1,
    "mz:is_approximate":1,
    "mz:is_clustr":1,
    "src:geom":"oa",
    "wof:belongsto":[
        85687039,
        102191581,
        404474019,
        85633337,
        101751823
    ],
    "wof:breaches":[],
    "wof:country":"NL",
    "wof:created":1469678693,
    "wof:geomhash":"98241b5b33fab99fbfc649ef02b44ac9",
    "wof:hierarchy":[
        {
            "continent_id":102191581,
            "country_id":85633337,
            "localadmin_id":404474019,
            "locality_id":101751823,
            "postalcode_id":890890431,
            "region_id":85687039
        }
    ],
    "wof:id":890890431,
    "wof:lastmodified":1469678693,
    "wof:name":"3705CP",
    "wof:parent_id":101751823,
    "wof:placetype":"postalcode",
    "wof:repo":"whosonfirst-data-postalcode-nl",
    "wof:superseded_by":[],
    "wof:supersedes":[],
    "wof:tags":[]
},
  "bbox": [
    5.237915515899658,
    52.099578857421875,
    5.238259315490723,
    52.10000991821289
],
  "geometry": {"coordinates":[[[5.2380166053772,52.09983825683594],[5.23791551589966,52.0999870300293],[5.23798847198486,52.10000991821289],[5.23825931549072,52.09959030151367],[5.23820877075195,52.09957885742188],[5.2381649017334,52.09963226318359],[5.23811435699463,52.09969711303711],[5.2380166053772,52.09983825683594]]],"type":"Polygon"}
}