{
  "id": 890806997,
  "type": "Feature",
  "properties": {
    "clustr:alpha":0.05,
    "clustr:area":8.47,
    "clustr:count":12,
    "clustr:density":1.42,
    "clustr:perimeter":0.11,
    "edtf:cessation":"uuuu",
    "edtf:inception":"uuuu",
    "geom:area":0.0,
    "geom:bbox":"4.663418293,51.884349823,4.66397571564,51.8846931458",
    "geom:latitude":51.884559,
    "geom:longitude":4.663639,
    "iso:country":"NL",
    "mz:hierarchy_label":1,
    "mz:is_approximate":1,
    "mz:is_clustr":1,
    "src:geom":"oa",
    "wof:belongsto":[
        85687041,
        102191581,
        404474219,
        85633337,
        101837723
    ],
    "wof:breaches":[],
    "wof:country":"NL",
    "wof:created":1469675485,
    "wof:geomhash":"8d1f6f330c9de19906085a6a95686f6b",
    "wof:hierarchy":[
        {
            "continent_id":102191581,
            "country_id":85633337,
            "localadmin_id":404474219,
            "locality_id":101837723,
            "postalcode_id":890806997,
            "region_id":85687041
        }
    ],
    "wof:id":890806997,
    "wof:lastmodified":1469675485,
    "wof:name":"2957ED",
    "wof:parent_id":101837723,
    "wof:placetype":"postalcode",
    "wof:repo":"whosonfirst-data-postalcode-nl",
    "wof:superseded_by":[],
    "wof:supersedes":[],
    "wof:tags":[]
},
  "bbox": [
    4.663418292999268,
    51.88434982299805,
    4.663975715637207,
    51.88469314575195
],
  "geometry": {"coordinates":[[[4.6635479927063,51.88469314575195],[4.66397571563721,51.88463592529297],[4.66392278671265,51.88460159301758],[4.66351699829102,51.88434982299805],[4.66341829299927,51.88462829589844],[4.66347599029541,51.88465881347656],[4.6635479927063,51.88469314575195]]],"type":"Polygon"}
}