{
  "id": 890754305,
  "type": "Feature",
  "properties": {
    "clustr:alpha":0.05,
    "clustr:area":6.82,
    "clustr:count":22,
    "clustr:density":3.23,
    "clustr:perimeter":0.13,
    "edtf:cessation":"uuuu",
    "edtf:inception":"uuuu",
    "geom:area":0.0,
    "geom:bbox":"4.29490566254,52.0847549438,4.29568910599,52.0850906372",
    "geom:latitude":52.084927,
    "geom:longitude":4.295282,
    "iso:country":"NL",
    "mz:hierarchy_label":1,
    "mz:is_approximate":1,
    "mz:is_clustr":1,
    "src:geom":"oa",
    "wof:belongsto":[
        85687041,
        102191581,
        404474179,
        85633337,
        101752763
    ],
    "wof:breaches":[],
    "wof:country":"NL",
    "wof:created":1469673507,
    "wof:geomhash":"86d7986045db86d62993be35c2c43ccb",
    "wof:hierarchy":[
        {
            "continent_id":102191581,
            "country_id":85633337,
            "localadmin_id":404474179,
            "locality_id":101752763,
            "postalcode_id":890754305,
            "region_id":85687041
        }
    ],
    "wof:id":890754305,
    "wof:lastmodified":1469673507,
    "wof:name":"2517AN",
    "wof:parent_id":101752763,
    "wof:placetype":"postalcode",
    "wof:repo":"whosonfirst-data-postalcode-nl",
    "wof:superseded_by":[],
    "wof:supersedes":[],
    "wof:tags":[]
},
  "bbox": [
    4.294905662536621,
    52.084754943847656,
    4.295689105987549,
    52.08509063720703
],
  "geometry": {"coordinates":[[[4.29497146606445,52.08477401733398],[4.29490566253662,52.08475494384766],[4.29526996612549,52.08495330810547],[4.29537296295166,52.08499526977539],[4.29560804367065,52.08506774902344],[4.29568910598755,52.08509063720703],[4.2950291633606,52.08479309082031],[4.29497146606445,52.08477401733398]]],"type":"Polygon"}
}