{
  "id": 891146597,
  "type": "Feature",
  "properties": {
    "clustr:alpha":0.05,
    "clustr:area":212.32,
    "clustr:count":10,
    "clustr:density":0.05,
    "clustr:perimeter":0.2,
    "edtf:cessation":"uuuu",
    "edtf:inception":"uuuu",
    "geom:area":0.0,
    "geom:bbox":"5.85204839706,51.8220176697,5.85404109955,51.8227577209",
    "geom:latitude":51.8224,
    "geom:longitude":5.852823,
    "iso:country":"NL",
    "mz:hierarchy_label":1,
    "mz:is_approximate":1,
    "mz:is_clustr":1,
    "src:geom":"oa",
    "wof:belongsto":[
        85687043,
        102191581,
        404473925,
        85633337,
        101751859
    ],
    "wof:breaches":[],
    "wof:country":"NL",
    "wof:created":1469689197,
    "wof:geomhash":"d3be8c7f42e9d5f2a78bd26a38fbe1c9",
    "wof:hierarchy":[
        {
            "continent_id":102191581,
            "country_id":85633337,
            "localadmin_id":404473925,
            "locality_id":101751859,
            "postalcode_id":891146597,
            "region_id":85687043
        }
    ],
    "wof:id":891146597,
    "wof:lastmodified":1469689197,
    "wof:name":"6533BK",
    "wof:parent_id":101751859,
    "wof:placetype":"postalcode",
    "wof:repo":"whosonfirst-data-postalcode-nl",
    "wof:superseded_by":[],
    "wof:supersedes":[],
    "wof:tags":[]
},
  "bbox": [
    5.852048397064209,
    51.822017669677734,
    5.85404109954834,
    51.822757720947266
],
  "geometry": {"coordinates":[[[5.85204839706421,51.82252883911133],[5.85214805603027,51.82275772094727],[5.85404109954834,51.82201766967773],[5.85396003723145,51.82202529907227],[5.85380601882935,51.82204437255859],[5.85372543334961,51.82205581665039],[5.85204839706421,51.82252883911133]]],"type":"Polygon"}
}