{
  "id": 891146305,
  "type": "Feature",
  "properties": {
    "clustr:alpha":0.05,
    "clustr:area":4.69,
    "clustr:count":10,
    "clustr:density":2.13,
    "clustr:perimeter":0.05,
    "edtf:cessation":"uuuu",
    "edtf:inception":"uuuu",
    "geom:area":0.0,
    "geom:bbox":"5.84536552429,51.8357582092,5.84546947479,51.8361968994",
    "geom:latitude":51.83599,
    "geom:longitude":5.845427,
    "iso:country":"NL",
    "mz:hierarchy_label":1,
    "mz:is_approximate":1,
    "mz:is_clustr":1,
    "src:geom":"oa",
    "wof:belongsto":[
        85687043,
        102191581,
        404473925,
        85633337,
        101751859
    ],
    "wof:breaches":[],
    "wof:country":"NL",
    "wof:created":1469689179,
    "wof:geomhash":"4c551fa35928960aa787f94b51835a91",
    "wof:hierarchy":[
        {
            "continent_id":102191581,
            "country_id":85633337,
            "localadmin_id":404473925,
            "locality_id":101751859,
            "postalcode_id":891146305,
            "region_id":85687043
        }
    ],
    "wof:id":891146305,
    "wof:lastmodified":1469689179,
    "wof:name":"6531ZM",
    "wof:parent_id":101751859,
    "wof:placetype":"postalcode",
    "wof:repo":"whosonfirst-data-postalcode-nl",
    "wof:superseded_by":[],
    "wof:supersedes":[],
    "wof:tags":[]
},
  "bbox": [
    5.845365524291992,
    51.835758209228516,
    5.84546947479248,
    51.83619689941406
],
  "geometry": {"coordinates":[[[5.84544801712036,51.83615112304688],[5.84546279907227,51.83619689941406],[5.84546947479248,51.83609771728516],[5.84545755386353,51.8360481262207],[5.84540748596191,51.83585739135742],[5.84539222717285,51.83580780029297],[5.84536552429199,51.83575820922852],[5.84544801712036,51.83615112304688]]],"type":"Polygon"}
}