{
  "id": 891183363,
  "type": "Feature",
  "properties": {
    "clustr:alpha":0.05,
    "clustr:area":54.14,
    "clustr:count":24,
    "clustr:density":0.44,
    "clustr:perimeter":0.31,
    "edtf:cessation":"uuuu",
    "edtf:inception":"uuuu",
    "geom:area":0.0,
    "geom:bbox":"6.08623695374,51.9299736023,6.08715343475,51.9316444397",
    "geom:latitude":51.930872,
    "geom:longitude":6.086661,
    "iso:country":"NL",
    "mz:hierarchy_label":1,
    "mz:is_approximate":1,
    "mz:is_clustr":1,
    "src:geom":"oa",
    "wof:belongsto":[
        85687043,
        102191581,
        404473957,
        85633337,
        101809869
    ],
    "wof:breaches":[],
    "wof:country":"NL",
    "wof:created":1469690734,
    "wof:geomhash":"def260f3d32ff04783fb563cecd0bd45",
    "wof:hierarchy":[
        {
            "continent_id":102191581,
            "country_id":85633337,
            "localadmin_id":404473957,
            "locality_id":101809869,
            "postalcode_id":891183363,
            "region_id":85687043
        }
    ],
    "wof:id":891183363,
    "wof:lastmodified":1469690734,
    "wof:name":"6901KM",
    "wof:parent_id":101809869,
    "wof:placetype":"postalcode",
    "wof:repo":"whosonfirst-data-postalcode-nl",
    "wof:superseded_by":[],
    "wof:supersedes":[],
    "wof:tags":[]
},
  "bbox": [
    6.086236953735352,
    51.92997360229492,
    6.087153434753418,
    51.931644439697266
],
  "geometry": {"coordinates":[[[6.08645820617676,51.93123626708984],[6.08626508712769,51.93159103393555],[6.08623695373535,51.93164443969727],[6.08654260635376,51.93109130859375],[6.08659887313843,51.93098831176758],[6.08703947067261,51.93018341064453],[6.08712482452393,51.93002700805664],[6.08715343475342,51.92997360229492],[6.08709621429443,51.93007659912109],[6.08682346343994,51.93057250976562],[6.08645820617676,51.93123626708984]]],"type":"Polygon"}
}