{
  "id": 891235321,
  "type": "Feature",
  "properties": {
    "clustr:alpha":0.05,
    "clustr:area":7.67,
    "clustr:count":10,
    "clustr:density":1.3,
    "clustr:perimeter":0.1,
    "edtf:cessation":"uuuu",
    "edtf:inception":"uuuu",
    "geom:area":0.0,
    "geom:bbox":"6.89186668396,52.2099876404,6.89261198044,52.210067749",
    "geom:latitude":52.210027,
    "geom:longitude":6.892239,
    "iso:country":"NL",
    "mz:hierarchy_label":1,
    "mz:is_approximate":1,
    "mz:is_clustr":1,
    "src:geom":"oa",
    "wof:belongsto":[
        85687045,
        102191581,
        404473827,
        85633337,
        101751871
    ],
    "wof:breaches":[],
    "wof:country":"NL",
    "wof:created":1469692820,
    "wof:geomhash":"d25641959de2c61c639e8eb2779a4bce",
    "wof:hierarchy":[
        {
            "continent_id":102191581,
            "country_id":85633337,
            "localadmin_id":404473827,
            "locality_id":101751871,
            "postalcode_id":891235321,
            "region_id":85687045
        }
    ],
    "wof:id":891235321,
    "wof:lastmodified":1469692820,
    "wof:name":"7512BX",
    "wof:parent_id":101751871,
    "wof:placetype":"postalcode",
    "wof:repo":"whosonfirst-data-postalcode-nl",
    "wof:superseded_by":[],
    "wof:supersedes":[],
    "wof:tags":[]
},
  "bbox": [
    6.891866683959961,
    52.20998764038086,
    6.892611980438232,
    52.21006774902344
],
  "geometry": {"coordinates":[[[6.891930103302,52.20999145507812],[6.89186668395996,52.20998764038086],[6.89206790924072,52.21001052856445],[6.89234733581543,52.21004104614258],[6.89252090454102,52.21006011962891],[6.89261198043823,52.21006774902344],[6.89245748519897,52.21004867553711],[6.891930103302,52.20999145507812]]],"type":"Polygon"}
}