{
  "id": 891233283,
  "type": "Feature",
  "properties": {
    "clustr:alpha":0.05,
    "clustr:area":31.75,
    "clustr:count":20,
    "clustr:density":0.63,
    "clustr:perimeter":0.2,
    "edtf:cessation":"uuuu",
    "edtf:inception":"uuuu",
    "geom:area":0.0,
    "geom:bbox":"6.73768615723,52.1520996094,6.73885774612,52.1525382996",
    "geom:latitude":52.152368,
    "geom:longitude":6.738382,
    "iso:country":"NL",
    "mz:hierarchy_label":1,
    "mz:is_approximate":1,
    "mz:is_clustr":1,
    "src:geom":"oa",
    "wof:belongsto":[
        85687045,
        102191581,
        404473829,
        85633337,
        101807203
    ],
    "wof:breaches":[],
    "wof:country":"NL",
    "wof:created":1469692742,
    "wof:geomhash":"e6bbad0f0ff0d816850fed645f774150",
    "wof:hierarchy":[
        {
            "continent_id":102191581,
            "country_id":85633337,
            "localadmin_id":404473829,
            "locality_id":101807203,
            "postalcode_id":891233283,
            "region_id":85687045
        }
    ],
    "wof:id":891233283,
    "wof:lastmodified":1469692742,
    "wof:name":"7481HG",
    "wof:parent_id":101807203,
    "wof:placetype":"postalcode",
    "wof:repo":"whosonfirst-data-postalcode-nl",
    "wof:superseded_by":[],
    "wof:supersedes":[],
    "wof:tags":[]
},
  "bbox": [
    6.737686157226562,
    52.152099609375,
    6.738857746124268,
    52.15253829956055
],
  "geometry": {"coordinates":[[[6.73811101913452,52.15253067016602],[6.73828649520874,52.15253829956055],[6.7388391494751,52.15245056152344],[6.73885774612427,52.152099609375],[6.73771333694458,52.15242004394531],[6.73769950866699,52.1524543762207],[6.73768615722656,52.15249252319336],[6.73784732818604,52.15250778198242],[6.73811101913452,52.15253067016602]]],"type":"Polygon"}
}