{
  "id": 890785963,
  "type": "Feature",
  "properties": {
    "clustr:alpha":0.05,
    "clustr:area":47.03,
    "clustr:count":14,
    "clustr:density":0.3,
    "clustr:perimeter":0.16,
    "edtf:cessation":"uuuu",
    "edtf:inception":"uuuu",
    "geom:area":0.0,
    "geom:bbox":"4.22087669373,52.025138855,4.22190952301,52.0256958008",
    "geom:latitude":52.025446,
    "geom:longitude":4.221334,
    "iso:country":"NL",
    "mz:hierarchy_label":1,
    "mz:is_approximate":1,
    "mz:is_clustr":1,
    "src:geom":"oa",
    "wof:belongsto":[
        85687041,
        102191581,
        404474667,
        85633337,
        101808471
    ],
    "wof:breaches":[],
    "wof:country":"NL",
    "wof:created":1469674716,
    "wof:geomhash":"d0fdbd8634f4d66cc7b385a1ea739820",
    "wof:hierarchy":[
        {
            "continent_id":102191581,
            "country_id":85633337,
            "localadmin_id":404474667,
            "locality_id":101808471,
            "postalcode_id":890785963,
            "region_id":85687041
        }
    ],
    "wof:id":890785963,
    "wof:lastmodified":1469674716,
    "wof:name":"2685VX",
    "wof:parent_id":101808471,
    "wof:placetype":"postalcode",
    "wof:repo":"whosonfirst-data-postalcode-nl",
    "wof:superseded_by":[],
    "wof:supersedes":[],
    "wof:tags":[]
},
  "bbox": [
    4.220876693725586,
    52.02513885498047,
    4.221909523010254,
    52.02569580078125
],
  "geometry": {"coordinates":[[[4.22124767303467,52.02551651000977],[4.22190952301025,52.02513885498047],[4.22136688232422,52.02540588378906],[4.22104740142822,52.02558517456055],[4.22098731994629,52.02561950683594],[4.22092723846435,52.02565765380859],[4.22087669372559,52.02569580078125],[4.22124767303467,52.02551651000977]]],"type":"Polygon"}
}