{
  "id": 890600075,
  "type": "Feature",
  "properties": {
    "clustr:alpha":0.05,
    "clustr:area":42.73,
    "clustr:count":4,
    "clustr:density":0.09,
    "clustr:perimeter":1.92,
    "edtf:cessation":"uuuu",
    "edtf:inception":"uuuu",
    "geom:area":0.000002,
    "geom:bbox":"4.89507436752,52.3224563599,4.89799308777,52.3313293457",
    "geom:latitude":52.32809,
    "geom:longitude":4.896933,
    "iso:country":"NL",
    "mz:hierarchy_label":1,
    "mz:is_approximate":1,
    "mz:is_clustr":1,
    "src:geom":"oa",
    "wof:belongsto":[
        85687053,
        102191581,
        404474029,
        85633337,
        101751893
    ],
    "wof:breaches":[],
    "wof:country":"NL",
    "wof:created":1469666778,
    "wof:geomhash":"bef4a2a920642dc4effd7ee6cbd70013",
    "wof:hierarchy":[
        {
            "continent_id":102191581,
            "country_id":85633337,
            "localadmin_id":404474029,
            "locality_id":101751893,
            "postalcode_id":890600075,
            "region_id":85687053
        }
    ],
    "wof:id":890600075,
    "wof:lastmodified":1469666778,
    "wof:name":"1083AB",
    "wof:parent_id":101751893,
    "wof:placetype":"postalcode",
    "wof:repo":"whosonfirst-data-postalcode-nl",
    "wof:superseded_by":[],
    "wof:supersedes":[],
    "wof:tags":[]
},
  "bbox": [
    4.895074367523193,
    52.32245635986328,
    4.897993087768555,
    52.331329345703125
],
  "geometry": {"coordinates":[[[4.89799308776855,52.33048248291016],[4.89507436752319,52.32245635986328],[4.89746522903442,52.33043670654297],[4.89771938323975,52.33132934570312],[4.89799308776855,52.33048248291016]]],"type":"Polygon"}
}