{
  "id": 890765245,
  "type": "Feature",
  "properties": {
    "clustr:alpha":0.05,
    "clustr:area":3.25,
    "clustr:count":27,
    "clustr:density":8.3,
    "clustr:perimeter":0.3,
    "edtf:cessation":"uuuu",
    "edtf:inception":"uuuu",
    "geom:area":0.0,
    "geom:bbox":"4.27313089371,52.0726013184,4.27417898178,52.0737800598",
    "geom:latitude":52.073074,
    "geom:longitude":4.273692,
    "iso:country":"NL",
    "mz:hierarchy_label":1,
    "mz:is_approximate":1,
    "mz:is_clustr":1,
    "src:geom":"oa",
    "wof:belongsto":[
        85687041,
        102191581,
        404474179,
        85633337,
        101752763
    ],
    "wof:breaches":[],
    "wof:country":"NL",
    "wof:created":1469673945,
    "wof:geomhash":"d4da2d0db0cd31f1820a114841d0c24b",
    "wof:hierarchy":[
        {
            "continent_id":102191581,
            "country_id":85633337,
            "localadmin_id":404474179,
            "locality_id":101752763,
            "postalcode_id":890765245,
            "region_id":85687041
        }
    ],
    "wof:id":890765245,
    "wof:lastmodified":1469673945,
    "wof:name":"2563XG",
    "wof:parent_id":101752763,
    "wof:placetype":"postalcode",
    "wof:repo":"whosonfirst-data-postalcode-nl",
    "wof:superseded_by":[],
    "wof:supersedes":[],
    "wof:tags":[]
},
  "bbox": [
    4.273130893707275,
    52.072601318359375,
    4.274178981781006,
    52.07378005981445
],
  "geometry": {"coordinates":[[[4.27313661575317,52.07376861572266],[4.27316427230835,52.07378005981445],[4.27336931228638,52.07357406616211],[4.27344846725464,52.07349395751953],[4.27395963668823,52.07297515869141],[4.27417898178101,52.07270812988281],[4.27410268783569,52.07267761230469],[4.27403211593628,52.07265090942383],[4.27389907836914,52.07260131835938],[4.27367258071899,52.07283401489258],[4.27313089370728,52.07376480102539],[4.27313661575317,52.07376861572266]]],"type":"Polygon"}
}