{
  "id": 891237657,
  "type": "Feature",
  "properties": {
    "clustr:alpha":0.05,
    "clustr:area":35.95,
    "clustr:count":15,
    "clustr:density":0.42,
    "clustr:perimeter":0.38,
    "edtf:cessation":"uuuu",
    "edtf:inception":"uuuu",
    "geom:area":0.000001,
    "geom:bbox":"6.924451828,52.2327270508,6.92708969116,52.2333030701",
    "geom:latitude":52.233012,
    "geom:longitude":6.925755,
    "iso:country":"NL",
    "mz:hierarchy_label":1,
    "mz:is_approximate":1,
    "mz:is_clustr":1,
    "src:geom":"oa",
    "wof:belongsto":[
        85687045,
        102191581,
        404473827,
        85633337,
        101751871
    ],
    "wof:breaches":[],
    "wof:country":"NL",
    "wof:created":1469692920,
    "wof:geomhash":"11586e9ca630d2da1f06bcc1f20f4cd2",
    "wof:hierarchy":[
        {
            "continent_id":102191581,
            "country_id":85633337,
            "localadmin_id":404473827,
            "locality_id":101751871,
            "postalcode_id":891237657,
            "region_id":85687045
        }
    ],
    "wof:id":891237657,
    "wof:lastmodified":1469692920,
    "wof:name":"7531HM",
    "wof:parent_id":101751871,
    "wof:placetype":"postalcode",
    "wof:repo":"whosonfirst-data-postalcode-nl",
    "wof:superseded_by":[],
    "wof:supersedes":[],
    "wof:tags":[]
},
  "bbox": [
    6.92445182800293,
    52.23272705078125,
    6.927089691162109,
    52.23330307006836
],
  "geometry": {"coordinates":[[[6.92631101608276,52.23274230957031],[6.92512845993042,52.23283386230469],[6.92483282089233,52.23290252685547],[6.92445182800293,52.23325729370117],[6.92480707168579,52.23330307006836],[6.92512321472168,52.23329162597656],[6.92660570144653,52.23313903808594],[6.92708969116211,52.2329216003418],[6.92684459686279,52.2327766418457],[6.92660617828369,52.23272705078125],[6.92631101608276,52.23274230957031]]],"type":"Polygon"}
}