{
  "id": 890709017,
  "type": "Feature",
  "properties": {
    "clustr:alpha":0.05,
    "clustr:area":6.04,
    "clustr:count":4,
    "clustr:density":0.66,
    "clustr:perimeter":0.04,
    "edtf:cessation":"uuuu",
    "edtf:inception":"uuuu",
    "geom:area":0.0,
    "geom:bbox":"4.57658529282,52.3167572021,4.57675027847,52.3169517517",
    "geom:latitude":52.316842,
    "geom:longitude":4.576675,
    "iso:country":"NL",
    "mz:hierarchy_label":1,
    "mz:is_approximate":1,
    "mz:is_clustr":1,
    "src:geom":"oa",
    "wof:belongsto":[
        85687053,
        102191581,
        404474047,
        85633337,
        101837945
    ],
    "wof:breaches":[],
    "wof:country":"NL",
    "wof:created":1469671653,
    "wof:geomhash":"f29dcbfd2234a422492d08224000309d",
    "wof:hierarchy":[
        {
            "continent_id":102191581,
            "country_id":85633337,
            "localadmin_id":404474047,
            "locality_id":101837945,
            "postalcode_id":890709017,
            "region_id":85687053
        }
    ],
    "wof:id":890709017,
    "wof:lastmodified":1469671653,
    "wof:name":"2114DR",
    "wof:parent_id":101837945,
    "wof:placetype":"postalcode",
    "wof:repo":"whosonfirst-data-postalcode-nl",
    "wof:superseded_by":[],
    "wof:supersedes":[],
    "wof:tags":[]
},
  "bbox": [
    4.576585292816162,
    52.31675720214844,
    4.5767502784729,
    52.316951751708984
],
  "geometry": {"coordinates":[[[4.57663059234619,52.31689834594727],[4.5767502784729,52.31675720214844],[4.57669067382812,52.31681823730469],[4.57658529281616,52.31695175170898],[4.57663059234619,52.31689834594727]]],"type":"Polygon"}
}