{
  "id": 891172751,
  "type": "Feature",
  "properties": {
    "clustr:alpha":0.05,
    "clustr:area":61.05,
    "clustr:count":12,
    "clustr:density":0.2,
    "clustr:perimeter":0.11,
    "edtf:cessation":"uuuu",
    "edtf:inception":"uuuu",
    "geom:area":0.0,
    "geom:bbox":"5.90978908539,52.0062255859,5.91081380844,52.0063095093",
    "geom:latitude":52.006276,
    "geom:longitude":5.910394,
    "iso:country":"NL",
    "mz:hierarchy_label":1,
    "mz:is_approximate":1,
    "mz:is_clustr":1,
    "src:geom":"oa",
    "wof:belongsto":[
        85687043,
        102191581,
        404473871,
        85633337,
        101751857
    ],
    "wof:breaches":[],
    "wof:country":"NL",
    "wof:created":1469690314,
    "wof:geomhash":"c9e74f80f348cd3c32efa9a987bf5223",
    "wof:hierarchy":[
        {
            "continent_id":102191581,
            "country_id":85633337,
            "localadmin_id":404473871,
            "locality_id":101751857,
            "postalcode_id":891172751,
            "region_id":85687043
        }
    ],
    "wof:id":891172751,
    "wof:lastmodified":1469690314,
    "wof:name":"6815BX",
    "wof:parent_id":101751857,
    "wof:placetype":"postalcode",
    "wof:repo":"whosonfirst-data-postalcode-nl",
    "wof:superseded_by":[],
    "wof:supersedes":[],
    "wof:tags":[]
},
  "bbox": [
    5.909789085388184,
    52.0062255859375,
    5.910813808441162,
    52.006309509277344
],
  "geometry": {"coordinates":[[[5.91072702407837,52.00630569458008],[5.91081380844116,52.00630950927734],[5.90978908538818,52.0062255859375],[5.90987539291382,52.00623321533203],[5.90996217727661,52.00624084472656],[5.9100489616394,52.00624847412109],[5.91022205352783,52.00626373291016],[5.91072702407837,52.00630569458008]]],"type":"Polygon"}
}