{
  "id": 890711597,
  "type": "Feature",
  "properties": {
    "clustr:alpha":0.05,
    "clustr:area":46.56,
    "clustr:count":54,
    "clustr:density":1.16,
    "clustr:perimeter":2.08,
    "edtf:cessation":"uuuu",
    "edtf:inception":"uuuu",
    "geom:area":0.000003,
    "geom:bbox":"4.63189172745,52.3047790527,4.64182472229,52.3120346069",
    "geom:latitude":52.309359,
    "geom:longitude":4.638075,
    "iso:country":"NL",
    "mz:hierarchy_label":1,
    "mz:is_approximate":1,
    "mz:is_clustr":1,
    "src:geom":"oa",
    "wof:belongsto":[
        85687053,
        102191581,
        404474065,
        85633337,
        101751899
    ],
    "wof:breaches":[],
    "wof:country":"NL",
    "wof:created":1469671784,
    "wof:geomhash":"4e961d3ba2687e7b869641373eb73d12",
    "wof:hierarchy":[
        {
            "continent_id":102191581,
            "country_id":85633337,
            "localadmin_id":404474065,
            "locality_id":101751899,
            "postalcode_id":890711597,
            "region_id":85687053
        }
    ],
    "wof:id":890711597,
    "wof:lastmodified":1469671784,
    "wof:name":"2134XS",
    "wof:parent_id":101751899,
    "wof:placetype":"postalcode",
    "wof:repo":"whosonfirst-data-postalcode-nl",
    "wof:superseded_by":[],
    "wof:supersedes":[],
    "wof:tags":[]
},
  "bbox": [
    4.63189172744751,
    52.304779052734375,
    4.641824722290039,
    52.312034606933594
],
  "geometry": {"coordinates":[[[4.64182472229004,52.31186294555664],[4.63527345657349,52.30715942382812],[4.63521146774292,52.30711364746094],[4.63383102416992,52.3061408996582],[4.6327109336853,52.30535125732422],[4.63226985931396,52.3050422668457],[4.6321439743042,52.30495452880859],[4.63189172744751,52.30477905273438],[4.63801431655884,52.30954360961914],[4.64100551605225,52.31175994873047],[4.64145612716675,52.31203460693359],[4.64182472229004,52.31186294555664]]],"type":"Polygon"}
}