{
  "id": 890680279,
  "type": "Feature",
  "properties": {
    "clustr:alpha":0.05,
    "clustr:area":5.01,
    "clustr:count":39,
    "clustr:density":7.79,
    "clustr:perimeter":0.28,
    "edtf:cessation":"uuuu",
    "edtf:inception":"uuuu",
    "geom:area":0.0,
    "geom:bbox":"4.76259660721,53.0986785889,4.76326799393,53.0997619629",
    "geom:latitude":53.099228,
    "geom:longitude":4.762892,
    "iso:country":"NL",
    "mz:hierarchy_label":1,
    "mz:is_approximate":1,
    "mz:is_clustr":1,
    "src:geom":"oa",
    "wof:belongsto":[
        85687053,
        102191581,
        404474115,
        85633337,
        101806063
    ],
    "wof:breaches":[],
    "wof:country":"NL",
    "wof:created":1469670403,
    "wof:geomhash":"dae75fe671237e7d2e063230b7f748cb",
    "wof:hierarchy":[
        {
            "continent_id":102191581,
            "country_id":85633337,
            "localadmin_id":404474115,
            "locality_id":101806063,
            "postalcode_id":890680279,
            "region_id":85687053
        }
    ],
    "wof:id":890680279,
    "wof:lastmodified":1469670403,
    "wof:name":"1796BA",
    "wof:parent_id":101806063,
    "wof:placetype":"postalcode",
    "wof:repo":"whosonfirst-data-postalcode-nl",
    "wof:superseded_by":[],
    "wof:supersedes":[],
    "wof:tags":[]
},
  "bbox": [
    4.762596607208252,
    53.09867858886719,
    4.763267993927002,
    53.099761962890625
],
  "geometry": {"coordinates":[[[4.76260471343994,53.09875106811523],[4.76259660720825,53.09896087646484],[4.76261520385742,53.09920120239258],[4.76264190673828,53.09930038452148],[4.76281213760376,53.09976196289062],[4.76310110092163,53.09971237182617],[4.763267993927,53.09967422485352],[4.76296854019165,53.09868621826172],[4.76287412643433,53.09868240356445],[4.76277828216553,53.09867858886719],[4.76264429092407,53.09872055053711],[4.76260471343994,53.09875106811523]]],"type":"Polygon"}
}