{
  "id": 890993597,
  "type": "Feature",
  "properties": {
    "clustr:alpha":0.05,
    "clustr:area":8.51,
    "clustr:count":25,
    "clustr:density":2.94,
    "clustr:perimeter":0.26,
    "edtf:cessation":"uuuu",
    "edtf:inception":"uuuu",
    "geom:area":0.0,
    "geom:bbox":"4.63491678238,51.5633125305,4.63571500778,51.5643081665",
    "geom:latitude":51.563916,
    "geom:longitude":4.63531,
    "iso:country":"NL",
    "mz:hierarchy_label":1,
    "mz:is_approximate":1,
    "mz:is_clustr":1,
    "src:geom":"oa",
    "wof:belongsto":[
        85687035,
        102191581,
        404474377,
        85633337,
        101839355
    ],
    "wof:breaches":[],
    "wof:country":"NL",
    "wof:created":1469683207,
    "wof:geomhash":"bfd9291200c4d073319e03b46e5fb3f3",
    "wof:hierarchy":[
        {
            "continent_id":102191581,
            "country_id":85633337,
            "localadmin_id":404474377,
            "locality_id":101839355,
            "postalcode_id":890993597,
            "region_id":85687035
        }
    ],
    "wof:id":890993597,
    "wof:lastmodified":1469683207,
    "wof:name":"4876CC",
    "wof:parent_id":101839355,
    "wof:placetype":"postalcode",
    "wof:repo":"whosonfirst-data-postalcode-nl",
    "wof:superseded_by":[],
    "wof:supersedes":[],
    "wof:tags":[]
},
  "bbox": [
    4.63491678237915,
    51.56331253051758,
    4.635715007781982,
    51.564308166503906
],
  "geometry": {"coordinates":[[[4.63498687744141,51.56423187255859],[4.63533163070679,51.56429672241211],[4.63540077209473,51.56430816650391],[4.63571500778198,51.56331253051758],[4.63498210906982,51.56393432617188],[4.63491678237915,51.56421661376953],[4.63498687744141,51.56423187255859]]],"type":"Polygon"}
}