{
  "id": 890713969,
  "type": "Feature",
  "properties": {
    "clustr:alpha":0.05,
    "clustr:area":13.41,
    "clustr:count":16,
    "clustr:density":1.19,
    "clustr:perimeter":0.29,
    "edtf:cessation":"uuuu",
    "edtf:inception":"uuuu",
    "geom:area":0.0,
    "geom:bbox":"4.59045934677,52.2316818237,4.59083509445,52.2332496643",
    "geom:latitude":52.232427,
    "geom:longitude":4.590654,
    "iso:country":"NL",
    "mz:hierarchy_label":1,
    "mz:is_approximate":1,
    "mz:is_clustr":1,
    "src:geom":"oa",
    "wof:belongsto":[
        85687053,
        102191581,
        404474065,
        85633337,
        101855409
    ],
    "wof:breaches":[],
    "wof:country":"NL",
    "wof:created":1469671886,
    "wof:geomhash":"dbb93dd3c8f93ff14909c74e38e001fa",
    "wof:hierarchy":[
        {
            "continent_id":102191581,
            "country_id":85633337,
            "localadmin_id":404474065,
            "locality_id":101855409,
            "postalcode_id":890713969,
            "region_id":85687053
        }
    ],
    "wof:id":890713969,
    "wof:lastmodified":1469671886,
    "wof:name":"2157NH",
    "wof:parent_id":101855409,
    "wof:placetype":"postalcode",
    "wof:repo":"whosonfirst-data-postalcode-nl",
    "wof:superseded_by":[],
    "wof:supersedes":[],
    "wof:tags":[]
},
  "bbox": [
    4.59045934677124,
    52.23168182373047,
    4.590835094451904,
    52.23324966430664
],
  "geometry": {"coordinates":[[[4.59075689315796,52.23263549804688],[4.5908350944519,52.23168182373047],[4.59049987792969,52.23215866088867],[4.5904860496521,52.23226928710938],[4.59045934677124,52.23248672485352],[4.59061813354492,52.23303985595703],[4.59070062637329,52.23324966430664],[4.59075689315796,52.23263549804688]]],"type":"Polygon"}
}