{
  "id": 890804029,
  "type": "Feature",
  "properties": {
    "clustr:alpha":0.05,
    "clustr:area":26.51,
    "clustr:count":6,
    "clustr:density":0.23,
    "clustr:perimeter":0.08,
    "edtf:cessation":"uuuu",
    "edtf:inception":"uuuu",
    "geom:area":0.0,
    "geom:bbox":"4.62010669708,51.9729309082,4.6205868721,51.9732284546",
    "geom:latitude":51.973082,
    "geom:longitude":4.62036,
    "iso:country":"NL",
    "mz:hierarchy_label":1,
    "mz:is_approximate":1,
    "mz:is_clustr":1,
    "src:geom":"oa",
    "wof:belongsto":[
        85687041,
        102191581,
        404474213,
        85633337,
        101808529
    ],
    "wof:breaches":[],
    "wof:country":"NL",
    "wof:created":1469675374,
    "wof:geomhash":"965710ae2e8d208ce8974e2ba697d540",
    "wof:hierarchy":[
        {
            "continent_id":102191581,
            "country_id":85633337,
            "localadmin_id":404474213,
            "locality_id":101808529,
            "postalcode_id":890804029,
            "region_id":85687041
        }
    ],
    "wof:id":890804029,
    "wof:lastmodified":1469675374,
    "wof:name":"2914PC",
    "wof:parent_id":101808529,
    "wof:placetype":"postalcode",
    "wof:repo":"whosonfirst-data-postalcode-nl",
    "wof:superseded_by":[],
    "wof:supersedes":[],
    "wof:tags":[]
},
  "bbox": [
    4.62010669708252,
    51.972930908203125,
    4.62058687210083,
    51.973228454589844
],
  "geometry": {"coordinates":[[[4.62031269073486,51.97293090820312],[4.62010669708252,51.97305297851562],[4.62033653259277,51.97322845458984],[4.6205415725708,51.97317504882812],[4.62058687210083,51.97305679321289],[4.62031269073486,51.97293090820312]]],"type":"Polygon"}
}