{
  "id": 891094223,
  "type": "Feature",
  "properties": {
    "clustr:alpha":0.05,
    "clustr:area":2.14,
    "clustr:count":14,
    "clustr:density":6.55,
    "clustr:perimeter":0.23,
    "edtf:cessation":"uuuu",
    "edtf:inception":"uuuu",
    "geom:area":0.0,
    "geom:bbox":"6.14979314804,51.3425636292,6.15030145645,51.3435630798",
    "geom:latitude":51.343085,
    "geom:longitude":6.15009,
    "iso:country":"NL",
    "mz:hierarchy_label":1,
    "mz:is_approximate":1,
    "mz:is_clustr":1,
    "src:geom":"oa",
    "wof:belongsto":[
        85687033,
        102191581,
        404474525,
        85633337,
        101839319
    ],
    "wof:breaches":[],
    "wof:country":"NL",
    "wof:created":1469687025,
    "wof:geomhash":"26fd3386aa99a86dfba178fd5853ce50",
    "wof:hierarchy":[
        {
            "continent_id":102191581,
            "country_id":85633337,
            "localadmin_id":404474525,
            "locality_id":101839319,
            "postalcode_id":891094223,
            "region_id":85687033
        }
    ],
    "wof:id":891094223,
    "wof:lastmodified":1469687025,
    "wof:name":"5931KM",
    "wof:parent_id":101839319,
    "wof:placetype":"postalcode",
    "wof:repo":"whosonfirst-data-postalcode-nl",
    "wof:superseded_by":[],
    "wof:supersedes":[],
    "wof:tags":[]
},
  "bbox": [
    6.149793148040771,
    51.34256362915039,
    6.150301456451416,
    51.343563079833984
],
  "geometry": {"coordinates":[[[6.15030145645142,51.34292602539062],[6.15027856826782,51.34287643432617],[6.15020608901978,51.34272003173828],[6.15013074874878,51.34256362915039],[6.14979314804077,51.34356307983398],[6.15008354187012,51.34335708618164],[6.15027284622192,51.34321975708008],[6.15030145645142,51.34292602539062]]],"type":"Polygon"}
}