{
  "id": 890631393,
  "type": "Feature",
  "properties": {
    "clustr:alpha":0.05,
    "clustr:area":59.5,
    "clustr:count":18,
    "clustr:density":0.3,
    "clustr:perimeter":0.16,
    "edtf:cessation":"uuuu",
    "edtf:inception":"uuuu",
    "geom:area":0.0,
    "geom:bbox":"5.25762557983,52.3655052185,5.25893497467,52.3658485413",
    "geom:latitude":52.365685,
    "geom:longitude":5.258325,
    "iso:country":"NL",
    "mz:hierarchy_label":1,
    "mz:is_approximate":1,
    "mz:is_clustr":1,
    "src:geom":"oa",
    "wof:belongsto":[
        85687049,
        102191581,
        404473729,
        85633337,
        101751877
    ],
    "wof:breaches":[],
    "wof:country":"NL",
    "wof:created":1469668169,
    "wof:geomhash":"2e6c70887b064bd6169002fa249fee6b",
    "wof:hierarchy":[
        {
            "continent_id":102191581,
            "country_id":85633337,
            "localadmin_id":404473729,
            "locality_id":101751877,
            "postalcode_id":890631393,
            "region_id":85687049
        }
    ],
    "wof:id":890631393,
    "wof:lastmodified":1469668169,
    "wof:name":"1326PR",
    "wof:parent_id":101751877,
    "wof:placetype":"postalcode",
    "wof:repo":"whosonfirst-data-postalcode-nl",
    "wof:superseded_by":[],
    "wof:supersedes":[],
    "wof:tags":[]
},
  "bbox": [
    5.257625579833984,
    52.36550521850586,
    5.25893497467041,
    52.365848541259766
],
  "geometry": {"coordinates":[[[5.25842905044556,52.36569976806641],[5.25829458236694,52.36566543579102],[5.25762557983398,52.36550521850586],[5.25770378112793,52.36552810668945],[5.25884437561035,52.36582946777344],[5.25893497467041,52.36584854125977],[5.25842905044556,52.36569976806641]]],"type":"Polygon"}
}