{
  "id": 890775113,
  "type": "Feature",
  "properties": {
    "clustr:alpha":0.05,
    "clustr:area":21.95,
    "clustr:count":18,
    "clustr:density":0.82,
    "clustr:perimeter":0.21,
    "edtf:cessation":"uuuu",
    "edtf:inception":"uuuu",
    "geom:area":0.0,
    "geom:bbox":"4.36753702164,52.0142784119,4.36873197556,52.0149383545",
    "geom:latitude":52.014642,
    "geom:longitude":4.368076,
    "iso:country":"NL",
    "mz:hierarchy_label":1,
    "mz:is_approximate":1,
    "mz:is_clustr":1,
    "src:geom":"oa",
    "wof:belongsto":[
        85687041,
        102191581,
        404474165,
        85633337,
        101752765
    ],
    "wof:breaches":[],
    "wof:country":"NL",
    "wof:created":1469674306,
    "wof:geomhash":"04739acafe224cb662d4092fc952ea15",
    "wof:hierarchy":[
        {
            "continent_id":102191581,
            "country_id":85633337,
            "localadmin_id":404474165,
            "locality_id":101752765,
            "postalcode_id":890775113,
            "region_id":85687041
        }
    ],
    "wof:id":890775113,
    "wof:lastmodified":1469674306,
    "wof:name":"2612SR",
    "wof:parent_id":101752765,
    "wof:placetype":"postalcode",
    "wof:repo":"whosonfirst-data-postalcode-nl",
    "wof:superseded_by":[],
    "wof:supersedes":[],
    "wof:tags":[]
},
  "bbox": [
    4.367537021636963,
    52.014278411865234,
    4.36873197555542,
    52.01493835449219
],
  "geometry": {"coordinates":[[[4.36872100830078,52.01493835449219],[4.36873197555542,52.01492691040039],[4.36753702163696,52.01427841186523],[4.3678560256958,52.01465606689453],[4.36838817596435,52.01484680175781],[4.36853694915771,52.01488876342773],[4.36872100830078,52.01493835449219]]],"type":"Polygon"}
}