{
  "id": 907120311,
  "type": "Feature",
  "properties": {
    "clustr:alpha":0.05,
    "clustr:area":14.15,
    "clustr:count":12,
    "clustr:density":0.85,
    "clustr:perimeter":0.19,
    "edtf:cessation":"uuuu",
    "edtf:inception":"uuuu",
    "geom:area":0.0,
    "geom:bbox":"6.40259647369,53.2417564392,6.40311479568,53.242641449",
    "geom:latitude":53.242209,
    "geom:longitude":6.402878,
    "iso:country":"NL",
    "mz:hierarchy_label":1,
    "mz:is_approximate":1,
    "mz:is_clustr":1,
    "src:geom":"oa",
    "wof:belongsto":[
        85687059,
        102191581,
        404473753,
        85633337,
        101838017
    ],
    "wof:breaches":[],
    "wof:country":"NL",
    "wof:created":1469700376,
    "wof:geomhash":"136cf626d658891f70d8e7858ed37905",
    "wof:hierarchy":[
        {
            "continent_id":102191581,
            "country_id":85633337,
            "localadmin_id":404473753,
            "locality_id":101838017,
            "postalcode_id":907120311,
            "region_id":85687059
        }
    ],
    "wof:id":907120311,
    "wof:lastmodified":1469700376,
    "wof:name":"9801EE",
    "wof:parent_id":101838017,
    "wof:placetype":"postalcode",
    "wof:repo":"whosonfirst-data-postalcode-nl",
    "wof:superseded_by":[],
    "wof:supersedes":[],
    "wof:tags":[]
},
  "bbox": [
    6.402596473693848,
    53.241756439208984,
    6.403114795684814,
    53.24264144897461
],
  "geometry": {"coordinates":[[[6.4028434753418,53.24233245849609],[6.40303087234497,53.24200820922852],[6.4030590057373,53.24193572998047],[6.40308713912964,53.24186325073242],[6.40311479568481,53.24175643920898],[6.40259647369385,53.24264144897461],[6.40266990661621,53.24257659912109],[6.40274238586426,53.24247741699219],[6.4028434753418,53.24233245849609]]],"type":"Polygon"}
}