{
  "id": 891069783,
  "type": "Feature",
  "properties": {
    "clustr:alpha":0.05,
    "clustr:area":40.3,
    "clustr:count":12,
    "clustr:density":0.3,
    "clustr:perimeter":0.13,
    "edtf:cessation":"uuuu",
    "edtf:inception":"uuuu",
    "geom:area":0.0,
    "geom:bbox":"5.46063804626,51.4194030762,5.4616522789,51.4196128845",
    "geom:latitude":51.419502,
    "geom:longitude":5.46117,
    "iso:country":"NL",
    "mz:hierarchy_label":1,
    "mz:is_approximate":1,
    "mz:is_clustr":1,
    "src:geom":"oa",
    "wof:belongsto":[
        85687035,
        102191581,
        404474375,
        85633337,
        101751819
    ],
    "wof:breaches":[],
    "wof:country":"NL",
    "wof:created":1469686090,
    "wof:geomhash":"4e5cb2b0364867bad4a4fefbefcb72f6",
    "wof:hierarchy":[
        {
            "continent_id":102191581,
            "country_id":85633337,
            "localadmin_id":404474375,
            "locality_id":101751819,
            "postalcode_id":891069783,
            "region_id":85687035
        }
    ],
    "wof:id":891069783,
    "wof:lastmodified":1469686090,
    "wof:name":"5654GM",
    "wof:parent_id":101751819,
    "wof:placetype":"postalcode",
    "wof:repo":"whosonfirst-data-postalcode-nl",
    "wof:superseded_by":[],
    "wof:supersedes":[],
    "wof:tags":[]
},
  "bbox": [
    5.460638046264648,
    51.419403076171875,
    5.461652278900146,
    51.419612884521484
],
  "geometry": {"coordinates":[[[5.46125555038452,51.41947937011719],[5.46063804626465,51.41961288452148],[5.46088314056396,51.4195671081543],[5.46165227890015,51.41940307617188],[5.46157312393188,51.41941452026367],[5.46125555038452,51.41947937011719]]],"type":"Polygon"}
}