{
  "id": 890906665,
  "type": "Feature",
  "properties": {
    "clustr:alpha":0.05,
    "clustr:area":5.54,
    "clustr:count":16,
    "clustr:density":2.89,
    "clustr:perimeter":0.12,
    "edtf:cessation":"uuuu",
    "edtf:inception":"uuuu",
    "geom:area":0.0,
    "geom:bbox":"5.39019012451,52.1844863892,5.39073133469,52.1849098206",
    "geom:latitude":52.184699,
    "geom:longitude":5.390454,
    "iso:country":"NL",
    "mz:hierarchy_label":1,
    "mz:is_approximate":1,
    "mz:is_clustr":1,
    "src:geom":"oa",
    "wof:belongsto":[
        85687039,
        102191581,
        404473971,
        85633337,
        101751821
    ],
    "wof:breaches":[],
    "wof:country":"NL",
    "wof:created":1469679492,
    "wof:geomhash":"9492db0d04687d13b1a6d39316edb9da",
    "wof:hierarchy":[
        {
            "continent_id":102191581,
            "country_id":85633337,
            "localadmin_id":404473971,
            "locality_id":101751821,
            "postalcode_id":890906665,
            "region_id":85687039
        }
    ],
    "wof:id":890906665,
    "wof:lastmodified":1469679492,
    "wof:name":"3823ZC",
    "wof:parent_id":101751821,
    "wof:placetype":"postalcode",
    "wof:repo":"whosonfirst-data-postalcode-nl",
    "wof:superseded_by":[],
    "wof:supersedes":[],
    "wof:tags":[]
},
  "bbox": [
    5.390190124511719,
    52.184486389160156,
    5.390731334686279,
    52.18490982055664
],
  "geometry": {"coordinates":[[[5.39054584503174,52.18448638916016],[5.39019012451172,52.18455123901367],[5.39023160934448,52.18465423583984],[5.39028024673462,52.18476104736328],[5.39034986495972,52.18490982055664],[5.39073133468628,52.18484115600586],[5.39060258865356,52.18459320068359],[5.39054584503174,52.18448638916016]]],"type":"Polygon"}
}