{
  "id": 890675947,
  "type": "Feature",
  "properties": {
    "clustr:alpha":0.05,
    "clustr:area":393.17,
    "clustr:count":14,
    "clustr:density":0.04,
    "clustr:perimeter":3.95,
    "edtf:cessation":"uuuu",
    "edtf:inception":"uuuu",
    "geom:area":0.000036,
    "geom:bbox":"5.00019264221,52.9056549072,5.02383518219,52.9183235168",
    "geom:latitude":52.913382,
    "geom:longitude":5.013364,
    "iso:country":"NL",
    "mz:hierarchy_label":1,
    "mz:is_approximate":1,
    "mz:is_clustr":1,
    "src:geom":"oa",
    "wof:belongsto":[
        102191581,
        404474131,
        85633337,
        85687053
    ],
    "wof:breaches":[],
    "wof:country":"NL",
    "wof:created":1469670231,
    "wof:geomhash":"84922b656aa6c65f216cc61d020dbe56",
    "wof:hierarchy":[
        {
            "continent_id":102191581,
            "country_id":85633337,
            "localadmin_id":404474131,
            "postalcode_id":890675947,
            "region_id":85687053
        }
    ],
    "wof:id":890675947,
    "wof:lastmodified":1469670231,
    "wof:name":"1777PJ",
    "wof:parent_id":404474131,
    "wof:placetype":"postalcode",
    "wof:repo":"whosonfirst-data-postalcode-nl",
    "wof:superseded_by":[],
    "wof:supersedes":[],
    "wof:tags":[]
},
  "bbox": [
    5.000192642211914,
    52.90565490722656,
    5.023835182189941,
    52.9183235168457
],
  "geometry": {"coordinates":[[[5.02031230926514,52.91595840454102],[5.01416206359863,52.91274642944336],[5.00019264221191,52.90565490722656],[5.01537942886353,52.91632843017578],[5.02383518218994,52.9183235168457],[5.02031230926514,52.91595840454102]]],"type":"Polygon"}
}