{
  "id": 890813329,
  "type": "Feature",
  "properties": {
    "clustr:alpha":0.05,
    "clustr:area":8.13,
    "clustr:count":10,
    "clustr:density":1.23,
    "clustr:perimeter":0.03,
    "edtf:cessation":"uuuu",
    "edtf:inception":"uuuu",
    "geom:area":0.0,
    "geom:bbox":"4.45933103561,51.9116287231,4.45954322815,51.9116706848",
    "geom:latitude":51.911649,
    "geom:longitude":4.459435,
    "iso:country":"NL",
    "mz:hierarchy_label":1,
    "mz:is_approximate":1,
    "mz:is_clustr":1,
    "src:geom":"oa",
    "wof:belongsto":[
        85687041,
        102191581,
        404474245,
        85633337,
        101751843
    ],
    "wof:breaches":[],
    "wof:country":"NL",
    "wof:created":1469675720,
    "wof:geomhash":"99357508639bd433c177cd44ed707c35",
    "wof:hierarchy":[
        {
            "continent_id":102191581,
            "country_id":85633337,
            "localadmin_id":404474245,
            "locality_id":101751843,
            "postalcode_id":890813329,
            "region_id":85687041
        }
    ],
    "wof:id":890813329,
    "wof:lastmodified":1469675720,
    "wof:name":"3021ZE",
    "wof:parent_id":101751843,
    "wof:placetype":"postalcode",
    "wof:repo":"whosonfirst-data-postalcode-nl",
    "wof:superseded_by":[],
    "wof:supersedes":[],
    "wof:tags":[]
},
  "bbox": [
    4.459331035614014,
    51.91162872314453,
    4.459543228149414,
    51.91167068481445
],
  "geometry": {"coordinates":[[[4.45939874649048,51.91164398193359],[4.45954322814941,51.91167068481445],[4.45947360992432,51.91165542602539],[4.45933103561401,51.91162872314453],[4.45939874649048,51.91164398193359]]],"type":"Polygon"}
}