{
  "id": 891135427,
  "type": "Feature",
  "properties": {
    "clustr:alpha":0.05,
    "clustr:area":527.25,
    "clustr:count":12,
    "clustr:density":0.02,
    "clustr:perimeter":0.66,
    "edtf:cessation":"uuuu",
    "edtf:inception":"uuuu",
    "geom:area":0.000006,
    "geom:bbox":"5.95599746704,50.9045066833,5.96058320999,50.9079780579",
    "geom:latitude":50.906151,
    "geom:longitude":5.958319,
    "iso:country":"NL",
    "mz:hierarchy_label":1,
    "mz:is_approximate":1,
    "mz:is_clustr":1,
    "src:geom":"oa",
    "wof:belongsto":[
        102191581,
        404474485,
        85633337,
        85687033
    ],
    "wof:breaches":[],
    "wof:country":"NL",
    "wof:created":1469688779,
    "wof:geomhash":"4b5d548b77925e412b24839e979c7910",
    "wof:hierarchy":[
        {
            "continent_id":102191581,
            "country_id":85633337,
            "localadmin_id":404474485,
            "postalcode_id":891135427,
            "region_id":85687033
        }
    ],
    "wof:id":891135427,
    "wof:lastmodified":1469688779,
    "wof:name":"6413VR",
    "wof:parent_id":404474485,
    "wof:placetype":"postalcode",
    "wof:repo":"whosonfirst-data-postalcode-nl",
    "wof:superseded_by":[],
    "wof:supersedes":[],
    "wof:tags":[]
},
  "bbox": [
    5.955997467041016,
    50.90450668334961,
    5.960583209991455,
    50.90797805786133
],
  "geometry": {"coordinates":[[[5.9604377746582,50.9079475402832],[5.96058320999146,50.90797805786133],[5.95834827423096,50.90450668334961],[5.95599746704102,50.90592193603516],[5.9604377746582,50.9079475402832]]],"type":"Polygon"}
}