{
  "id": 890606119,
  "type": "Feature",
  "properties": {
    "clustr:alpha":0.05,
    "clustr:area":15.77,
    "clustr:count":44,
    "clustr:density":2.79,
    "clustr:perimeter":0.19,
    "edtf:cessation":"uuuu",
    "edtf:inception":"uuuu",
    "geom:area":0.0,
    "geom:bbox":"4.98236322403,52.2998390198,4.98255109787,52.3006744385",
    "geom:latitude":52.300254,
    "geom:longitude":4.982453,
    "iso:country":"NL",
    "mz:hierarchy_label":1,
    "mz:is_approximate":1,
    "mz:is_clustr":1,
    "src:geom":"oa",
    "wof:belongsto":[
        85687053,
        102191581,
        404474029,
        85633337,
        101751895
    ],
    "wof:breaches":[],
    "wof:country":"NL",
    "wof:created":1469667077,
    "wof:geomhash":"ba12f5ec1dfc3cdda60c806df0aa36cf",
    "wof:hierarchy":[
        {
            "continent_id":102191581,
            "country_id":85633337,
            "localadmin_id":404474029,
            "locality_id":101751895,
            "postalcode_id":890606119,
            "region_id":85687053
        }
    ],
    "wof:id":890606119,
    "wof:lastmodified":1469667077,
    "wof:name":"1106CV",
    "wof:parent_id":101751895,
    "wof:placetype":"postalcode",
    "wof:repo":"whosonfirst-data-postalcode-nl",
    "wof:superseded_by":[],
    "wof:supersedes":[],
    "wof:tags":[]
},
  "bbox": [
    4.982363224029541,
    52.29983901977539,
    4.982551097869873,
    52.30067443847656
],
  "geometry": {"coordinates":[[[4.98250198364258,52.30067443847656],[4.98254776000977,52.30047988891602],[4.98254919052124,52.30035400390625],[4.98255109786987,52.30014419555664],[4.98253774642944,52.30000305175781],[4.98249530792236,52.29983901977539],[4.98248052597046,52.29983901977539],[4.98245096206665,52.29983901977539],[4.9824366569519,52.29983901977539],[4.9824070930481,52.29983901977539],[4.98239231109619,52.29983901977539],[4.98236322402954,52.29985046386719],[4.98237037658691,52.3006591796875],[4.98250198364258,52.30067443847656]]],"type":"Polygon"}
}