{
  "id": 891136221,
  "type": "Feature",
  "properties": {
    "clustr:alpha":0.05,
    "clustr:area":14.29,
    "clustr:count":20,
    "clustr:density":1.4,
    "clustr:perimeter":0.22,
    "edtf:cessation":"uuuu",
    "edtf:inception":"uuuu",
    "geom:area":0.0,
    "geom:bbox":"5.98726606369,50.8913421631,5.98736000061,50.8924102783",
    "geom:latitude":50.891761,
    "geom:longitude":5.987312,
    "iso:country":"NL",
    "mz:hierarchy_label":1,
    "mz:is_approximate":1,
    "mz:is_clustr":1,
    "src:geom":"oa",
    "wof:belongsto":[
        85687033,
        102191581,
        404474485,
        85633337,
        101839245
    ],
    "wof:breaches":[],
    "wof:country":"NL",
    "wof:created":1469688807,
    "wof:geomhash":"30fe0e66f58af99153cbd2cceaab4208",
    "wof:hierarchy":[
        {
            "continent_id":102191581,
            "country_id":85633337,
            "localadmin_id":404474485,
            "locality_id":101839245,
            "postalcode_id":891136221,
            "region_id":85687033
        }
    ],
    "wof:id":891136221,
    "wof:lastmodified":1469688807,
    "wof:name":"6415XS",
    "wof:parent_id":101839245,
    "wof:placetype":"postalcode",
    "wof:repo":"whosonfirst-data-postalcode-nl",
    "wof:superseded_by":[],
    "wof:supersedes":[],
    "wof:tags":[]
},
  "bbox": [
    5.987266063690186,
    50.89134216308594,
    5.987360000610352,
    50.89241027832031
],
  "geometry": {"coordinates":[[[5.98726606369019,50.89151763916016],[5.98727083206177,50.89164733886719],[5.98729372024536,50.89206695556641],[5.98730897903442,50.8923454284668],[5.98731327056885,50.89241027832031],[5.98736000061035,50.89134216308594],[5.98726606369019,50.89151763916016]]],"type":"Polygon"}
}