{
  "id": 891193467,
  "type": "Feature",
  "properties": {
    "clustr:alpha":0.05,
    "clustr:area":48.88,
    "clustr:count":15,
    "clustr:density":0.31,
    "clustr:perimeter":0.2,
    "edtf:cessation":"uuuu",
    "edtf:inception":"uuuu",
    "geom:area":0.0,
    "geom:bbox":"6.24812746048,51.9669647217,6.24848222733,51.9681015015",
    "geom:latitude":51.96752,
    "geom:longitude":6.248281,
    "iso:country":"NL",
    "mz:hierarchy_label":1,
    "mz:is_approximate":1,
    "mz:is_clustr":1,
    "src:geom":"oa",
    "wof:belongsto":[
        85687043,
        102191581,
        404473885,
        85633337,
        101808663
    ],
    "wof:breaches":[],
    "wof:country":"NL",
    "wof:created":1469691142,
    "wof:geomhash":"0078e3690aadc40182c6c0dcb13e92ab",
    "wof:hierarchy":[
        {
            "continent_id":102191581,
            "country_id":85633337,
            "localadmin_id":404473885,
            "locality_id":101808663,
            "postalcode_id":891193467,
            "region_id":85687043
        }
    ],
    "wof:id":891193467,
    "wof:lastmodified":1469691142,
    "wof:name":"7006LC",
    "wof:parent_id":101808663,
    "wof:placetype":"postalcode",
    "wof:repo":"whosonfirst-data-postalcode-nl",
    "wof:superseded_by":[],
    "wof:supersedes":[],
    "wof:tags":[]
},
  "bbox": [
    6.248127460479736,
    51.96696472167969,
    6.248482227325439,
    51.968101501464844
],
  "geometry": {"coordinates":[[[6.24846458435059,51.96758651733398],[6.24848222732544,51.9675407409668],[6.24841737747192,51.96734237670898],[6.24826192855835,51.96701431274414],[6.24821519851685,51.96696472167969],[6.24812746047974,51.96810150146484],[6.24846458435059,51.96758651733398]]],"type":"Polygon"}
}