{
  "id": 907091347,
  "type": "Feature",
  "properties": {
    "clustr:alpha":0.05,
    "clustr:area":565.68,
    "clustr:count":10,
    "clustr:density":0.02,
    "clustr:perimeter":1.09,
    "edtf:cessation":"uuuu",
    "edtf:inception":"uuuu",
    "geom:area":0.000005,
    "geom:bbox":"6.61711835861,52.8207130432,6.62365961075,52.8265609741",
    "geom:latitude":52.822916,
    "geom:longitude":6.620654,
    "iso:country":"NL",
    "mz:hierarchy_label":1,
    "mz:is_approximate":1,
    "mz:is_clustr":1,
    "src:geom":"oa",
    "wof:belongsto":[
        102191581,
        404474649,
        85633337,
        85687051
    ],
    "wof:breaches":[],
    "wof:country":"NL",
    "wof:created":1469698872,
    "wof:geomhash":"cead5cd42f9bc71ad2bca6d2a38a4cc2",
    "wof:hierarchy":[
        {
            "continent_id":102191581,
            "country_id":85633337,
            "localadmin_id":404474649,
            "postalcode_id":907091347,
            "region_id":85687051
        }
    ],
    "wof:id":907091347,
    "wof:lastmodified":1469698872,
    "wof:name":"9438TA",
    "wof:parent_id":404474649,
    "wof:placetype":"postalcode",
    "wof:repo":"whosonfirst-data-postalcode-nl",
    "wof:superseded_by":[],
    "wof:supersedes":[],
    "wof:tags":[]
},
  "bbox": [
    6.617118358612061,
    52.82071304321289,
    6.623659610748291,
    52.826560974121094
],
  "geometry": {"coordinates":[[[6.62137269973755,52.8227424621582],[6.62365961074829,52.82071304321289],[6.62138509750366,52.82131195068359],[6.61717367172241,52.82642364501953],[6.61711835861206,52.82656097412109],[6.62137269973755,52.8227424621582]]],"type":"Polygon"}
}