{
  "id": 907018333,
  "type": "Feature",
  "properties": {
    "clustr:alpha":0.05,
    "clustr:area":12.11,
    "clustr:count":11,
    "clustr:density":0.91,
    "clustr:perimeter":0.17,
    "edtf:cessation":"uuuu",
    "edtf:inception":"uuuu",
    "geom:area":0.0,
    "geom:bbox":"6.07443904877,52.6419219971,6.07491254807,52.6427192688",
    "geom:latitude":52.642288,
    "geom:longitude":6.074676,
    "iso:country":"NL",
    "mz:hierarchy_label":1,
    "mz:is_approximate":1,
    "mz:is_clustr":1,
    "src:geom":"oa",
    "wof:belongsto":[
        85687045,
        102191581,
        404474683,
        85633337,
        101807221
    ],
    "wof:breaches":[],
    "wof:country":"NL",
    "wof:created":1469695160,
    "wof:geomhash":"91fb382c3721b96b8a6fc927d5e32747",
    "wof:hierarchy":[
        {
            "continent_id":102191581,
            "country_id":85633337,
            "localadmin_id":404474683,
            "locality_id":101807221,
            "postalcode_id":907018333,
            "region_id":85687045
        }
    ],
    "wof:id":907018333,
    "wof:lastmodified":1469695160,
    "wof:name":"8064XN",
    "wof:parent_id":101807221,
    "wof:placetype":"postalcode",
    "wof:repo":"whosonfirst-data-postalcode-nl",
    "wof:superseded_by":[],
    "wof:supersedes":[],
    "wof:tags":[]
},
  "bbox": [
    6.07443904876709,
    52.64192199707031,
    6.074912548065186,
    52.64271926879883
],
  "geometry": {"coordinates":[[[6.07448148727417,52.64262008666992],[6.07443904876709,52.64271926879883],[6.07491254806519,52.64192199707031],[6.07472372055054,52.64215087890625],[6.07469511032104,52.64219665527344],[6.07456302642822,52.6424560546875],[6.07448148727417,52.64262008666992]]],"type":"Polygon"}
}