{
  "id": 890748295,
  "type": "Feature",
  "properties": {
    "clustr:alpha":0.05,
    "clustr:area":0.35,
    "clustr:count":36,
    "clustr:density":101.5,
    "clustr:perimeter":0.24,
    "edtf:cessation":"uuuu",
    "edtf:inception":"uuuu",
    "geom:area":0.0,
    "geom:bbox":"4.74802350998,52.0899162292,4.748670578,52.0909156799",
    "geom:latitude":52.090457,
    "geom:longitude":4.748368,
    "iso:country":"NL",
    "mz:hierarchy_label":1,
    "mz:is_approximate":1,
    "mz:is_clustr":1,
    "src:geom":"oa",
    "wof:belongsto":[
        102191581,
        404474153,
        85633337,
        85687041
    ],
    "wof:breaches":[],
    "wof:country":"NL",
    "wof:created":1469673261,
    "wof:geomhash":"191267e84a815e07996f92353f3d33d7",
    "wof:hierarchy":[
        {
            "continent_id":102191581,
            "country_id":85633337,
            "localadmin_id":404474153,
            "postalcode_id":890748295,
            "region_id":85687041
        }
    ],
    "wof:id":890748295,
    "wof:lastmodified":1469673261,
    "wof:name":"2411XS",
    "wof:parent_id":404474153,
    "wof:placetype":"postalcode",
    "wof:repo":"whosonfirst-data-postalcode-nl",
    "wof:superseded_by":[],
    "wof:supersedes":[],
    "wof:tags":[]
},
  "bbox": [
    4.748023509979248,
    52.08991622924805,
    4.74867057800293,
    52.09091567993164
],
  "geometry": {"coordinates":[[[4.74803304672241,52.09076309204102],[4.74804258346558,52.09077453613281],[4.74823474884033,52.09085845947266],[4.7484073638916,52.09091567993164],[4.74849939346313,52.09083557128906],[4.74867057800293,52.09045791625977],[4.74855327606201,52.08991622924805],[4.74847984313965,52.08994293212891],[4.74842071533203,52.0899772644043],[4.74836206436157,52.09001159667969],[4.74828863143921,52.09005737304688],[4.74802350997925,52.09062576293945],[4.74803304672241,52.09076309204102]]],"type":"Polygon"}
}