{
  "id": 907034767,
  "type": "Feature",
  "properties": {
    "clustr:alpha":0.05,
    "clustr:area":0.91,
    "clustr:count":20,
    "clustr:density":22.03,
    "clustr:perimeter":0.17,
    "edtf:cessation":"uuuu",
    "edtf:inception":"uuuu",
    "geom:area":0.0,
    "geom:bbox":"5.90516233444,52.5627746582,5.90531682968,52.5635795593",
    "geom:latitude":52.563252,
    "geom:longitude":5.905223,
    "iso:country":"NL",
    "mz:hierarchy_label":1,
    "mz:is_approximate":1,
    "mz:is_clustr":1,
    "src:geom":"oa",
    "wof:belongsto":[
        85687045,
        102191581,
        404473839,
        85633337,
        101837847
    ],
    "wof:breaches":[],
    "wof:country":"NL",
    "wof:created":1469696034,
    "wof:geomhash":"a73440f2919cf0e0e055a55de8671f4e",
    "wof:hierarchy":[
        {
            "continent_id":102191581,
            "country_id":85633337,
            "localadmin_id":404473839,
            "locality_id":101837847,
            "postalcode_id":907034767,
            "region_id":85687045
        }
    ],
    "wof:id":907034767,
    "wof:lastmodified":1469696034,
    "wof:name":"8262RN",
    "wof:parent_id":101837847,
    "wof:placetype":"postalcode",
    "wof:repo":"whosonfirst-data-postalcode-nl",
    "wof:superseded_by":[],
    "wof:supersedes":[],
    "wof:tags":[]
},
  "bbox": [
    5.905162334442139,
    52.562774658203125,
    5.905316829681396,
    52.56357955932617
],
  "geometry": {"coordinates":[[[5.90526866912842,52.56316757202148],[5.90525674819946,52.5631217956543],[5.90518188476562,52.56283950805664],[5.90516233444214,52.56277465820312],[5.90518236160278,52.56357955932617],[5.9053168296814,52.56344223022461],[5.90528678894043,52.56326293945312],[5.90526866912842,52.56316757202148]]],"type":"Polygon"}
}