{
  "id": 891096137,
  "type": "Feature",
  "properties": {
    "clustr:alpha":0.05,
    "clustr:area":14.35,
    "clustr:count":13,
    "clustr:density":0.91,
    "clustr:perimeter":0.51,
    "edtf:cessation":"uuuu",
    "edtf:inception":"uuuu",
    "geom:area":0.000001,
    "geom:bbox":"6.03924798965,51.2664070129,6.04163789749,51.268196106",
    "geom:latitude":51.267283,
    "geom:longitude":6.040368,
    "iso:country":"NL",
    "mz:hierarchy_label":1,
    "mz:is_approximate":1,
    "mz:is_clustr":1,
    "src:geom":"oa",
    "wof:belongsto":[
        85687033,
        102191581,
        404474473,
        85633337,
        101809489
    ],
    "wof:breaches":[],
    "wof:country":"NL",
    "wof:created":1469687100,
    "wof:geomhash":"b568e32219939dd0cd9aa26159d85c66",
    "wof:hierarchy":[
        {
            "continent_id":102191581,
            "country_id":85633337,
            "localadmin_id":404474473,
            "locality_id":101809489,
            "postalcode_id":891096137,
            "region_id":85687033
        }
    ],
    "wof:id":891096137,
    "wof:lastmodified":1469687100,
    "wof:name":"5954BM",
    "wof:parent_id":101809489,
    "wof:placetype":"postalcode",
    "wof:repo":"whosonfirst-data-postalcode-nl",
    "wof:superseded_by":[],
    "wof:supersedes":[],
    "wof:tags":[]
},
  "bbox": [
    6.039247989654541,
    51.26640701293945,
    6.041637897491455,
    51.26819610595703
],
  "geometry": {"coordinates":[[[6.03924798965454,51.26706695556641],[6.04139614105225,51.26819610595703],[6.04163789749146,51.26808929443359],[6.04002332687378,51.26640701293945],[6.03934526443481,51.26691818237305],[6.03924798965454,51.26706695556641]]],"type":"Polygon"}
}