{
  "id": 891114733,
  "type": "Feature",
  "properties": {
    "clustr:alpha":0.05,
    "clustr:area":12.38,
    "clustr:count":22,
    "clustr:density":1.78,
    "clustr:perimeter":0.87,
    "edtf:cessation":"uuuu",
    "edtf:inception":"uuuu",
    "geom:area":0.000003,
    "geom:bbox":"5.85786437988,50.9865951538,5.86289930344,50.9887809753",
    "geom:latitude":50.987792,
    "geom:longitude":5.860664,
    "iso:country":"NL",
    "mz:hierarchy_label":1,
    "mz:is_approximate":1,
    "mz:is_clustr":1,
    "src:geom":"oa",
    "wof:belongsto":[
        85687033,
        102191581,
        404474675,
        85633337,
        101839313
    ],
    "wof:breaches":[],
    "wof:country":"NL",
    "wof:created":1469687830,
    "wof:geomhash":"bcd4080375e5de17c2df07d351fe70c0",
    "wof:hierarchy":[
        {
            "continent_id":102191581,
            "country_id":85633337,
            "localadmin_id":404474675,
            "locality_id":101839313,
            "postalcode_id":891114733,
            "region_id":85687033
        }
    ],
    "wof:id":891114733,
    "wof:lastmodified":1469687830,
    "wof:name":"6133XM",
    "wof:parent_id":101839313,
    "wof:placetype":"postalcode",
    "wof:repo":"whosonfirst-data-postalcode-nl",
    "wof:superseded_by":[],
    "wof:supersedes":[],
    "wof:tags":[]
},
  "bbox": [
    5.857864379882812,
    50.986595153808594,
    5.862899303436279,
    50.9887809753418
],
  "geometry": {"coordinates":[[[5.85786437988281,50.98863220214844],[5.85798025131226,50.9887809753418],[5.86075067520142,50.98814392089844],[5.86085033416748,50.98811340332031],[5.86184358596802,50.98779678344727],[5.86199998855591,50.98774337768555],[5.86207103729248,50.98771286010742],[5.86264657974243,50.98694610595703],[5.86289930343628,50.98659515380859],[5.85786437988281,50.98863220214844]]],"type":"Polygon"}
}