{
  "id": 891051515,
  "type": "Feature",
  "properties": {
    "clustr:alpha":0.05,
    "clustr:area":17.72,
    "clustr:count":23,
    "clustr:density":1.3,
    "clustr:perimeter":0.17,
    "edtf:cessation":"uuuu",
    "edtf:inception":"uuuu",
    "geom:area":0.0,
    "geom:bbox":"5.40732383728,51.4187927246,5.40814733505,51.4195556641",
    "geom:latitude":51.419088,
    "geom:longitude":5.407671,
    "iso:country":"NL",
    "mz:hierarchy_label":1,
    "mz:is_approximate":1,
    "mz:is_clustr":1,
    "src:geom":"oa",
    "wof:belongsto":[
        85687035,
        102191581,
        404474443,
        85633337,
        101754579
    ],
    "wof:breaches":[],
    "wof:country":"NL",
    "wof:created":1469685419,
    "wof:geomhash":"939daf4accef735d4cd27f18e137a1e9",
    "wof:hierarchy":[
        {
            "continent_id":102191581,
            "country_id":85633337,
            "localadmin_id":404474443,
            "locality_id":101754579,
            "postalcode_id":891051515,
            "region_id":85687035
        }
    ],
    "wof:id":891051515,
    "wof:lastmodified":1469685419,
    "wof:name":"5501EH",
    "wof:parent_id":101754579,
    "wof:placetype":"postalcode",
    "wof:repo":"whosonfirst-data-postalcode-nl",
    "wof:superseded_by":[],
    "wof:supersedes":[],
    "wof:tags":[]
},
  "bbox": [
    5.407323837280273,
    51.418792724609375,
    5.40814733505249,
    51.4195556640625
],
  "geometry": {"coordinates":[[[5.40732383728027,51.41949081420898],[5.40734624862671,51.4195556640625],[5.40814733505249,51.41883850097656],[5.40808296203613,51.4188117980957],[5.40800380706787,51.41879272460938],[5.4077582359314,51.4188117980957],[5.40757131576538,51.41889953613281],[5.4074239730835,51.41909027099609],[5.40732383728027,51.41949081420898]]],"type":"Polygon"}
}