{
  "id": 907075993,
  "type": "Feature",
  "properties": {
    "clustr:alpha":0.05,
    "clustr:area":6.0,
    "clustr:count":6,
    "clustr:density":1.0,
    "clustr:perimeter":0.13,
    "edtf:cessation":"uuuu",
    "edtf:inception":"uuuu",
    "geom:area":0.0,
    "geom:bbox":"6.09699344635,53.0950698853,6.09773159027,53.0954627991",
    "geom:latitude":53.095266,
    "geom:longitude":6.097379,
    "iso:country":"NL",
    "mz:hierarchy_label":1,
    "mz:is_approximate":1,
    "mz:is_clustr":1,
    "src:geom":"oa",
    "wof:belongsto":[
        85687055,
        102191581,
        404473791,
        85633337,
        101806135
    ],
    "wof:breaches":[],
    "wof:country":"NL",
    "wof:created":1469697986,
    "wof:geomhash":"78e3f734194a07835ba0ec7c48ae801e",
    "wof:hierarchy":[
        {
            "continent_id":102191581,
            "country_id":85633337,
            "localadmin_id":404473791,
            "locality_id":101806135,
            "postalcode_id":907075993,
            "region_id":85687055
        }
    ],
    "wof:id":907075993,
    "wof:lastmodified":1469697986,
    "wof:name":"9203LJ",
    "wof:parent_id":101806135,
    "wof:placetype":"postalcode",
    "wof:repo":"whosonfirst-data-postalcode-nl",
    "wof:superseded_by":[],
    "wof:supersedes":[],
    "wof:tags":[]
},
  "bbox": [
    6.096993446350098,
    53.095069885253906,
    6.097731590270996,
    53.095462799072266
],
  "geometry": {"coordinates":[[[6.09708547592163,53.09546279907227],[6.097731590271,53.09544372558594],[6.09770107269287,53.09506988525391],[6.0969934463501,53.09510040283203],[6.09708547592163,53.09546279907227]]],"type":"Polygon"}
}