{
  "id": 890971563,
  "type": "Feature",
  "properties": {
    "clustr:alpha":0.05,
    "clustr:area":19.57,
    "clustr:count":18,
    "clustr:density":0.92,
    "clustr:perimeter":0.29,
    "edtf:cessation":"uuuu",
    "edtf:inception":"uuuu",
    "geom:area":0.0,
    "geom:bbox":"4.39737033844,51.3604316711,4.39857292175,51.3616104126",
    "geom:latitude":51.361026,
    "geom:longitude":4.397965,
    "iso:country":"NL",
    "mz:hierarchy_label":1,
    "mz:is_approximate":1,
    "mz:is_clustr":1,
    "src:geom":"oa",
    "wof:belongsto":[
        85687035,
        102191581,
        404474455,
        85633337,
        101755869
    ],
    "wof:breaches":[],
    "wof:country":"NL",
    "wof:created":1469682263,
    "wof:geomhash":"5851fca3e982045a1380e12aceaf1465",
    "wof:hierarchy":[
        {
            "continent_id":102191581,
            "country_id":85633337,
            "localadmin_id":404474455,
            "locality_id":101755869,
            "postalcode_id":890971563,
            "region_id":85687035
        }
    ],
    "wof:id":890971563,
    "wof:lastmodified":1469682263,
    "wof:name":"4645EM",
    "wof:parent_id":101755869,
    "wof:placetype":"postalcode",
    "wof:repo":"whosonfirst-data-postalcode-nl",
    "wof:superseded_by":[],
    "wof:supersedes":[],
    "wof:tags":[]
},
  "bbox": [
    4.397370338439941,
    51.36043167114258,
    4.39857292175293,
    51.361610412597656
],
  "geometry": {"coordinates":[[[4.39751672744751,51.36147689819336],[4.39791297912598,51.361083984375],[4.39842653274536,51.36057662963867],[4.39857292175293,51.36043167114258],[4.39851474761963,51.36047744750977],[4.39813327789307,51.3608512878418],[4.39745807647705,51.36151885986328],[4.3974142074585,51.36156463623047],[4.39737033843994,51.36161041259766],[4.39751672744751,51.36147689819336]]],"type":"Polygon"}
}