{
  "id": 891221511,
  "type": "Feature",
  "properties": {
    "clustr:alpha":0.05,
    "clustr:area":297.72,
    "clustr:count":20,
    "clustr:density":0.07,
    "clustr:perimeter":0.33,
    "edtf:cessation":"uuuu",
    "edtf:inception":"uuuu",
    "geom:area":0.0,
    "geom:bbox":"6.09212684631,52.2338409424,6.09449625015,52.2361907959",
    "geom:latitude":52.234904,
    "geom:longitude":6.09347,
    "iso:country":"NL",
    "mz:hierarchy_label":1,
    "mz:is_approximate":1,
    "mz:is_clustr":1,
    "src:geom":"oa",
    "wof:belongsto":[
        85687043,
        102191581,
        404473945,
        85633337,
        101807099
    ],
    "wof:breaches":[],
    "wof:country":"NL",
    "wof:created":1469692285,
    "wof:geomhash":"722830bf81c6ecd9195fa4cbdcb2044d",
    "wof:hierarchy":[
        {
            "continent_id":102191581,
            "country_id":85633337,
            "localadmin_id":404473945,
            "locality_id":101807099,
            "postalcode_id":891221511,
            "region_id":85687043
        }
    ],
    "wof:id":891221511,
    "wof:lastmodified":1469692285,
    "wof:name":"7391AZ",
    "wof:parent_id":101807099,
    "wof:placetype":"postalcode",
    "wof:repo":"whosonfirst-data-postalcode-nl",
    "wof:superseded_by":[],
    "wof:supersedes":[],
    "wof:tags":[]
},
  "bbox": [
    6.092126846313477,
    52.23384094238281,
    6.094496250152588,
    52.23619079589844
],
  "geometry": {"coordinates":[[[6.09229516983032,52.23599624633789],[6.09212684631348,52.23619079589844],[6.09218311309815,52.23614120483398],[6.09312152862549,52.23530960083008],[6.09321737289429,52.23522186279297],[6.09422636032104,52.2342414855957],[6.09444713592529,52.23397064208984],[6.09449625015259,52.23384094238281],[6.09229516983032,52.23599624633789]]],"type":"Polygon"}
}