{
  "id": 891281329,
  "type": "Feature",
  "properties": {
    "clustr:alpha":0.05,
    "clustr:area":12.83,
    "clustr:count":59,
    "clustr:density":4.6,
    "clustr:perimeter":0.31,
    "edtf:cessation":"uuuu",
    "edtf:inception":"uuuu",
    "geom:area":0.000001,
    "geom:bbox":"6.32009077072,52.8545799255,6.32169008255,52.8553848267",
    "geom:latitude":52.854985,
    "geom:longitude":6.32096,
    "iso:country":"NL",
    "mz:hierarchy_label":1,
    "mz:is_approximate":1,
    "mz:is_clustr":1,
    "src:geom":"oa",
    "wof:belongsto":[
        85687051,
        102191581,
        404474613,
        85633337,
        101807287
    ],
    "wof:breaches":[],
    "wof:country":"NL",
    "wof:created":1469694752,
    "wof:geomhash":"7107690b88943d5c417849c2dcee7483",
    "wof:hierarchy":[
        {
            "continent_id":102191581,
            "country_id":85633337,
            "localadmin_id":404474613,
            "locality_id":101807287,
            "postalcode_id":891281329,
            "region_id":85687051
        }
    ],
    "wof:id":891281329,
    "wof:lastmodified":1469694752,
    "wof:name":"7981AH",
    "wof:parent_id":101807287,
    "wof:placetype":"postalcode",
    "wof:repo":"whosonfirst-data-postalcode-nl",
    "wof:superseded_by":[],
    "wof:supersedes":[],
    "wof:tags":[]
},
  "bbox": [
    6.320090770721436,
    52.85457992553711,
    6.321690082550049,
    52.855384826660156
],
  "geometry": {"coordinates":[[[6.32126569747925,52.85535430908203],[6.32154512405396,52.85523223876953],[6.32167673110962,52.85514450073242],[6.32169008255005,52.85507965087891],[6.32168483734131,52.85482025146484],[6.32156467437744,52.85475921630859],[6.32009077072144,52.85457992553711],[6.32061147689819,52.85533142089844],[6.32083559036255,52.85538482666016],[6.32116222381592,52.85538101196289],[6.32126569747925,52.85535430908203]]],"type":"Polygon"}
}