{
  "id": 907108439,
  "type": "Feature",
  "properties": {
    "clustr:alpha":0.05,
    "clustr:area":29.61,
    "clustr:count":20,
    "clustr:density":0.68,
    "clustr:perimeter":0.09,
    "edtf:cessation":"uuuu",
    "edtf:inception":"uuuu",
    "geom:area":0.0,
    "geom:bbox":"6.56890535355,53.2280158997,6.56944561005,53.2284126282",
    "geom:latitude":53.228204,
    "geom:longitude":6.569189,
    "iso:country":"NL",
    "mz:hierarchy_label":1,
    "mz:is_approximate":1,
    "mz:is_clustr":1,
    "src:geom":"oa",
    "wof:belongsto":[
        85687059,
        102191581,
        404473713,
        85633337,
        101751909
    ],
    "wof:breaches":[],
    "wof:country":"NL",
    "wof:created":1469699817,
    "wof:geomhash":"6805120fffc7f96cf6b895459f3fc3cf",
    "wof:hierarchy":[
        {
            "continent_id":102191581,
            "country_id":85633337,
            "localadmin_id":404473713,
            "locality_id":101751909,
            "postalcode_id":907108439,
            "region_id":85687059
        }
    ],
    "wof:id":907108439,
    "wof:lastmodified":1469699817,
    "wof:name":"9714CR",
    "wof:parent_id":101751909,
    "wof:placetype":"postalcode",
    "wof:repo":"whosonfirst-data-postalcode-nl",
    "wof:superseded_by":[],
    "wof:supersedes":[],
    "wof:tags":[]
},
  "bbox": [
    6.568905353546143,
    53.2280158996582,
    6.569445610046387,
    53.22841262817383
],
  "geometry": {"coordinates":[[[6.56921482086182,53.22817993164062],[6.56904315948486,53.22830581665039],[6.56890535354614,53.22841262817383],[6.56896352767944,53.22837066650391],[6.56941986083984,53.2280387878418],[6.56944561004639,53.2280158996582],[6.56921482086182,53.22817993164062]]],"type":"Polygon"}
}