{
  "id": 891122255,
  "type": "Feature",
  "properties": {
    "clustr:alpha":0.05,
    "clustr:area":31.52,
    "clustr:count":28,
    "clustr:density":0.89,
    "clustr:perimeter":1.11,
    "edtf:cessation":"uuuu",
    "edtf:inception":"uuuu",
    "geom:area":0.000001,
    "geom:bbox":"5.6543879509,50.8426322937,5.65836143494,50.8470420837",
    "geom:latitude":50.844517,
    "geom:longitude":5.656608,
    "iso:country":"NL",
    "mz:hierarchy_label":1,
    "mz:is_approximate":1,
    "mz:is_clustr":1,
    "src:geom":"oa",
    "wof:belongsto":[
        85687033,
        102191581,
        404474495,
        85633337,
        101751803
    ],
    "wof:breaches":[],
    "wof:country":"NL",
    "wof:created":1469688103,
    "wof:geomhash":"e7542bd78eb17d03201fef7e68242489",
    "wof:hierarchy":[
        {
            "continent_id":102191581,
            "country_id":85633337,
            "localadmin_id":404474495,
            "locality_id":101751803,
            "postalcode_id":891122255,
            "region_id":85687033
        }
    ],
    "wof:id":891122255,
    "wof:lastmodified":1469688103,
    "wof:name":"6216TD",
    "wof:parent_id":101751803,
    "wof:placetype":"postalcode",
    "wof:repo":"whosonfirst-data-postalcode-nl",
    "wof:superseded_by":[],
    "wof:supersedes":[],
    "wof:tags":[]
},
  "bbox": [
    5.654387950897217,
    50.84263229370117,
    5.658361434936523,
    50.847042083740234
],
  "geometry": {"coordinates":[[[5.65461778640747,50.84685134887695],[5.65754795074463,50.84375],[5.65832471847534,50.84269714355469],[5.65836143493652,50.84263229370117],[5.65710496902466,50.84360122680664],[5.65438795089722,50.84704208374023],[5.65461778640747,50.84685134887695]]],"type":"Polygon"}
}