{
  "id": 890674021,
  "type": "Feature",
  "properties": {
    "clustr:alpha":0.05,
    "clustr:area":46.88,
    "clustr:count":23,
    "clustr:density":0.49,
    "clustr:perimeter":0.49,
    "edtf:cessation":"uuuu",
    "edtf:inception":"uuuu",
    "geom:area":0.000001,
    "geom:bbox":"4.69605970383,52.836681366,4.69772148132,52.8387489319",
    "geom:latitude":52.837751,
    "geom:longitude":4.696759,
    "iso:country":"NL",
    "mz:hierarchy_label":1,
    "mz:is_approximate":1,
    "mz:is_clustr":1,
    "src:geom":"oa",
    "wof:belongsto":[
        85687053,
        102191581,
        404474137,
        85633337,
        101807333
    ],
    "wof:breaches":[],
    "wof:country":"NL",
    "wof:created":1469670142,
    "wof:geomhash":"80c5fd9c1556b5699cb7b75bdf4dbf83",
    "wof:hierarchy":[
        {
            "continent_id":102191581,
            "country_id":85633337,
            "localadmin_id":404474137,
            "locality_id":101807333,
            "postalcode_id":890674021,
            "region_id":85687053
        }
    ],
    "wof:id":890674021,
    "wof:lastmodified":1469670142,
    "wof:name":"1759GA",
    "wof:parent_id":101807333,
    "wof:placetype":"postalcode",
    "wof:repo":"whosonfirst-data-postalcode-nl",
    "wof:superseded_by":[],
    "wof:supersedes":[],
    "wof:tags":[]
},
  "bbox": [
    4.696059703826904,
    52.8366813659668,
    4.697721481323242,
    52.838748931884766
],
  "geometry": {"coordinates":[[[4.69734382629395,52.83684539794922],[4.69643211364746,52.83769607543945],[4.6960597038269,52.83842468261719],[4.69632339477539,52.83874893188477],[4.69772148132324,52.8366813659668],[4.69734382629395,52.83684539794922]]],"type":"Polygon"}
}