{
  "id": 891271621,
  "type": "Feature",
  "properties": {
    "clustr:alpha":0.05,
    "clustr:area":7.93,
    "clustr:count":56,
    "clustr:density":7.06,
    "clustr:perimeter":0.28,
    "edtf:cessation":"uuuu",
    "edtf:inception":"uuuu",
    "geom:area":0.000001,
    "geom:bbox":"6.84914827347,52.8469200134,6.85074090958,52.847454071",
    "geom:latitude":52.847215,
    "geom:longitude":6.849969,
    "iso:country":"NL",
    "mz:hierarchy_label":1,
    "mz:is_approximate":1,
    "mz:is_clustr":1,
    "src:geom":"oa",
    "wof:belongsto":[
        85687051,
        102191581,
        404474595,
        85633337,
        101807315
    ],
    "wof:breaches":[],
    "wof:country":"NL",
    "wof:created":1469694310,
    "wof:geomhash":"ae09927a292247c0858739d15cf693a1",
    "wof:hierarchy":[
        {
            "continent_id":102191581,
            "country_id":85633337,
            "localadmin_id":404474595,
            "locality_id":101807315,
            "postalcode_id":891271621,
            "region_id":85687051
        }
    ],
    "wof:id":891271621,
    "wof:lastmodified":1469694310,
    "wof:name":"7873BD",
    "wof:parent_id":101807315,
    "wof:placetype":"postalcode",
    "wof:repo":"whosonfirst-data-postalcode-nl",
    "wof:superseded_by":[],
    "wof:supersedes":[],
    "wof:tags":[]
},
  "bbox": [
    6.849148273468018,
    52.846920013427734,
    6.850740909576416,
    52.84745407104492
],
  "geometry": {"coordinates":[[[6.84928369522095,52.84745025634766],[6.85047817230225,52.84745407104492],[6.8505220413208,52.84736633300781],[6.85061168670654,52.84718704223633],[6.85065364837646,52.84710311889648],[6.85074090957642,52.84692764282227],[6.85067129135132,52.84692001342773],[6.84987878799438,52.84698104858398],[6.84929609298706,52.84711074829102],[6.84920644760132,52.84729766845703],[6.84914827346802,52.84741973876953],[6.84921598434448,52.84744262695312],[6.84928369522095,52.84745025634766]]],"type":"Polygon"}
}