{
  "id": 890856235,
  "type": "Feature",
  "properties": {
    "clustr:alpha":0.05,
    "clustr:area":14.05,
    "clustr:count":30,
    "clustr:density":2.13,
    "clustr:perimeter":0.14,
    "edtf:cessation":"uuuu",
    "edtf:inception":"uuuu",
    "geom:area":0.0,
    "geom:bbox":"4.64182329178,51.8183860779,4.64245128632,51.8189544678",
    "geom:latitude":51.818668,
    "geom:longitude":4.642136,
    "iso:country":"NL",
    "mz:hierarchy_label":1,
    "mz:is_approximate":1,
    "mz:is_clustr":1,
    "src:geom":"oa",
    "wof:belongsto":[
        85687041,
        102191581,
        404474291,
        85633337,
        101754703
    ],
    "wof:breaches":[],
    "wof:country":"NL",
    "wof:created":1469677347,
    "wof:geomhash":"49eb85c792b7e098ceeb96250e9065dd",
    "wof:hierarchy":[
        {
            "continent_id":102191581,
            "country_id":85633337,
            "localadmin_id":404474291,
            "locality_id":101754703,
            "postalcode_id":890856235,
            "region_id":85687041
        }
    ],
    "wof:id":890856235,
    "wof:lastmodified":1469677347,
    "wof:name":"3331CB",
    "wof:parent_id":101754703,
    "wof:placetype":"postalcode",
    "wof:repo":"whosonfirst-data-postalcode-nl",
    "wof:superseded_by":[],
    "wof:supersedes":[],
    "wof:tags":[]
},
  "bbox": [
    4.641823291778564,
    51.81838607788086,
    4.642451286315918,
    51.81895446777344
],
  "geometry": {"coordinates":[[[4.64187431335449,51.81838607788086],[4.64182329177856,51.81840515136719],[4.64195203781128,51.81852722167969],[4.64208078384399,51.81864929199219],[4.64227485656738,51.81883239746094],[4.64240694046021,51.81895446777344],[4.64245128631592,51.81893539428711],[4.64238929748535,51.81887435913086],[4.64232587814331,51.81881332397461],[4.6419997215271,51.81850433349609],[4.64187431335449,51.81838607788086]]],"type":"Polygon"}
}