{
  "id": 891003683,
  "type": "Feature",
  "properties": {
    "clustr:alpha":0.05,
    "clustr:area":17.55,
    "clustr:count":15,
    "clustr:density":0.85,
    "clustr:perimeter":0.15,
    "edtf:cessation":"uuuu",
    "edtf:inception":"uuuu",
    "geom:area":0.0,
    "geom:bbox":"5.05255317688,51.5517272949,5.05328512192,51.5523147583",
    "geom:latitude":51.552051,
    "geom:longitude":5.052958,
    "iso:country":"NL",
    "mz:hierarchy_label":1,
    "mz:is_approximate":1,
    "mz:is_clustr":1,
    "src:geom":"oa",
    "wof:belongsto":[
        85687035,
        102191581,
        404474435,
        85633337,
        101751817
    ],
    "wof:breaches":[],
    "wof:country":"NL",
    "wof:created":1469683612,
    "wof:geomhash":"8400de865714c5cfa923ad6a3498421b",
    "wof:hierarchy":[
        {
            "continent_id":102191581,
            "country_id":85633337,
            "localadmin_id":404474435,
            "locality_id":101751817,
            "postalcode_id":891003683,
            "region_id":85687035
        }
    ],
    "wof:id":891003683,
    "wof:lastmodified":1469683612,
    "wof:name":"5037RV",
    "wof:parent_id":101751817,
    "wof:placetype":"postalcode",
    "wof:repo":"whosonfirst-data-postalcode-nl",
    "wof:superseded_by":[],
    "wof:supersedes":[],
    "wof:tags":[]
},
  "bbox": [
    5.052553176879883,
    51.551727294921875,
    5.053285121917725,
    51.55231475830078
],
  "geometry": {"coordinates":[[[5.05307912826538,51.55214691162109],[5.05292177200317,51.55202102661133],[5.05286931991577,51.55197906494141],[5.05255317687988,51.55172729492188],[5.05271005630493,51.55185317993164],[5.05328512191772,51.55231475830078],[5.05323362350464,51.55227279663086],[5.05307912826538,51.55214691162109]]],"type":"Polygon"}
}