{
  "id": 891182975,
  "type": "Feature",
  "properties": {
    "clustr:alpha":0.05,
    "clustr:area":92.52,
    "clustr:count":10,
    "clustr:density":0.11,
    "clustr:perimeter":0.13,
    "edtf:cessation":"uuuu",
    "edtf:inception":"uuuu",
    "geom:area":0.0,
    "geom:bbox":"5.96277236938,52.0021133423,5.96407318115,52.0022926331",
    "geom:latitude":52.002221,
    "geom:longitude":5.963364,
    "iso:country":"NL",
    "mz:hierarchy_label":1,
    "mz:is_approximate":1,
    "mz:is_clustr":1,
    "src:geom":"oa",
    "wof:belongsto":[
        85687043,
        102191581,
        404473935,
        85633337,
        101754767
    ],
    "wof:breaches":[],
    "wof:country":"NL",
    "wof:created":1469690720,
    "wof:geomhash":"06be99050d957f9326e8e377a3b20baf",
    "wof:hierarchy":[
        {
            "continent_id":102191581,
            "country_id":85633337,
            "localadmin_id":404473935,
            "locality_id":101754767,
            "postalcode_id":891182975,
            "region_id":85687043
        }
    ],
    "wof:id":891182975,
    "wof:lastmodified":1469690720,
    "wof:name":"6891AX",
    "wof:parent_id":101754767,
    "wof:placetype":"postalcode",
    "wof:repo":"whosonfirst-data-postalcode-nl",
    "wof:superseded_by":[],
    "wof:supersedes":[],
    "wof:tags":[]
},
  "bbox": [
    5.962772369384766,
    52.002113342285156,
    5.964073181152344,
    52.00229263305664
],
  "geometry": {"coordinates":[[[5.96309852600098,52.00224685668945],[5.96277236938477,52.00229263305664],[5.96323156356812,52.00226211547852],[5.96407318115234,52.00211334228516],[5.96384382247925,52.00214385986328],[5.96309852600098,52.00224685668945]]],"type":"Polygon"}
}