{
  "id": 890796581,
  "type": "Feature",
  "properties": {
    "clustr:alpha":0.05,
    "clustr:area":2.25,
    "clustr:count":18,
    "clustr:density":7.99,
    "clustr:perimeter":0.06,
    "edtf:cessation":"uuuu",
    "edtf:inception":"uuuu",
    "geom:area":0.0,
    "geom:bbox":"4.70231389999,52.0351104736,4.70241737366,52.0354537964",
    "geom:latitude":52.035293,
    "geom:longitude":4.702364,
    "iso:country":"NL",
    "mz:hierarchy_label":1,
    "mz:is_approximate":1,
    "mz:is_clustr":1,
    "src:geom":"oa",
    "wof:belongsto":[
        85687041,
        102191581,
        404474177,
        85633337,
        101751839
    ],
    "wof:breaches":[],
    "wof:country":"NL",
    "wof:created":1469675097,
    "wof:geomhash":"9d91d504b033a75c13227ae90dd93dea",
    "wof:hierarchy":[
        {
            "continent_id":102191581,
            "country_id":85633337,
            "localadmin_id":404474177,
            "locality_id":101751839,
            "postalcode_id":890796581,
            "region_id":85687041
        }
    ],
    "wof:id":890796581,
    "wof:lastmodified":1469675097,
    "wof:name":"2804SH",
    "wof:parent_id":101751839,
    "wof:placetype":"postalcode",
    "wof:repo":"whosonfirst-data-postalcode-nl",
    "wof:superseded_by":[],
    "wof:supersedes":[],
    "wof:tags":[]
},
  "bbox": [
    4.702313899993896,
    52.03511047363281,
    4.702417373657227,
    52.03545379638672
],
  "geometry": {"coordinates":[[[4.70241737365723,52.03532028198242],[4.70237970352173,52.03511047363281],[4.70235967636108,52.03511428833008],[4.7023138999939,52.03536605834961],[4.70232963562012,52.03545379638672],[4.70234966278076,52.03544998168945],[4.70241737365723,52.03532028198242]]],"type":"Polygon"}
}