{
  "id": 907055095,
  "type": "Feature",
  "properties": {
    "clustr:alpha":0.05,
    "clustr:area":5.06,
    "clustr:count":14,
    "clustr:density":2.77,
    "clustr:perimeter":0.07,
    "edtf:cessation":"uuuu",
    "edtf:inception":"uuuu",
    "geom:area":0.0,
    "geom:bbox":"5.67589521408,53.0319671631,5.67613220215,53.0323219299",
    "geom:latitude":53.032116,
    "geom:longitude":5.675997,
    "iso:country":"NL",
    "mz:hierarchy_label":1,
    "mz:is_approximate":1,
    "mz:is_clustr":1,
    "src:geom":"oa",
    "wof:belongsto":[
        85687055,
        102191581,
        404473793,
        85633337,
        101837971
    ],
    "wof:breaches":[],
    "wof:country":"NL",
    "wof:created":1469697034,
    "wof:geomhash":"0141b13762502c2caa01483d52a36902",
    "wof:hierarchy":[
        {
            "continent_id":102191581,
            "country_id":85633337,
            "localadmin_id":404473793,
            "locality_id":101837971,
            "postalcode_id":907055095,
            "region_id":85687055
        }
    ],
    "wof:id":907055095,
    "wof:lastmodified":1469697034,
    "wof:name":"8605BT",
    "wof:parent_id":101837971,
    "wof:placetype":"postalcode",
    "wof:repo":"whosonfirst-data-postalcode-nl",
    "wof:superseded_by":[],
    "wof:supersedes":[],
    "wof:tags":[]
},
  "bbox": [
    5.675895214080811,
    53.03196716308594,
    5.676132202148438,
    53.03232192993164
],
  "geometry": {"coordinates":[[[5.6759729385376,53.03214645385742],[5.67598581314087,53.03217315673828],[5.67607927322388,53.03226852416992],[5.67613220214844,53.03232192993164],[5.67595291137695,53.03196716308594],[5.67589521408081,53.03197479248047],[5.67590618133545,53.03200149536133],[5.67591762542725,53.03202819824219],[5.6759729385376,53.03214645385742]]],"type":"Polygon"}
}