{
  "id": 891025411,
  "type": "Feature",
  "properties": {
    "clustr:alpha":0.05,
    "clustr:area":136.81,
    "clustr:count":18,
    "clustr:density":0.13,
    "clustr:perimeter":0.28,
    "edtf:cessation":"uuuu",
    "edtf:inception":"uuuu",
    "geom:area":0.0,
    "geom:bbox":"5.35073280334,51.7170944214,5.35318613052,51.7177505493",
    "geom:latitude":51.717449,
    "geom:longitude":5.352043,
    "iso:country":"NL",
    "mz:hierarchy_label":1,
    "mz:is_approximate":1,
    "mz:is_clustr":1,
    "src:geom":"oa",
    "wof:belongsto":[
        85687035,
        102191581,
        404474393,
        85633337,
        101754587
    ],
    "wof:breaches":[],
    "wof:country":"NL",
    "wof:created":1469684445,
    "wof:geomhash":"3502e9b946821781f249132dfdaeeace",
    "wof:hierarchy":[
        {
            "continent_id":102191581,
            "country_id":85633337,
            "localadmin_id":404474393,
            "locality_id":101754587,
            "postalcode_id":891025411,
            "region_id":85687035
        }
    ],
    "wof:id":891025411,
    "wof:lastmodified":1469684445,
    "wof:name":"5241XH",
    "wof:parent_id":101754587,
    "wof:placetype":"postalcode",
    "wof:repo":"whosonfirst-data-postalcode-nl",
    "wof:superseded_by":[],
    "wof:supersedes":[],
    "wof:tags":[]
},
  "bbox": [
    5.350732803344727,
    51.71709442138672,
    5.353186130523682,
    51.717750549316406
],
  "geometry": {"coordinates":[[[5.35177278518677,51.71735000610352],[5.35161066055298,51.71730422973633],[5.35150909423828,51.71727752685547],[5.35073280334473,51.71709442138672],[5.35258817672729,51.71762847900391],[5.35269737243652,51.71765518188477],[5.35318613052368,51.71775054931641],[5.35291719436646,51.71767425537109],[5.35177278518677,51.71735000610352]]],"type":"Polygon"}
}