{
  "id": 890755625,
  "type": "Feature",
  "properties": {
    "clustr:alpha":0.05,
    "clustr:area":20.55,
    "clustr:count":17,
    "clustr:density":0.83,
    "clustr:perimeter":0.05,
    "edtf:cessation":"uuuu",
    "edtf:inception":"uuuu",
    "geom:area":0.0,
    "geom:bbox":"4.33082771301,52.0613975525,4.33108091354,52.061668396",
    "geom:latitude":52.061545,
    "geom:longitude":4.330943,
    "iso:country":"NL",
    "mz:hierarchy_label":1,
    "mz:is_approximate":1,
    "mz:is_clustr":1,
    "src:geom":"oa",
    "wof:belongsto":[
        85687041,
        102191581,
        404474251,
        85633337,
        101754743
    ],
    "wof:breaches":[],
    "wof:country":"NL",
    "wof:created":1469673557,
    "wof:geomhash":"717b83c72ca5520ed94d21c4762ccd19",
    "wof:hierarchy":[
        {
            "continent_id":102191581,
            "country_id":85633337,
            "localadmin_id":404474251,
            "locality_id":101754743,
            "postalcode_id":890755625,
            "region_id":85687041
        }
    ],
    "wof:id":890755625,
    "wof:lastmodified":1469673557,
    "wof:name":"2522DA",
    "wof:parent_id":101754743,
    "wof:placetype":"postalcode",
    "wof:repo":"whosonfirst-data-postalcode-nl",
    "wof:superseded_by":[],
    "wof:supersedes":[],
    "wof:tags":[]
},
  "bbox": [
    4.330827713012695,
    52.061397552490234,
    4.331080913543701,
    52.061668395996094
],
  "geometry": {"coordinates":[[[4.33087539672852,52.06161499023438],[4.3308277130127,52.06166839599609],[4.33097553253174,52.0615119934082],[4.3310809135437,52.06139755249023],[4.33103036880493,52.06145095825195],[4.33087539672852,52.06161499023438]]],"type":"Polygon"}
}