{
  "id": 891012445,
  "type": "Feature",
  "properties": {
    "clustr:alpha":0.05,
    "clustr:area":11.11,
    "clustr:count":17,
    "clustr:density":1.53,
    "clustr:perimeter":0.25,
    "edtf:cessation":"uuuu",
    "edtf:inception":"uuuu",
    "geom:area":0.0,
    "geom:bbox":"4.93055343628,51.6334877014,4.93224716187,51.6337585449",
    "geom:latitude":51.633638,
    "geom:longitude":4.931247,
    "iso:country":"NL",
    "mz:hierarchy_label":1,
    "mz:is_approximate":1,
    "mz:is_clustr":1,
    "src:geom":"oa",
    "wof:belongsto":[
        85687035,
        102191581,
        404474369,
        85633337,
        101839345
    ],
    "wof:breaches":[],
    "wof:country":"NL",
    "wof:created":1469683951,
    "wof:geomhash":"dddfb7993eafcb0fbbc850a886d59490",
    "wof:hierarchy":[
        {
            "continent_id":102191581,
            "country_id":85633337,
            "localadmin_id":404474369,
            "locality_id":101839345,
            "postalcode_id":891012445,
            "region_id":85687035
        }
    ],
    "wof:id":891012445,
    "wof:lastmodified":1469683951,
    "wof:name":"5102AL",
    "wof:parent_id":101839345,
    "wof:placetype":"postalcode",
    "wof:repo":"whosonfirst-data-postalcode-nl",
    "wof:superseded_by":[],
    "wof:supersedes":[],
    "wof:tags":[]
},
  "bbox": [
    4.930553436279297,
    51.633487701416016,
    4.932247161865234,
    51.633758544921875
],
  "geometry": {"coordinates":[[[4.93109703063965,51.63350296020508],[4.93069505691528,51.63357543945312],[4.9305534362793,51.63375854492188],[4.93224716186523,51.63368606567383],[4.93118572235107,51.63348770141602],[4.93109703063965,51.63350296020508]]],"type":"Polygon"}
}