{
  "id": 890747553,
  "type": "Feature",
  "properties": {
    "clustr:alpha":0.05,
    "clustr:area":105.61,
    "clustr:count":24,
    "clustr:density":0.23,
    "clustr:perimeter":0.2,
    "edtf:cessation":"uuuu",
    "edtf:inception":"uuuu",
    "geom:area":0.0,
    "geom:bbox":"4.64428710938,52.119392395,4.64593887329,52.1200561523",
    "geom:latitude":52.119768,
    "geom:longitude":4.644988,
    "iso:country":"NL",
    "mz:hierarchy_label":1,
    "mz:is_approximate":1,
    "mz:is_clustr":1,
    "src:geom":"oa",
    "wof:belongsto":[
        85687041,
        102191581,
        404474147,
        85633337,
        101751837
    ],
    "wof:breaches":[],
    "wof:country":"NL",
    "wof:created":1469673236,
    "wof:geomhash":"9d5fb92c33838f9062b096391f39093e",
    "wof:hierarchy":[
        {
            "continent_id":102191581,
            "country_id":85633337,
            "localadmin_id":404474147,
            "locality_id":101751837,
            "postalcode_id":890747553,
            "region_id":85687041
        }
    ],
    "wof:id":890747553,
    "wof:lastmodified":1469673236,
    "wof:name":"2408TZ",
    "wof:parent_id":101751837,
    "wof:placetype":"postalcode",
    "wof:repo":"whosonfirst-data-postalcode-nl",
    "wof:superseded_by":[],
    "wof:supersedes":[],
    "wof:tags":[]
},
  "bbox": [
    4.644287109375,
    52.11939239501953,
    4.645938873291016,
    52.12005615234375
],
  "geometry": {"coordinates":[[[4.644287109375,52.12004089355469],[4.64430618286133,52.12005615234375],[4.64593887329102,52.11939239501953],[4.64586400985718,52.11941909790039],[4.64572763442993,52.11946868896484],[4.645592212677,52.1195182800293],[4.64532327651978,52.11962127685547],[4.64525699615479,52.11964797973633],[4.64519071578979,52.11967468261719],[4.6451244354248,52.11970138549805],[4.644287109375,52.12004089355469]]],"type":"Polygon"}
}