{
  "id": 891263665,
  "type": "Feature",
  "properties": {
    "clustr:alpha":0.05,
    "clustr:area":31.51,
    "clustr:count":20,
    "clustr:density":0.63,
    "clustr:perimeter":0.16,
    "edtf:cessation":"uuuu",
    "edtf:inception":"uuuu",
    "geom:area":0.0,
    "geom:bbox":"6.73761987686,52.6594657898,6.7386932373,52.6598968506",
    "geom:latitude":52.659672,
    "geom:longitude":6.738119,
    "iso:country":"NL",
    "mz:hierarchy_label":1,
    "mz:is_approximate":1,
    "mz:is_clustr":1,
    "src:geom":"oa",
    "wof:belongsto":[
        85687051,
        102191581,
        404473807,
        85633337,
        101807741
    ],
    "wof:breaches":[],
    "wof:country":"NL",
    "wof:created":1469693970,
    "wof:geomhash":"c313ec46bdb1d4119b196284a309a18c",
    "wof:hierarchy":[
        {
            "continent_id":102191581,
            "country_id":85633337,
            "localadmin_id":404473807,
            "locality_id":101807741,
            "postalcode_id":891263665,
            "region_id":85687051
        }
    ],
    "wof:id":891263665,
    "wof:lastmodified":1469693970,
    "wof:name":"7741HV",
    "wof:parent_id":101807741,
    "wof:placetype":"postalcode",
    "wof:repo":"whosonfirst-data-postalcode-nl",
    "wof:superseded_by":[],
    "wof:supersedes":[],
    "wof:tags":[]
},
  "bbox": [
    6.737619876861572,
    52.65946578979492,
    6.738693237304688,
    52.65989685058594
],
  "geometry": {"coordinates":[[[6.73834753036499,52.65956115722656],[6.73818063735962,52.65961074829102],[6.73805856704712,52.65965270996094],[6.73781871795654,52.65977096557617],[6.73761987686157,52.65989685058594],[6.73869323730469,52.65946578979492],[6.7386417388916,52.65947723388672],[6.738600730896,52.65948867797852],[6.73834753036499,52.65956115722656]]],"type":"Polygon"}
}