{
  "id": 890748821,
  "type": "Feature",
  "properties": {
    "clustr:alpha":0.05,
    "clustr:area":87.61,
    "clustr:count":17,
    "clustr:density":0.19,
    "clustr:perimeter":0.15,
    "edtf:cessation":"uuuu",
    "edtf:inception":"uuuu",
    "geom:area":0.0,
    "geom:bbox":"4.77146291733,52.1466369629,4.77253866196,52.1474761963",
    "geom:latitude":52.147077,
    "geom:longitude":4.771892,
    "iso:country":"NL",
    "mz:hierarchy_label":1,
    "mz:is_approximate":1,
    "mz:is_clustr":1,
    "src:geom":"oa",
    "wof:belongsto":[
        85687041,
        102191581,
        404474217,
        85633337,
        101807051
    ],
    "wof:breaches":[],
    "wof:country":"NL",
    "wof:created":1469673283,
    "wof:geomhash":"e528c7958c87e69f1185da3003575c5d",
    "wof:hierarchy":[
        {
            "continent_id":102191581,
            "country_id":85633337,
            "localadmin_id":404474217,
            "locality_id":101807051,
            "postalcode_id":890748821,
            "region_id":85687041
        }
    ],
    "wof:id":890748821,
    "wof:lastmodified":1469673283,
    "wof:name":"2421VB",
    "wof:parent_id":101807051,
    "wof:placetype":"postalcode",
    "wof:repo":"whosonfirst-data-postalcode-nl",
    "wof:superseded_by":[],
    "wof:supersedes":[],
    "wof:tags":[]
},
  "bbox": [
    4.771462917327881,
    52.146636962890625,
    4.772538661956787,
    52.14747619628906
],
  "geometry": {"coordinates":[[[4.7717456817627,52.14668273925781],[4.77157115936279,52.14663696289062],[4.77146291732788,52.14707565307617],[4.77194166183472,52.14733123779297],[4.77202892303467,52.14735794067383],[4.77218866348267,52.14740371704102],[4.77245092391968,52.14746856689453],[4.77253866195679,52.14747619628906],[4.7717456817627,52.14668273925781]]],"type":"Polygon"}
}