{
  "id": 891170341,
  "type": "Feature",
  "properties": {
    "clustr:alpha":0.05,
    "clustr:area":110.35,
    "clustr:count":66,
    "clustr:density":0.6,
    "clustr:perimeter":0.32,
    "edtf:cessation":"uuuu",
    "edtf:inception":"uuuu",
    "geom:area":0.000001,
    "geom:bbox":"5.66182661057,52.0036087036,5.66354036331,52.0047149658",
    "geom:latitude":52.004164,
    "geom:longitude":5.662674,
    "iso:country":"NL",
    "mz:hierarchy_label":1,
    "mz:is_approximate":1,
    "mz:is_clustr":1,
    "src:geom":"oa",
    "wof:belongsto":[
        85687043,
        102191581,
        404473893,
        85633337,
        101837743
    ],
    "wof:breaches":[],
    "wof:country":"NL",
    "wof:created":1469690220,
    "wof:geomhash":"242704fd06991b08219d57f49e4078e9",
    "wof:hierarchy":[
        {
            "continent_id":102191581,
            "country_id":85633337,
            "localadmin_id":404473893,
            "locality_id":101837743,
            "postalcode_id":891170341,
            "region_id":85687043
        }
    ],
    "wof:id":891170341,
    "wof:lastmodified":1469690220,
    "wof:name":"6721RP",
    "wof:parent_id":101837743,
    "wof:placetype":"postalcode",
    "wof:repo":"whosonfirst-data-postalcode-nl",
    "wof:superseded_by":[],
    "wof:supersedes":[],
    "wof:tags":[]
},
  "bbox": [
    5.661826610565186,
    52.00360870361328,
    5.663540363311768,
    52.00471496582031
],
  "geometry": {"coordinates":[[[5.66241788864136,52.00360870361328],[5.66202735900879,52.00408554077148],[5.66182661056519,52.00453567504883],[5.66194343566895,52.00459671020508],[5.66211843490601,52.00468826293945],[5.66217708587646,52.00471496582031],[5.66320991516113,52.00453186035156],[5.66354036331177,52.00382995605469],[5.6633358001709,52.00373077392578],[5.66241788864136,52.00360870361328]]],"type":"Polygon"}
}