{
  "id": 890605049,
  "type": "Feature",
  "properties": {
    "clustr:alpha":0.05,
    "clustr:area":1.13,
    "clustr:count":65,
    "clustr:density":57.53,
    "clustr:perimeter":0.16,
    "edtf:cessation":"uuuu",
    "edtf:inception":"uuuu",
    "geom:area":0.0,
    "geom:bbox":"4.94081068039,52.3217010498,4.9411239624,52.3224220276",
    "geom:latitude":52.32202,
    "geom:longitude":4.940934,
    "iso:country":"NL",
    "mz:hierarchy_label":1,
    "mz:is_approximate":1,
    "mz:is_clustr":1,
    "src:geom":"oa",
    "wof:belongsto":[
        85687053,
        102191581,
        404474029,
        85633337,
        101751895
    ],
    "wof:breaches":[],
    "wof:country":"NL",
    "wof:created":1469667027,
    "wof:geomhash":"d976a7542475e5880ba29d25d79b0730",
    "wof:hierarchy":[
        {
            "continent_id":102191581,
            "country_id":85633337,
            "localadmin_id":404474029,
            "locality_id":101751895,
            "postalcode_id":890605049,
            "region_id":85687053
        }
    ],
    "wof:id":890605049,
    "wof:lastmodified":1469667027,
    "wof:name":"1102VX",
    "wof:parent_id":101751895,
    "wof:placetype":"postalcode",
    "wof:repo":"whosonfirst-data-postalcode-nl",
    "wof:superseded_by":[],
    "wof:supersedes":[],
    "wof:tags":[]
},
  "bbox": [
    4.940810680389404,
    52.32170104980469,
    4.941123962402344,
    52.32242202758789
],
  "geometry": {"coordinates":[[[4.9408106803894,52.32223892211914],[4.94082450866699,52.32235717773438],[4.94083833694458,52.32242202758789],[4.94085311889648,52.32241058349609],[4.94112396240234,52.32172012329102],[4.94108009338379,52.32170104980469],[4.94093227386475,52.32180786132812],[4.940842628479,52.32197189331055],[4.94081163406372,52.32215118408203],[4.9408106803894,52.32223892211914]]],"type":"Polygon"}
}