{
  "id": 890629053,
  "type": "Feature",
  "properties": {
    "clustr:alpha":0.05,
    "clustr:area":54.66,
    "clustr:count":9,
    "clustr:density":0.16,
    "clustr:perimeter":0.06,
    "edtf:cessation":"uuuu",
    "edtf:inception":"uuuu",
    "geom:area":0.0,
    "geom:bbox":"5.18797636032,52.3576774597,5.18860626221,52.3578033447",
    "geom:latitude":52.357734,
    "geom:longitude":5.188324,
    "iso:country":"NL",
    "mz:hierarchy_label":1,
    "mz:is_approximate":1,
    "mz:is_clustr":1,
    "src:geom":"oa",
    "wof:belongsto":[
        85687049,
        102191581,
        404473729,
        85633337,
        101751877
    ],
    "wof:breaches":[],
    "wof:country":"NL",
    "wof:created":1469668073,
    "wof:geomhash":"17ced24b9362d0e64666043c4af55148",
    "wof:hierarchy":[
        {
            "continent_id":102191581,
            "country_id":85633337,
            "localadmin_id":404473729,
            "locality_id":101751877,
            "postalcode_id":890629053,
            "region_id":85687049
        }
    ],
    "wof:id":890629053,
    "wof:lastmodified":1469668073,
    "wof:name":"1321BV",
    "wof:parent_id":101751877,
    "wof:placetype":"postalcode",
    "wof:repo":"whosonfirst-data-postalcode-nl",
    "wof:superseded_by":[],
    "wof:supersedes":[],
    "wof:tags":[]
},
  "bbox": [
    5.187976360321045,
    52.3576774597168,
    5.188606262207031,
    52.35780334472656
],
  "geometry": {"coordinates":[[[5.18850803375244,52.35769271850586],[5.18806600570679,52.35778427124023],[5.18797636032104,52.35780334472656],[5.18828392028809,52.35774612426758],[5.18835830688477,52.35773086547852],[5.18860626220703,52.3576774597168],[5.18850803375244,52.35769271850586]]],"type":"Polygon"}
}