{
  "id": 891158433,
  "type": "Feature",
  "properties": {
    "clustr:alpha":0.05,
    "clustr:area":35.99,
    "clustr:count":10,
    "clustr:density":0.28,
    "clustr:perimeter":0.13,
    "edtf:cessation":"uuuu",
    "edtf:inception":"uuuu",
    "geom:area":0.0,
    "geom:bbox":"5.75486087799,51.8604202271,5.75555276871,51.8610343933",
    "geom:latitude":51.860668,
    "geom:longitude":5.755223,
    "iso:country":"NL",
    "mz:hierarchy_label":1,
    "mz:is_approximate":1,
    "mz:is_clustr":1,
    "src:geom":"oa",
    "wof:belongsto":[
        85687043,
        102191581,
        404473875,
        85633337,
        101808601
    ],
    "wof:breaches":[],
    "wof:country":"NL",
    "wof:created":1469689714,
    "wof:geomhash":"4670d1ec0eb12cbc169057fc4f51dd7e",
    "wof:hierarchy":[
        {
            "continent_id":102191581,
            "country_id":85633337,
            "localadmin_id":404473875,
            "locality_id":101808601,
            "postalcode_id":891158433,
            "region_id":85687043
        }
    ],
    "wof:id":891158433,
    "wof:lastmodified":1469689714,
    "wof:name":"6641RK",
    "wof:parent_id":101808601,
    "wof:placetype":"postalcode",
    "wof:repo":"whosonfirst-data-postalcode-nl",
    "wof:superseded_by":[],
    "wof:supersedes":[],
    "wof:tags":[]
},
  "bbox": [
    5.754860877990723,
    51.86042022705078,
    5.755552768707275,
    51.86103439331055
],
  "geometry": {"coordinates":[[[5.75527811050415,51.86053085327148],[5.75501918792725,51.86083602905273],[5.75490379333496,51.8609733581543],[5.75486087799072,51.86103439331055],[5.75555276870728,51.86042022705078],[5.75545167922974,51.86045837402344],[5.75527811050415,51.86053085327148]]],"type":"Polygon"}
}