{
  "id": 907021319,
  "type": "Feature",
  "properties": {
    "clustr:alpha":0.05,
    "clustr:area":18.04,
    "clustr:count":15,
    "clustr:density":0.83,
    "clustr:perimeter":0.17,
    "edtf:cessation":"uuuu",
    "edtf:inception":"uuuu",
    "geom:area":0.0,
    "geom:bbox":"5.98930215836,52.4564933777,5.99022865295,52.4573326111",
    "geom:latitude":52.456865,
    "geom:longitude":5.989635,
    "iso:country":"NL",
    "mz:hierarchy_label":1,
    "mz:is_approximate":1,
    "mz:is_clustr":1,
    "src:geom":"oa",
    "wof:belongsto":[
        85687043,
        102191581,
        404473927,
        85633337,
        101837823
    ],
    "wof:breaches":[],
    "wof:country":"NL",
    "wof:created":1469695334,
    "wof:geomhash":"fbf43ac7bf9d6e58734fb1677d940425",
    "wof:hierarchy":[
        {
            "continent_id":102191581,
            "country_id":85633337,
            "localadmin_id":404473927,
            "locality_id":101837823,
            "postalcode_id":907021319,
            "region_id":85687043
        }
    ],
    "wof:id":907021319,
    "wof:lastmodified":1469695334,
    "wof:name":"8091NC",
    "wof:parent_id":101837823,
    "wof:placetype":"postalcode",
    "wof:repo":"whosonfirst-data-postalcode-nl",
    "wof:superseded_by":[],
    "wof:supersedes":[],
    "wof:tags":[]
},
  "bbox": [
    5.989302158355713,
    52.45649337768555,
    5.990228652954102,
    52.457332611083984
],
  "geometry": {"coordinates":[[[5.98930215835571,52.4571533203125],[5.98936796188354,52.45733261108398],[5.9902286529541,52.45673751831055],[5.98937606811523,52.45649337768555],[5.98930215835571,52.4571533203125]]],"type":"Polygon"}
}