{
  "id": 890645155,
  "type": "Feature",
  "properties": {
    "clustr:alpha":0.05,
    "clustr:area":25.96,
    "clustr:count":13,
    "clustr:density":0.5,
    "clustr:perimeter":0.23,
    "edtf:cessation":"uuuu",
    "edtf:inception":"uuuu",
    "geom:area":0.0,
    "geom:bbox":"4.73614931107,52.231426239,4.73677968979,52.2324562073",
    "geom:latitude":52.231996,
    "geom:longitude":4.736463,
    "iso:country":"NL",
    "mz:hierarchy_label":1,
    "mz:is_approximate":1,
    "mz:is_clustr":1,
    "src:geom":"oa",
    "wof:belongsto":[
        85687053,
        102191581,
        404474023,
        85633337,
        101807363
    ],
    "wof:breaches":[],
    "wof:country":"NL",
    "wof:created":1469668778,
    "wof:geomhash":"2249fd287035b8b30862c088d6830125",
    "wof:hierarchy":[
        {
            "continent_id":102191581,
            "country_id":85633337,
            "localadmin_id":404474023,
            "locality_id":101807363,
            "postalcode_id":890645155,
            "region_id":85687053
        }
    ],
    "wof:id":890645155,
    "wof:lastmodified":1469668778,
    "wof:name":"1433SG",
    "wof:parent_id":101807363,
    "wof:placetype":"postalcode",
    "wof:repo":"whosonfirst-data-postalcode-nl",
    "wof:superseded_by":[],
    "wof:supersedes":[],
    "wof:tags":[]
},
  "bbox": [
    4.736149311065674,
    52.23142623901367,
    4.736779689788818,
    52.23245620727539
],
  "geometry": {"coordinates":[[[4.73668336868286,52.23149871826172],[4.73648405075073,52.23165512084961],[4.73614931106567,52.23229598999023],[4.73621082305908,52.23233032226562],[4.73645448684692,52.23245620727539],[4.73677968978882,52.23142623901367],[4.73668336868286,52.23149871826172]]],"type":"Polygon"}
}