{
  "id": 891151685,
  "type": "Feature",
  "properties": {
    "clustr:alpha":0.05,
    "clustr:area":23.46,
    "clustr:count":20,
    "clustr:density":0.85,
    "clustr:perimeter":0.16,
    "edtf:cessation":"uuuu",
    "edtf:inception":"uuuu",
    "geom:area":0.0,
    "geom:bbox":"5.94735574722,51.7709274292,5.94791698456,51.7718162537",
    "geom:latitude":51.7714,
    "geom:longitude":5.947635,
    "iso:country":"NL",
    "mz:hierarchy_label":1,
    "mz:is_approximate":1,
    "mz:is_clustr":1,
    "src:geom":"oa",
    "wof:belongsto":[
        85687043,
        102191581,
        404473903,
        85633337,
        101808697
    ],
    "wof:breaches":[],
    "wof:country":"NL",
    "wof:created":1469689434,
    "wof:geomhash":"6fa0754682246168eaa0a3e763ed9e96",
    "wof:hierarchy":[
        {
            "continent_id":102191581,
            "country_id":85633337,
            "localadmin_id":404473903,
            "locality_id":101808697,
            "postalcode_id":891151685,
            "region_id":85687043
        }
    ],
    "wof:id":891151685,
    "wof:lastmodified":1469689434,
    "wof:name":"6562PT",
    "wof:parent_id":101808697,
    "wof:placetype":"postalcode",
    "wof:repo":"whosonfirst-data-postalcode-nl",
    "wof:superseded_by":[],
    "wof:supersedes":[],
    "wof:tags":[]
},
  "bbox": [
    5.9473557472229,
    51.77092742919922,
    5.947916984558105,
    51.77181625366211
],
  "geometry": {"coordinates":[[[5.94760894775391,51.771484375],[5.94777250289917,51.77181625366211],[5.9479169845581,51.77181625366211],[5.94751644134521,51.77104568481445],[5.94744253158569,51.77092742919922],[5.9473557472229,51.77094650268555],[5.94760894775391,51.771484375]]],"type":"Polygon"}
}