{
  "id": 890657591,
  "type": "Feature",
  "properties": {
    "clustr:alpha":0.05,
    "clustr:area":17.81,
    "clustr:count":16,
    "clustr:density":0.9,
    "clustr:perimeter":0.15,
    "edtf:cessation":"uuuu",
    "edtf:inception":"uuuu",
    "geom:area":0.0,
    "geom:bbox":"4.76186132431,52.4910812378,4.76266288757,52.4916801453",
    "geom:latitude":52.491373,
    "geom:longitude":4.762239,
    "iso:country":"NL",
    "mz:hierarchy_label":1,
    "mz:is_approximate":1,
    "mz:is_clustr":1,
    "src:geom":"oa",
    "wof:belongsto":[
        85687053,
        102191581,
        404474143,
        85633337,
        101754827
    ],
    "wof:breaches":[],
    "wof:country":"NL",
    "wof:created":1469669358,
    "wof:geomhash":"5f72aae5d78c6dd84e682d042c460acb",
    "wof:hierarchy":[
        {
            "continent_id":102191581,
            "country_id":85633337,
            "localadmin_id":404474143,
            "locality_id":101754827,
            "postalcode_id":890657591,
            "region_id":85687053
        }
    ],
    "wof:id":890657591,
    "wof:lastmodified":1469669358,
    "wof:name":"1566JK",
    "wof:parent_id":101754827,
    "wof:placetype":"postalcode",
    "wof:repo":"whosonfirst-data-postalcode-nl",
    "wof:superseded_by":[],
    "wof:supersedes":[],
    "wof:tags":[]
},
  "bbox": [
    4.761861324310303,
    52.49108123779297,
    4.762662887573242,
    52.49168014526367
],
  "geometry": {"coordinates":[[[4.76209402084351,52.49127960205078],[4.76218175888062,52.4913444519043],[4.76247310638428,52.49155426025391],[4.76260423660278,52.49164199829102],[4.76266288757324,52.49168014526367],[4.7618613243103,52.49108123779297],[4.76193428039551,52.49114608764648],[4.76209402084351,52.49127960205078]]],"type":"Polygon"}
}