{
  "id": 890644281,
  "type": "Feature",
  "properties": {
    "clustr:alpha":0.05,
    "clustr:area":47.52,
    "clustr:count":31,
    "clustr:density":0.65,
    "clustr:perimeter":0.18,
    "edtf:cessation":"uuuu",
    "edtf:inception":"uuuu",
    "geom:area":0.0,
    "geom:bbox":"4.75969743729,52.2518768311,4.76079750061,52.2523651123",
    "geom:latitude":52.252144,
    "geom:longitude":4.76038,
    "iso:country":"NL",
    "mz:hierarchy_label":1,
    "mz:is_approximate":1,
    "mz:is_clustr":1,
    "src:geom":"oa",
    "wof:belongsto":[
        85687053,
        102191581,
        404474023,
        85633337,
        101754781
    ],
    "wof:breaches":[],
    "wof:country":"NL",
    "wof:created":1469668734,
    "wof:geomhash":"fec4a5520d69dab8dde705aa9b0d92cf",
    "wof:hierarchy":[
        {
            "continent_id":102191581,
            "country_id":85633337,
            "localadmin_id":404474023,
            "locality_id":101754781,
            "postalcode_id":890644281,
            "region_id":85687053
        }
    ],
    "wof:id":890644281,
    "wof:lastmodified":1469668734,
    "wof:name":"1431XD",
    "wof:parent_id":101754781,
    "wof:placetype":"postalcode",
    "wof:repo":"whosonfirst-data-postalcode-nl",
    "wof:superseded_by":[],
    "wof:supersedes":[],
    "wof:tags":[]
},
  "bbox": [
    4.759697437286377,
    52.25187683105469,
    4.760797500610352,
    52.25236511230469
],
  "geometry": {"coordinates":[[[4.76077222824097,52.25236511230469],[4.76079750061035,52.25226211547852],[4.76064491271973,52.25187683105469],[4.75969743728638,52.25214385986328],[4.76037788391113,52.2523307800293],[4.76077222824097,52.25236511230469]]],"type":"Polygon"}
}