{
  "id": 890702241,
  "type": "Feature",
  "properties": {
    "clustr:alpha":0.05,
    "clustr:area":25.89,
    "clustr:count":19,
    "clustr:density":0.73,
    "clustr:perimeter":0.2,
    "edtf:cessation":"uuuu",
    "edtf:inception":"uuuu",
    "geom:area":0.0,
    "geom:bbox":"4.65396308899,52.4138908386,4.65506696701,52.4146690369",
    "geom:latitude":52.414325,
    "geom:longitude":4.654635,
    "iso:country":"NL",
    "mz:hierarchy_label":1,
    "mz:is_approximate":1,
    "mz:is_clustr":1,
    "src:geom":"oa",
    "wof:belongsto":[
        85687053,
        102191581,
        404474061,
        85633337,
        101751897
    ],
    "wof:breaches":[],
    "wof:country":"NL",
    "wof:created":1469671309,
    "wof:geomhash":"db5d2b32d5c005060fab3d268b0788da",
    "wof:hierarchy":[
        {
            "continent_id":102191581,
            "country_id":85633337,
            "localadmin_id":404474061,
            "locality_id":101751897,
            "postalcode_id":890702241,
            "region_id":85687053
        }
    ],
    "wof:id":890702241,
    "wof:lastmodified":1469671309,
    "wof:name":"2025XN",
    "wof:parent_id":101751897,
    "wof:placetype":"postalcode",
    "wof:repo":"whosonfirst-data-postalcode-nl",
    "wof:superseded_by":[],
    "wof:supersedes":[],
    "wof:tags":[]
},
  "bbox": [
    4.653963088989258,
    52.41389083862305,
    4.655066967010498,
    52.414669036865234
],
  "geometry": {"coordinates":[[[4.6550669670105,52.4144172668457],[4.65421199798584,52.41400909423828],[4.65396308898926,52.41389083862305],[4.65487480163574,52.41466903686523],[4.6550669670105,52.4144172668457]]],"type":"Polygon"}
}