{
  "id": 890930089,
  "type": "Feature",
  "properties": {
    "clustr:alpha":0.05,
    "clustr:area":372.27,
    "clustr:count":18,
    "clustr:density":0.05,
    "clustr:perimeter":0.46,
    "edtf:cessation":"uuuu",
    "edtf:inception":"uuuu",
    "geom:area":0.000001,
    "geom:bbox":"5.40464878082,51.8958320618,5.40932273865,51.8964729309",
    "geom:latitude":51.896105,
    "geom:longitude":5.406535,
    "iso:country":"NL",
    "mz:hierarchy_label":1,
    "mz:is_approximate":1,
    "mz:is_clustr":1,
    "src:geom":"oa",
    "wof:belongsto":[
        85687043,
        102191581,
        404473939,
        85633337,
        101809879
    ],
    "wof:breaches":[],
    "wof:country":"NL",
    "wof:created":1469680458,
    "wof:geomhash":"fd7c22948e4979bf41fd5685e6240e6e",
    "wof:hierarchy":[
        {
            "continent_id":102191581,
            "country_id":85633337,
            "localadmin_id":404473939,
            "locality_id":101809879,
            "postalcode_id":890930089,
            "region_id":85687043
        }
    ],
    "wof:id":890930089,
    "wof:lastmodified":1469680458,
    "wof:name":"4003CB",
    "wof:parent_id":101809879,
    "wof:placetype":"postalcode",
    "wof:repo":"whosonfirst-data-postalcode-nl",
    "wof:superseded_by":[],
    "wof:supersedes":[],
    "wof:tags":[]
},
  "bbox": [
    5.404648780822754,
    51.89583206176758,
    5.409322738647461,
    51.8964729309082
],
  "geometry": {"coordinates":[[[5.40764665603638,51.89606475830078],[5.40785360336304,51.89603805541992],[5.4082670211792,51.89598083496094],[5.40932273864746,51.89583206176758],[5.40716648101807,51.89592742919922],[5.40549039840698,51.89603424072266],[5.40464878082275,51.8964729309082],[5.40764665603638,51.89606475830078]]],"type":"Polygon"}
}