{
  "id": 907107673,
  "type": "Feature",
  "properties": {
    "clustr:alpha":0.05,
    "clustr:area":10.03,
    "clustr:count":29,
    "clustr:density":2.89,
    "clustr:perimeter":0.19,
    "edtf:cessation":"uuuu",
    "edtf:inception":"uuuu",
    "geom:area":0.0,
    "geom:bbox":"6.55634307861,53.2196655273,6.55694580078,53.2204780579",
    "geom:latitude":53.220069,
    "geom:longitude":6.556655,
    "iso:country":"NL",
    "mz:hierarchy_label":1,
    "mz:is_approximate":1,
    "mz:is_clustr":1,
    "src:geom":"oa",
    "wof:belongsto":[
        85687059,
        102191581,
        404473713,
        85633337,
        101751909
    ],
    "wof:breaches":[],
    "wof:country":"NL",
    "wof:created":1469699781,
    "wof:geomhash":"ad054b3bd1a6f370ed0292b0030d9020",
    "wof:hierarchy":[
        {
            "continent_id":102191581,
            "country_id":85633337,
            "localadmin_id":404473713,
            "locality_id":101751909,
            "postalcode_id":907107673,
            "region_id":85687059
        }
    ],
    "wof:id":907107673,
    "wof:lastmodified":1469699781,
    "wof:name":"9712VN",
    "wof:parent_id":101751909,
    "wof:placetype":"postalcode",
    "wof:repo":"whosonfirst-data-postalcode-nl",
    "wof:superseded_by":[],
    "wof:supersedes":[],
    "wof:tags":[]
},
  "bbox": [
    6.556343078613281,
    53.21966552734375,
    6.55694580078125,
    53.22047805786133
],
  "geometry": {"coordinates":[[[6.55694580078125,53.2197265625],[6.55685329437256,53.21966552734375],[6.55679321289062,53.2197151184082],[6.5567569732666,53.21975708007812],[6.55645179748535,53.22027587890625],[6.55634307861328,53.22047805786133],[6.55651903152466,53.22043228149414],[6.55694580078125,53.2197265625]]],"type":"Polygon"}
}