{
  "id": 907110919,
  "type": "Feature",
  "properties": {
    "clustr:alpha":0.05,
    "clustr:area":8.14,
    "clustr:count":16,
    "clustr:density":1.97,
    "clustr:perimeter":0.12,
    "edtf:cessation":"uuuu",
    "edtf:inception":"uuuu",
    "geom:area":0.0,
    "geom:bbox":"6.58406305313,53.2006530762,6.58427762985,53.2012329102",
    "geom:latitude":53.200942,
    "geom:longitude":6.584171,
    "iso:country":"NL",
    "mz:hierarchy_label":1,
    "mz:is_approximate":1,
    "mz:is_clustr":1,
    "src:geom":"oa",
    "wof:belongsto":[
        85687059,
        102191581,
        404473713,
        85633337,
        101751909
    ],
    "wof:breaches":[],
    "wof:country":"NL",
    "wof:created":1469699936,
    "wof:geomhash":"2b9d1fb2f968e0be13edfbb6fb2c64b3",
    "wof:hierarchy":[
        {
            "continent_id":102191581,
            "country_id":85633337,
            "localadmin_id":404473713,
            "locality_id":101751909,
            "postalcode_id":907110919,
            "region_id":85687059
        }
    ],
    "wof:id":907110919,
    "wof:lastmodified":1469699936,
    "wof:name":"9722CC",
    "wof:parent_id":101751909,
    "wof:placetype":"postalcode",
    "wof:repo":"whosonfirst-data-postalcode-nl",
    "wof:superseded_by":[],
    "wof:supersedes":[],
    "wof:tags":[]
},
  "bbox": [
    6.584063053131104,
    53.200653076171875,
    6.584277629852295,
    53.20123291015625
],
  "geometry": {"coordinates":[[[6.58425617218018,53.20073318481445],[6.58427762985229,53.20065307617188],[6.58413410186768,53.20100402832031],[6.58408641815185,53.20114898681641],[6.58407068252563,53.20120239257812],[6.5840630531311,53.20123291015625],[6.58420658111572,53.20088195800781],[6.58425617218018,53.20073318481445]]],"type":"Polygon"}
}