{
  "id": 890939481,
  "type": "Feature",
  "properties": {
    "clustr:alpha":0.05,
    "clustr:area":20.0,
    "clustr:count":8,
    "clustr:density":0.4,
    "clustr:perimeter":0.08,
    "edtf:cessation":"uuuu",
    "edtf:inception":"uuuu",
    "geom:area":0.0,
    "geom:bbox":"4.97181367874,51.8291854858,4.97230148315,51.8293228149",
    "geom:latitude":51.829254,
    "geom:longitude":4.972042,
    "iso:country":"NL",
    "mz:hierarchy_label":1,
    "mz:is_approximate":1,
    "mz:is_clustr":1,
    "src:geom":"oa",
    "wof:belongsto":[
        85687041,
        102191581,
        404474173,
        85633337,
        101808515
    ],
    "wof:breaches":[],
    "wof:country":"NL",
    "wof:created":1469680805,
    "wof:geomhash":"884f8ddb5df68c2f1e3d1cbe3483f0d8",
    "wof:hierarchy":[
        {
            "continent_id":102191581,
            "country_id":85633337,
            "localadmin_id":404474173,
            "locality_id":101808515,
            "postalcode_id":890939481,
            "region_id":85687041
        }
    ],
    "wof:id":890939481,
    "wof:lastmodified":1469680805,
    "wof:name":"4201GC",
    "wof:parent_id":101808515,
    "wof:placetype":"postalcode",
    "wof:repo":"whosonfirst-data-postalcode-nl",
    "wof:superseded_by":[],
    "wof:supersedes":[],
    "wof:tags":[]
},
  "bbox": [
    4.971813678741455,
    51.829185485839844,
    4.972301483154297,
    51.829322814941406
],
  "geometry": {"coordinates":[[[4.97202014923096,51.82918548583984],[4.97185850143433,51.82918548583984],[4.97181367874146,51.82932281494141],[4.97198486328125,51.82932281494141],[4.97222852706909,51.82931137084961],[4.9723014831543,51.82920455932617],[4.97202014923096,51.82918548583984]]],"type":"Polygon"}
}