{
  "id": 891221141,
  "type": "Feature",
  "properties": {
    "clustr:alpha":0.05,
    "clustr:area":62.8,
    "clustr:count":18,
    "clustr:density":0.29,
    "clustr:perimeter":0.69,
    "edtf:cessation":"uuuu",
    "edtf:inception":"uuuu",
    "geom:area":0.000001,
    "geom:bbox":"6.06590890884,52.1692619324,6.06976270676,52.1716117859",
    "geom:latitude":52.170519,
    "geom:longitude":6.068036,
    "iso:country":"NL",
    "mz:hierarchy_label":1,
    "mz:is_approximate":1,
    "mz:is_clustr":1,
    "src:geom":"oa",
    "wof:belongsto":[
        85687043,
        102191581,
        404473945,
        85633337,
        101807113
    ],
    "wof:breaches":[],
    "wof:country":"NL",
    "wof:created":1469692269,
    "wof:geomhash":"3ad97ea6b269a569d274e4731099bd92",
    "wof:hierarchy":[
        {
            "continent_id":102191581,
            "country_id":85633337,
            "localadmin_id":404473945,
            "locality_id":101807113,
            "postalcode_id":891221141,
            "region_id":85687043
        }
    ],
    "wof:id":891221141,
    "wof:lastmodified":1469692269,
    "wof:name":"7382BK",
    "wof:parent_id":101807113,
    "wof:placetype":"postalcode",
    "wof:repo":"whosonfirst-data-postalcode-nl",
    "wof:superseded_by":[],
    "wof:supersedes":[],
    "wof:tags":[]
},
  "bbox": [
    6.065908908843994,
    52.16926193237305,
    6.069762706756592,
    52.17161178588867
],
  "geometry": {"coordinates":[[[6.06806516647339,52.17041778564453],[6.06703281402588,52.16984558105469],[6.06590890884399,52.16926193237305],[6.06842756271362,52.17087936401367],[6.06976270675659,52.17161178588867],[6.06916666030884,52.171142578125],[6.06861782073975,52.17072296142578],[6.06806516647339,52.17041778564453]]],"type":"Polygon"}
}