{
  "id": 907039987,
  "type": "Feature",
  "properties": {
    "clustr:alpha":0.05,
    "clustr:area":13.92,
    "clustr:count":10,
    "clustr:density":0.72,
    "clustr:perimeter":2.58,
    "edtf:cessation":"uuuu",
    "edtf:inception":"uuuu",
    "geom:area":0.000001,
    "geom:bbox":"5.8761343956,52.6561889648,5.89240407944,52.6624412537",
    "geom:latitude":52.658091,
    "geom:longitude":5.881042,
    "iso:country":"NL",
    "mz:hierarchy_label":1,
    "mz:is_approximate":1,
    "mz:is_clustr":1,
    "src:geom":"oa",
    "wof:belongsto":[
        102191581,
        404473843,
        85633337,
        85687049
    ],
    "wof:breaches":[],
    "wof:country":"NL",
    "wof:created":1469696294,
    "wof:geomhash":"9ee2d409475f7a690d21dd1c7b555525",
    "wof:hierarchy":[
        {
            "continent_id":102191581,
            "country_id":85633337,
            "localadmin_id":404473843,
            "postalcode_id":907039987,
            "region_id":85687049
        }
    ],
    "wof:id":907039987,
    "wof:lastmodified":1469696294,
    "wof:name":"8317RA",
    "wof:parent_id":404473843,
    "wof:placetype":"postalcode",
    "wof:repo":"whosonfirst-data-postalcode-nl",
    "wof:superseded_by":[],
    "wof:supersedes":[],
    "wof:tags":[]
},
  "bbox": [
    5.876134395599365,
    52.65618896484375,
    5.892404079437256,
    52.66244125366211
],
  "geometry": {"coordinates":[[[5.87626981735229,52.6563606262207],[5.88180494308472,52.65839385986328],[5.88702964782715,52.66035842895508],[5.89240407943726,52.66244125366211],[5.8878059387207,52.66063690185547],[5.8864951133728,52.66012954711914],[5.88208627700806,52.658447265625],[5.881507396698,52.65823364257812],[5.87669849395752,52.65640258789062],[5.87613439559937,52.65618896484375],[5.87626981735229,52.6563606262207]]],"type":"Polygon"}
}