{
  "id": 890634281,
  "type": "Feature",
  "properties": {
    "clustr:alpha":0.05,
    "clustr:area":51.54,
    "clustr:count":20,
    "clustr:density":0.39,
    "clustr:perimeter":0.12,
    "edtf:cessation":"uuuu",
    "edtf:inception":"uuuu",
    "geom:area":0.0,
    "geom:bbox":"5.29448986053,52.3939819336,5.29520463943,52.3945388794",
    "geom:latitude":52.394244,
    "geom:longitude":5.294803,
    "iso:country":"NL",
    "mz:hierarchy_label":1,
    "mz:is_approximate":1,
    "mz:is_clustr":1,
    "src:geom":"oa",
    "wof:belongsto":[
        85687049,
        102191581,
        404473729,
        85633337,
        101751875
    ],
    "wof:breaches":[],
    "wof:country":"NL",
    "wof:created":1469668290,
    "wof:geomhash":"7ef92475839bb435c5f01c191fc8ffd7",
    "wof:hierarchy":[
        {
            "continent_id":102191581,
            "country_id":85633337,
            "localadmin_id":404473729,
            "locality_id":101751875,
            "postalcode_id":890634281,
            "region_id":85687049
        }
    ],
    "wof:id":890634281,
    "wof:lastmodified":1469668290,
    "wof:name":"1339EC",
    "wof:parent_id":101751875,
    "wof:placetype":"postalcode",
    "wof:repo":"whosonfirst-data-postalcode-nl",
    "wof:superseded_by":[],
    "wof:supersedes":[],
    "wof:tags":[]
},
  "bbox": [
    5.294489860534668,
    52.39398193359375,
    5.295204639434814,
    52.39453887939453
],
  "geometry": {"coordinates":[[[5.29520463943481,52.39408874511719],[5.2951774597168,52.3940315246582],[5.29500102996826,52.39398193359375],[5.29450941085815,52.39412689208984],[5.29448986053467,52.39444732666016],[5.29471349716187,52.39453887939453],[5.29482078552246,52.39451599121094],[5.29520463943481,52.39408874511719]]],"type":"Polygon"}
}