{
  "id": 891200271,
  "type": "Feature",
  "properties": {
    "clustr:alpha":0.05,
    "clustr:area":81.98,
    "clustr:count":11,
    "clustr:density":0.13,
    "clustr:perimeter":0.1,
    "edtf:cessation":"uuuu",
    "edtf:inception":"uuuu",
    "geom:area":0.0,
    "geom:bbox":"6.71356630325,51.9652633667,6.71449661255,51.965763092",
    "geom:latitude":51.96555,
    "geom:longitude":6.714092,
    "iso:country":"NL",
    "mz:hierarchy_label":1,
    "mz:is_approximate":1,
    "mz:is_clustr":1,
    "src:geom":"oa",
    "wof:belongsto":[
        85687043,
        102191581,
        404473951,
        85633337,
        101809855
    ],
    "wof:breaches":[],
    "wof:country":"NL",
    "wof:created":1469691421,
    "wof:geomhash":"385a059b98b885fc3bbcff7df09319f3",
    "wof:hierarchy":[
        {
            "continent_id":102191581,
            "country_id":85633337,
            "localadmin_id":404473951,
            "locality_id":101809855,
            "postalcode_id":891200271,
            "region_id":85687043
        }
    ],
    "wof:id":891200271,
    "wof:lastmodified":1469691421,
    "wof:name":"7102DM",
    "wof:parent_id":101809855,
    "wof:placetype":"postalcode",
    "wof:repo":"whosonfirst-data-postalcode-nl",
    "wof:superseded_by":[],
    "wof:supersedes":[],
    "wof:tags":[]
},
  "bbox": [
    6.713566303253174,
    51.96526336669922,
    6.714496612548828,
    51.965763092041016
],
  "geometry": {"coordinates":[[[6.71429014205933,51.96567535400391],[6.71449661254883,51.96576309204102],[6.7144079208374,51.9657096862793],[6.71387529373169,51.96541976928711],[6.71356630325317,51.96526336669922],[6.71429014205933,51.96567535400391]]],"type":"Polygon"}
}