{
  "id": 907123019,
  "type": "Feature",
  "properties": {
    "clustr:alpha":0.05,
    "clustr:area":9.65,
    "clustr:count":16,
    "clustr:density":1.66,
    "clustr:perimeter":0.13,
    "edtf:cessation":"uuuu",
    "edtf:inception":"uuuu",
    "geom:area":0.0,
    "geom:bbox":"6.86444997787,53.3148269653,6.86522102356,53.3152198792",
    "geom:latitude":53.315035,
    "geom:longitude":6.864838,
    "iso:country":"NL",
    "mz:hierarchy_label":1,
    "mz:is_approximate":1,
    "mz:is_clustr":1,
    "src:geom":"oa",
    "wof:belongsto":[
        85687059,
        102191581,
        404473701,
        85633337,
        101837975
    ],
    "wof:breaches":[],
    "wof:country":"NL",
    "wof:created":1469700484,
    "wof:geomhash":"2b5d6942d895f0185e31d32e74ac905a",
    "wof:hierarchy":[
        {
            "continent_id":102191581,
            "country_id":85633337,
            "localadmin_id":404473701,
            "locality_id":101837975,
            "postalcode_id":907123019,
            "region_id":85687059
        }
    ],
    "wof:id":907123019,
    "wof:lastmodified":1469700484,
    "wof:name":"9902LA",
    "wof:parent_id":101837975,
    "wof:placetype":"postalcode",
    "wof:repo":"whosonfirst-data-postalcode-nl",
    "wof:superseded_by":[],
    "wof:supersedes":[],
    "wof:tags":[]
},
  "bbox": [
    6.864449977874756,
    53.31482696533203,
    6.86522102355957,
    53.31521987915039
],
  "geometry": {"coordinates":[[[6.86456346511841,53.31521987915039],[6.86501216888428,53.31517028808594],[6.86522102355957,53.31513977050781],[6.86507558822632,53.31482696533203],[6.86480712890625,53.31487655639648],[6.86461353302002,53.31492233276367],[6.86444997787476,53.31496810913086],[6.86456346511841,53.31521987915039]]],"type":"Polygon"}
}