{
  "id": 891241187,
  "type": "Feature",
  "properties": {
    "clustr:alpha":0.05,
    "clustr:area":9.45,
    "clustr:count":12,
    "clustr:density":1.27,
    "clustr:perimeter":0.15,
    "edtf:cessation":"uuuu",
    "edtf:inception":"uuuu",
    "geom:area":0.0,
    "geom:bbox":"6.84960460663,52.1907081604,6.85028219223,52.1912307739",
    "geom:latitude":52.190894,
    "geom:longitude":6.849955,
    "iso:country":"NL",
    "mz:hierarchy_label":1,
    "mz:is_approximate":1,
    "mz:is_clustr":1,
    "src:geom":"oa",
    "wof:belongsto":[
        85687045,
        102191581,
        404473827,
        85633337,
        101751871
    ],
    "wof:breaches":[],
    "wof:country":"NL",
    "wof:created":1469693058,
    "wof:geomhash":"bcdaf32d81c534ab3ec853df12074a36",
    "wof:hierarchy":[
        {
            "continent_id":102191581,
            "country_id":85633337,
            "localadmin_id":404473827,
            "locality_id":101751871,
            "postalcode_id":891241187,
            "region_id":85687045
        }
    ],
    "wof:id":891241187,
    "wof:lastmodified":1469693058,
    "wof:name":"7546GK",
    "wof:parent_id":101751871,
    "wof:placetype":"postalcode",
    "wof:repo":"whosonfirst-data-postalcode-nl",
    "wof:superseded_by":[],
    "wof:supersedes":[],
    "wof:tags":[]
},
  "bbox": [
    6.849604606628418,
    52.19070816040039,
    6.850282192230225,
    52.19123077392578
],
  "geometry": {"coordinates":[[[6.84991359710693,52.19071197509766],[6.84975910186768,52.19072341918945],[6.84960460662842,52.19075775146484],[6.85028219223022,52.19123077392578],[6.84999084472656,52.19070816040039],[6.84991359710693,52.19071197509766]]],"type":"Polygon"}
}