{
  "id": 890889051,
  "type": "Feature",
  "properties": {
    "clustr:alpha":0.05,
    "clustr:area":58.9,
    "clustr:count":17,
    "clustr:density":0.29,
    "clustr:perimeter":0.18,
    "edtf:cessation":"uuuu",
    "edtf:inception":"uuuu",
    "geom:area":0.0,
    "geom:bbox":"5.23892784119,52.0849189758,5.23994970322,52.0856018066",
    "geom:latitude":52.085256,
    "geom:longitude":5.239508,
    "iso:country":"NL",
    "mz:hierarchy_label":1,
    "mz:is_approximate":1,
    "mz:is_clustr":1,
    "src:geom":"oa",
    "wof:belongsto":[
        85687039,
        102191581,
        404474019,
        85633337,
        101751823
    ],
    "wof:breaches":[],
    "wof:country":"NL",
    "wof:created":1469678642,
    "wof:geomhash":"01b1fcb7278580dc2bdc63c9ebb4ee66",
    "wof:hierarchy":[
        {
            "continent_id":102191581,
            "country_id":85633337,
            "localadmin_id":404474019,
            "locality_id":101751823,
            "postalcode_id":890889051,
            "region_id":85687039
        }
    ],
    "wof:id":890889051,
    "wof:lastmodified":1469678642,
    "wof:name":"3701DT",
    "wof:parent_id":101751823,
    "wof:placetype":"postalcode",
    "wof:repo":"whosonfirst-data-postalcode-nl",
    "wof:superseded_by":[],
    "wof:supersedes":[],
    "wof:tags":[]
},
  "bbox": [
    5.238927841186523,
    52.08491897583008,
    5.239949703216553,
    52.085601806640625
],
  "geometry": {"coordinates":[[[5.23926401138306,52.0850715637207],[5.23892784118652,52.08528900146484],[5.23951005935669,52.08560180664062],[5.23986101150513,52.08540725708008],[5.23994970321655,52.08511734008789],[5.2397313117981,52.08491897583008],[5.23926401138306,52.0850715637207]]],"type":"Polygon"}
}