{
  "id": 891262295,
  "type": "Feature",
  "properties": {
    "clustr:alpha":0.05,
    "clustr:area":38.52,
    "clustr:count":31,
    "clustr:density":0.8,
    "clustr:perimeter":0.5,
    "edtf:cessation":"uuuu",
    "edtf:inception":"uuuu",
    "geom:area":0.000003,
    "geom:bbox":"6.24754858017,52.519153595,6.2497677803,52.520866394",
    "geom:latitude":52.52016,
    "geom:longitude":6.248619,
    "iso:country":"NL",
    "mz:hierarchy_label":1,
    "mz:is_approximate":1,
    "mz:is_clustr":1,
    "src:geom":"oa",
    "wof:belongsto":[
        85687045,
        102191581,
        404473823,
        85633337,
        101803703
    ],
    "wof:breaches":[],
    "wof:country":"NL",
    "wof:created":1469693897,
    "wof:geomhash":"5a3d3f134bf101207b7f1bb7535cf6b5",
    "wof:hierarchy":[
        {
            "continent_id":102191581,
            "country_id":85633337,
            "localadmin_id":404473823,
            "locality_id":101803703,
            "postalcode_id":891262295,
            "region_id":85687045
        }
    ],
    "wof:id":891262295,
    "wof:lastmodified":1469693897,
    "wof:name":"7722AH",
    "wof:parent_id":101803703,
    "wof:placetype":"postalcode",
    "wof:repo":"whosonfirst-data-postalcode-nl",
    "wof:superseded_by":[],
    "wof:supersedes":[],
    "wof:tags":[]
},
  "bbox": [
    6.247548580169678,
    52.5191535949707,
    6.249767780303955,
    52.52086639404297
],
  "geometry": {"coordinates":[[[6.24841928482056,52.52085113525391],[6.24886178970337,52.52086639404297],[6.24925899505615,52.52083587646484],[6.24955177307129,52.52074432373047],[6.24976778030396,52.52053451538086],[6.24962759017944,52.52009582519531],[6.24856281280518,52.5191535949707],[6.24776411056519,52.51974105834961],[6.24754858016968,52.52001190185547],[6.24756669998169,52.52019500732422],[6.24764442443848,52.52038955688477],[6.24778175354004,52.52064895629883],[6.24809408187866,52.52080154418945],[6.24841928482056,52.52085113525391]]],"type":"Polygon"}
}