{
  "id": 891134967,
  "type": "Feature",
  "properties": {
    "clustr:alpha":0.05,
    "clustr:area":108.48,
    "clustr:count":11,
    "clustr:density":0.1,
    "clustr:perimeter":0.08,
    "edtf:cessation":"uuuu",
    "edtf:inception":"uuuu",
    "geom:area":0.0,
    "geom:bbox":"5.98195934296,50.8951911926,5.98294687271,50.8953323364",
    "geom:latitude":50.895262,
    "geom:longitude":5.982521,
    "iso:country":"NL",
    "mz:hierarchy_label":1,
    "mz:is_approximate":1,
    "mz:is_clustr":1,
    "src:geom":"oa",
    "wof:belongsto":[
        85687033,
        102191581,
        404474485,
        85633337,
        101839245
    ],
    "wof:breaches":[],
    "wof:country":"NL",
    "wof:created":1469688764,
    "wof:geomhash":"2021a3bf9e18f359292273ccb1f1fee2",
    "wof:hierarchy":[
        {
            "continent_id":102191581,
            "country_id":85633337,
            "localadmin_id":404474485,
            "locality_id":101839245,
            "postalcode_id":891134967,
            "region_id":85687033
        }
    ],
    "wof:id":891134967,
    "wof:lastmodified":1469688764,
    "wof:name":"6412XS",
    "wof:parent_id":101839245,
    "wof:placetype":"postalcode",
    "wof:repo":"whosonfirst-data-postalcode-nl",
    "wof:superseded_by":[],
    "wof:supersedes":[],
    "wof:tags":[]
},
  "bbox": [
    5.981959342956543,
    50.89519119262695,
    5.982946872711182,
    50.89533233642578
],
  "geometry": {"coordinates":[[[5.98294687271118,50.89533233642578],[5.98271083831787,50.89527130126953],[5.98240852355957,50.89523696899414],[5.98220062255859,50.89521408081055],[5.98195934295654,50.89519119262695],[5.9820671081543,50.89520645141602],[5.98294687271118,50.89533233642578]]],"type":"Polygon"}
}