{
  "id": 890741001,
  "type": "Feature",
  "properties": {
    "clustr:alpha":0.05,
    "clustr:area":7.9,
    "clustr:count":11,
    "clustr:density":1.39,
    "clustr:perimeter":0.05,
    "edtf:cessation":"uuuu",
    "edtf:inception":"uuuu",
    "geom:area":0.0,
    "geom:bbox":"4.52136850357,52.158870697,4.52156400681,52.159072876",
    "geom:latitude":52.158978,
    "geom:longitude":4.521466,
    "iso:country":"NL",
    "mz:hierarchy_label":1,
    "mz:is_approximate":1,
    "mz:is_clustr":1,
    "src:geom":"oa",
    "wof:belongsto":[
        85687041,
        102191581,
        404474199,
        85633337,
        101751833
    ],
    "wof:breaches":[],
    "wof:country":"NL",
    "wof:created":1469672978,
    "wof:geomhash":"d84d08cdc5c968f146f6f01051c35b7f",
    "wof:hierarchy":[
        {
            "continent_id":102191581,
            "country_id":85633337,
            "localadmin_id":404474199,
            "locality_id":101751833,
            "postalcode_id":890741001,
            "region_id":85687041
        }
    ],
    "wof:id":890741001,
    "wof:lastmodified":1469672978,
    "wof:name":"2352RP",
    "wof:parent_id":101751833,
    "wof:placetype":"postalcode",
    "wof:repo":"whosonfirst-data-postalcode-nl",
    "wof:superseded_by":[],
    "wof:supersedes":[],
    "wof:tags":[]
},
  "bbox": [
    4.521368503570557,
    52.158870697021484,
    4.52156400680542,
    52.15907287597656
],
  "geometry": {"coordinates":[[[4.52154922485352,52.15901184082031],[4.52156400680542,52.15898132324219],[4.52146339416504,52.1589241027832],[4.52136850357056,52.15887069702148],[4.52145528793335,52.15907287597656],[4.52148771286011,52.15905380249023],[4.52154922485352,52.15901184082031]]],"type":"Polygon"}
}