{
  "id": 890721165,
  "type": "Feature",
  "properties": {
    "clustr:alpha":0.05,
    "clustr:area":2.45,
    "clustr:count":15,
    "clustr:density":6.12,
    "clustr:perimeter":0.15,
    "edtf:cessation":"uuuu",
    "edtf:inception":"uuuu",
    "geom:area":0.0,
    "geom:bbox":"4.42039060593,52.19348526,4.42079305649,52.1940956116",
    "geom:latitude":52.193776,
    "geom:longitude":4.420603,
    "iso:country":"NL",
    "mz:hierarchy_label":1,
    "mz:is_approximate":1,
    "mz:is_clustr":1,
    "src:geom":"oa",
    "wof:belongsto":[
        85687041,
        102191581,
        404474191,
        85633337,
        101754661
    ],
    "wof:breaches":[],
    "wof:country":"NL",
    "wof:created":1469672198,
    "wof:geomhash":"b9ccf6b2f9c3bdb8b049aa50abd24475",
    "wof:hierarchy":[
        {
            "continent_id":102191581,
            "country_id":85633337,
            "localadmin_id":404474191,
            "locality_id":101754661,
            "postalcode_id":890721165,
            "region_id":85687041
        }
    ],
    "wof:id":890721165,
    "wof:lastmodified":1469672198,
    "wof:name":"2223JJ",
    "wof:parent_id":101754661,
    "wof:placetype":"postalcode",
    "wof:repo":"whosonfirst-data-postalcode-nl",
    "wof:superseded_by":[],
    "wof:supersedes":[],
    "wof:tags":[]
},
  "bbox": [
    4.420390605926514,
    52.193485260009766,
    4.420793056488037,
    52.194095611572266
],
  "geometry": {"coordinates":[[[4.42077732086182,52.19378280639648],[4.42079305648804,52.19372940063477],[4.42075443267822,52.19348526000977],[4.42047166824341,52.19371795654297],[4.42040681838989,52.19401550292969],[4.42039060592651,52.19409561157227],[4.42077732086182,52.19378280639648]]],"type":"Polygon"}
}