{
  "id": 891243717,
  "type": "Feature",
  "properties": {
    "clustr:alpha":0.05,
    "clustr:area":72.77,
    "clustr:count":21,
    "clustr:density":0.29,
    "clustr:perimeter":0.17,
    "edtf:cessation":"uuuu",
    "edtf:inception":"uuuu",
    "geom:area":0.0,
    "geom:bbox":"6.75968074799,52.2548866272,6.76073360443,52.2555923462",
    "geom:latitude":52.255222,
    "geom:longitude":6.760227,
    "iso:country":"NL",
    "mz:hierarchy_label":1,
    "mz:is_approximate":1,
    "mz:is_clustr":1,
    "src:geom":"oa",
    "wof:belongsto":[
        85687045,
        102191581,
        404473837,
        85633337,
        101751869
    ],
    "wof:breaches":[],
    "wof:country":"NL",
    "wof:created":1469693156,
    "wof:geomhash":"82dcd1ba1b4acf4a25930a80682be171",
    "wof:hierarchy":[
        {
            "continent_id":102191581,
            "country_id":85633337,
            "localadmin_id":404473837,
            "locality_id":101751869,
            "postalcode_id":891243717,
            "region_id":85687045
        }
    ],
    "wof:id":891243717,
    "wof:lastmodified":1469693156,
    "wof:name":"7555KX",
    "wof:parent_id":101751869,
    "wof:placetype":"postalcode",
    "wof:repo":"whosonfirst-data-postalcode-nl",
    "wof:superseded_by":[],
    "wof:supersedes":[],
    "wof:tags":[]
},
  "bbox": [
    6.75968074798584,
    52.254886627197266,
    6.760733604431152,
    52.255592346191406
],
  "geometry": {"coordinates":[[[6.76073360443115,52.25515365600586],[6.7600998878479,52.25488662719727],[6.75968074798584,52.25506591796875],[6.75989770889282,52.25531387329102],[6.76002883911133,52.25543212890625],[6.7601580619812,52.25554656982422],[6.76021099090576,52.25559234619141],[6.76062870025635,52.25541687011719],[6.76073360443115,52.25515365600586]]],"type":"Polygon"}
}