{
  "id": 891044437,
  "type": "Feature",
  "properties": {
    "clustr:alpha":0.05,
    "clustr:area":189.63,
    "clustr:count":4,
    "clustr:density":0.02,
    "clustr:perimeter":0.59,
    "edtf:cessation":"uuuu",
    "edtf:inception":"uuuu",
    "geom:area":0.0,
    "geom:bbox":"5.71832084656,51.5452842712,5.7231221199,51.5463523865",
    "geom:latitude":51.545881,
    "geom:longitude":5.720724,
    "iso:country":"NL",
    "mz:hierarchy_label":1,
    "mz:is_approximate":1,
    "mz:is_clustr":1,
    "src:geom":"oa",
    "wof:belongsto":[
        102191581,
        404474563,
        85633337,
        85687035
    ],
    "wof:breaches":[],
    "wof:country":"NL",
    "wof:created":1469685172,
    "wof:geomhash":"d778fd54188329084ed4d2b6f7ea53ae",
    "wof:hierarchy":[
        {
            "continent_id":102191581,
            "country_id":85633337,
            "localadmin_id":404474563,
            "postalcode_id":891044437,
            "region_id":85687035
        }
    ],
    "wof:id":891044437,
    "wof:lastmodified":1469685172,
    "wof:name":"5425XT",
    "wof:parent_id":404474563,
    "wof:placetype":"postalcode",
    "wof:repo":"whosonfirst-data-postalcode-nl",
    "wof:superseded_by":[],
    "wof:supersedes":[],
    "wof:tags":[]
},
  "bbox": [
    5.718320846557617,
    51.545284271240234,
    5.723122119903564,
    51.54635238647461
],
  "geometry": {"coordinates":[[[5.71991062164307,51.5457763671875],[5.72119617462158,51.54608917236328],[5.72312211990356,51.54635238647461],[5.71832084655762,51.54528427124023],[5.71991062164307,51.5457763671875]]],"type":"Polygon"}
}