{
  "id": 890730321,
  "type": "Feature",
  "properties": {
    "clustr:alpha":0.05,
    "clustr:area":37.53,
    "clustr:count":24,
    "clustr:density":0.64,
    "clustr:perimeter":0.11,
    "edtf:cessation":"uuuu",
    "edtf:inception":"uuuu",
    "geom:area":0.0,
    "geom:bbox":"4.33115148544,52.0562133789,4.3316950798,52.0567893982",
    "geom:latitude":52.056495,
    "geom:longitude":4.331439,
    "iso:country":"NL",
    "mz:hierarchy_label":1,
    "mz:is_approximate":1,
    "mz:is_clustr":1,
    "src:geom":"oa",
    "wof:belongsto":[
        85687041,
        102191581,
        404474251,
        85633337,
        101754743
    ],
    "wof:breaches":[],
    "wof:country":"NL",
    "wof:created":1469672565,
    "wof:geomhash":"685dbd850477861aa6ff80ef5429e50e",
    "wof:hierarchy":[
        {
            "continent_id":102191581,
            "country_id":85633337,
            "localadmin_id":404474251,
            "locality_id":101754743,
            "postalcode_id":890730321,
            "region_id":85687041
        }
    ],
    "wof:id":890730321,
    "wof:lastmodified":1469672565,
    "wof:name":"2282BE",
    "wof:parent_id":101754743,
    "wof:placetype":"postalcode",
    "wof:repo":"whosonfirst-data-postalcode-nl",
    "wof:superseded_by":[],
    "wof:supersedes":[],
    "wof:tags":[]
},
  "bbox": [
    4.331151485443115,
    52.05621337890625,
    4.331695079803467,
    52.05678939819336
],
  "geometry": {"coordinates":[[[4.33156633377075,52.05643844604492],[4.33169507980347,52.05624008178711],[4.33166122436523,52.05622482299805],[4.33162832260132,52.05621337890625],[4.33155918121338,52.05628204345703],[4.33115148544312,52.05676651000977],[4.33121824264526,52.05678939819336],[4.33128261566162,52.05672454833984],[4.33156633377075,52.05643844604492]]],"type":"Polygon"}
}