{
  "id": 891168959,
  "type": "Feature",
  "properties": {
    "clustr:alpha":0.05,
    "clustr:area":4.87,
    "clustr:count":20,
    "clustr:density":4.11,
    "clustr:perimeter":0.14,
    "edtf:cessation":"uuuu",
    "edtf:inception":"uuuu",
    "geom:area":0.0,
    "geom:bbox":"5.63196325302,52.0216522217,5.63263511658,52.0221443176",
    "geom:latitude":52.021898,
    "geom:longitude":5.632296,
    "iso:country":"NL",
    "mz:hierarchy_label":1,
    "mz:is_approximate":1,
    "mz:is_clustr":1,
    "src:geom":"oa",
    "wof:belongsto":[
        102191581,
        404473893,
        85633337,
        85687043
    ],
    "wof:breaches":[],
    "wof:country":"NL",
    "wof:created":1469690169,
    "wof:geomhash":"af31f83c524e28aea70265277a99b065",
    "wof:hierarchy":[
        {
            "continent_id":102191581,
            "country_id":85633337,
            "localadmin_id":404473893,
            "postalcode_id":891168959,
            "region_id":85687043
        }
    ],
    "wof:id":891168959,
    "wof:lastmodified":1469690169,
    "wof:name":"6716PE",
    "wof:parent_id":404473893,
    "wof:placetype":"postalcode",
    "wof:repo":"whosonfirst-data-postalcode-nl",
    "wof:superseded_by":[],
    "wof:supersedes":[],
    "wof:tags":[]
},
  "bbox": [
    5.63196325302124,
    52.02165222167969,
    5.632635116577148,
    52.02214431762695
],
  "geometry": {"coordinates":[[[5.63226890563965,52.02165222167969],[5.63196325302124,52.02175903320312],[5.63199281692505,52.02180480957031],[5.63222742080688,52.02206420898438],[5.63230037689209,52.02214431762695],[5.63263511657715,52.02203750610352],[5.63240051269531,52.02176666259766],[5.6323127746582,52.02168655395508],[5.63226890563965,52.02165222167969]]],"type":"Polygon"}
}