{
  "id": 890680841,
  "type": "Feature",
  "properties": {
    "clustr:alpha":0.05,
    "clustr:area":42.01,
    "clustr:count":44,
    "clustr:density":1.05,
    "clustr:perimeter":0.3,
    "edtf:cessation":"uuuu",
    "edtf:inception":"uuuu",
    "geom:area":0.0,
    "geom:bbox":"4.75368070602,52.6299858093,4.75574588776,52.6306381226",
    "geom:latitude":52.630349,
    "geom:longitude":4.754792,
    "iso:country":"NL",
    "mz:hierarchy_label":1,
    "mz:is_approximate":1,
    "mz:is_clustr":1,
    "src:geom":"oa",
    "wof:belongsto":[
        85687053,
        102191581,
        404474025,
        85633337,
        101751887
    ],
    "wof:breaches":[],
    "wof:country":"NL",
    "wof:created":1469670424,
    "wof:geomhash":"5302f16a3aeade02395af3360ba0cdce",
    "wof:hierarchy":[
        {
            "continent_id":102191581,
            "country_id":85633337,
            "localadmin_id":404474025,
            "locality_id":101751887,
            "postalcode_id":890680841,
            "region_id":85687053
        }
    ],
    "wof:id":890680841,
    "wof:lastmodified":1469670424,
    "wof:name":"1811MX",
    "wof:parent_id":101751887,
    "wof:placetype":"postalcode",
    "wof:repo":"whosonfirst-data-postalcode-nl",
    "wof:superseded_by":[],
    "wof:supersedes":[],
    "wof:tags":[]
},
  "bbox": [
    4.75368070602417,
    52.62998580932617,
    4.755745887756348,
    52.630638122558594
],
  "geometry": {"coordinates":[[[4.75412845611572,52.63058471679688],[4.75434398651123,52.63054275512695],[4.75519990921021,52.63034057617188],[4.75574588775635,52.62998580932617],[4.75553512573242,52.63005065917969],[4.75435447692871,52.63041305541992],[4.75399780273438,52.63053131103516],[4.75368070602417,52.63063812255859],[4.75378227233887,52.6306266784668],[4.75412845611572,52.63058471679688]]],"type":"Polygon"}
}