{
  "id": 891203883,
  "type": "Feature",
  "properties": {
    "clustr:alpha":0.05,
    "clustr:area":10.49,
    "clustr:count":18,
    "clustr:density":1.72,
    "clustr:perimeter":0.37,
    "edtf:cessation":"uuuu",
    "edtf:inception":"uuuu",
    "geom:area":0.0,
    "geom:bbox":"6.63666963577,52.0968475342,6.63909912109,52.0976028442",
    "geom:latitude":52.097229,
    "geom:longitude":6.637876,
    "iso:country":"NL",
    "mz:hierarchy_label":1,
    "mz:is_approximate":1,
    "mz:is_clustr":1,
    "src:geom":"oa",
    "wof:belongsto":[
        85687043,
        102191581,
        404474671,
        85633337,
        101807089
    ],
    "wof:breaches":[],
    "wof:country":"NL",
    "wof:created":1469691565,
    "wof:geomhash":"976fdce550ea5ddab6a82fb5a7a022b9",
    "wof:hierarchy":[
        {
            "continent_id":102191581,
            "country_id":85633337,
            "localadmin_id":404474671,
            "locality_id":101807089,
            "postalcode_id":891203883,
            "region_id":85687043
        }
    ],
    "wof:id":891203883,
    "wof:lastmodified":1469691565,
    "wof:name":"7151GD",
    "wof:parent_id":101807089,
    "wof:placetype":"postalcode",
    "wof:repo":"whosonfirst-data-postalcode-nl",
    "wof:superseded_by":[],
    "wof:supersedes":[],
    "wof:tags":[]
},
  "bbox": [
    6.636669635772705,
    52.09684753417969,
    6.63909912109375,
    52.09760284423828
],
  "geometry": {"coordinates":[[[6.63675785064697,52.09686660766602],[6.63666963577271,52.09684753417969],[6.63714170455933,52.09702301025391],[6.63818740844727,52.09735488891602],[6.63901090621948,52.09757995605469],[6.63909912109375,52.09760284423828],[6.63855361938477,52.097412109375],[6.63675785064697,52.09686660766602]]],"type":"Polygon"}
}