{
  "id": 907026189,
  "type": "Feature",
  "properties": {
    "clustr:alpha":0.05,
    "clustr:area":1.2,
    "clustr:count":22,
    "clustr:density":18.41,
    "clustr:perimeter":0.48,
    "edtf:cessation":"uuuu",
    "edtf:inception":"uuuu",
    "geom:area":0.000001,
    "geom:bbox":"5.98061227798,52.3405647278,5.98142814636,52.3429794312",
    "geom:latitude":52.341633,
    "geom:longitude":5.981017,
    "iso:country":"NL",
    "mz:hierarchy_label":1,
    "mz:is_approximate":1,
    "mz:is_clustr":1,
    "src:geom":"oa",
    "wof:belongsto":[
        85687043,
        102191581,
        404473897,
        85633337,
        101807103
    ],
    "wof:breaches":[],
    "wof:country":"NL",
    "wof:created":1469695595,
    "wof:geomhash":"468436ce5b4b802d579917924a2b46cf",
    "wof:hierarchy":[
        {
            "continent_id":102191581,
            "country_id":85633337,
            "localadmin_id":404473897,
            "locality_id":101807103,
            "postalcode_id":907026189,
            "region_id":85687043
        }
    ],
    "wof:id":907026189,
    "wof:lastmodified":1469695595,
    "wof:name":"8162WD",
    "wof:parent_id":101807103,
    "wof:placetype":"postalcode",
    "wof:repo":"whosonfirst-data-postalcode-nl",
    "wof:superseded_by":[],
    "wof:supersedes":[],
    "wof:tags":[]
},
  "bbox": [
    5.980612277984619,
    52.3405647277832,
    5.981428146362305,
    52.342979431152344
],
  "geometry": {"coordinates":[[[5.98132991790771,52.34220504760742],[5.98115539550781,52.34111404418945],[5.9809045791626,52.3405647277832],[5.98061227798462,52.3405876159668],[5.98063659667969,52.34075927734375],[5.98089265823364,52.34222793579102],[5.9814281463623,52.34297943115234],[5.98132991790771,52.34220504760742]]],"type":"Polygon"}
}