{
  "id": 890916479,
  "type": "Feature",
  "properties": {
    "clustr:alpha":0.05,
    "clustr:area":42.45,
    "clustr:count":14,
    "clustr:density":0.33,
    "clustr:perimeter":0.3,
    "edtf:cessation":"uuuu",
    "edtf:inception":"uuuu",
    "geom:area":0.0,
    "geom:bbox":"5.60227012634,52.2508392334,5.60290288925,52.2523574829",
    "geom:latitude":52.251631,
    "geom:longitude":5.602612,
    "iso:country":"NL",
    "mz:hierarchy_label":1,
    "mz:is_approximate":1,
    "mz:is_clustr":1,
    "src:geom":"oa",
    "wof:belongsto":[
        85687043,
        102191581,
        404473929,
        85633337,
        101837827
    ],
    "wof:breaches":[],
    "wof:country":"NL",
    "wof:created":1469679868,
    "wof:geomhash":"6d883aec36ceadcc0bb0ea2c1c31546f",
    "wof:hierarchy":[
        {
            "continent_id":102191581,
            "country_id":85633337,
            "localadmin_id":404473929,
            "locality_id":101837827,
            "postalcode_id":890916479,
            "region_id":85687043
        }
    ],
    "wof:id":890916479,
    "wof:lastmodified":1469679868,
    "wof:name":"3882XE",
    "wof:parent_id":101837827,
    "wof:placetype":"postalcode",
    "wof:repo":"whosonfirst-data-postalcode-nl",
    "wof:superseded_by":[],
    "wof:supersedes":[],
    "wof:tags":[]
},
  "bbox": [
    5.602270126342773,
    52.25083923339844,
    5.602902889251709,
    52.252357482910156
],
  "geometry": {"coordinates":[[[5.60283374786377,52.2523078918457],[5.60290288925171,52.25235748291016],[5.60266017913818,52.25083923339844],[5.60227012634277,52.25165939331055],[5.60231113433838,52.251708984375],[5.60243511199951,52.25185775756836],[5.60283374786377,52.2523078918457]]],"type":"Polygon"}
}