{
  "id": 891066919,
  "type": "Feature",
  "properties": {
    "clustr:alpha":0.05,
    "clustr:area":335.4,
    "clustr:count":9,
    "clustr:density":0.03,
    "clustr:perimeter":1.02,
    "edtf:cessation":"uuuu",
    "edtf:inception":"uuuu",
    "geom:area":0.000005,
    "geom:bbox":"5.52206468582,51.4499435425,5.53038740158,51.4510955811",
    "geom:latitude":51.450434,
    "geom:longitude":5.52637,
    "iso:country":"NL",
    "mz:hierarchy_label":1,
    "mz:is_approximate":1,
    "mz:is_clustr":1,
    "src:geom":"oa",
    "wof:belongsto":[
        102191581,
        404474375,
        85633337,
        85687035
    ],
    "wof:breaches":[],
    "wof:country":"NL",
    "wof:created":1469685993,
    "wof:geomhash":"f3e39761e8621cd81e4cc37d1336bef1",
    "wof:hierarchy":[
        {
            "continent_id":102191581,
            "country_id":85633337,
            "localadmin_id":404474375,
            "postalcode_id":891066919,
            "region_id":85687035
        }
    ],
    "wof:id":891066919,
    "wof:lastmodified":1469685993,
    "wof:name":"5641JR",
    "wof:parent_id":404474375,
    "wof:placetype":"postalcode",
    "wof:repo":"whosonfirst-data-postalcode-nl",
    "wof:superseded_by":[],
    "wof:supersedes":[],
    "wof:tags":[]
},
  "bbox": [
    5.522064685821533,
    51.44994354248047,
    5.530387401580811,
    51.45109558105469
],
  "geometry": {"coordinates":[[[5.52746629714966,51.45109558105469],[5.53038740158081,51.44994354248047],[5.52206468582153,51.45012664794922],[5.52230787277222,51.4501953125],[5.524733543396,51.45088577270508],[5.52746629714966,51.45109558105469]]],"type":"Polygon"}
}