{
  "id": 890817153,
  "type": "Feature",
  "properties": {
    "clustr:alpha":0.05,
    "clustr:area":3.92,
    "clustr:count":22,
    "clustr:density":5.62,
    "clustr:perimeter":0.06,
    "edtf:cessation":"uuuu",
    "edtf:inception":"uuuu",
    "geom:area":0.0,
    "geom:bbox":"4.46589231491,51.9332466125,4.46609163284,51.9334831238",
    "geom:latitude":51.933393,
    "geom:longitude":4.46597,
    "iso:country":"NL",
    "mz:hierarchy_label":1,
    "mz:is_approximate":1,
    "mz:is_clustr":1,
    "src:geom":"oa",
    "wof:belongsto":[
        85687041,
        102191581,
        404474245,
        85633337,
        101753095
    ],
    "wof:breaches":[],
    "wof:country":"NL",
    "wof:created":1469675871,
    "wof:geomhash":"982d69eda09ceb0f26ab5c4eaed41dd3",
    "wof:hierarchy":[
        {
            "continent_id":102191581,
            "country_id":85633337,
            "localadmin_id":404474245,
            "locality_id":101753095,
            "postalcode_id":890817153,
            "region_id":85687041
        }
    ],
    "wof:id":890817153,
    "wof:lastmodified":1469675871,
    "wof:name":"3038AL",
    "wof:parent_id":101753095,
    "wof:placetype":"postalcode",
    "wof:repo":"whosonfirst-data-postalcode-nl",
    "wof:superseded_by":[],
    "wof:supersedes":[],
    "wof:tags":[]
},
  "bbox": [
    4.465892314910889,
    51.93324661254883,
    4.466091632843018,
    51.9334831237793
],
  "geometry": {"coordinates":[[[4.46592235565185,51.93345642089844],[4.46609163284302,51.93324661254883],[4.46593046188354,51.93343353271484],[4.46589231491089,51.9334831237793],[4.46592235565185,51.93345642089844]]],"type":"Polygon"}
}