{
  "id": 890650417,
  "type": "Feature",
  "properties": {
    "clustr:alpha":0.05,
    "clustr:area":27.72,
    "clustr:count":9,
    "clustr:density":0.32,
    "clustr:perimeter":0.08,
    "edtf:cessation":"uuuu",
    "edtf:inception":"uuuu",
    "geom:area":0.0,
    "geom:bbox":"4.79570865631,52.5529212952,4.79611063004,52.5533370972",
    "geom:latitude":52.553074,
    "geom:longitude":4.795911,
    "iso:country":"NL",
    "mz:hierarchy_label":1,
    "mz:is_approximate":1,
    "mz:is_clustr":1,
    "src:geom":"oa",
    "wof:belongsto":[
        102191581,
        404474035,
        85633337,
        85687053
    ],
    "wof:breaches":[],
    "wof:country":"NL",
    "wof:created":1469669018,
    "wof:geomhash":"741fd6d5dfa6ef4eea46e04bdc4a2289",
    "wof:hierarchy":[
        {
            "continent_id":102191581,
            "country_id":85633337,
            "localadmin_id":404474035,
            "postalcode_id":890650417,
            "region_id":85687053
        }
    ],
    "wof:id":890650417,
    "wof:lastmodified":1469669018,
    "wof:name":"1486NG",
    "wof:parent_id":404474035,
    "wof:placetype":"postalcode",
    "wof:repo":"whosonfirst-data-postalcode-nl",
    "wof:superseded_by":[],
    "wof:supersedes":[],
    "wof:tags":[]
},
  "bbox": [
    4.795708656311035,
    52.552921295166016,
    4.7961106300354,
    52.55333709716797
],
  "geometry": {"coordinates":[[[4.7961106300354,52.55296325683594],[4.79582452774048,52.55293273925781],[4.79570865631104,52.55292129516602],[4.79591464996338,52.55333709716797],[4.7961106300354,52.55296325683594]]],"type":"Polygon"}
}