{
  "id": 890881399,
  "type": "Feature",
  "properties": {
    "clustr:alpha":0.05,
    "clustr:area":18.82,
    "clustr:count":8,
    "clustr:density":0.43,
    "clustr:perimeter":0.04,
    "edtf:cessation":"uuuu",
    "edtf:inception":"uuuu",
    "geom:area":0.0,
    "geom:bbox":"5.09651136398,52.1250076294,5.09682416916,52.1252098083",
    "geom:latitude":52.125109,
    "geom:longitude":5.096667,
    "iso:country":"NL",
    "mz:hierarchy_label":1,
    "mz:is_approximate":1,
    "mz:is_clustr":1,
    "src:geom":"oa",
    "wof:belongsto":[
        85687039,
        102191581,
        404474007,
        85633337,
        101751827
    ],
    "wof:breaches":[],
    "wof:country":"NL",
    "wof:created":1469678318,
    "wof:geomhash":"9f36d760b805ae476278198d54a7f81e",
    "wof:hierarchy":[
        {
            "continent_id":102191581,
            "country_id":85633337,
            "localadmin_id":404474007,
            "locality_id":101751827,
            "postalcode_id":890881399,
            "region_id":85687039
        }
    ],
    "wof:id":890881399,
    "wof:lastmodified":1469678318,
    "wof:name":"3564KM",
    "wof:parent_id":101751827,
    "wof:placetype":"postalcode",
    "wof:repo":"whosonfirst-data-postalcode-nl",
    "wof:superseded_by":[],
    "wof:supersedes":[],
    "wof:tags":[]
},
  "bbox": [
    5.096511363983154,
    52.12500762939453,
    5.096824169158936,
    52.12520980834961
],
  "geometry": {"coordinates":[[[5.09667825698853,52.12520980834961],[5.09682416915894,52.12514114379883],[5.09665679931641,52.12500762939453],[5.09653377532959,52.12506484985352],[5.09651136398315,52.12507629394531],[5.09667825698853,52.12520980834961]]],"type":"Polygon"}
}