{
  "id": 907127907,
  "type": "Feature",
  "properties": {
    "clustr:alpha":0.05,
    "clustr:area":22.25,
    "clustr:count":10,
    "clustr:density":0.45,
    "clustr:perimeter":0.44,
    "edtf:cessation":"uuuu",
    "edtf:inception":"uuuu",
    "geom:area":0.000002,
    "geom:bbox":"6.56344270706,53.389339447,6.56562662125,53.3906822205",
    "geom:latitude":53.390056,
    "geom:longitude":6.564585,
    "iso:country":"NL",
    "mz:hierarchy_label":1,
    "mz:is_approximate":1,
    "mz:is_clustr":1,
    "src:geom":"oa",
    "wof:belongsto":[
        85687059,
        102191581,
        404474561,
        85633337,
        101807529
    ],
    "wof:breaches":[],
    "wof:country":"NL",
    "wof:created":1469700675,
    "wof:geomhash":"77f51da8399e39cdaa1cdd2fb640a243",
    "wof:hierarchy":[
        {
            "continent_id":102191581,
            "country_id":85633337,
            "localadmin_id":404474561,
            "locality_id":101807529,
            "postalcode_id":907127907,
            "region_id":85687059
        }
    ],
    "wof:id":907127907,
    "wof:lastmodified":1469700675,
    "wof:name":"9989BT",
    "wof:parent_id":101807529,
    "wof:placetype":"postalcode",
    "wof:repo":"whosonfirst-data-postalcode-nl",
    "wof:superseded_by":[],
    "wof:supersedes":[],
    "wof:tags":[]
},
  "bbox": [
    6.563442707061768,
    53.389339447021484,
    6.565626621246338,
    53.390682220458984
],
  "geometry": {"coordinates":[[[6.56412076950073,53.38966369628906],[6.56344270706177,53.39068222045898],[6.56562662124634,53.39030456542969],[6.56504392623901,53.38933944702148],[6.56429958343506,53.38958740234375],[6.56412076950073,53.38966369628906]]],"type":"Polygon"}
}