{
  "id": 891234085,
  "type": "Feature",
  "properties": {
    "clustr:alpha":0.05,
    "clustr:area":37.21,
    "clustr:count":21,
    "clustr:density":0.56,
    "clustr:perimeter":0.26,
    "edtf:cessation":"uuuu",
    "edtf:inception":"uuuu",
    "geom:area":0.0,
    "geom:bbox":"6.72329521179,52.1605072021,6.72476434708,52.1613845825",
    "geom:latitude":52.160882,
    "geom:longitude":6.724041,
    "iso:country":"NL",
    "mz:hierarchy_label":1,
    "mz:is_approximate":1,
    "mz:is_clustr":1,
    "src:geom":"oa",
    "wof:belongsto":[
        85687045,
        102191581,
        404473829,
        85633337,
        101807203
    ],
    "wof:breaches":[],
    "wof:country":"NL",
    "wof:created":1469692773,
    "wof:geomhash":"310408043a599bc312d80b5b304d49e8",
    "wof:hierarchy":[
        {
            "continent_id":102191581,
            "country_id":85633337,
            "localadmin_id":404473829,
            "locality_id":101807203,
            "postalcode_id":891234085,
            "region_id":85687045
        }
    ],
    "wof:id":891234085,
    "wof:lastmodified":1469692773,
    "wof:name":"7482XW",
    "wof:parent_id":101807203,
    "wof:placetype":"postalcode",
    "wof:repo":"whosonfirst-data-postalcode-nl",
    "wof:superseded_by":[],
    "wof:supersedes":[],
    "wof:tags":[]
},
  "bbox": [
    6.723295211791992,
    52.16050720214844,
    6.724764347076416,
    52.16138458251953
],
  "geometry": {"coordinates":[[[6.72443819046021,52.16050720214844],[6.72424983978271,52.16057205200195],[6.72413492202759,52.16062545776367],[6.72351884841919,52.16104888916016],[6.72329521179199,52.16138458251953],[6.72349739074707,52.16130065917969],[6.72469234466553,52.16070175170898],[6.72476434707642,52.16066360473633],[6.72443819046021,52.16050720214844]]],"type":"Polygon"}
}