{
  "id": 890951387,
  "type": "Feature",
  "properties": {
    "clustr:alpha":0.05,
    "clustr:area":49.92,
    "clustr:count":21,
    "clustr:density":0.42,
    "clustr:perimeter":0.45,
    "edtf:cessation":"uuuu",
    "edtf:inception":"uuuu",
    "geom:area":0.000001,
    "geom:bbox":"3.44469928741,51.5268974304,3.44675707817,51.5286369324",
    "geom:latitude":51.527764,
    "geom:longitude":3.445679,
    "iso:country":"NL",
    "mz:hierarchy_label":1,
    "mz:is_approximate":1,
    "mz:is_clustr":1,
    "src:geom":"oa",
    "wof:belongsto":[
        85687037,
        102191581,
        404474333,
        85633337,
        101839447
    ],
    "wof:breaches":[],
    "wof:country":"NL",
    "wof:created":1469681265,
    "wof:geomhash":"7d30a4d837c95c169779be644792b090",
    "wof:hierarchy":[
        {
            "continent_id":102191581,
            "country_id":85633337,
            "localadmin_id":404474333,
            "locality_id":101839447,
            "postalcode_id":890951387,
            "region_id":85687037
        }
    ],
    "wof:id":890951387,
    "wof:lastmodified":1469681265,
    "wof:name":"4361AR",
    "wof:parent_id":101839447,
    "wof:placetype":"postalcode",
    "wof:repo":"whosonfirst-data-postalcode-nl",
    "wof:superseded_by":[],
    "wof:supersedes":[],
    "wof:tags":[]
},
  "bbox": [
    3.444699287414551,
    51.52689743041992,
    3.446757078170776,
    51.52863693237305
],
  "geometry": {"coordinates":[[[3.4461019039154,51.5284538269043],[3.44675707817078,51.52863693237305],[3.44550395011902,51.52689743041992],[3.44469928741455,51.52754211425781],[3.44568037986755,51.52819442749023],[3.4461019039154,51.5284538269043]]],"type":"Polygon"}
}