{
  "id": 890870595,
  "type": "Feature",
  "properties": {
    "clustr:alpha":0.05,
    "clustr:area":70.39,
    "clustr:count":23,
    "clustr:density":0.33,
    "clustr:perimeter":0.22,
    "edtf:cessation":"uuuu",
    "edtf:inception":"uuuu",
    "geom:area":0.0,
    "geom:bbox":"5.01541614532,52.0887184143,5.01650714874,52.0895385742",
    "geom:latitude":52.089066,
    "geom:longitude":5.015921,
    "iso:country":"NL",
    "mz:hierarchy_label":1,
    "mz:is_approximate":1,
    "mz:is_clustr":1,
    "src:geom":"oa",
    "wof:belongsto":[
        102191581,
        404474007,
        85633337,
        85687039
    ],
    "wof:breaches":[],
    "wof:country":"NL",
    "wof:created":1469677911,
    "wof:geomhash":"4f1a8956fe0fad4405130a7ea1fc773b",
    "wof:hierarchy":[
        {
            "continent_id":102191581,
            "country_id":85633337,
            "localadmin_id":404474007,
            "postalcode_id":890870595,
            "region_id":85687039
        }
    ],
    "wof:id":890870595,
    "wof:lastmodified":1469677911,
    "wof:name":"3452RD",
    "wof:parent_id":404474007,
    "wof:placetype":"postalcode",
    "wof:repo":"whosonfirst-data-postalcode-nl",
    "wof:superseded_by":[],
    "wof:supersedes":[],
    "wof:tags":[]
},
  "bbox": [
    5.015416145324707,
    52.08871841430664,
    5.016507148742676,
    52.08953857421875
],
  "geometry": {"coordinates":[[[5.01551151275635,52.08871841430664],[5.01541614532471,52.08908462524414],[5.01650714874268,52.08953857421875],[5.01628112792969,52.0891227722168],[5.01609516143799,52.08878707885742],[5.01551151275635,52.08871841430664]]],"type":"Polygon"}
}