{
  "id": 890660467,
  "type": "Feature",
  "properties": {
    "clustr:alpha":0.05,
    "clustr:area":54.82,
    "clustr:count":7,
    "clustr:density":0.13,
    "clustr:perimeter":1.75,
    "edtf:cessation":"uuuu",
    "edtf:inception":"uuuu",
    "geom:area":0.000003,
    "geom:bbox":"5.1966252327,52.6920928955,5.20957565308,52.6936759949",
    "geom:latitude":52.692871,
    "geom:longitude":5.203016,
    "iso:country":"NL",
    "mz:hierarchy_label":1,
    "mz:is_approximate":1,
    "mz:is_clustr":1,
    "src:geom":"oa",
    "wof:belongsto":[
        102191581,
        404474187,
        85633337,
        85687053
    ],
    "wof:breaches":[],
    "wof:country":"NL",
    "wof:created":1469669489,
    "wof:geomhash":"c37f637821de3e20f0d211dd5441af88",
    "wof:hierarchy":[
        {
            "continent_id":102191581,
            "country_id":85633337,
            "localadmin_id":404474187,
            "postalcode_id":890660467,
            "region_id":85687053
        }
    ],
    "wof:id":890660467,
    "wof:lastmodified":1469669489,
    "wof:name":"1614MD",
    "wof:parent_id":404474187,
    "wof:placetype":"postalcode",
    "wof:repo":"whosonfirst-data-postalcode-nl",
    "wof:superseded_by":[],
    "wof:supersedes":[],
    "wof:tags":[]
},
  "bbox": [
    5.196625232696533,
    52.69209289550781,
    5.209575653076172,
    52.69367599487305
],
  "geometry": {"coordinates":[[[5.19662523269653,52.69209289550781],[5.19709777832031,52.69225311279297],[5.19958114624023,52.69260787963867],[5.20897102355957,52.69367599487305],[5.20957565307617,52.69363021850586],[5.20320463180542,52.69270324707031],[5.19662523269653,52.69209289550781]]],"type":"Polygon"}
}