{
  "id": 891208109,
  "type": "Feature",
  "properties": {
    "clustr:alpha":0.05,
    "clustr:area":2192.16,
    "clustr:count":12,
    "clustr:density":0.01,
    "clustr:perimeter":3.16,
    "edtf:cessation":"uuuu",
    "edtf:inception":"uuuu",
    "geom:area":0.000052,
    "geom:bbox":"6.28458595276,52.2211036682,6.31578779221,52.2246665955",
    "geom:latitude":52.22283,
    "geom:longitude":6.29996,
    "iso:country":"NL",
    "mz:hierarchy_label":1,
    "mz:is_approximate":1,
    "mz:is_clustr":1,
    "src:geom":"oa",
    "wof:belongsto":[
        102191581,
        404473915,
        85633337,
        85687043
    ],
    "wof:breaches":[],
    "wof:country":"NL",
    "wof:created":1469691751,
    "wof:geomhash":"cfd0b036a761409cd66a0d9c48775b41",
    "wof:hierarchy":[
        {
            "continent_id":102191581,
            "country_id":85633337,
            "localadmin_id":404473915,
            "postalcode_id":891208109,
            "region_id":85687043
        }
    ],
    "wof:id":891208109,
    "wof:lastmodified":1469691751,
    "wof:name":"7216PE",
    "wof:parent_id":404473915,
    "wof:placetype":"postalcode",
    "wof:repo":"whosonfirst-data-postalcode-nl",
    "wof:superseded_by":[],
    "wof:supersedes":[],
    "wof:tags":[]
},
  "bbox": [
    6.284585952758789,
    52.22110366821289,
    6.315787792205811,
    52.224666595458984
],
  "geometry": {"coordinates":[[[6.30270433425903,52.22369003295898],[6.31327390670776,52.22466659545898],[6.31578779220581,52.22412872314453],[6.31086874008179,52.2225341796875],[6.2904953956604,52.22110366821289],[6.28686189651489,52.22203826904297],[6.28458595275879,52.22314071655273],[6.30270433425903,52.22369003295898]]],"type":"Polygon"}
}