{
  "id": 907080895,
  "type": "Feature",
  "properties": {
    "clustr:alpha":0.05,
    "clustr:area":34.52,
    "clustr:count":5,
    "clustr:density":0.14,
    "clustr:perimeter":0.5,
    "edtf:cessation":"uuuu",
    "edtf:inception":"uuuu",
    "geom:area":0.000001,
    "geom:bbox":"6.16746473312,53.2117958069,6.17098236084,53.2127227783",
    "geom:latitude":53.212248,
    "geom:longitude":6.169441,
    "iso:country":"NL",
    "mz:hierarchy_label":1,
    "mz:is_approximate":1,
    "mz:is_clustr":1,
    "src:geom":"oa",
    "wof:belongsto":[
        85687055,
        102191581,
        404473757,
        85633337,
        101874279
    ],
    "wof:breaches":[],
    "wof:country":"NL",
    "wof:created":1469698269,
    "wof:geomhash":"7af7d7618bf4d7c9d35a60c190adfb15",
    "wof:hierarchy":[
        {
            "continent_id":102191581,
            "country_id":85633337,
            "localadmin_id":404473757,
            "locality_id":101874279,
            "postalcode_id":907080895,
            "region_id":85687055
        }
    ],
    "wof:id":907080895,
    "wof:lastmodified":1469698269,
    "wof:name":"9284SB",
    "wof:parent_id":101874279,
    "wof:placetype":"postalcode",
    "wof:repo":"whosonfirst-data-postalcode-nl",
    "wof:superseded_by":[],
    "wof:supersedes":[],
    "wof:tags":[]
},
  "bbox": [
    6.167464733123779,
    53.211795806884766,
    6.170982360839844,
    53.21272277832031
],
  "geometry": {"coordinates":[[[6.16746473312378,53.21266937255859],[6.16776323318481,53.21272277832031],[6.17098236083984,53.21207046508789],[6.17048978805542,53.21179580688477],[6.16746473312378,53.21266937255859]]],"type":"Polygon"}
}