{
  "id": 890654961,
  "type": "Feature",
  "properties": {
    "clustr:alpha":0.05,
    "clustr:area":51.31,
    "clustr:count":52,
    "clustr:density":1.01,
    "clustr:perimeter":0.07,
    "edtf:cessation":"uuuu",
    "edtf:inception":"uuuu",
    "geom:area":0.0,
    "geom:bbox":"4.79341745377,52.4918251038,4.79416131973,52.4919090271",
    "geom:latitude":52.491866,
    "geom:longitude":4.793779,
    "iso:country":"NL",
    "mz:hierarchy_label":1,
    "mz:is_approximate":1,
    "mz:is_clustr":1,
    "src:geom":"oa",
    "wof:belongsto":[
        85687053,
        102191581,
        404474461,
        85633337,
        101754867
    ],
    "wof:breaches":[],
    "wof:country":"NL",
    "wof:created":1469669252,
    "wof:geomhash":"3d44e240382333aa57fc9a0ca4edff61",
    "wof:hierarchy":[
        {
            "continent_id":102191581,
            "country_id":85633337,
            "localadmin_id":404474461,
            "locality_id":101754867,
            "postalcode_id":890654961,
            "region_id":85687053
        }
    ],
    "wof:id":890654961,
    "wof:lastmodified":1469669252,
    "wof:name":"1531MP",
    "wof:parent_id":101754867,
    "wof:placetype":"postalcode",
    "wof:repo":"whosonfirst-data-postalcode-nl",
    "wof:superseded_by":[],
    "wof:supersedes":[],
    "wof:tags":[]
},
  "bbox": [
    4.793417453765869,
    52.491825103759766,
    4.794161319732666,
    52.49190902709961
],
  "geometry": {"coordinates":[[[4.79373359680176,52.49188613891602],[4.79416131973267,52.49190902709961],[4.79410600662231,52.49189758300781],[4.7939395904541,52.49186706542969],[4.79382848739624,52.49184799194336],[4.79377317428589,52.49184036254883],[4.79341745376587,52.49182510375977],[4.79369306564331,52.49188232421875],[4.79373359680176,52.49188613891602]]],"type":"Polygon"}
}