{
  "id": 891221605,
  "type": "Feature",
  "properties": {
    "clustr:alpha":0.05,
    "clustr:area":74.74,
    "clustr:count":14,
    "clustr:density":0.19,
    "clustr:perimeter":0.22,
    "edtf:cessation":"uuuu",
    "edtf:inception":"uuuu",
    "geom:area":0.0,
    "geom:bbox":"6.09332466125,52.2381057739,6.09512758255,52.238494873",
    "geom:latitude":52.238304,
    "geom:longitude":6.094217,
    "iso:country":"NL",
    "mz:hierarchy_label":1,
    "mz:is_approximate":1,
    "mz:is_clustr":1,
    "src:geom":"oa",
    "wof:belongsto":[
        85687043,
        102191581,
        404473945,
        85633337,
        101807099
    ],
    "wof:breaches":[],
    "wof:country":"NL",
    "wof:created":1469692289,
    "wof:geomhash":"9c23ffcbd60634bc04a03149027b569b",
    "wof:hierarchy":[
        {
            "continent_id":102191581,
            "country_id":85633337,
            "localadmin_id":404473945,
            "locality_id":101807099,
            "postalcode_id":891221605,
            "region_id":85687043
        }
    ],
    "wof:id":891221605,
    "wof:lastmodified":1469692289,
    "wof:name":"7391DK",
    "wof:parent_id":101807099,
    "wof:placetype":"postalcode",
    "wof:repo":"whosonfirst-data-postalcode-nl",
    "wof:superseded_by":[],
    "wof:supersedes":[],
    "wof:tags":[]
},
  "bbox": [
    6.093324661254883,
    52.23810577392578,
    6.095127582550049,
    52.238494873046875
],
  "geometry": {"coordinates":[[[6.0942792892456,52.23816299438477],[6.09409856796265,52.23810577392578],[6.09332466125488,52.23814392089844],[6.09367084503174,52.23827743530273],[6.09404325485229,52.23840713500977],[6.09429931640625,52.23849487304688],[6.09512758255005,52.23847198486328],[6.09492158889771,52.2383918762207],[6.0942792892456,52.23816299438477]]],"type":"Polygon"}
}