{
  "id": 890701903,
  "type": "Feature",
  "properties": {
    "clustr:alpha":0.05,
    "clustr:area":48.94,
    "clustr:count":30,
    "clustr:density":0.61,
    "clustr:perimeter":0.28,
    "edtf:cessation":"uuuu",
    "edtf:inception":"uuuu",
    "geom:area":0.0,
    "geom:bbox":"4.65598487854,52.4084625244,4.65632915497,52.4101104736",
    "geom:latitude":52.409321,
    "geom:longitude":4.65615,
    "iso:country":"NL",
    "mz:hierarchy_label":1,
    "mz:is_approximate":1,
    "mz:is_clustr":1,
    "src:geom":"oa",
    "wof:belongsto":[
        85687053,
        102191581,
        404474061,
        85633337,
        101751897
    ],
    "wof:breaches":[],
    "wof:country":"NL",
    "wof:created":1469671297,
    "wof:geomhash":"c0e0453c2121081db8737cca95616fed",
    "wof:hierarchy":[
        {
            "continent_id":102191581,
            "country_id":85633337,
            "localadmin_id":404474061,
            "locality_id":101751897,
            "postalcode_id":890701903,
            "region_id":85687053
        }
    ],
    "wof:id":890701903,
    "wof:lastmodified":1469671297,
    "wof:name":"2025BP",
    "wof:parent_id":101751897,
    "wof:placetype":"postalcode",
    "wof:repo":"whosonfirst-data-postalcode-nl",
    "wof:superseded_by":[],
    "wof:supersedes":[],
    "wof:tags":[]
},
  "bbox": [
    4.655984878540039,
    52.40846252441406,
    4.656329154968262,
    52.41011047363281
],
  "geometry": {"coordinates":[[[4.65632915496826,52.40936279296875],[4.65614604949951,52.40846252441406],[4.65614128112793,52.40850830078125],[4.656005859375,52.40983581542969],[4.65599679946899,52.40992736816406],[4.65598487854004,52.41006469726562],[4.65599012374878,52.41011047363281],[4.65632915496826,52.40936279296875]]],"type":"Polygon"}
}