{
  "id": 890936227,
  "type": "Feature",
  "properties": {
    "clustr:alpha":0.05,
    "clustr:area":4.38,
    "clustr:count":52,
    "clustr:density":11.86,
    "clustr:perimeter":0.57,
    "edtf:cessation":"uuuu",
    "edtf:inception":"uuuu",
    "geom:area":0.000001,
    "geom:bbox":"5.09635257721,51.8926124573,5.10006856918,51.893447876",
    "geom:latitude":51.892996,
    "geom:longitude":5.097731,
    "iso:country":"NL",
    "mz:hierarchy_label":1,
    "mz:is_approximate":1,
    "mz:is_clustr":1,
    "src:geom":"oa",
    "wof:belongsto":[
        85687041,
        102191581,
        404474197,
        85633337,
        101808521
    ],
    "wof:breaches":[],
    "wof:country":"NL",
    "wof:created":1469680677,
    "wof:geomhash":"713bede28297dd281a3c89681887dd6b",
    "wof:hierarchy":[
        {
            "continent_id":102191581,
            "country_id":85633337,
            "localadmin_id":404474197,
            "locality_id":101808521,
            "postalcode_id":890936227,
            "region_id":85687041
        }
    ],
    "wof:id":890936227,
    "wof:lastmodified":1469680677,
    "wof:name":"4141CN",
    "wof:parent_id":101808521,
    "wof:placetype":"postalcode",
    "wof:repo":"whosonfirst-data-postalcode-nl",
    "wof:superseded_by":[],
    "wof:supersedes":[],
    "wof:tags":[]
},
  "bbox": [
    5.096352577209473,
    51.89261245727539,
    5.10006856918335,
    51.89344787597656
],
  "geometry": {"coordinates":[[[5.09635257720947,51.89341354370117],[5.09649085998535,51.89342880249023],[5.09668636322021,51.89344787597656],[5.09681558609009,51.89344787597656],[5.09701347351074,51.8934326171875],[5.09720802307129,51.89341735839844],[5.09727430343628,51.89340972900391],[5.10006856918335,51.89261245727539],[5.09722185134888,51.89274597167969],[5.09715700149536,51.89275360107422],[5.09689712524414,51.89278411865234],[5.09683418273926,51.89279174804688],[5.09664249420166,51.89281845092773],[5.0963888168335,51.89326095581055],[5.0963773727417,51.89330291748047],[5.09635257720947,51.89341354370117]]],"type":"Polygon"}
}