{
  "id": 890577905,
  "type": "Feature",
  "properties": {
    "clustr:alpha":0.05,
    "clustr:area":100.14,
    "clustr:count":27,
    "clustr:density":0.27,
    "clustr:perimeter":0.08,
    "edtf:cessation":"uuuu",
    "edtf:inception":"uuuu",
    "geom:area":0.0,
    "geom:bbox":"4.8931722641,52.3601799011,4.89415693283,52.3602600098",
    "geom:latitude":52.360221,
    "geom:longitude":4.893649,
    "iso:country":"NL",
    "mz:hierarchy_label":1,
    "mz:is_approximate":1,
    "mz:is_clustr":1,
    "src:geom":"oa",
    "wof:belongsto":[
        85687053,
        102191581,
        404474029,
        85633337,
        101751893
    ],
    "wof:breaches":[],
    "wof:country":"NL",
    "wof:created":1469665776,
    "wof:geomhash":"7bb41b9a5e75feb1e6d8197f15c3992d",
    "wof:hierarchy":[
        {
            "continent_id":102191581,
            "country_id":85633337,
            "localadmin_id":404474029,
            "locality_id":101751893,
            "postalcode_id":890577905,
            "region_id":85687053
        }
    ],
    "wof:id":890577905,
    "wof:lastmodified":1469665776,
    "wof:name":"1017TJ",
    "wof:parent_id":101751893,
    "wof:placetype":"postalcode",
    "wof:repo":"whosonfirst-data-postalcode-nl",
    "wof:superseded_by":[],
    "wof:supersedes":[],
    "wof:tags":[]
},
  "bbox": [
    4.893172264099121,
    52.36017990112305,
    4.894156932830811,
    52.360260009765625
],
  "geometry": {"coordinates":[[[4.89326095581055,52.3602409362793],[4.89318752288818,52.36024856567383],[4.89317226409912,52.36025619506836],[4.89318704605103,52.36026000976562],[4.89321660995483,52.36026000976562],[4.89324569702148,52.36026000976562],[4.89326047897339,52.36026000976562],[4.89415693283081,52.36019134521484],[4.89408349990845,52.36017990112305],[4.89326095581055,52.3602409362793]]],"type":"Polygon"}
}