{
  "id": 891162677,
  "type": "Feature",
  "properties": {
    "clustr:alpha":0.05,
    "clustr:area":7.34,
    "clustr:count":13,
    "clustr:density":1.77,
    "clustr:perimeter":0.18,
    "edtf:cessation":"uuuu",
    "edtf:inception":"uuuu",
    "geom:area":0.0,
    "geom:bbox":"5.65584754944,51.9119148254,5.65600347519,51.9128227234",
    "geom:latitude":51.91234,
    "geom:longitude":5.655943,
    "iso:country":"NL",
    "mz:hierarchy_label":1,
    "mz:is_approximate":1,
    "mz:is_clustr":1,
    "src:geom":"oa",
    "wof:belongsto":[
        85687043,
        102191581,
        404474655,
        85633337,
        101808661
    ],
    "wof:breaches":[],
    "wof:country":"NL",
    "wof:created":1469689889,
    "wof:geomhash":"d9594c5180725bca2206fc36deff42e0",
    "wof:hierarchy":[
        {
            "continent_id":102191581,
            "country_id":85633337,
            "localadmin_id":404474655,
            "locality_id":101808661,
            "postalcode_id":891162677,
            "region_id":85687043
        }
    ],
    "wof:id":891162677,
    "wof:lastmodified":1469689889,
    "wof:name":"6669BL",
    "wof:parent_id":101808661,
    "wof:placetype":"postalcode",
    "wof:repo":"whosonfirst-data-postalcode-nl",
    "wof:superseded_by":[],
    "wof:supersedes":[],
    "wof:tags":[]
},
  "bbox": [
    5.655847549438477,
    51.91191482543945,
    5.656003475189209,
    51.91282272338867
],
  "geometry": {"coordinates":[[[5.65592575073242,51.91208267211914],[5.65584754943848,51.91191482543945],[5.65598964691162,51.91282272338867],[5.65600347518921,51.91269683837891],[5.65597248077393,51.91218566894531],[5.65592575073242,51.91208267211914]]],"type":"Polygon"}
}