{
  "id": 890728931,
  "type": "Feature",
  "properties": {
    "clustr:alpha":0.05,
    "clustr:area":5.32,
    "clustr:count":15,
    "clustr:density":2.82,
    "clustr:perimeter":0.08,
    "edtf:cessation":"uuuu",
    "edtf:inception":"uuuu",
    "geom:area":0.0,
    "geom:bbox":"4.35324239731,52.0782394409,4.3534989357,52.0785446167",
    "geom:latitude":52.078396,
    "geom:longitude":4.353369,
    "iso:country":"NL",
    "mz:hierarchy_label":1,
    "mz:is_approximate":1,
    "mz:is_clustr":1,
    "src:geom":"oa",
    "wof:belongsto":[
        85687041,
        102191581,
        404474685,
        85633337,
        101754709
    ],
    "wof:breaches":[],
    "wof:country":"NL",
    "wof:created":1469672505,
    "wof:geomhash":"79671270f0992004e8135bb1dc0e85f8",
    "wof:hierarchy":[
        {
            "continent_id":102191581,
            "country_id":85633337,
            "localadmin_id":404474685,
            "locality_id":101754709,
            "postalcode_id":890728931,
            "region_id":85687041
        }
    ],
    "wof:id":890728931,
    "wof:lastmodified":1469672505,
    "wof:name":"2273KA",
    "wof:parent_id":101754709,
    "wof:placetype":"postalcode",
    "wof:repo":"whosonfirst-data-postalcode-nl",
    "wof:superseded_by":[],
    "wof:supersedes":[],
    "wof:tags":[]
},
  "bbox": [
    4.35324239730835,
    52.07823944091797,
    4.353498935699463,
    52.07854461669922
],
  "geometry": {"coordinates":[[[4.3532772064209,52.0782470703125],[4.35324239730835,52.07825469970703],[4.35340404510498,52.07854461669922],[4.35349893569946,52.07852554321289],[4.35335826873779,52.07830047607422],[4.35332012176514,52.07823944091797],[4.3532772064209,52.0782470703125]]],"type":"Polygon"}
}