{
  "id": 891198777,
  "type": "Feature",
  "properties": {
    "clustr:alpha":0.05,
    "clustr:area":11.17,
    "clustr:count":7,
    "clustr:density":0.63,
    "clustr:perimeter":0.18,
    "edtf:cessation":"uuuu",
    "edtf:inception":"uuuu",
    "geom:area":0.0,
    "geom:bbox":"6.37656068802,51.8712730408,6.37727546692,51.8718299866",
    "geom:latitude":51.871532,
    "geom:longitude":6.377018,
    "iso:country":"NL",
    "mz:hierarchy_label":1,
    "mz:is_approximate":1,
    "mz:is_clustr":1,
    "src:geom":"oa",
    "wof:belongsto":[
        85687043,
        102191581,
        404474543,
        85633337,
        101837795
    ],
    "wof:breaches":[],
    "wof:country":"NL",
    "wof:created":1469691367,
    "wof:geomhash":"c83d291f13104a118c4de5565901ec36",
    "wof:hierarchy":[
        {
            "continent_id":102191581,
            "country_id":85633337,
            "localadmin_id":404474543,
            "locality_id":101837795,
            "postalcode_id":891198777,
            "region_id":85687043
        }
    ],
    "wof:id":891198777,
    "wof:lastmodified":1469691367,
    "wof:name":"7081DX",
    "wof:parent_id":101837795,
    "wof:placetype":"postalcode",
    "wof:repo":"whosonfirst-data-postalcode-nl",
    "wof:superseded_by":[],
    "wof:supersedes":[],
    "wof:tags":[]
},
  "bbox": [
    6.376560688018799,
    51.871273040771484,
    6.377275466918945,
    51.871829986572266
],
  "geometry": {"coordinates":[[[6.37706851959229,51.87127304077148],[6.3769793510437,51.87128829956055],[6.3765606880188,51.87150573730469],[6.37711143493652,51.87182998657227],[6.37718439102173,51.871826171875],[6.37726736068726,51.87181854248047],[6.37727546691895,51.87127304077148],[6.37706851959229,51.87127304077148]]],"type":"Polygon"}
}