{
  "id": 907085981,
  "type": "Feature",
  "properties": {
    "clustr:alpha":0.05,
    "clustr:area":1.85,
    "clustr:count":15,
    "clustr:density":8.11,
    "clustr:perimeter":0.14,
    "edtf:cessation":"uuuu",
    "edtf:inception":"uuuu",
    "geom:area":0.0,
    "geom:bbox":"6.56087684631,52.9964904785,6.56151437759,52.9969787598",
    "geom:latitude":52.996742,
    "geom:longitude":6.561173,
    "iso:country":"NL",
    "mz:hierarchy_label":1,
    "mz:is_approximate":1,
    "mz:is_clustr":1,
    "src:geom":"oa",
    "wof:belongsto":[
        85687051,
        102191581,
        404473805,
        85633337,
        101751879
    ],
    "wof:breaches":[],
    "wof:country":"NL",
    "wof:created":1469698561,
    "wof:geomhash":"85b18a6a32f6b58900ac838c0337ab02",
    "wof:hierarchy":[
        {
            "continent_id":102191581,
            "country_id":85633337,
            "localadmin_id":404473805,
            "locality_id":101751879,
            "postalcode_id":907085981,
            "region_id":85687051
        }
    ],
    "wof:id":907085981,
    "wof:lastmodified":1469698561,
    "wof:name":"9401CX",
    "wof:parent_id":101751879,
    "wof:placetype":"postalcode",
    "wof:repo":"whosonfirst-data-postalcode-nl",
    "wof:superseded_by":[],
    "wof:supersedes":[],
    "wof:tags":[]
},
  "bbox": [
    6.560876846313477,
    52.996490478515625,
    6.561514377593994,
    52.996978759765625
],
  "geometry": {"coordinates":[[[6.56151437759399,52.99697113037109],[6.5614972114563,52.99689102172852],[6.56146621704102,52.99684524536133],[6.56142091751099,52.99681091308594],[6.56089067459106,52.99649047851562],[6.56087684631348,52.99652862548828],[6.56092643737793,52.99670791625977],[6.56149959564209,52.99697875976562],[6.56151437759399,52.99697113037109]]],"type":"Polygon"}
}