{
  "id": 890974885,
  "type": "Feature",
  "properties": {
    "clustr:alpha":0.05,
    "clustr:area":36.98,
    "clustr:count":32,
    "clustr:density":0.87,
    "clustr:perimeter":0.51,
    "edtf:cessation":"uuuu",
    "edtf:inception":"uuuu",
    "geom:area":0.000002,
    "geom:bbox":"4.20023202896,51.5717582703,4.20196342468,51.5740280151",
    "geom:latitude":51.572874,
    "geom:longitude":4.201132,
    "iso:country":"NL",
    "mz:hierarchy_label":1,
    "mz:is_approximate":1,
    "mz:is_clustr":1,
    "src:geom":"oa",
    "wof:belongsto":[
        85687037,
        102191581,
        404474331,
        85633337,
        101808373
    ],
    "wof:breaches":[],
    "wof:country":"NL",
    "wof:created":1469682398,
    "wof:geomhash":"10012da995243ed052b03068ca999433",
    "wof:hierarchy":[
        {
            "continent_id":102191581,
            "country_id":85633337,
            "localadmin_id":404474331,
            "locality_id":101808373,
            "postalcode_id":890974885,
            "region_id":85687037
        }
    ],
    "wof:id":890974885,
    "wof:lastmodified":1469682398,
    "wof:name":"4698DC",
    "wof:parent_id":101808373,
    "wof:placetype":"postalcode",
    "wof:repo":"whosonfirst-data-postalcode-nl",
    "wof:superseded_by":[],
    "wof:supersedes":[],
    "wof:tags":[]
},
  "bbox": [
    4.200232028961182,
    51.57175827026367,
    4.201963424682617,
    51.57402801513672
],
  "geometry": {"coordinates":[[[4.20161247253418,51.57238006591797],[4.20038366317749,51.57175827026367],[4.20031023025513,51.57193374633789],[4.20027017593384,51.57207870483398],[4.20023202896118,51.57223129272461],[4.20118427276611,51.57402801513672],[4.20159912109375,51.57391738891602],[4.20194816589355,51.57312393188477],[4.20196342468262,51.57301330566406],[4.20161247253418,51.57238006591797]]],"type":"Polygon"}
}