{
  "id": 891251561,
  "type": "Feature",
  "properties": {
    "clustr:alpha":0.05,
    "clustr:area":24.33,
    "clustr:count":29,
    "clustr:density":1.19,
    "clustr:perimeter":0.1,
    "edtf:cessation":"uuuu",
    "edtf:inception":"uuuu",
    "geom:area":0.0,
    "geom:bbox":"6.64533472061,52.3582649231,6.64605998993,52.3584823608",
    "geom:latitude":52.358376,
    "geom:longitude":6.64569,
    "iso:country":"NL",
    "mz:hierarchy_label":1,
    "mz:is_approximate":1,
    "mz:is_clustr":1,
    "src:geom":"oa",
    "wof:belongsto":[
        85687045,
        102191581,
        404473819,
        85633337,
        101751863
    ],
    "wof:breaches":[],
    "wof:country":"NL",
    "wof:created":1469693467,
    "wof:geomhash":"716519aefbd4328de1a35d20fde22761",
    "wof:hierarchy":[
        {
            "continent_id":102191581,
            "country_id":85633337,
            "localadmin_id":404473819,
            "locality_id":101751863,
            "postalcode_id":891251561,
            "region_id":85687045
        }
    ],
    "wof:id":891251561,
    "wof:lastmodified":1469693467,
    "wof:name":"7604CH",
    "wof:parent_id":101751863,
    "wof:placetype":"postalcode",
    "wof:repo":"whosonfirst-data-postalcode-nl",
    "wof:superseded_by":[],
    "wof:supersedes":[],
    "wof:tags":[]
},
  "bbox": [
    6.645334720611572,
    52.3582649230957,
    6.646059989929199,
    52.358482360839844
],
  "geometry": {"coordinates":[[[6.64572048187256,52.35842514038086],[6.64583873748779,52.35844802856445],[6.64604520797729,52.35848236083984],[6.6460599899292,52.35848236083984],[6.64583683013916,52.35836791992188],[6.64579200744629,52.35835266113281],[6.64533472061157,52.3582649230957],[6.64551401138306,52.35837936401367],[6.64572048187256,52.35842514038086]]],"type":"Polygon"}
}