{
  "id": 890925295,
  "type": "Feature",
  "properties": {
    "clustr:alpha":0.05,
    "clustr:area":55.23,
    "clustr:count":23,
    "clustr:density":0.42,
    "clustr:perimeter":0.23,
    "edtf:cessation":"uuuu",
    "edtf:inception":"uuuu",
    "geom:area":0.0,
    "geom:bbox":"5.33097028732,51.9836540222,5.33218336105,51.9846000671",
    "geom:latitude":51.984113,
    "geom:longitude":5.331631,
    "iso:country":"NL",
    "mz:hierarchy_label":1,
    "mz:is_approximate":1,
    "mz:is_clustr":1,
    "src:geom":"oa",
    "wof:belongsto":[
        85687039,
        102191581,
        404474015,
        85633337,
        101809833
    ],
    "wof:breaches":[],
    "wof:country":"NL",
    "wof:created":1469680273,
    "wof:geomhash":"3c6f7bada0378f234c9428c3661725fd",
    "wof:hierarchy":[
        {
            "continent_id":102191581,
            "country_id":85633337,
            "localadmin_id":404474015,
            "locality_id":101809833,
            "postalcode_id":890925295,
            "region_id":85687039
        }
    ],
    "wof:id":890925295,
    "wof:lastmodified":1469680273,
    "wof:name":"3962LV",
    "wof:parent_id":101809833,
    "wof:placetype":"postalcode",
    "wof:repo":"whosonfirst-data-postalcode-nl",
    "wof:superseded_by":[],
    "wof:supersedes":[],
    "wof:tags":[]
},
  "bbox": [
    5.330970287322998,
    51.9836540222168,
    5.332183361053467,
    51.98460006713867
],
  "geometry": {"coordinates":[[[5.33108568191528,51.98453140258789],[5.33150815963745,51.9842414855957],[5.33166074752808,51.98413467407227],[5.33184862136841,51.98398590087891],[5.33201837539673,51.98382949829102],[5.33206224441528,51.98378372192383],[5.33218336105347,51.9836540222168],[5.330970287323,51.98460006713867],[5.33108568191528,51.98453140258789]]],"type":"Polygon"}
}