{
  "id": 890802691,
  "type": "Feature",
  "properties": {
    "clustr:alpha":0.05,
    "clustr:area":27.78,
    "clustr:count":14,
    "clustr:density":0.5,
    "clustr:perimeter":0.13,
    "edtf:cessation":"uuuu",
    "edtf:inception":"uuuu",
    "geom:area":0.0,
    "geom:bbox":"4.56970882416,51.9350318909,4.57032442093,51.9354934692",
    "geom:latitude":51.935296,
    "geom:longitude":4.569998,
    "iso:country":"NL",
    "mz:hierarchy_label":1,
    "mz:is_approximate":1,
    "mz:is_clustr":1,
    "src:geom":"oa",
    "wof:belongsto":[
        85687041,
        102191581,
        404474245,
        85633337,
        101753095
    ],
    "wof:breaches":[],
    "wof:country":"NL",
    "wof:created":1469675326,
    "wof:geomhash":"0f4fd0ffef1e07b784e3024e0e55c755",
    "wof:hierarchy":[
        {
            "continent_id":102191581,
            "country_id":85633337,
            "localadmin_id":404474245,
            "locality_id":101753095,
            "postalcode_id":890802691,
            "region_id":85687041
        }
    ],
    "wof:id":890802691,
    "wof:lastmodified":1469675326,
    "wof:name":"2906AE",
    "wof:parent_id":101753095,
    "wof:placetype":"postalcode",
    "wof:repo":"whosonfirst-data-postalcode-nl",
    "wof:superseded_by":[],
    "wof:supersedes":[],
    "wof:tags":[]
},
  "bbox": [
    4.569708824157715,
    51.93503189086914,
    4.570324420928955,
    51.93549346923828
],
  "geometry": {"coordinates":[[[4.57018041610718,51.93548202514648],[4.57025718688965,51.93549346923828],[4.57032442092896,51.93534469604492],[4.56974935531616,51.93503189086914],[4.56970882415771,51.93513488769531],[4.56987237930298,51.93542861938477],[4.56994962692261,51.93544387817383],[4.57018041610718,51.93548202514648]]],"type":"Polygon"}
}