{
  "id": 890746075,
  "type": "Feature",
  "properties": {
    "clustr:alpha":0.05,
    "clustr:area":12.65,
    "clustr:count":14,
    "clustr:density":1.11,
    "clustr:perimeter":0.15,
    "edtf:cessation":"uuuu",
    "edtf:inception":"uuuu",
    "geom:area":0.0,
    "geom:bbox":"4.65466594696,52.1339645386,4.65578889847,52.1339797974",
    "geom:latitude":52.133972,
    "geom:longitude":4.655213,
    "iso:country":"NL",
    "mz:hierarchy_label":1,
    "mz:is_approximate":1,
    "mz:is_clustr":1,
    "src:geom":"oa",
    "wof:belongsto":[
        85687041,
        102191581,
        404474147,
        85633337,
        101751837
    ],
    "wof:breaches":[],
    "wof:country":"NL",
    "wof:created":1469673176,
    "wof:geomhash":"95d34bb0a8fb2847ce79f4bf8a9b073f",
    "wof:hierarchy":[
        {
            "continent_id":102191581,
            "country_id":85633337,
            "localadmin_id":404474147,
            "locality_id":101751837,
            "postalcode_id":890746075,
            "region_id":85687041
        }
    ],
    "wof:id":890746075,
    "wof:lastmodified":1469673176,
    "wof:name":"2404GS",
    "wof:parent_id":101751837,
    "wof:placetype":"postalcode",
    "wof:repo":"whosonfirst-data-postalcode-nl",
    "wof:superseded_by":[],
    "wof:supersedes":[],
    "wof:tags":[]
},
  "bbox": [
    4.654665946960449,
    52.13396453857422,
    4.655788898468018,
    52.13397979736328
],
  "geometry": {"coordinates":[[[4.65561580657959,52.13397979736328],[4.65571975708008,52.13397979736328],[4.65578889846802,52.13397979736328],[4.65554666519165,52.13397598266602],[4.65483951568604,52.13396453857422],[4.65474987030029,52.13396453857422],[4.65466594696045,52.13396453857422],[4.65509605407715,52.13397216796875],[4.65535879135132,52.13397598266602],[4.65561580657959,52.13397979736328]]],"type":"Polygon"}
}