{
  "id": 890752175,
  "type": "Feature",
  "properties": {
    "clustr:alpha":0.05,
    "clustr:area":173.48,
    "clustr:count":13,
    "clustr:density":0.07,
    "clustr:perimeter":0.5,
    "edtf:cessation":"uuuu",
    "edtf:inception":"uuuu",
    "geom:area":0.000001,
    "geom:bbox":"4.32081270218,52.0783233643,4.32363939285,52.0804519653",
    "geom:latitude":52.079551,
    "geom:longitude":4.321979,
    "iso:country":"NL",
    "mz:hierarchy_label":1,
    "mz:is_approximate":1,
    "mz:is_clustr":1,
    "src:geom":"oa",
    "wof:belongsto":[
        85687041,
        102191581,
        404474179,
        85633337,
        101752763
    ],
    "wof:breaches":[],
    "wof:country":"NL",
    "wof:created":1469673430,
    "wof:geomhash":"462a75ff203a626f9415ac5612230855",
    "wof:hierarchy":[
        {
            "continent_id":102191581,
            "country_id":85633337,
            "localadmin_id":404474179,
            "locality_id":101752763,
            "postalcode_id":890752175,
            "region_id":85687041
        }
    ],
    "wof:id":890752175,
    "wof:lastmodified":1469673430,
    "wof:name":"2511VS",
    "wof:parent_id":101752763,
    "wof:placetype":"postalcode",
    "wof:repo":"whosonfirst-data-postalcode-nl",
    "wof:superseded_by":[],
    "wof:supersedes":[],
    "wof:tags":[]
},
  "bbox": [
    4.320812702178955,
    52.07832336425781,
    4.323639392852783,
    52.08045196533203
],
  "geometry": {"coordinates":[[[4.32239294052124,52.07962417602539],[4.32363939285278,52.07832336425781],[4.32081270217896,52.07998275756836],[4.32093000411987,52.08045196533203],[4.32103538513184,52.08041381835938],[4.32239294052124,52.07962417602539]]],"type":"Polygon"}
}