{
  "id": 890993311,
  "type": "Feature",
  "properties": {
    "clustr:alpha":0.05,
    "clustr:area":1.24,
    "clustr:count":14,
    "clustr:density":11.26,
    "clustr:perimeter":0.22,
    "edtf:cessation":"uuuu",
    "edtf:inception":"uuuu",
    "geom:area":0.0,
    "geom:bbox":"4.62676811218,51.5751800537,4.62787723541,51.5757865906",
    "geom:latitude":51.575539,
    "geom:longitude":4.627283,
    "iso:country":"NL",
    "mz:hierarchy_label":1,
    "mz:is_approximate":1,
    "mz:is_clustr":1,
    "src:geom":"oa",
    "wof:belongsto":[
        85687035,
        102191581,
        404474377,
        85633337,
        101839355
    ],
    "wof:breaches":[],
    "wof:country":"NL",
    "wof:created":1469683197,
    "wof:geomhash":"2d8389e1e81bc0d0a608315c256f1339",
    "wof:hierarchy":[
        {
            "continent_id":102191581,
            "country_id":85633337,
            "localadmin_id":404474377,
            "locality_id":101839355,
            "postalcode_id":890993311,
            "region_id":85687035
        }
    ],
    "wof:id":890993311,
    "wof:lastmodified":1469683197,
    "wof:name":"4874JP",
    "wof:parent_id":101839355,
    "wof:placetype":"postalcode",
    "wof:repo":"whosonfirst-data-postalcode-nl",
    "wof:superseded_by":[],
    "wof:supersedes":[],
    "wof:tags":[]
},
  "bbox": [
    4.626768112182617,
    51.57518005371094,
    4.627877235412598,
    51.57578659057617
],
  "geometry": {"coordinates":[[[4.62787294387817,51.57566833496094],[4.6278772354126,51.57560729980469],[4.6268367767334,51.57518005371094],[4.62676811218262,51.57528305053711],[4.62693119049072,51.57566833496094],[4.62741947174072,51.57576751708984],[4.62786436080933,51.57578659057617],[4.62787294387817,51.57566833496094]]],"type":"Polygon"}
}