{
  "id": 890742163,
  "type": "Feature",
  "properties": {
    "clustr:alpha":0.05,
    "clustr:area":46.35,
    "clustr:count":35,
    "clustr:density":0.76,
    "clustr:perimeter":0.51,
    "edtf:cessation":"uuuu",
    "edtf:inception":"uuuu",
    "geom:area":0.000002,
    "geom:bbox":"4.54107713699,52.1858062744,4.54334592819,52.1878051758",
    "geom:latitude":52.18698,
    "geom:longitude":4.542197,
    "iso:country":"NL",
    "mz:hierarchy_label":1,
    "mz:is_approximate":1,
    "mz:is_clustr":1,
    "src:geom":"oa",
    "wof:belongsto":[
        102191581,
        404474545,
        85633337,
        85687041
    ],
    "wof:breaches":[],
    "wof:country":"NL",
    "wof:created":1469673029,
    "wof:geomhash":"15945fa2028e2dffe1ecd16651af8211",
    "wof:hierarchy":[
        {
            "continent_id":102191581,
            "country_id":85633337,
            "localadmin_id":404474545,
            "postalcode_id":890742163,
            "region_id":85687041
        }
    ],
    "wof:id":890742163,
    "wof:lastmodified":1469673029,
    "wof:name":"2362XB",
    "wof:parent_id":404474545,
    "wof:placetype":"postalcode",
    "wof:repo":"whosonfirst-data-postalcode-nl",
    "wof:superseded_by":[],
    "wof:supersedes":[],
    "wof:tags":[]
},
  "bbox": [
    4.541077136993408,
    52.18580627441406,
    4.543345928192139,
    52.18780517578125
],
  "geometry": {"coordinates":[[[4.54203605651855,52.18758010864258],[4.54212474822998,52.18767929077148],[4.54222822189331,52.18777847290039],[4.5425181388855,52.18780517578125],[4.54334592819214,52.18743515014648],[4.54323863983154,52.18727111816406],[4.5428466796875,52.18686676025391],[4.54107713699341,52.18580627441406],[4.54161310195923,52.18710327148438],[4.54203605651855,52.18758010864258]]],"type":"Polygon"}
}