{
  "id": 890944931,
  "type": "Feature",
  "properties": {
    "clustr:alpha":0.05,
    "clustr:area":6.94,
    "clustr:count":36,
    "clustr:density":5.19,
    "clustr:perimeter":0.11,
    "edtf:cessation":"uuuu",
    "edtf:inception":"uuuu",
    "geom:area":0.0,
    "geom:bbox":"5.00045490265,51.8086013794,5.00101089478,51.809009552",
    "geom:latitude":51.808799,
    "geom:longitude":5.000705,
    "iso:country":"NL",
    "mz:hierarchy_label":1,
    "mz:is_approximate":1,
    "mz:is_clustr":1,
    "src:geom":"oa",
    "wof:belongsto":[
        85687035,
        102191581,
        404474457,
        85633337,
        101809641
    ],
    "wof:breaches":[],
    "wof:country":"NL",
    "wof:created":1469681010,
    "wof:geomhash":"b88ab5081c603a6907c225934015b879",
    "wof:hierarchy":[
        {
            "continent_id":102191581,
            "country_id":85633337,
            "localadmin_id":404474457,
            "locality_id":101809641,
            "postalcode_id":890944931,
            "region_id":85687035
        }
    ],
    "wof:id":890944931,
    "wof:lastmodified":1469681010,
    "wof:name":"4285EH",
    "wof:parent_id":101809641,
    "wof:placetype":"postalcode",
    "wof:repo":"whosonfirst-data-postalcode-nl",
    "wof:superseded_by":[],
    "wof:supersedes":[],
    "wof:tags":[]
},
  "bbox": [
    5.000454902648926,
    51.80860137939453,
    5.001010894775391,
    51.80900955200195
],
  "geometry": {"coordinates":[[[5.00061511993408,51.80900955200195],[5.00101089477539,51.80876541137695],[5.00078582763672,51.80860137939453],[5.00075387954712,51.80861663818359],[5.00059080123901,51.80870056152344],[5.0004734992981,51.80876541137695],[5.00046348571777,51.80878448486328],[5.0004563331604,51.80881500244141],[5.00045490264893,51.80883407592773],[5.00046062469482,51.80885314941406],[5.00047826766968,51.80888366699219],[5.0004997253418,51.80891036987305],[5.00052452087402,51.80893707275391],[5.00054025650024,51.80895233154297],[5.00055456161499,51.80896377563477],[5.00061511993408,51.80900955200195]]],"type":"Polygon"}
}