{
  "id": 890939221,
  "type": "Feature",
  "properties": {
    "clustr:alpha":0.05,
    "clustr:area":79.22,
    "clustr:count":21,
    "clustr:density":0.27,
    "clustr:perimeter":0.19,
    "edtf:cessation":"uuuu",
    "edtf:inception":"uuuu",
    "geom:area":0.000001,
    "geom:bbox":"5.26259565353,51.8894462585,5.2639746666,51.8903923035",
    "geom:latitude":51.889998,
    "geom:longitude":5.26327,
    "iso:country":"NL",
    "mz:hierarchy_label":1,
    "mz:is_approximate":1,
    "mz:is_clustr":1,
    "src:geom":"oa",
    "wof:belongsto":[
        85687043,
        102191581,
        404473901,
        85633337,
        101837783
    ],
    "wof:breaches":[],
    "wof:country":"NL",
    "wof:created":1469680792,
    "wof:geomhash":"087fe59153d25bbbd08a77d3f0adcdec",
    "wof:hierarchy":[
        {
            "continent_id":102191581,
            "country_id":85633337,
            "localadmin_id":404473901,
            "locality_id":101837783,
            "postalcode_id":890939221,
            "region_id":85687043
        }
    ],
    "wof:id":890939221,
    "wof:lastmodified":1469680792,
    "wof:name":"4196HP",
    "wof:parent_id":101837783,
    "wof:placetype":"postalcode",
    "wof:repo":"whosonfirst-data-postalcode-nl",
    "wof:superseded_by":[],
    "wof:supersedes":[],
    "wof:tags":[]
},
  "bbox": [
    5.262595653533936,
    51.88944625854492,
    5.263974666595459,
    51.8903923034668
],
  "geometry": {"coordinates":[[[5.2632360458374,51.88944625854492],[5.26259565353394,51.88999176025391],[5.26281309127808,51.89015579223633],[5.26351928710938,51.8903923034668],[5.26397466659546,51.89035415649414],[5.2632360458374,51.88944625854492]]],"type":"Polygon"}
}