{
  "id": 890868269,
  "type": "Feature",
  "properties": {
    "clustr:alpha":0.05,
    "clustr:area":10.92,
    "clustr:count":12,
    "clustr:density":1.1,
    "clustr:perimeter":0.28,
    "edtf:cessation":"uuuu",
    "edtf:inception":"uuuu",
    "geom:area":0.0,
    "geom:bbox":"4.8824005127,52.085308075,4.8836107254,52.0863494873",
    "geom:latitude":52.08599,
    "geom:longitude":4.883152,
    "iso:country":"NL",
    "mz:hierarchy_label":1,
    "mz:is_approximate":1,
    "mz:is_clustr":1,
    "src:geom":"oa",
    "wof:belongsto":[
        85687039,
        102191581,
        404474285,
        85633337,
        101808435
    ],
    "wof:breaches":[],
    "wof:country":"NL",
    "wof:created":1469677822,
    "wof:geomhash":"5f092266f814f99c01179118be5e71e2",
    "wof:hierarchy":[
        {
            "continent_id":102191581,
            "country_id":85633337,
            "localadmin_id":404474285,
            "locality_id":101808435,
            "postalcode_id":890868269,
            "region_id":85687039
        }
    ],
    "wof:id":890868269,
    "wof:lastmodified":1469677822,
    "wof:name":"3441BC",
    "wof:parent_id":101808435,
    "wof:placetype":"postalcode",
    "wof:repo":"whosonfirst-data-postalcode-nl",
    "wof:superseded_by":[],
    "wof:supersedes":[],
    "wof:tags":[]
},
  "bbox": [
    4.882400512695312,
    52.08530807495117,
    4.883610725402832,
    52.08634948730469
],
  "geometry": {"coordinates":[[[4.88338375091553,52.08626937866211],[4.88348007202148,52.08633804321289],[4.88357543945312,52.08634948730469],[4.88361072540283,52.08632659912109],[4.88240051269531,52.08530807495117],[4.88325786590576,52.08615493774414],[4.88329267501831,52.08618927001953],[4.88338375091553,52.08626937866211]]],"type":"Polygon"}
}