{
  "id": 890714843,
  "type": "Feature",
  "properties": {
    "clustr:alpha":0.05,
    "clustr:area":29.17,
    "clustr:count":26,
    "clustr:density":0.89,
    "clustr:perimeter":0.18,
    "edtf:cessation":"uuuu",
    "edtf:inception":"uuuu",
    "geom:area":0.0,
    "geom:bbox":"4.55560016632,52.2450561523,4.55683851242,52.2455406189",
    "geom:latitude":52.24527,
    "geom:longitude":4.556246,
    "iso:country":"NL",
    "mz:hierarchy_label":1,
    "mz:is_approximate":1,
    "mz:is_clustr":1,
    "src:geom":"oa",
    "wof:belongsto":[
        85687041,
        102191581,
        404474203,
        85633337,
        101837693
    ],
    "wof:breaches":[],
    "wof:country":"NL",
    "wof:created":1469671933,
    "wof:geomhash":"25205a6013b5af23a81d61203173583e",
    "wof:hierarchy":[
        {
            "continent_id":102191581,
            "country_id":85633337,
            "localadmin_id":404474203,
            "locality_id":101837693,
            "postalcode_id":890714843,
            "region_id":85687041
        }
    ],
    "wof:id":890714843,
    "wof:lastmodified":1469671933,
    "wof:name":"2162EB",
    "wof:parent_id":101837693,
    "wof:placetype":"postalcode",
    "wof:repo":"whosonfirst-data-postalcode-nl",
    "wof:superseded_by":[],
    "wof:supersedes":[],
    "wof:tags":[]
},
  "bbox": [
    4.555600166320801,
    52.24505615234375,
    4.556838512420654,
    52.245540618896484
],
  "geometry": {"coordinates":[[[4.55648612976074,52.24513244628906],[4.55627965927124,52.24520492553711],[4.55570316314697,52.24547958374023],[4.5556001663208,52.24553298950195],[4.55562925338745,52.24554061889648],[4.55683851242065,52.24507141113281],[4.55682420730591,52.24505615234375],[4.55672121047974,52.24507904052734],[4.55648612976074,52.24513244628906]]],"type":"Polygon"}
}