{
  "id": 890889139,
  "type": "Feature",
  "properties": {
    "clustr:alpha":0.05,
    "clustr:area":11.5,
    "clustr:count":20,
    "clustr:density":1.74,
    "clustr:perimeter":0.24,
    "edtf:cessation":"uuuu",
    "edtf:inception":"uuuu",
    "geom:area":0.0,
    "geom:bbox":"5.23709726334,52.0821838379,5.23817920685,52.0830421448",
    "geom:latitude":52.082631,
    "geom:longitude":5.237605,
    "iso:country":"NL",
    "mz:hierarchy_label":1,
    "mz:is_approximate":1,
    "mz:is_clustr":1,
    "src:geom":"oa",
    "wof:belongsto":[
        85687039,
        102191581,
        404474019,
        85633337,
        101751823
    ],
    "wof:breaches":[],
    "wof:country":"NL",
    "wof:created":1469678645,
    "wof:geomhash":"40761e1ed2207cbc309d854a6a813d4d",
    "wof:hierarchy":[
        {
            "continent_id":102191581,
            "country_id":85633337,
            "localadmin_id":404474019,
            "locality_id":101751823,
            "postalcode_id":890889139,
            "region_id":85687039
        }
    ],
    "wof:id":890889139,
    "wof:lastmodified":1469678645,
    "wof:name":"3701HB",
    "wof:parent_id":101751823,
    "wof:placetype":"postalcode",
    "wof:repo":"whosonfirst-data-postalcode-nl",
    "wof:superseded_by":[],
    "wof:supersedes":[],
    "wof:tags":[]
},
  "bbox": [
    5.237097263336182,
    52.082183837890625,
    5.238179206848145,
    52.08304214477539
],
  "geometry": {"coordinates":[[[5.2378716468811,52.08253479003906],[5.23814964294434,52.082275390625],[5.23817920684815,52.08218383789062],[5.2376823425293,52.08248138427734],[5.23709726333618,52.08291244506836],[5.23711347579956,52.08304214477539],[5.23727226257324,52.08294677734375],[5.23778390884399,52.08259963989258],[5.2378716468811,52.08253479003906]]],"type":"Polygon"}
}