{
  "id": 891208559,
  "type": "Feature",
  "properties": {
    "clustr:alpha":0.05,
    "clustr:area":9.79,
    "clustr:count":4,
    "clustr:density":0.41,
    "clustr:perimeter":0.05,
    "edtf:cessation":"uuuu",
    "edtf:inception":"uuuu",
    "geom:area":0.0,
    "geom:bbox":"6.22570753098,52.0771064758,6.22607660294,52.0771980286",
    "geom:latitude":52.077151,
    "geom:longitude":6.225888,
    "iso:country":"NL",
    "mz:hierarchy_label":1,
    "mz:is_approximate":1,
    "mz:is_clustr":1,
    "src:geom":"oa",
    "wof:belongsto":[
        85687043,
        102191581,
        404474673,
        85633337,
        101855327
    ],
    "wof:breaches":[],
    "wof:country":"NL",
    "wof:created":1469691771,
    "wof:geomhash":"f4d4c9a3d8b92d1595cd1b1c29e84c93",
    "wof:hierarchy":[
        {
            "continent_id":102191581,
            "country_id":85633337,
            "localadmin_id":404474673,
            "locality_id":101855327,
            "postalcode_id":891208559,
            "region_id":85687043
        }
    ],
    "wof:id":891208559,
    "wof:lastmodified":1469691771,
    "wof:name":"7223LG",
    "wof:parent_id":101855327,
    "wof:placetype":"postalcode",
    "wof:repo":"whosonfirst-data-postalcode-nl",
    "wof:superseded_by":[],
    "wof:supersedes":[],
    "wof:tags":[]
},
  "bbox": [
    6.225707530975342,
    52.07710647583008,
    6.226076602935791,
    52.07719802856445
],
  "geometry": {"coordinates":[[[6.22579050064087,52.07712554931641],[6.22570753097534,52.07710647583008],[6.22597885131836,52.07717514038086],[6.22607660293579,52.07719802856445],[6.22579050064087,52.07712554931641]]],"type":"Polygon"}
}