{
  "id": 890934619,
  "type": "Feature",
  "properties": {
    "clustr:alpha":0.05,
    "clustr:area":14.51,
    "clustr:count":14,
    "clustr:density":0.96,
    "clustr:perimeter":0.26,
    "edtf:cessation":"uuuu",
    "edtf:inception":"uuuu",
    "geom:area":0.0,
    "geom:bbox":"5.29190921783,51.9514846802,5.29355430603,51.9520950317",
    "geom:latitude":51.951762,
    "geom:longitude":5.292772,
    "iso:country":"NL",
    "mz:hierarchy_label":1,
    "mz:is_approximate":1,
    "mz:is_clustr":1,
    "src:geom":"oa",
    "wof:belongsto":[
        85687043,
        102191581,
        404473879,
        85633337,
        101808605
    ],
    "wof:breaches":[],
    "wof:country":"NL",
    "wof:created":1469680615,
    "wof:geomhash":"bedce6125b1510f06c4cdcc6b2cd57bb",
    "wof:hierarchy":[
        {
            "continent_id":102191581,
            "country_id":85633337,
            "localadmin_id":404473879,
            "locality_id":101808605,
            "postalcode_id":890934619,
            "region_id":85687043
        }
    ],
    "wof:id":890934619,
    "wof:lastmodified":1469680615,
    "wof:name":"4112KG",
    "wof:parent_id":101808605,
    "wof:placetype":"postalcode",
    "wof:repo":"whosonfirst-data-postalcode-nl",
    "wof:superseded_by":[],
    "wof:supersedes":[],
    "wof:tags":[]
},
  "bbox": [
    5.291909217834473,
    51.95148468017578,
    5.293554306030273,
    51.95209503173828
],
  "geometry": {"coordinates":[[[5.29343748092651,51.95149993896484],[5.29214191436768,51.95198440551758],[5.29205465316772,51.95202255249023],[5.29190921783447,51.95209503173828],[5.29355430603027,51.95148468017578],[5.29343748092651,51.95149993896484]]],"type":"Polygon"}
}