{
  "id": 890947667,
  "type": "Feature",
  "properties": {
    "clustr:alpha":0.05,
    "clustr:area":12.97,
    "clustr:count":5,
    "clustr:density":0.39,
    "clustr:perimeter":0.12,
    "edtf:cessation":"uuuu",
    "edtf:inception":"uuuu",
    "geom:area":0.0,
    "geom:bbox":"3.61150765419,51.4997825623,3.61200690269,51.500377655",
    "geom:latitude":51.500077,
    "geom:longitude":3.611737,
    "iso:country":"NL",
    "mz:hierarchy_label":1,
    "mz:is_approximate":1,
    "mz:is_clustr":1,
    "src:geom":"oa",
    "wof:belongsto":[
        85687037,
        102191581,
        404474313,
        85633337,
        101839435
    ],
    "wof:breaches":[],
    "wof:country":"NL",
    "wof:created":1469681123,
    "wof:geomhash":"464cdf1258c97e95ef97aabe0802c48a",
    "wof:hierarchy":[
        {
            "continent_id":102191581,
            "country_id":85633337,
            "localadmin_id":404474313,
            "locality_id":101839435,
            "postalcode_id":890947667,
            "region_id":85687037
        }
    ],
    "wof:id":890947667,
    "wof:lastmodified":1469681123,
    "wof:name":"4331AA",
    "wof:parent_id":101839435,
    "wof:placetype":"postalcode",
    "wof:repo":"whosonfirst-data-postalcode-nl",
    "wof:superseded_by":[],
    "wof:supersedes":[],
    "wof:tags":[]
},
  "bbox": [
    3.611507654190063,
    51.49978256225586,
    3.612006902694702,
    51.5003776550293
],
  "geometry": {"coordinates":[[[3.61150765419006,51.50004577636719],[3.61163544654846,51.5003776550293],[3.61183881759644,51.50017547607422],[3.6120069026947,51.49978256225586],[3.61150765419006,51.50004577636719]]],"type":"Polygon"}
}