{
  "id": 890896771,
  "type": "Feature",
  "properties": {
    "clustr:alpha":0.05,
    "clustr:area":70.77,
    "clustr:count":12,
    "clustr:density":0.17,
    "clustr:perimeter":0.1,
    "edtf:cessation":"uuuu",
    "edtf:inception":"uuuu",
    "geom:area":0.0,
    "geom:bbox":"5.25734519958,52.2594070435,5.25794267654,52.2600021362",
    "geom:latitude":52.259722,
    "geom:longitude":5.25768,
    "iso:country":"NL",
    "mz:hierarchy_label":1,
    "mz:is_approximate":1,
    "mz:is_clustr":1,
    "src:geom":"oa",
    "wof:belongsto":[
        85687039,
        102191581,
        404473985,
        85633337,
        101837669
    ],
    "wof:breaches":[],
    "wof:country":"NL",
    "wof:created":1469678963,
    "wof:geomhash":"ec639b837da534da1479af8091b9e970",
    "wof:hierarchy":[
        {
            "continent_id":102191581,
            "country_id":85633337,
            "localadmin_id":404473985,
            "locality_id":101837669,
            "postalcode_id":890896771,
            "region_id":85687039
        }
    ],
    "wof:id":890896771,
    "wof:lastmodified":1469678963,
    "wof:name":"3755JV",
    "wof:parent_id":101837669,
    "wof:placetype":"postalcode",
    "wof:repo":"whosonfirst-data-postalcode-nl",
    "wof:superseded_by":[],
    "wof:supersedes":[],
    "wof:tags":[]
},
  "bbox": [
    5.257345199584961,
    52.25940704345703,
    5.257942676544189,
    52.26000213623047
],
  "geometry": {"coordinates":[[[5.25734519958496,52.2598876953125],[5.2573676109314,52.26000213623047],[5.25774669647217,52.25983047485352],[5.25794267654419,52.25968551635742],[5.25794267654419,52.2596321105957],[5.25793647766113,52.25957489013672],[5.25792217254639,52.25951766967773],[5.25790977478027,52.25946807861328],[5.25787973403931,52.25940704345703],[5.25734519958496,52.2598876953125]]],"type":"Polygon"}
}