{
  "id": 907046657,
  "type": "Feature",
  "properties": {
    "clustr:alpha":0.05,
    "clustr:area":7.24,
    "clustr:count":10,
    "clustr:density":1.38,
    "clustr:perimeter":2.42,
    "edtf:cessation":"uuuu",
    "edtf:inception":"uuuu",
    "geom:area":0.000014,
    "geom:bbox":"6.24900245667,53.0251998901,6.2515668869,53.0362205505",
    "geom:latitude":53.029056,
    "geom:longitude":6.250515,
    "iso:country":"NL",
    "mz:hierarchy_label":1,
    "mz:is_approximate":1,
    "mz:is_clustr":1,
    "src:geom":"oa",
    "wof:belongsto":[
        102191581,
        404473785,
        85633337,
        85687055
    ],
    "wof:breaches":[],
    "wof:country":"NL",
    "wof:created":1469696630,
    "wof:geomhash":"927c7740a58946be7621beb2ec4b7044",
    "wof:hierarchy":[
        {
            "continent_id":102191581,
            "country_id":85633337,
            "localadmin_id":404473785,
            "postalcode_id":907046657,
            "region_id":85687055
        }
    ],
    "wof:id":907046657,
    "wof:lastmodified":1469696630,
    "wof:name":"8435VA",
    "wof:parent_id":404473785,
    "wof:placetype":"postalcode",
    "wof:repo":"whosonfirst-data-postalcode-nl",
    "wof:superseded_by":[],
    "wof:supersedes":[],
    "wof:tags":[]
},
  "bbox": [
    6.249002456665039,
    53.02519989013672,
    6.251566886901855,
    53.03622055053711
],
  "geometry": {"coordinates":[[[6.25133466720581,53.02560043334961],[6.25113916397095,53.02546310424805],[6.24900245666504,53.02519989013672],[6.25017595291138,53.03197479248047],[6.25093841552734,53.03622055053711],[6.25156688690185,53.02705383300781],[6.25133466720581,53.02560043334961]]],"type":"Polygon"}
}