{
  "id": 891225571,
  "type": "Feature",
  "properties": {
    "clustr:alpha":0.05,
    "clustr:area":2.76,
    "clustr:count":33,
    "clustr:density":11.94,
    "clustr:perimeter":0.39,
    "edtf:cessation":"uuuu",
    "edtf:inception":"uuuu",
    "geom:area":0.0,
    "geom:bbox":"6.21011590958,52.2411689758,6.21076250076,52.242893219",
    "geom:latitude":52.242063,
    "geom:longitude":6.210438,
    "iso:country":"NL",
    "mz:hierarchy_label":1,
    "mz:is_approximate":1,
    "mz:is_clustr":1,
    "src:geom":"oa",
    "wof:belongsto":[
        85687045,
        102191581,
        404473825,
        85633337,
        101751865
    ],
    "wof:breaches":[],
    "wof:country":"NL",
    "wof:created":1469692437,
    "wof:geomhash":"9185fd7b55f500c0a3a15835f8a2079a",
    "wof:hierarchy":[
        {
            "continent_id":102191581,
            "country_id":85633337,
            "localadmin_id":404473825,
            "locality_id":101751865,
            "postalcode_id":891225571,
            "region_id":85687045
        }
    ],
    "wof:id":891225571,
    "wof:lastmodified":1469692437,
    "wof:name":"7421CA",
    "wof:parent_id":101751865,
    "wof:placetype":"postalcode",
    "wof:repo":"whosonfirst-data-postalcode-nl",
    "wof:superseded_by":[],
    "wof:supersedes":[],
    "wof:tags":[]
},
  "bbox": [
    6.210115909576416,
    52.24116897583008,
    6.210762500762939,
    52.24289321899414
],
  "geometry": {"coordinates":[[[6.21073484420776,52.24130630493164],[6.21070575714111,52.24126052856445],[6.21064376831055,52.24116897583008],[6.21011590957642,52.24236297607422],[6.210120677948,52.24248123168945],[6.21017551422119,52.24257278442383],[6.21029567718506,52.24275207519531],[6.21035766601562,52.24284362792969],[6.21039247512817,52.24289321899414],[6.21076250076294,52.24135208129883],[6.21073484420776,52.24130630493164]]],"type":"Polygon"}
}