{
  "id": 890889029,
  "type": "Feature",
  "properties": {
    "clustr:alpha":0.05,
    "clustr:area":1.36,
    "clustr:count":16,
    "clustr:density":11.8,
    "clustr:perimeter":0.05,
    "edtf:cessation":"uuuu",
    "edtf:inception":"uuuu",
    "geom:area":0.0,
    "geom:bbox":"5.24065971375,52.0863609314,5.2407040596,52.0866203308",
    "geom:latitude":52.086457,
    "geom:longitude":5.240675,
    "iso:country":"NL",
    "mz:hierarchy_label":1,
    "mz:is_approximate":1,
    "mz:is_clustr":1,
    "src:geom":"oa",
    "wof:belongsto":[
        85687039,
        102191581,
        404474019,
        85633337,
        101751823
    ],
    "wof:breaches":[],
    "wof:country":"NL",
    "wof:created":1469678640,
    "wof:geomhash":"cc15447dcb3bec6bcffdbedabba1bdb4",
    "wof:hierarchy":[
        {
            "continent_id":102191581,
            "country_id":85633337,
            "localadmin_id":404474019,
            "locality_id":101751823,
            "postalcode_id":890889029,
            "region_id":85687039
        }
    ],
    "wof:id":890889029,
    "wof:lastmodified":1469678640,
    "wof:name":"3701DD",
    "wof:parent_id":101751823,
    "wof:placetype":"postalcode",
    "wof:repo":"whosonfirst-data-postalcode-nl",
    "wof:superseded_by":[],
    "wof:supersedes":[],
    "wof:tags":[]
},
  "bbox": [
    5.240659713745117,
    52.086360931396484,
    5.24070405960083,
    52.08662033081055
],
  "geometry": {"coordinates":[[[5.24066019058228,52.08638763427734],[5.24065971374512,52.08649444580078],[5.24065971374512,52.08651351928711],[5.24065971374512,52.08652877807617],[5.24065971374512,52.0865478515625],[5.24065971374512,52.08656692504883],[5.24065971374512,52.08658218383789],[5.24065971374512,52.08660125732422],[5.24065971374512,52.08662033081055],[5.24070405960083,52.08636093139648],[5.24066019058228,52.08638763427734]]],"type":"Polygon"}
}