{
  "id": 890614147,
  "type": "Feature",
  "properties": {
    "clustr:alpha":0.05,
    "clustr:area":425.2,
    "clustr:count":30,
    "clustr:density":0.07,
    "clustr:perimeter":0.25,
    "edtf:cessation":"uuuu",
    "edtf:inception":"uuuu",
    "geom:area":0.0,
    "geom:bbox":"4.86469364166,52.3104362488,4.86825609207,52.3108444214",
    "geom:latitude":52.310637,
    "geom:longitude":4.866923,
    "iso:country":"NL",
    "mz:hierarchy_label":1,
    "mz:is_approximate":1,
    "mz:is_clustr":1,
    "src:geom":"oa",
    "wof:belongsto":[
        85687053,
        102191581,
        404474027,
        85633337,
        101751891
    ],
    "wof:breaches":[],
    "wof:country":"NL",
    "wof:created":1469667418,
    "wof:geomhash":"f49bd7b4329498a467598df3f059a78f",
    "wof:hierarchy":[
        {
            "continent_id":102191581,
            "country_id":85633337,
            "localadmin_id":404474027,
            "locality_id":101751891,
            "postalcode_id":890614147,
            "region_id":85687053
        }
    ],
    "wof:id":890614147,
    "wof:lastmodified":1469667418,
    "wof:name":"1181LS",
    "wof:parent_id":101751891,
    "wof:placetype":"postalcode",
    "wof:repo":"whosonfirst-data-postalcode-nl",
    "wof:superseded_by":[],
    "wof:supersedes":[],
    "wof:tags":[]
},
  "bbox": [
    4.864693641662598,
    52.3104362487793,
    4.868256092071533,
    52.31084442138672
],
  "geometry": {"coordinates":[[[4.86824083328247,52.31084442138672],[4.86825609207153,52.3108024597168],[4.86776638031006,52.31062316894531],[4.86475419998169,52.3104362487793],[4.8646936416626,52.3104362487793],[4.86824083328247,52.31084442138672]]],"type":"Polygon"}
}