{
  "id": 890651921,
  "type": "Feature",
  "properties": {
    "clustr:alpha":0.05,
    "clustr:area":27.93,
    "clustr:count":14,
    "clustr:density":0.5,
    "clustr:perimeter":0.08,
    "edtf:cessation":"uuuu",
    "edtf:inception":"uuuu",
    "geom:area":0.0,
    "geom:bbox":"4.82363939285,52.4386901855,4.82400083542,52.4391670227",
    "geom:latitude":52.438943,
    "geom:longitude":4.823838,
    "iso:country":"NL",
    "mz:hierarchy_label":1,
    "mz:is_approximate":1,
    "mz:is_clustr":1,
    "src:geom":"oa",
    "wof:belongsto":[
        85687053,
        102191581,
        404474143,
        85633337,
        101751901
    ],
    "wof:breaches":[],
    "wof:country":"NL",
    "wof:created":1469669090,
    "wof:geomhash":"2eb6559ecddecb1d8598b8a695b0d732",
    "wof:hierarchy":[
        {
            "continent_id":102191581,
            "country_id":85633337,
            "localadmin_id":404474143,
            "locality_id":101751901,
            "postalcode_id":890651921,
            "region_id":85687053
        }
    ],
    "wof:id":890651921,
    "wof:lastmodified":1469669090,
    "wof:name":"1506BE",
    "wof:parent_id":101751901,
    "wof:placetype":"postalcode",
    "wof:repo":"whosonfirst-data-postalcode-nl",
    "wof:superseded_by":[],
    "wof:supersedes":[],
    "wof:tags":[]
},
  "bbox": [
    4.823639392852783,
    52.438690185546875,
    4.824000835418701,
    52.43916702270508
],
  "geometry": {"coordinates":[[[4.82399988174438,52.43878173828125],[4.8240008354187,52.4387092590332],[4.82392740249634,52.43869018554688],[4.82363939285278,52.43911743164062],[4.82380390167236,52.43916702270508],[4.82399988174438,52.43878173828125]]],"type":"Polygon"}
}