{
  "id": 890988229,
  "type": "Feature",
  "properties": {
    "clustr:alpha":0.05,
    "clustr:area":20.56,
    "clustr:count":10,
    "clustr:density":0.49,
    "clustr:perimeter":0.1,
    "edtf:cessation":"uuuu",
    "edtf:inception":"uuuu",
    "geom:area":0.0,
    "geom:bbox":"4.77784395218,51.6159057617,4.77856349945,51.6160926819",
    "geom:latitude":51.616008,
    "geom:longitude":4.778172,
    "iso:country":"NL",
    "mz:hierarchy_label":1,
    "mz:is_approximate":1,
    "mz:is_clustr":1,
    "src:geom":"oa",
    "wof:belongsto":[
        85687035,
        102191581,
        404474363,
        85633337,
        101751811
    ],
    "wof:breaches":[],
    "wof:country":"NL",
    "wof:created":1469682996,
    "wof:geomhash":"c254b22dbf693fc16cad32cc554baf68",
    "wof:hierarchy":[
        {
            "continent_id":102191581,
            "country_id":85633337,
            "localadmin_id":404474363,
            "locality_id":101751811,
            "postalcode_id":890988229,
            "region_id":85687035
        }
    ],
    "wof:id":890988229,
    "wof:lastmodified":1469682996,
    "wof:name":"4826BE",
    "wof:parent_id":101751811,
    "wof:placetype":"postalcode",
    "wof:repo":"whosonfirst-data-postalcode-nl",
    "wof:superseded_by":[],
    "wof:supersedes":[],
    "wof:tags":[]
},
  "bbox": [
    4.777843952178955,
    51.61590576171875,
    4.778563499450684,
    51.616092681884766
],
  "geometry": {"coordinates":[[[4.77799987792969,51.61605072021484],[4.77784395217896,51.61609268188477],[4.77792692184448,51.61607360839844],[4.77832269668579,51.61597061157227],[4.77848148345947,51.61592864990234],[4.77856349945068,51.61590576171875],[4.77816247940063,51.61600875854492],[4.77799987792969,51.61605072021484]]],"type":"Polygon"}
}