{
  "id": 890731337,
  "type": "Feature",
  "properties": {
    "clustr:alpha":0.05,
    "clustr:area":29.92,
    "clustr:count":21,
    "clustr:density":0.7,
    "clustr:perimeter":0.29,
    "edtf:cessation":"uuuu",
    "edtf:inception":"uuuu",
    "geom:area":0.0,
    "geom:bbox":"4.30535936356,52.0310096741,4.30744886398,52.0314941406",
    "geom:latitude":52.031276,
    "geom:longitude":4.306409,
    "iso:country":"NL",
    "mz:hierarchy_label":1,
    "mz:is_approximate":1,
    "mz:is_clustr":1,
    "src:geom":"oa",
    "wof:belongsto":[
        85687041,
        102191581,
        404474251,
        85633337,
        101754743
    ],
    "wof:breaches":[],
    "wof:country":"NL",
    "wof:created":1469672615,
    "wof:geomhash":"118f2b9636fa9bd5ef7d6f98bd882196",
    "wof:hierarchy":[
        {
            "continent_id":102191581,
            "country_id":85633337,
            "localadmin_id":404474251,
            "locality_id":101754743,
            "postalcode_id":890731337,
            "region_id":85687041
        }
    ],
    "wof:id":890731337,
    "wof:lastmodified":1469672615,
    "wof:name":"2286AC",
    "wof:parent_id":101754743,
    "wof:placetype":"postalcode",
    "wof:repo":"whosonfirst-data-postalcode-nl",
    "wof:superseded_by":[],
    "wof:supersedes":[],
    "wof:tags":[]
},
  "bbox": [
    4.305359363555908,
    52.031009674072266,
    4.307448863983154,
    52.031494140625
],
  "geometry": {"coordinates":[[[4.3057861328125,52.03115463256836],[4.30635499954224,52.03129577636719],[4.30653047561646,52.03133392333984],[4.30716753005981,52.03146743774414],[4.30744886398315,52.031494140625],[4.30535936355591,52.03100967407227],[4.30544710159302,52.03104019165039],[4.30553483963013,52.03107070922852],[4.3057861328125,52.03115463256836]]],"type":"Polygon"}
}