{
  "id": 890941171,
  "type": "Feature",
  "properties": {
    "clustr:alpha":0.05,
    "clustr:area":7.29,
    "clustr:count":15,
    "clustr:density":2.06,
    "clustr:perimeter":0.1,
    "edtf:cessation":"uuuu",
    "edtf:inception":"uuuu",
    "geom:area":0.0,
    "geom:bbox":"5.00158071518,51.8356590271,5.00162601471,51.836315155",
    "geom:latitude":51.836036,
    "geom:longitude":5.001605,
    "iso:country":"NL",
    "mz:hierarchy_label":1,
    "mz:is_approximate":1,
    "mz:is_clustr":1,
    "src:geom":"oa",
    "wof:belongsto":[
        85687041,
        102191581,
        404474173,
        85633337,
        101808515
    ],
    "wof:breaches":[],
    "wof:country":"NL",
    "wof:created":1469680869,
    "wof:geomhash":"7bac861bc8ea85af75972617c0aebd30",
    "wof:hierarchy":[
        {
            "continent_id":102191581,
            "country_id":85633337,
            "localadmin_id":404474173,
            "locality_id":101808515,
            "postalcode_id":890941171,
            "region_id":85687041
        }
    ],
    "wof:id":890941171,
    "wof:lastmodified":1469680869,
    "wof:name":"4207TG",
    "wof:parent_id":101808515,
    "wof:placetype":"postalcode",
    "wof:repo":"whosonfirst-data-postalcode-nl",
    "wof:superseded_by":[],
    "wof:supersedes":[],
    "wof:tags":[]
},
  "bbox": [
    5.001580715179443,
    51.83565902709961,
    5.001626014709473,
    51.8363151550293
],
  "geometry": {"coordinates":[[[5.00158214569092,51.83609008789062],[5.00158166885376,51.83612442016602],[5.0015811920166,51.8361701965332],[5.00158071517944,51.83626174926758],[5.00162363052368,51.8363151550293],[5.00162601470947,51.83604049682617],[5.00162315368652,51.83585739135742],[5.00161647796631,51.83577346801758],[5.00160026550293,51.83565902709961],[5.00158214569092,51.83609008789062]]],"type":"Polygon"}
}