{
  "id": 891030755,
  "type": "Feature",
  "properties": {
    "clustr:alpha":0.05,
    "clustr:area":5.26,
    "clustr:count":16,
    "clustr:density":3.04,
    "clustr:perimeter":0.17,
    "edtf:cessation":"uuuu",
    "edtf:inception":"uuuu",
    "geom:area":0.0,
    "geom:bbox":"5.31915092468,51.5875778198,5.31926774979,51.5884666443",
    "geom:latitude":51.587951,
    "geom:longitude":5.3192,
    "iso:country":"NL",
    "mz:hierarchy_label":1,
    "mz:is_approximate":1,
    "mz:is_clustr":1,
    "src:geom":"oa",
    "wof:belongsto":[
        85687035,
        102191581,
        404474361,
        85633337,
        101839333
    ],
    "wof:breaches":[],
    "wof:country":"NL",
    "wof:created":1469684644,
    "wof:geomhash":"81c97282acb536a72d980ee365077504",
    "wof:hierarchy":[
        {
            "continent_id":102191581,
            "country_id":85633337,
            "localadmin_id":404474361,
            "locality_id":101839333,
            "postalcode_id":891030755,
            "region_id":85687035
        }
    ],
    "wof:id":891030755,
    "wof:lastmodified":1469684644,
    "wof:name":"5281GX",
    "wof:parent_id":101839333,
    "wof:placetype":"postalcode",
    "wof:repo":"whosonfirst-data-postalcode-nl",
    "wof:superseded_by":[],
    "wof:supersedes":[],
    "wof:tags":[]
},
  "bbox": [
    5.319150924682617,
    51.58757781982422,
    5.319267749786377,
    51.58846664428711
],
  "geometry": {"coordinates":[[[5.31915092468262,51.5883674621582],[5.31915092468262,51.58843231201172],[5.31915092468262,51.58846664428711],[5.31916570663452,51.58840560913086],[5.31926774978638,51.58757781982422],[5.31919527053833,51.58767700195312],[5.31916570663452,51.58810043334961],[5.31915092468262,51.5883674621582]]],"type":"Polygon"}
}