{
  "id": 890958115,
  "type": "Feature",
  "properties": {
    "clustr:alpha":0.05,
    "clustr:area":36.95,
    "clustr:count":26,
    "clustr:density":0.7,
    "clustr:perimeter":0.3,
    "edtf:cessation":"uuuu",
    "edtf:inception":"uuuu",
    "geom:area":0.0,
    "geom:bbox":"3.73288941383,51.4203033447,3.73491311073,51.420791626",
    "geom:latitude":51.420581,
    "geom:longitude":3.734167,
    "iso:country":"NL",
    "mz:hierarchy_label":1,
    "mz:is_approximate":1,
    "mz:is_clustr":1,
    "src:geom":"oa",
    "wof:belongsto":[
        85687037,
        102191581,
        404474299,
        85633337,
        101808349
    ],
    "wof:breaches":[],
    "wof:country":"NL",
    "wof:created":1469681556,
    "wof:geomhash":"9553cf3070b9b6a0f231a36ad1c6e7ee",
    "wof:hierarchy":[
        {
            "continent_id":102191581,
            "country_id":85633337,
            "localadmin_id":404474299,
            "locality_id":101808349,
            "postalcode_id":890958115,
            "region_id":85687037
        }
    ],
    "wof:id":890958115,
    "wof:lastmodified":1469681556,
    "wof:name":"4454BS",
    "wof:parent_id":101808349,
    "wof:placetype":"postalcode",
    "wof:repo":"whosonfirst-data-postalcode-nl",
    "wof:superseded_by":[],
    "wof:supersedes":[],
    "wof:tags":[]
},
  "bbox": [
    3.732889413833618,
    51.42030334472656,
    3.734913110733032,
    51.42079162597656
],
  "geometry": {"coordinates":[[[3.73476028442383,51.42060852050781],[3.73479080200195,51.42055511474609],[3.73491311073303,51.42030334472656],[3.73288941383362,51.42079162597656],[3.73303532600403,51.42078399658203],[3.73439073562622,51.42067337036133],[3.7344663143158,51.4206657409668],[3.73476028442383,51.42060852050781]]],"type":"Polygon"}
}