{
  "id": 890594969,
  "type": "Feature",
  "properties": {
    "clustr:alpha":0.05,
    "clustr:area":48.73,
    "clustr:count":30,
    "clustr:density":0.62,
    "clustr:perimeter":0.08,
    "edtf:cessation":"uuuu",
    "edtf:inception":"uuuu",
    "geom:area":0.0,
    "geom:bbox":"4.88917160034,52.3581047058,4.88984966278,52.3583450317",
    "geom:latitude":52.358208,
    "geom:longitude":4.889487,
    "iso:country":"NL",
    "mz:hierarchy_label":1,
    "mz:is_approximate":1,
    "mz:is_clustr":1,
    "src:geom":"oa",
    "wof:belongsto":[
        85687053,
        102191581,
        404474029,
        85633337,
        101751893
    ],
    "wof:breaches":[],
    "wof:country":"NL",
    "wof:created":1469666529,
    "wof:geomhash":"3369feb90ac67598938f938f90243195",
    "wof:hierarchy":[
        {
            "continent_id":102191581,
            "country_id":85633337,
            "localadmin_id":404474029,
            "locality_id":101751893,
            "postalcode_id":890594969,
            "region_id":85687053
        }
    ],
    "wof:id":890594969,
    "wof:lastmodified":1469666529,
    "wof:name":"1072AD",
    "wof:parent_id":101751893,
    "wof:placetype":"postalcode",
    "wof:repo":"whosonfirst-data-postalcode-nl",
    "wof:superseded_by":[],
    "wof:supersedes":[],
    "wof:tags":[]
},
  "bbox": [
    4.889171600341797,
    52.35810470581055,
    4.889849662780762,
    52.35834503173828
],
  "geometry": {"coordinates":[[[4.88945245742798,52.3581657409668],[4.8891716003418,52.35834503173828],[4.88919353485107,52.35834121704102],[4.88984966278076,52.35810470581055],[4.88945245742798,52.3581657409668]]],"type":"Polygon"}
}