{
  "id": 891068403,
  "type": "Feature",
  "properties": {
    "clustr:alpha":0.05,
    "clustr:area":2.43,
    "clustr:count":18,
    "clustr:density":7.42,
    "clustr:perimeter":0.06,
    "edtf:cessation":"uuuu",
    "edtf:inception":"uuuu",
    "geom:area":0.0,
    "geom:bbox":"5.51012420654,51.4249382019,5.51036882401,51.4251976013",
    "geom:latitude":51.425065,
    "geom:longitude":5.510254,
    "iso:country":"NL",
    "mz:hierarchy_label":1,
    "mz:is_approximate":1,
    "mz:is_clustr":1,
    "src:geom":"oa",
    "wof:belongsto":[
        85687035,
        102191581,
        404474375,
        85633337,
        101751819
    ],
    "wof:breaches":[],
    "wof:country":"NL",
    "wof:created":1469686042,
    "wof:geomhash":"4f176ace372c6517a4cd28aca0cdcba5",
    "wof:hierarchy":[
        {
            "continent_id":102191581,
            "country_id":85633337,
            "localadmin_id":404474375,
            "locality_id":101751819,
            "postalcode_id":891068403,
            "region_id":85687035
        }
    ],
    "wof:id":891068403,
    "wof:lastmodified":1469686042,
    "wof:name":"5645EH",
    "wof:parent_id":101751819,
    "wof:placetype":"postalcode",
    "wof:repo":"whosonfirst-data-postalcode-nl",
    "wof:superseded_by":[],
    "wof:supersedes":[],
    "wof:tags":[]
},
  "bbox": [
    5.510124206542969,
    51.4249382019043,
    5.510368824005127,
    51.42519760131836
],
  "geometry": {"coordinates":[[[5.51036882400513,51.4251708984375],[5.51034069061279,51.42509078979492],[5.5102367401123,51.4249382019043],[5.51012420654297,51.42496871948242],[5.5102801322937,51.42519760131836],[5.51031017303467,51.42518997192383],[5.51036882400513,51.4251708984375]]],"type":"Polygon"}
}