{
  "id": 890951549,
  "type": "Feature",
  "properties": {
    "clustr:alpha":0.05,
    "clustr:area":26.51,
    "clustr:count":22,
    "clustr:density":0.83,
    "clustr:perimeter":0.12,
    "edtf:cessation":"uuuu",
    "edtf:inception":"uuuu",
    "geom:area":0.0,
    "geom:bbox":"3.45563745499,51.5170021057,3.45651841164,51.5172615051",
    "geom:latitude":51.517107,
    "geom:longitude":3.456054,
    "iso:country":"NL",
    "mz:hierarchy_label":1,
    "mz:is_approximate":1,
    "mz:is_clustr":1,
    "src:geom":"oa",
    "wof:belongsto":[
        85687037,
        102191581,
        404474333,
        85633337,
        101839447
    ],
    "wof:breaches":[],
    "wof:country":"NL",
    "wof:created":1469681270,
    "wof:geomhash":"dae76d88ee4f657b1ee1855bce030315",
    "wof:hierarchy":[
        {
            "continent_id":102191581,
            "country_id":85633337,
            "localadmin_id":404474333,
            "locality_id":101839447,
            "postalcode_id":890951549,
            "region_id":85687037
        }
    ],
    "wof:id":890951549,
    "wof:lastmodified":1469681270,
    "wof:name":"4361KX",
    "wof:parent_id":101839447,
    "wof:placetype":"postalcode",
    "wof:repo":"whosonfirst-data-postalcode-nl",
    "wof:superseded_by":[],
    "wof:supersedes":[],
    "wof:tags":[]
},
  "bbox": [
    3.455637454986572,
    51.51700210571289,
    3.456518411636353,
    51.51726150512695
],
  "geometry": {"coordinates":[[[3.45647430419922,51.51705551147461],[3.45651841163635,51.51702880859375],[3.45647644996643,51.51700210571289],[3.45566773414612,51.51704025268555],[3.45563745498657,51.5170783996582],[3.45574951171875,51.51715087890625],[3.45593214035034,51.51726150512695],[3.45626759529114,51.51716613769531],[3.45647430419922,51.51705551147461]]],"type":"Polygon"}
}