{
  "id": 890786635,
  "type": "Feature",
  "properties": {
    "clustr:alpha":0.05,
    "clustr:area":23.26,
    "clustr:count":14,
    "clustr:density":0.6,
    "clustr:perimeter":0.23,
    "edtf:cessation":"uuuu",
    "edtf:inception":"uuuu",
    "geom:area":0.0,
    "geom:bbox":"4.16882228851,51.9999465942,4.16946125031,52.0011787415",
    "geom:latitude":52.000611,
    "geom:longitude":4.169162,
    "iso:country":"NL",
    "mz:hierarchy_label":1,
    "mz:is_approximate":1,
    "mz:is_clustr":1,
    "src:geom":"oa",
    "wof:belongsto":[
        85687041,
        102191581,
        404474667,
        85633337,
        101808481
    ],
    "wof:breaches":[],
    "wof:country":"NL",
    "wof:created":1469674738,
    "wof:geomhash":"9f063f493b0a819ef9f27a633b7b4d3e",
    "wof:hierarchy":[
        {
            "continent_id":102191581,
            "country_id":85633337,
            "localadmin_id":404474667,
            "locality_id":101808481,
            "postalcode_id":890786635,
            "region_id":85687041
        }
    ],
    "wof:id":890786635,
    "wof:lastmodified":1469674738,
    "wof:name":"2691VK",
    "wof:parent_id":101808481,
    "wof:placetype":"postalcode",
    "wof:repo":"whosonfirst-data-postalcode-nl",
    "wof:superseded_by":[],
    "wof:supersedes":[],
    "wof:tags":[]
},
  "bbox": [
    4.168822288513184,
    51.99994659423828,
    4.169461250305176,
    52.00117874145508
],
  "geometry": {"coordinates":[[[4.16931104660034,52.00045013427734],[4.16946125030518,51.99994659423828],[4.16882228851318,52.00117874145508],[4.16902923583984,52.0009651184082],[4.1690878868103,52.00085830688477],[4.16931104660034,52.00045013427734]]],"type":"Polygon"}
}