{
  "id": 890632423,
  "type": "Feature",
  "properties": {
    "clustr:alpha":0.05,
    "clustr:area":7.32,
    "clustr:count":14,
    "clustr:density":1.91,
    "clustr:perimeter":0.14,
    "edtf:cessation":"uuuu",
    "edtf:inception":"uuuu",
    "geom:area":0.0,
    "geom:bbox":"5.25689983368,52.3977203369,5.25740194321,52.3982658386",
    "geom:latitude":52.397942,
    "geom:longitude":5.257141,
    "iso:country":"NL",
    "mz:hierarchy_label":1,
    "mz:is_approximate":1,
    "mz:is_clustr":1,
    "src:geom":"oa",
    "wof:belongsto":[
        85687049,
        102191581,
        404473729,
        85633337,
        101751875
    ],
    "wof:breaches":[],
    "wof:country":"NL",
    "wof:created":1469668218,
    "wof:geomhash":"3752cb464bc4362feec571b4abbbe0d8",
    "wof:hierarchy":[
        {
            "continent_id":102191581,
            "country_id":85633337,
            "localadmin_id":404473729,
            "locality_id":101751875,
            "postalcode_id":890632423,
            "region_id":85687049
        }
    ],
    "wof:id":890632423,
    "wof:lastmodified":1469668218,
    "wof:name":"1333MJ",
    "wof:parent_id":101751875,
    "wof:placetype":"postalcode",
    "wof:repo":"whosonfirst-data-postalcode-nl",
    "wof:superseded_by":[],
    "wof:supersedes":[],
    "wof:tags":[]
},
  "bbox": [
    5.256899833679199,
    52.39772033691406,
    5.257401943206787,
    52.39826583862305
],
  "geometry": {"coordinates":[[[5.25740194320679,52.39784240722656],[5.25733852386475,52.39781188964844],[5.25719547271729,52.39775085449219],[5.25711917877197,52.39772033691406],[5.2568998336792,52.39826583862305],[5.25740194320679,52.39784240722656]]],"type":"Polygon"}
}