{
  "id": 891014309,
  "type": "Feature",
  "properties": {
    "clustr:alpha":0.05,
    "clustr:area":0.07,
    "clustr:count":9,
    "clustr:density":123.47,
    "clustr:perimeter":0.13,
    "edtf:cessation":"uuuu",
    "edtf:inception":"uuuu",
    "geom:area":0.0,
    "geom:bbox":"4.91887044907,51.586769104,4.91893959045,51.5874671936",
    "geom:latitude":51.587049,
    "geom:longitude":4.918908,
    "iso:country":"NL",
    "mz:hierarchy_label":1,
    "mz:is_approximate":1,
    "mz:is_clustr":1,
    "src:geom":"oa",
    "wof:belongsto":[
        85687035,
        102191581,
        404474381,
        85633337,
        101839413
    ],
    "wof:breaches":[],
    "wof:country":"NL",
    "wof:created":1469684016,
    "wof:geomhash":"2368147a2c174fccd3acd1c4759688a2",
    "wof:hierarchy":[
        {
            "continent_id":102191581,
            "country_id":85633337,
            "localadmin_id":404474381,
            "locality_id":101839413,
            "postalcode_id":891014309,
            "region_id":85687035
        }
    ],
    "wof:id":891014309,
    "wof:lastmodified":1469684016,
    "wof:name":"5121WS",
    "wof:parent_id":101839413,
    "wof:placetype":"postalcode",
    "wof:repo":"whosonfirst-data-postalcode-nl",
    "wof:superseded_by":[],
    "wof:supersedes":[],
    "wof:tags":[]
},
  "bbox": [
    4.918870449066162,
    51.586769104003906,
    4.918939590454102,
    51.587467193603516
],
  "geometry": {"coordinates":[[[4.91887044906616,51.58687591552734],[4.91888809204102,51.58706665039062],[4.91889429092407,51.58713150024414],[4.9189395904541,51.58746719360352],[4.91891717910767,51.58676910400391],[4.91887044906616,51.58687591552734]]],"type":"Polygon"}
}