{
  "id": 890606081,
  "type": "Feature",
  "properties": {
    "clustr:alpha":0.05,
    "clustr:area":6.93,
    "clustr:count":24,
    "clustr:density":3.46,
    "clustr:perimeter":0.06,
    "edtf:cessation":"uuuu",
    "edtf:inception":"uuuu",
    "geom:area":0.0,
    "geom:bbox":"4.97913169861,52.2986335754,4.97926616669,52.2989387512",
    "geom:latitude":52.298828,
    "geom:longitude":4.979205,
    "iso:country":"NL",
    "mz:hierarchy_label":1,
    "mz:is_approximate":1,
    "mz:is_clustr":1,
    "src:geom":"oa",
    "wof:belongsto":[
        85687053,
        102191581,
        404474029,
        85633337,
        101751895
    ],
    "wof:breaches":[],
    "wof:country":"NL",
    "wof:created":1469667075,
    "wof:geomhash":"08d933fe27e1568b49c44784bdc88a61",
    "wof:hierarchy":[
        {
            "continent_id":102191581,
            "country_id":85633337,
            "localadmin_id":404474029,
            "locality_id":101751895,
            "postalcode_id":890606081,
            "region_id":85687053
        }
    ],
    "wof:id":890606081,
    "wof:lastmodified":1469667075,
    "wof:name":"1106BZ",
    "wof:parent_id":101751895,
    "wof:placetype":"postalcode",
    "wof:repo":"whosonfirst-data-postalcode-nl",
    "wof:superseded_by":[],
    "wof:supersedes":[],
    "wof:tags":[]
},
  "bbox": [
    4.979131698608398,
    52.29863357543945,
    4.979266166687012,
    52.2989387512207
],
  "geometry": {"coordinates":[[[4.9791316986084,52.2989387512207],[4.97914600372315,52.2989387512207],[4.9791898727417,52.2989387512207],[4.97921943664551,52.29891967773438],[4.97926616668701,52.29865264892578],[4.97926616668701,52.29863357543945],[4.97917652130127,52.29881286621094],[4.9791316986084,52.2989387512207]]],"type":"Polygon"}
}