{
  "id": 907109535,
  "type": "Feature",
  "properties": {
    "clustr:alpha":0.05,
    "clustr:area":84.97,
    "clustr:count":39,
    "clustr:density":0.46,
    "clustr:perimeter":0.75,
    "edtf:cessation":"uuuu",
    "edtf:inception":"uuuu",
    "geom:area":0.000002,
    "geom:bbox":"6.55418586731,53.2264900208,6.55880069733,53.2286567688",
    "geom:latitude":53.227345,
    "geom:longitude":6.556157,
    "iso:country":"NL",
    "mz:hierarchy_label":1,
    "mz:is_approximate":1,
    "mz:is_clustr":1,
    "src:geom":"oa",
    "wof:belongsto":[
        85687059,
        102191581,
        404473713,
        85633337,
        101751909
    ],
    "wof:breaches":[],
    "wof:country":"NL",
    "wof:created":1469699874,
    "wof:geomhash":"3c818e6b11f270bccaf462cc93e45abd",
    "wof:hierarchy":[
        {
            "continent_id":102191581,
            "country_id":85633337,
            "localadmin_id":404473713,
            "locality_id":101751909,
            "postalcode_id":907109535,
            "region_id":85687059
        }
    ],
    "wof:id":907109535,
    "wof:lastmodified":1469699874,
    "wof:name":"9717JA",
    "wof:parent_id":101751909,
    "wof:placetype":"postalcode",
    "wof:repo":"whosonfirst-data-postalcode-nl",
    "wof:superseded_by":[],
    "wof:supersedes":[],
    "wof:tags":[]
},
  "bbox": [
    6.55418586730957,
    53.22649002075195,
    6.55880069732666,
    53.22865676879883
],
  "geometry": {"coordinates":[[[6.554274559021,53.22652053833008],[6.55418586730957,53.22663879394531],[6.5574369430542,53.22819519042969],[6.55880069732666,53.22865676879883],[6.55541038513184,53.22660827636719],[6.55521249771118,53.2265510559082],[6.55498933792114,53.22649002075195],[6.554274559021,53.22652053833008]]],"type":"Polygon"}
}