{
  "id": 907053537,
  "type": "Feature",
  "properties": {
    "clustr:alpha":0.05,
    "clustr:area":5.85,
    "clustr:count":71,
    "clustr:density":12.13,
    "clustr:perimeter":0.32,
    "edtf:cessation":"uuuu",
    "edtf:inception":"uuuu",
    "geom:area":0.000001,
    "geom:bbox":"5.58243656158,52.8957824707,5.58390712738,52.8968467712",
    "geom:latitude":52.896286,
    "geom:longitude":5.583279,
    "iso:country":"NL",
    "mz:hierarchy_label":1,
    "mz:is_approximate":1,
    "mz:is_clustr":1,
    "src:geom":"oa",
    "wof:belongsto":[
        85687055,
        102191581,
        404474297,
        85633337,
        101806091
    ],
    "wof:breaches":[],
    "wof:country":"NL",
    "wof:created":1469696970,
    "wof:geomhash":"e72088c28b8d81517f884e1779095e18",
    "wof:hierarchy":[
        {
            "continent_id":102191581,
            "country_id":85633337,
            "localadmin_id":404474297,
            "locality_id":101806091,
            "postalcode_id":907053537,
            "region_id":85687055
        }
    ],
    "wof:id":907053537,
    "wof:lastmodified":1469696970,
    "wof:name":"8561GM",
    "wof:parent_id":101806091,
    "wof:placetype":"postalcode",
    "wof:repo":"whosonfirst-data-postalcode-nl",
    "wof:superseded_by":[],
    "wof:supersedes":[],
    "wof:tags":[]
},
  "bbox": [
    5.582436561584473,
    52.895782470703125,
    5.583907127380371,
    52.896846771240234
],
  "geometry": {"coordinates":[[[5.58390712738037,52.89608764648438],[5.58359336853027,52.89579010009766],[5.58351469039917,52.89578247070312],[5.58273506164551,52.8960075378418],[5.5824785232544,52.89619445800781],[5.58245992660522,52.89625549316406],[5.58243656158447,52.8963508605957],[5.58243703842163,52.89639663696289],[5.58244228363037,52.89641189575195],[5.58381986618042,52.89684677124023],[5.58388233184815,52.89632797241211],[5.58390712738037,52.89608764648438]]],"type":"Polygon"}
}