{
  "id": 891257821,
  "type": "Feature",
  "properties": {
    "clustr:alpha":0.05,
    "clustr:area":8.16,
    "clustr:count":27,
    "clustr:density":3.31,
    "clustr:perimeter":0.52,
    "edtf:cessation":"uuuu",
    "edtf:inception":"uuuu",
    "geom:area":0.000002,
    "geom:bbox":"6.8435792923,52.386631012,6.8465924263,52.3878593445",
    "geom:latitude":52.387271,
    "geom:longitude":6.844898,
    "iso:country":"NL",
    "mz:hierarchy_label":1,
    "mz:is_approximate":1,
    "mz:is_clustr":1,
    "src:geom":"oa",
    "wof:belongsto":[
        85687045,
        102191581,
        404473855,
        85633337,
        101875791
    ],
    "wof:breaches":[],
    "wof:country":"NL",
    "wof:created":1469693713,
    "wof:geomhash":"907e679b14b07ce4ff3af93e59c9b549",
    "wof:hierarchy":[
        {
            "continent_id":102191581,
            "country_id":85633337,
            "localadmin_id":404473855,
            "locality_id":101875791,
            "postalcode_id":891257821,
            "region_id":85687045
        }
    ],
    "wof:id":891257821,
    "wof:lastmodified":1469693713,
    "wof:name":"7667TH",
    "wof:parent_id":101875791,
    "wof:placetype":"postalcode",
    "wof:repo":"whosonfirst-data-postalcode-nl",
    "wof:superseded_by":[],
    "wof:supersedes":[],
    "wof:tags":[]
},
  "bbox": [
    6.843579292297363,
    52.38663101196289,
    6.846592426300049,
    52.38785934448242
],
  "geometry": {"coordinates":[[[6.84440469741821,52.38663101196289],[6.84391641616821,52.38667297363281],[6.84367418289185,52.38700485229492],[6.84357929229736,52.38718032836914],[6.84414005279541,52.38749694824219],[6.84568452835083,52.38785934448242],[6.84659242630005,52.38778686523438],[6.84497499465942,52.38678359985352],[6.84447431564331,52.38664627075195],[6.84440469741821,52.38663101196289]]],"type":"Polygon"}
}