{
  "id": 890593799,
  "type": "Feature",
  "properties": {
    "clustr:alpha":0.05,
    "clustr:area":3.35,
    "clustr:count":23,
    "clustr:density":6.87,
    "clustr:perimeter":0.06,
    "edtf:cessation":"uuuu",
    "edtf:inception":"uuuu",
    "geom:area":0.0,
    "geom:bbox":"4.79232025146,52.3568267822,4.7927441597,52.3569488525",
    "geom:latitude":52.356907,
    "geom:longitude":4.792596,
    "iso:country":"NL",
    "mz:hierarchy_label":1,
    "mz:is_approximate":1,
    "mz:is_clustr":1,
    "src:geom":"oa",
    "wof:belongsto":[
        85687053,
        102191581,
        404474029,
        85633337,
        101751893
    ],
    "wof:breaches":[],
    "wof:country":"NL",
    "wof:created":1469666479,
    "wof:geomhash":"4a618e27915a9213f2c29c170820a43f",
    "wof:hierarchy":[
        {
            "continent_id":102191581,
            "country_id":85633337,
            "localadmin_id":404474029,
            "locality_id":101751893,
            "postalcode_id":890593799,
            "region_id":85687053
        }
    ],
    "wof:id":890593799,
    "wof:lastmodified":1469666479,
    "wof:name":"1069DX",
    "wof:parent_id":101751893,
    "wof:placetype":"postalcode",
    "wof:repo":"whosonfirst-data-postalcode-nl",
    "wof:superseded_by":[],
    "wof:supersedes":[],
    "wof:tags":[]
},
  "bbox": [
    4.792320251464844,
    52.35682678222656,
    4.792744159698486,
    52.35694885253906
],
  "geometry": {"coordinates":[[[4.79271507263184,52.35693740844727],[4.79232025146484,52.35682678222656],[4.79272937774658,52.35694885253906],[4.79274415969849,52.35694885253906],[4.79271507263184,52.35693740844727]]],"type":"Polygon"}
}