{
  "id": 907082429,
  "type": "Feature",
  "properties": {
    "clustr:alpha":0.05,
    "clustr:area":10.01,
    "clustr:count":20,
    "clustr:density":2.0,
    "clustr:perimeter":0.23,
    "edtf:cessation":"uuuu",
    "edtf:inception":"uuuu",
    "geom:area":0.000001,
    "geom:bbox":"6.41947317123,53.1395683289,6.42093420029,53.1400489807",
    "geom:latitude":53.139785,
    "geom:longitude":6.420214,
    "iso:country":"NL",
    "mz:hierarchy_label":1,
    "mz:is_approximate":1,
    "mz:is_clustr":1,
    "src:geom":"oa",
    "wof:belongsto":[
        85687051,
        102191581,
        404474609,
        85633337,
        101807263
    ],
    "wof:breaches":[],
    "wof:country":"NL",
    "wof:created":1469698366,
    "wof:geomhash":"9c586edfa593f9d7287c93467d755611",
    "wof:hierarchy":[
        {
            "continent_id":102191581,
            "country_id":85633337,
            "localadmin_id":404474609,
            "locality_id":101807263,
            "postalcode_id":907082429,
            "region_id":85687051
        }
    ],
    "wof:id":907082429,
    "wof:lastmodified":1469698366,
    "wof:name":"9301CC",
    "wof:parent_id":101807263,
    "wof:placetype":"postalcode",
    "wof:repo":"whosonfirst-data-postalcode-nl",
    "wof:superseded_by":[],
    "wof:supersedes":[],
    "wof:tags":[]
},
  "bbox": [
    6.419473171234131,
    53.13956832885742,
    6.420934200286865,
    53.14004898071289
],
  "geometry": {"coordinates":[[[6.41960144042969,53.13993453979492],[6.41969156265259,53.13994598388672],[6.41987133026123,53.13996124267578],[6.42093420028687,53.14004898071289],[6.42074394226074,53.13958358764648],[6.42063903808594,53.13957595825195],[6.42034006118774,53.13957214355469],[6.41947317123413,53.13956832885742],[6.41960144042969,53.13993453979492]]],"type":"Polygon"}
}