{
  "id": 890976059,
  "type": "Feature",
  "properties": {
    "clustr:alpha":0.05,
    "clustr:area":5.6,
    "clustr:count":8,
    "clustr:density":1.43,
    "clustr:perimeter":0.11,
    "edtf:cessation":"uuuu",
    "edtf:inception":"uuuu",
    "geom:area":0.0,
    "geom:bbox":"4.44288730621,51.5321617126,4.44305229187,51.5326843262",
    "geom:latitude":51.532426,
    "geom:longitude":4.442969,
    "iso:country":"NL",
    "mz:hierarchy_label":1,
    "mz:is_approximate":1,
    "mz:is_clustr":1,
    "src:geom":"oa",
    "wof:belongsto":[
        85687035,
        102191581,
        404474587,
        85633337,
        101751815
    ],
    "wof:breaches":[],
    "wof:country":"NL",
    "wof:created":1469682458,
    "wof:geomhash":"1f65659a3c19f94319861e666b9a50dd",
    "wof:hierarchy":[
        {
            "continent_id":102191581,
            "country_id":85633337,
            "localadmin_id":404474587,
            "locality_id":101751815,
            "postalcode_id":890976059,
            "region_id":85687035
        }
    ],
    "wof:id":890976059,
    "wof:lastmodified":1469682458,
    "wof:name":"4703CE",
    "wof:parent_id":101751815,
    "wof:placetype":"postalcode",
    "wof:repo":"whosonfirst-data-postalcode-nl",
    "wof:superseded_by":[],
    "wof:supersedes":[],
    "wof:tags":[]
},
  "bbox": [
    4.442887306213379,
    51.532161712646484,
    4.443052291870117,
    51.532684326171875
],
  "geometry": {"coordinates":[[[4.44293975830078,51.53252029418945],[4.44295787811279,51.53246307373047],[4.44305229187012,51.53216171264648],[4.44303512573242,51.5322151184082],[4.44292211532593,51.53257369995117],[4.44288730621338,51.53268432617188],[4.44290447235107,51.53263092041016],[4.44293975830078,51.53252029418945]]],"type":"Polygon"}
}