{
  "id": 891091775,
  "type": "Feature",
  "properties": {
    "clustr:alpha":0.05,
    "clustr:area":0.74,
    "clustr:count":52,
    "clustr:density":69.98,
    "clustr:perimeter":0.6,
    "edtf:cessation":"uuuu",
    "edtf:inception":"uuuu",
    "geom:area":0.000001,
    "geom:bbox":"6.18724346161,51.3676376343,6.1881737709,51.3703727722",
    "geom:latitude":51.368805,
    "geom:longitude":6.187746,
    "iso:country":"NL",
    "mz:hierarchy_label":1,
    "mz:is_approximate":1,
    "mz:is_clustr":1,
    "src:geom":"oa",
    "wof:belongsto":[
        85687033,
        102191581,
        404474525,
        85633337,
        101839287
    ],
    "wof:breaches":[],
    "wof:country":"NL",
    "wof:created":1469686924,
    "wof:geomhash":"1a83b48d6a38483973dd6c03477a1631",
    "wof:hierarchy":[
        {
            "continent_id":102191581,
            "country_id":85633337,
            "localadmin_id":404474525,
            "locality_id":101839287,
            "postalcode_id":891091775,
            "region_id":85687033
        }
    ],
    "wof:id":891091775,
    "wof:lastmodified":1469686924,
    "wof:name":"5913EC",
    "wof:parent_id":101839287,
    "wof:placetype":"postalcode",
    "wof:repo":"whosonfirst-data-postalcode-nl",
    "wof:superseded_by":[],
    "wof:supersedes":[],
    "wof:tags":[]
},
  "bbox": [
    6.187243461608887,
    51.367637634277344,
    6.188173770904541,
    51.3703727722168
],
  "geometry": {"coordinates":[[[6.18814611434937,51.36833572387695],[6.18724346160889,51.36763763427734],[6.18778324127197,51.3703727722168],[6.18817377090454,51.36861419677734],[6.18814611434937,51.36833572387695]]],"type":"Polygon"}
}