{
  "id": 890881105,
  "type": "Feature",
  "properties": {
    "clustr:alpha":0.05,
    "clustr:area":18.53,
    "clustr:count":22,
    "clustr:density":1.19,
    "clustr:perimeter":0.13,
    "edtf:cessation":"uuuu",
    "edtf:inception":"uuuu",
    "geom:area":0.0,
    "geom:bbox":"5.09755373001,52.1199188232,5.09851741791,52.1200828552",
    "geom:latitude":52.120017,
    "geom:longitude":5.097964,
    "iso:country":"NL",
    "mz:hierarchy_label":1,
    "mz:is_approximate":1,
    "mz:is_clustr":1,
    "src:geom":"oa",
    "wof:belongsto":[
        85687039,
        102191581,
        404474007,
        85633337,
        101751827
    ],
    "wof:breaches":[],
    "wof:country":"NL",
    "wof:created":1469678308,
    "wof:geomhash":"7021c4fe815a74ca7898c4f00ca23f50",
    "wof:hierarchy":[
        {
            "continent_id":102191581,
            "country_id":85633337,
            "localadmin_id":404474007,
            "locality_id":101751827,
            "postalcode_id":890881105,
            "region_id":85687039
        }
    ],
    "wof:id":890881105,
    "wof:lastmodified":1469678308,
    "wof:name":"3563EP",
    "wof:parent_id":101751827,
    "wof:placetype":"postalcode",
    "wof:repo":"whosonfirst-data-postalcode-nl",
    "wof:superseded_by":[],
    "wof:supersedes":[],
    "wof:tags":[]
},
  "bbox": [
    5.097553730010986,
    52.11991882324219,
    5.098517417907715,
    52.12008285522461
],
  "geometry": {"coordinates":[[[5.09782218933105,52.11991882324219],[5.09767818450928,52.1200065612793],[5.09755373001099,52.12008285522461],[5.09851741790771,52.12004852294922],[5.09782218933105,52.11991882324219]]],"type":"Polygon"}
}