{
  "id": 891180487,
  "type": "Feature",
  "properties": {
    "clustr:alpha":0.05,
    "clustr:area":70.66,
    "clustr:count":18,
    "clustr:density":0.25,
    "clustr:perimeter":0.64,
    "edtf:cessation":"uuuu",
    "edtf:inception":"uuuu",
    "geom:area":0.0,
    "geom:bbox":"5.84833145142,51.9794235229,5.85325431824,51.9797668457",
    "geom:latitude":51.979586,
    "geom:longitude":5.851023,
    "iso:country":"NL",
    "mz:hierarchy_label":1,
    "mz:is_approximate":1,
    "mz:is_clustr":1,
    "src:geom":"oa",
    "wof:belongsto":[
        102191581,
        404473931,
        85633337,
        85687043
    ],
    "wof:breaches":[],
    "wof:country":"NL",
    "wof:created":1469690624,
    "wof:geomhash":"244d52f324ece389d376aa6649b773ed",
    "wof:hierarchy":[
        {
            "continent_id":102191581,
            "country_id":85633337,
            "localadmin_id":404473931,
            "postalcode_id":891180487,
            "region_id":85687043
        }
    ],
    "wof:id":891180487,
    "wof:lastmodified":1469690624,
    "wof:name":"6862WC",
    "wof:parent_id":404473931,
    "wof:placetype":"postalcode",
    "wof:repo":"whosonfirst-data-postalcode-nl",
    "wof:superseded_by":[],
    "wof:supersedes":[],
    "wof:tags":[]
},
  "bbox": [
    5.848331451416016,
    51.97942352294922,
    5.853254318237305,
    51.979766845703125
],
  "geometry": {"coordinates":[[[5.852614402771,51.97976684570312],[5.8527307510376,51.97976684570312],[5.8532543182373,51.97972869873047],[5.85067510604858,51.97946929931641],[5.84924840927124,51.97943878173828],[5.84857892990112,51.97942352294922],[5.84833145141602,51.97942352294922],[5.85203170776367,51.97973251342773],[5.852614402771,51.97976684570312]]],"type":"Polygon"}
}