{
  "id": 890749109,
  "type": "Feature",
  "properties": {
    "clustr:alpha":0.05,
    "clustr:area":45.46,
    "clustr:count":24,
    "clustr:density":0.53,
    "clustr:perimeter":0.28,
    "edtf:cessation":"uuuu",
    "edtf:inception":"uuuu",
    "geom:area":0.000001,
    "geom:bbox":"4.77762174606,52.1818237305,4.77925491333,52.1828651428",
    "geom:latitude":52.182274,
    "geom:longitude":4.778353,
    "iso:country":"NL",
    "mz:hierarchy_label":1,
    "mz:is_approximate":1,
    "mz:is_clustr":1,
    "src:geom":"oa",
    "wof:belongsto":[
        85687041,
        102191581,
        404474217,
        85633337,
        101808467
    ],
    "wof:breaches":[],
    "wof:country":"NL",
    "wof:created":1469673294,
    "wof:geomhash":"bfad861775e2f8848449c9ddb58141d9",
    "wof:hierarchy":[
        {
            "continent_id":102191581,
            "country_id":85633337,
            "localadmin_id":404474217,
            "locality_id":101808467,
            "postalcode_id":890749109,
            "region_id":85687041
        }
    ],
    "wof:id":890749109,
    "wof:lastmodified":1469673294,
    "wof:name":"2435XS",
    "wof:parent_id":101808467,
    "wof:placetype":"postalcode",
    "wof:repo":"whosonfirst-data-postalcode-nl",
    "wof:superseded_by":[],
    "wof:supersedes":[],
    "wof:tags":[]
},
  "bbox": [
    4.777621746063232,
    52.18182373046875,
    4.779254913330078,
    52.182865142822266
],
  "geometry": {"coordinates":[[[4.77789258956909,52.18231582641602],[4.77766752243042,52.18274688720703],[4.77762174606323,52.18286514282227],[4.77925491333008,52.18213653564453],[4.77921104431152,52.1821174621582],[4.77910947799683,52.18207931518555],[4.77865791320801,52.18194198608398],[4.77854156494141,52.18190765380859],[4.77822113037109,52.18182373046875],[4.77789258956909,52.18231582641602]]],"type":"Polygon"}
}