{
  "id": 891106637,
  "type": "Feature",
  "properties": {
    "clustr:alpha":0.05,
    "clustr:area":10.33,
    "clustr:count":12,
    "clustr:density":1.16,
    "clustr:perimeter":0.13,
    "edtf:cessation":"uuuu",
    "edtf:inception":"uuuu",
    "geom:area":0.0,
    "geom:bbox":"6.00050926208,51.1749382019,6.00075626373,51.1756095886",
    "geom:latitude":51.175249,
    "geom:longitude":6.000642,
    "iso:country":"NL",
    "mz:hierarchy_label":1,
    "mz:is_approximate":1,
    "mz:is_clustr":1,
    "src:geom":"oa",
    "wof:belongsto":[
        85687033,
        102191581,
        404474511,
        85633337,
        101839309
    ],
    "wof:breaches":[],
    "wof:country":"NL",
    "wof:created":1469687534,
    "wof:geomhash":"755ec62484c59533c8d7cc2186ff8022",
    "wof:hierarchy":[
        {
            "continent_id":102191581,
            "country_id":85633337,
            "localadmin_id":404474511,
            "locality_id":101839309,
            "postalcode_id":891106637,
            "region_id":85687033
        }
    ],
    "wof:id":891106637,
    "wof:lastmodified":1469687534,
    "wof:name":"6045EP",
    "wof:parent_id":101839309,
    "wof:placetype":"postalcode",
    "wof:repo":"whosonfirst-data-postalcode-nl",
    "wof:superseded_by":[],
    "wof:supersedes":[],
    "wof:tags":[]
},
  "bbox": [
    6.000509262084961,
    51.1749382019043,
    6.00075626373291,
    51.17560958862305
],
  "geometry": {"coordinates":[[[6.00065231323242,51.17521667480469],[6.00061893463135,51.17530822753906],[6.00052833557129,51.17555618286133],[6.00050926208496,51.17560958862305],[6.00073575973511,51.17499542236328],[6.00075626373291,51.1749382019043],[6.00071477890015,51.175048828125],[6.00065231323242,51.17521667480469]]],"type":"Polygon"}
}