{
  "id": 890999141,
  "type": "Feature",
  "properties": {
    "clustr:alpha":0.05,
    "clustr:area":69.83,
    "clustr:count":14,
    "clustr:density":0.2,
    "clustr:perimeter":0.12,
    "edtf:cessation":"uuuu",
    "edtf:inception":"uuuu",
    "geom:area":0.0,
    "geom:bbox":"4.87146186829,51.7014007568,4.87233257294,51.7018318176",
    "geom:latitude":51.701644,
    "geom:longitude":4.871914,
    "iso:country":"NL",
    "mz:hierarchy_label":1,
    "mz:is_approximate":1,
    "mz:is_clustr":1,
    "src:geom":"oa",
    "wof:belongsto":[
        85687035,
        102191581,
        404474379,
        85633337,
        101839411
    ],
    "wof:breaches":[],
    "wof:country":"NL",
    "wof:created":1469683435,
    "wof:geomhash":"e3deaedcf33ff03793e2c15f7f1656dd",
    "wof:hierarchy":[
        {
            "continent_id":102191581,
            "country_id":85633337,
            "localadmin_id":404474379,
            "locality_id":101839411,
            "postalcode_id":890999141,
            "region_id":85687035
        }
    ],
    "wof:id":890999141,
    "wof:lastmodified":1469683435,
    "wof:name":"4942DJ",
    "wof:parent_id":101839411,
    "wof:placetype":"postalcode",
    "wof:repo":"whosonfirst-data-postalcode-nl",
    "wof:superseded_by":[],
    "wof:supersedes":[],
    "wof:tags":[]
},
  "bbox": [
    4.871461868286133,
    51.70140075683594,
    4.872332572937012,
    51.70183181762695
],
  "geometry": {"coordinates":[[[4.87202644348145,51.70179748535156],[4.87228918075562,51.70161819458008],[4.87233257293701,51.70158386230469],[4.87195873260498,51.70140075683594],[4.87169599533081,51.70158767700195],[4.87146186828613,51.70183181762695],[4.87202644348145,51.70179748535156]]],"type":"Polygon"}
}