{
  "id": 891134381,
  "type": "Feature",
  "properties": {
    "clustr:alpha":0.05,
    "clustr:area":8.73,
    "clustr:count":11,
    "clustr:density":1.26,
    "clustr:perimeter":0.1,
    "edtf:cessation":"uuuu",
    "edtf:inception":"uuuu",
    "geom:area":0.0,
    "geom:bbox":"5.97895812988,50.8850860596,5.97949886322,50.8853416443",
    "geom:latitude":50.885219,
    "geom:longitude":5.979236,
    "iso:country":"NL",
    "mz:hierarchy_label":1,
    "mz:is_approximate":1,
    "mz:is_clustr":1,
    "src:geom":"oa",
    "wof:belongsto":[
        85687033,
        102191581,
        404474485,
        85633337,
        101839245
    ],
    "wof:breaches":[],
    "wof:country":"NL",
    "wof:created":1469688744,
    "wof:geomhash":"acc235b4acb9cb982dbf2a7be4aef4ef",
    "wof:hierarchy":[
        {
            "continent_id":102191581,
            "country_id":85633337,
            "localadmin_id":404474485,
            "locality_id":101839245,
            "postalcode_id":891134381,
            "region_id":85687033
        }
    ],
    "wof:id":891134381,
    "wof:lastmodified":1469688744,
    "wof:name":"6411ER",
    "wof:parent_id":101839245,
    "wof:placetype":"postalcode",
    "wof:repo":"whosonfirst-data-postalcode-nl",
    "wof:superseded_by":[],
    "wof:supersedes":[],
    "wof:tags":[]
},
  "bbox": [
    5.978958129882812,
    50.88508605957031,
    5.979498863220215,
    50.88534164428711
],
  "geometry": {"coordinates":[[[5.97903299331665,50.88534164428711],[5.97949886322021,50.88529968261719],[5.97942209243774,50.88510131835938],[5.97912073135376,50.88508605957031],[5.97895812988281,50.88530349731445],[5.97903299331665,50.88534164428711]]],"type":"Polygon"}
}