{
  "id": 907026301,
  "type": "Feature",
  "properties": {
    "clustr:alpha":0.05,
    "clustr:area":3.11,
    "clustr:count":19,
    "clustr:density":6.11,
    "clustr:perimeter":0.56,
    "edtf:cessation":"uuuu",
    "edtf:inception":"uuuu",
    "geom:area":0.0,
    "geom:bbox":"5.97520160675,52.3146476746,5.976085186,52.3172569275",
    "geom:latitude":52.315919,
    "geom:longitude":5.975654,
    "iso:country":"NL",
    "mz:hierarchy_label":1,
    "mz:is_approximate":1,
    "mz:is_clustr":1,
    "src:geom":"oa",
    "wof:belongsto":[
        85687043,
        102191581,
        404473897,
        85633337,
        101803697
    ],
    "wof:breaches":[],
    "wof:country":"NL",
    "wof:created":1469695600,
    "wof:geomhash":"33d5a902fef7908a176f3eed366851a1",
    "wof:hierarchy":[
        {
            "continent_id":102191581,
            "country_id":85633337,
            "localadmin_id":404473897,
            "locality_id":101803697,
            "postalcode_id":907026301,
            "region_id":85687043
        }
    ],
    "wof:id":907026301,
    "wof:lastmodified":1469695600,
    "wof:name":"8166AE",
    "wof:parent_id":101803697,
    "wof:placetype":"postalcode",
    "wof:repo":"whosonfirst-data-postalcode-nl",
    "wof:superseded_by":[],
    "wof:supersedes":[],
    "wof:tags":[]
},
  "bbox": [
    5.975201606750488,
    52.31464767456055,
    5.976085186004639,
    52.317256927490234
],
  "geometry": {"coordinates":[[[5.9752631187439,52.31496429443359],[5.97608518600464,52.31725692749023],[5.97603845596313,52.31699371337891],[5.97597455978394,52.31668090820312],[5.97559833526611,52.31557846069336],[5.97557258605957,52.31550598144531],[5.97520160675049,52.31464767456055],[5.9752631187439,52.31496429443359]]],"type":"Polygon"}
}