{
  "id": 891078091,
  "type": "Feature",
  "properties": {
    "clustr:alpha":0.05,
    "clustr:area":3.08,
    "clustr:count":12,
    "clustr:density":3.89,
    "clustr:perimeter":0.14,
    "edtf:cessation":"uuuu",
    "edtf:inception":"uuuu",
    "geom:area":0.0,
    "geom:bbox":"5.63356256485,51.4596099854,5.63381910324,51.4602661133",
    "geom:latitude":51.459938,
    "geom:longitude":5.63369,
    "iso:country":"NL",
    "mz:hierarchy_label":1,
    "mz:is_approximate":1,
    "mz:is_clustr":1,
    "src:geom":"oa",
    "wof:belongsto":[
        85687035,
        102191581,
        404474389,
        85633337,
        101751805
    ],
    "wof:breaches":[],
    "wof:country":"NL",
    "wof:created":1469686414,
    "wof:geomhash":"5e65d911363c6016d850eecaf593dff2",
    "wof:hierarchy":[
        {
            "continent_id":102191581,
            "country_id":85633337,
            "localadmin_id":404474389,
            "locality_id":101751805,
            "postalcode_id":891078091,
            "region_id":85687035
        }
    ],
    "wof:id":891078091,
    "wof:lastmodified":1469686414,
    "wof:name":"5706BW",
    "wof:parent_id":101751805,
    "wof:placetype":"postalcode",
    "wof:repo":"whosonfirst-data-postalcode-nl",
    "wof:superseded_by":[],
    "wof:supersedes":[],
    "wof:tags":[]
},
  "bbox": [
    5.633562564849854,
    51.45960998535156,
    5.633819103240967,
    51.46026611328125
],
  "geometry": {"coordinates":[[[5.63356256484985,51.46026611328125],[5.63375997543335,51.45977020263672],[5.63380002975464,51.45966720581055],[5.63381910324097,51.45960998535156],[5.63366842269897,51.45998001098633],[5.63358116149902,51.46020889282227],[5.63356256484985,51.46026611328125]]],"type":"Polygon"}
}