{
  "id": 890945769,
  "type": "Feature",
  "properties": {
    "clustr:alpha":0.05,
    "clustr:area":3.21,
    "clustr:count":29,
    "clustr:density":9.04,
    "clustr:perimeter":0.41,
    "edtf:cessation":"uuuu",
    "edtf:inception":"uuuu",
    "geom:area":0.000001,
    "geom:bbox":"3.89999270439,51.6528358459,3.90104055405,51.6544761658",
    "geom:latitude":51.653877,
    "geom:longitude":3.900618,
    "iso:country":"NL",
    "mz:hierarchy_label":1,
    "mz:is_approximate":1,
    "mz:is_clustr":1,
    "src:geom":"oa",
    "wof:belongsto":[
        85687037,
        102191581,
        404474591,
        85633337,
        101808413
    ],
    "wof:breaches":[],
    "wof:country":"NL",
    "wof:created":1469681049,
    "wof:geomhash":"be37b2310aff0e9caf94f297093141d1",
    "wof:hierarchy":[
        {
            "continent_id":102191581,
            "country_id":85633337,
            "localadmin_id":404474591,
            "locality_id":101808413,
            "postalcode_id":890945769,
            "region_id":85687037
        }
    ],
    "wof:id":890945769,
    "wof:lastmodified":1469681049,
    "wof:name":"4301ZJ",
    "wof:parent_id":101808413,
    "wof:placetype":"postalcode",
    "wof:repo":"whosonfirst-data-postalcode-nl",
    "wof:superseded_by":[],
    "wof:supersedes":[],
    "wof:tags":[]
},
  "bbox": [
    3.899992704391479,
    51.652835845947266,
    3.901040554046631,
    51.654476165771484
],
  "geometry": {"coordinates":[[[3.90104055404663,51.65420913696289],[3.90079379081726,51.65283584594727],[3.90029573440552,51.65375518798828],[3.90012454986572,51.65407562255859],[3.89999270439148,51.65432357788086],[3.90092730522156,51.65447616577148],[3.90098428726196,51.65442657470703],[3.90100574493408,51.65438079833984],[3.90102338790894,51.65431976318359],[3.90104055404663,51.65420913696289]]],"type":"Polygon"}
}