{
  "id": 890790545,
  "type": "Feature",
  "properties": {
    "clustr:alpha":0.05,
    "clustr:area":13.22,
    "clustr:count":14,
    "clustr:density":1.06,
    "clustr:perimeter":0.19,
    "edtf:cessation":"uuuu",
    "edtf:inception":"uuuu",
    "geom:area":0.0,
    "geom:bbox":"4.49603557587,52.0693130493,4.49729824066,52.0697135925",
    "geom:latitude":52.069534,
    "geom:longitude":4.496508,
    "iso:country":"NL",
    "mz:hierarchy_label":1,
    "mz:is_approximate":1,
    "mz:is_clustr":1,
    "src:geom":"oa",
    "wof:belongsto":[
        85687041,
        102191581,
        404474287,
        85633337,
        101751835
    ],
    "wof:breaches":[],
    "wof:country":"NL",
    "wof:created":1469674881,
    "wof:geomhash":"5aedd458cf94991e5555a61709e24202",
    "wof:hierarchy":[
        {
            "continent_id":102191581,
            "country_id":85633337,
            "localadmin_id":404474287,
            "locality_id":101751835,
            "postalcode_id":890790545,
            "region_id":85687041
        }
    ],
    "wof:id":890790545,
    "wof:lastmodified":1469674881,
    "wof:name":"2725PN",
    "wof:parent_id":101751835,
    "wof:placetype":"postalcode",
    "wof:repo":"whosonfirst-data-postalcode-nl",
    "wof:superseded_by":[],
    "wof:supersedes":[],
    "wof:tags":[]
},
  "bbox": [
    4.496035575866699,
    52.069313049316406,
    4.497298240661621,
    52.0697135925293
],
  "geometry": {"coordinates":[[[4.49606609344482,52.06966018676758],[4.4960355758667,52.0697135925293],[4.49729824066162,52.06931304931641],[4.49722480773926,52.06932830810547],[4.49622821807861,52.06956481933594],[4.496169090271,52.06959915161133],[4.49606609344482,52.06966018676758]]],"type":"Polygon"}
}