{
  "id": 891040291,
  "type": "Feature",
  "properties": {
    "clustr:alpha":0.05,
    "clustr:area":8.06,
    "clustr:count":20,
    "clustr:density":2.48,
    "clustr:perimeter":0.09,
    "edtf:cessation":"uuuu",
    "edtf:inception":"uuuu",
    "geom:area":0.0,
    "geom:bbox":"5.55922698975,51.7036590576,5.55960321426,51.7039909363",
    "geom:latitude":51.703832,
    "geom:longitude":5.55943,
    "iso:country":"NL",
    "mz:hierarchy_label":1,
    "mz:is_approximate":1,
    "mz:is_clustr":1,
    "src:geom":"oa",
    "wof:belongsto":[
        85687035,
        102191581,
        404474633,
        85633337,
        101808209
    ],
    "wof:breaches":[],
    "wof:country":"NL",
    "wof:created":1469685031,
    "wof:geomhash":"66e910914e5d2c2eea2b65c22d6c2c06",
    "wof:hierarchy":[
        {
            "continent_id":102191581,
            "country_id":85633337,
            "localadmin_id":404474633,
            "locality_id":101808209,
            "postalcode_id":891040291,
            "region_id":85687035
        }
    ],
    "wof:id":891040291,
    "wof:lastmodified":1469685031,
    "wof:name":"5388AP",
    "wof:parent_id":101808209,
    "wof:placetype":"postalcode",
    "wof:repo":"whosonfirst-data-postalcode-nl",
    "wof:superseded_by":[],
    "wof:supersedes":[],
    "wof:tags":[]
},
  "bbox": [
    5.559226989746094,
    51.70365905761719,
    5.559603214263916,
    51.7039909362793
],
  "geometry": {"coordinates":[[[5.55953073501587,51.70393371582031],[5.55960321426392,51.7037239074707],[5.55953168869019,51.70367813110352],[5.55942392349243,51.70365905761719],[5.55924034118652,51.70388412475586],[5.55922698974609,51.70390701293945],[5.55931377410889,51.70396423339844],[5.55947208404541,51.7039909362793],[5.55953073501587,51.70393371582031]]],"type":"Polygon"}
}