{
  "id": 890866577,
  "type": "Feature",
  "properties": {
    "clustr:alpha":0.05,
    "clustr:area":7.09,
    "clustr:count":8,
    "clustr:density":1.13,
    "clustr:perimeter":0.08,
    "edtf:cessation":"uuuu",
    "edtf:inception":"uuuu",
    "geom:area":0.0,
    "geom:bbox":"5.07713985443,52.0190010071,5.07764625549,52.0191955566",
    "geom:latitude":52.019083,
    "geom:longitude":5.077382,
    "iso:country":"NL",
    "mz:hierarchy_label":1,
    "mz:is_approximate":1,
    "mz:is_clustr":1,
    "src:geom":"oa",
    "wof:belongsto":[
        85687039,
        102191581,
        404474021,
        85633337,
        101751825
    ],
    "wof:breaches":[],
    "wof:country":"NL",
    "wof:created":1469677759,
    "wof:geomhash":"9093251b54bd6a1454d684e4f66c7249",
    "wof:hierarchy":[
        {
            "continent_id":102191581,
            "country_id":85633337,
            "localadmin_id":404474021,
            "locality_id":101751825,
            "postalcode_id":890866577,
            "region_id":85687039
        }
    ],
    "wof:id":890866577,
    "wof:lastmodified":1469677759,
    "wof:name":"3435VB",
    "wof:parent_id":101751825,
    "wof:placetype":"postalcode",
    "wof:repo":"whosonfirst-data-postalcode-nl",
    "wof:superseded_by":[],
    "wof:supersedes":[],
    "wof:tags":[]
},
  "bbox": [
    5.077139854431152,
    52.01900100708008,
    5.077646255493164,
    52.019195556640625
],
  "geometry": {"coordinates":[[[5.07730293273926,52.01908874511719],[5.07724761962891,52.01911926269531],[5.07719039916992,52.01915740966797],[5.07713985443115,52.01919555664062],[5.07764625549316,52.01900100708008],[5.07756519317627,52.01901245117188],[5.07741117477417,52.01903915405273],[5.07730293273926,52.01908874511719]]],"type":"Polygon"}
}