{
  "id": 891096179,
  "type": "Feature",
  "properties": {
    "clustr:alpha":0.05,
    "clustr:area":32.05,
    "clustr:count":13,
    "clustr:density":0.41,
    "clustr:perimeter":0.47,
    "edtf:cessation":"uuuu",
    "edtf:inception":"uuuu",
    "geom:area":0.000001,
    "geom:bbox":"6.04378414154,51.2721328735,6.04703855515,51.2727890015",
    "geom:latitude":51.272505,
    "geom:longitude":6.045718,
    "iso:country":"NL",
    "mz:hierarchy_label":1,
    "mz:is_approximate":1,
    "mz:is_clustr":1,
    "src:geom":"oa",
    "wof:belongsto":[
        85687033,
        102191581,
        404474473,
        85633337,
        101809489
    ],
    "wof:breaches":[],
    "wof:country":"NL",
    "wof:created":1469687102,
    "wof:geomhash":"d6686a1e24b19d146a109336e65c2e29",
    "wof:hierarchy":[
        {
            "continent_id":102191581,
            "country_id":85633337,
            "localadmin_id":404474473,
            "locality_id":101809489,
            "postalcode_id":891096179,
            "region_id":85687033
        }
    ],
    "wof:id":891096179,
    "wof:lastmodified":1469687102,
    "wof:name":"5954GA",
    "wof:parent_id":101809489,
    "wof:placetype":"postalcode",
    "wof:repo":"whosonfirst-data-postalcode-nl",
    "wof:superseded_by":[],
    "wof:supersedes":[],
    "wof:tags":[]
},
  "bbox": [
    6.043784141540527,
    51.272132873535156,
    6.047038555145264,
    51.272789001464844
],
  "geometry": {"coordinates":[[[6.04703855514526,51.27231216430664],[6.04702425003052,51.27213287353516],[6.04378414154053,51.27262878417969],[6.04589223861694,51.27278900146484],[6.04670524597168,51.27248764038086],[6.04679727554321,51.2724494934082],[6.04703855514526,51.27231216430664]]],"type":"Polygon"}
}