{
  "id": 890784033,
  "type": "Feature",
  "properties": {
    "clustr:alpha":0.05,
    "clustr:area":26.51,
    "clustr:count":17,
    "clustr:density":0.64,
    "clustr:perimeter":0.15,
    "edtf:cessation":"uuuu",
    "edtf:inception":"uuuu",
    "geom:area":0.0,
    "geom:bbox":"4.23399162292,52.0078773499,4.2350935936,52.0081710815",
    "geom:latitude":52.007986,
    "geom:longitude":4.234535,
    "iso:country":"NL",
    "mz:hierarchy_label":1,
    "mz:is_approximate":1,
    "mz:is_clustr":1,
    "src:geom":"oa",
    "wof:belongsto":[
        85687041,
        102191581,
        404474667,
        85633337,
        101837705
    ],
    "wof:breaches":[],
    "wof:country":"NL",
    "wof:created":1469674645,
    "wof:geomhash":"d3fc9a286fd339ebc0f37e274170fb52",
    "wof:hierarchy":[
        {
            "continent_id":102191581,
            "country_id":85633337,
            "localadmin_id":404474667,
            "locality_id":101837705,
            "postalcode_id":890784033,
            "region_id":85687041
        }
    ],
    "wof:id":890784033,
    "wof:lastmodified":1469674645,
    "wof:name":"2675TH",
    "wof:parent_id":101837705,
    "wof:placetype":"postalcode",
    "wof:repo":"whosonfirst-data-postalcode-nl",
    "wof:superseded_by":[],
    "wof:supersedes":[],
    "wof:tags":[]
},
  "bbox": [
    4.233991622924805,
    52.007877349853516,
    4.235093593597412,
    52.00817108154297
],
  "geometry": {"coordinates":[[[4.23439311981201,52.00814056396484],[4.23459959030151,52.00817108154297],[4.23466157913208,52.00813674926758],[4.23484659194946,52.00802612304688],[4.23503160476685,52.00791549682617],[4.23509359359741,52.00787734985352],[4.2339916229248,52.00787734985352],[4.23404884338379,52.00791549682617],[4.23410606384277,52.00795364379883],[4.23416376113892,52.00799179077148],[4.23439311981201,52.00814056396484]]],"type":"Polygon"}
}