{
  "id": 891230017,
  "type": "Feature",
  "properties": {
    "clustr:alpha":0.05,
    "clustr:area":30.98,
    "clustr:count":20,
    "clustr:density":0.65,
    "clustr:perimeter":2.93,
    "edtf:cessation":"uuuu",
    "edtf:inception":"uuuu",
    "geom:area":0.000026,
    "geom:bbox":"6.45613479614,52.2832298279,6.46433734894,52.295375824",
    "geom:latitude":52.290462,
    "geom:longitude":6.459808,
    "iso:country":"NL",
    "mz:hierarchy_label":1,
    "mz:is_approximate":1,
    "mz:is_clustr":1,
    "src:geom":"oa",
    "wof:belongsto":[
        102191581,
        404474657,
        85633337,
        85687045
    ],
    "wof:breaches":[],
    "wof:country":"NL",
    "wof:created":1469692612,
    "wof:geomhash":"8d74b09d1915e8840bf15e2979a8dd15",
    "wof:hierarchy":[
        {
            "continent_id":102191581,
            "country_id":85633337,
            "localadmin_id":404474657,
            "postalcode_id":891230017,
            "region_id":85687045
        }
    ],
    "wof:id":891230017,
    "wof:lastmodified":1469692612,
    "wof:name":"7451RL",
    "wof:parent_id":404474657,
    "wof:placetype":"postalcode",
    "wof:repo":"whosonfirst-data-postalcode-nl",
    "wof:superseded_by":[],
    "wof:supersedes":[],
    "wof:tags":[]
},
  "bbox": [
    6.456134796142578,
    52.28322982788086,
    6.464337348937988,
    52.29537582397461
],
  "geometry": {"coordinates":[[[6.45760297775269,52.29506301879883],[6.45788526535034,52.29528045654297],[6.45813131332397,52.29537582397461],[6.45923280715942,52.29477691650391],[6.46433734893799,52.28322982788086],[6.46056747436523,52.28713989257812],[6.45613479614258,52.29347229003906],[6.45760297775269,52.29506301879883]]],"type":"Polygon"}
}