{
  "id": 890615147,
  "type": "Feature",
  "properties": {
    "clustr:alpha":0.05,
    "clustr:area":301.89,
    "clustr:count":6,
    "clustr:density":0.02,
    "clustr:perimeter":1.12,
    "edtf:cessation":"uuuu",
    "edtf:inception":"uuuu",
    "geom:area":0.000009,
    "geom:bbox":"4.88380813599,52.3186340332,4.8919634819,52.320690155",
    "geom:latitude":52.319572,
    "geom:longitude":4.887253,
    "iso:country":"NL",
    "mz:hierarchy_label":1,
    "mz:is_approximate":1,
    "mz:is_clustr":1,
    "src:geom":"oa",
    "wof:belongsto":[
        85687053,
        102191581,
        404474027,
        85633337,
        101751891
    ],
    "wof:breaches":[],
    "wof:country":"NL",
    "wof:created":1469667474,
    "wof:geomhash":"5b9b7d9c501bbd01f25e194b53c1c50e",
    "wof:hierarchy":[
        {
            "continent_id":102191581,
            "country_id":85633337,
            "localadmin_id":404474027,
            "locality_id":101751891,
            "postalcode_id":890615147,
            "region_id":85687053
        }
    ],
    "wof:id":890615147,
    "wof:lastmodified":1469667474,
    "wof:name":"1183SZ",
    "wof:parent_id":101751891,
    "wof:placetype":"postalcode",
    "wof:repo":"whosonfirst-data-postalcode-nl",
    "wof:superseded_by":[],
    "wof:supersedes":[],
    "wof:tags":[]
},
  "bbox": [
    4.883808135986328,
    52.318634033203125,
    4.891963481903076,
    52.3206901550293
],
  "geometry": {"coordinates":[[[4.8873085975647,52.3206901550293],[4.89196348190308,52.31863403320312],[4.88380813598633,52.31905364990234],[4.88479566574097,52.32047271728516],[4.8873085975647,52.3206901550293]]],"type":"Polygon"}
}