{
  "id": 890674999,
  "type": "Feature",
  "properties": {
    "clustr:alpha":0.05,
    "clustr:area":122.13,
    "clustr:count":20,
    "clustr:density":0.16,
    "clustr:perimeter":0.46,
    "edtf:cessation":"uuuu",
    "edtf:inception":"uuuu",
    "geom:area":0.000001,
    "geom:bbox":"5.02360773087,52.8499908447,5.02751159668,52.8502922058",
    "geom:latitude":52.850181,
    "geom:longitude":5.025863,
    "iso:country":"NL",
    "mz:hierarchy_label":1,
    "mz:is_approximate":1,
    "mz:is_clustr":1,
    "src:geom":"oa",
    "wof:belongsto":[
        85687053,
        102191581,
        404474133,
        85633337,
        101808807
    ],
    "wof:breaches":[],
    "wof:country":"NL",
    "wof:created":1469670186,
    "wof:geomhash":"36a7f835f81d273676762c28cfa40c40",
    "wof:hierarchy":[
        {
            "continent_id":102191581,
            "country_id":85633337,
            "localadmin_id":404474133,
            "locality_id":101808807,
            "postalcode_id":890674999,
            "region_id":85687053
        }
    ],
    "wof:id":890674999,
    "wof:lastmodified":1469670186,
    "wof:name":"1771AE",
    "wof:parent_id":101808807,
    "wof:placetype":"postalcode",
    "wof:repo":"whosonfirst-data-postalcode-nl",
    "wof:superseded_by":[],
    "wof:supersedes":[],
    "wof:tags":[]
},
  "bbox": [
    5.023607730865479,
    52.84999084472656,
    5.027511596679688,
    52.85029220581055
],
  "geometry": {"coordinates":[[[5.02645969390869,52.84999084472656],[5.02360773086548,52.85026168823242],[5.02372646331787,52.85026168823242],[5.02751159667969,52.85029220581055],[5.02645969390869,52.84999084472656]]],"type":"Polygon"}
}