{
  "id": 891210729,
  "type": "Feature",
  "properties": {
    "clustr:alpha":0.05,
    "clustr:area":54.91,
    "clustr:count":8,
    "clustr:density":0.15,
    "clustr:perimeter":1.79,
    "edtf:cessation":"uuuu",
    "edtf:inception":"uuuu",
    "geom:area":0.000005,
    "geom:bbox":"6.38890600204,52.0724105835,6.40176296234,52.0742225647",
    "geom:latitude":52.073257,
    "geom:longitude":6.396013,
    "iso:country":"NL",
    "mz:hierarchy_label":1,
    "mz:is_approximate":1,
    "mz:is_clustr":1,
    "src:geom":"oa",
    "wof:belongsto":[
        102191581,
        404474673,
        85633337,
        85687043
    ],
    "wof:breaches":[],
    "wof:country":"NL",
    "wof:created":1469691859,
    "wof:geomhash":"683ceba1066f17611cb2e8b0e32e1ceb",
    "wof:hierarchy":[
        {
            "continent_id":102191581,
            "country_id":85633337,
            "localadmin_id":404474673,
            "postalcode_id":891210729,
            "region_id":85687043
        }
    ],
    "wof:id":891210729,
    "wof:lastmodified":1469691859,
    "wof:name":"7251MS",
    "wof:parent_id":404474673,
    "wof:placetype":"postalcode",
    "wof:repo":"whosonfirst-data-postalcode-nl",
    "wof:superseded_by":[],
    "wof:supersedes":[],
    "wof:tags":[]
},
  "bbox": [
    6.388906002044678,
    52.072410583496094,
    6.401762962341309,
    52.074222564697266
],
  "geometry": {"coordinates":[[[6.3893346786499,52.07241058349609],[6.38890600204468,52.07258987426758],[6.38898801803589,52.07260513305664],[6.40176296234131,52.07422256469727],[6.40010261535645,52.0733528137207],[6.3893346786499,52.07241058349609]]],"type":"Polygon"}
}