{
  "id": 890749781,
  "type": "Feature",
  "properties": {
    "clustr:alpha":0.05,
    "clustr:area":248.23,
    "clustr:count":27,
    "clustr:density":0.11,
    "clustr:perimeter":1.91,
    "edtf:cessation":"uuuu",
    "edtf:inception":"uuuu",
    "geom:area":0.000012,
    "geom:bbox":"4.71389770508,52.170337677,4.71943187714,52.1785583496",
    "geom:latitude":52.173973,
    "geom:longitude":4.71658,
    "iso:country":"NL",
    "mz:hierarchy_label":1,
    "mz:is_approximate":1,
    "mz:is_clustr":1,
    "src:geom":"oa",
    "wof:belongsto":[
        102191581,
        404474217,
        85633337,
        85687041
    ],
    "wof:breaches":[],
    "wof:country":"NL",
    "wof:created":1469673334,
    "wof:geomhash":"cb07bf00d6bb9fa0f10bfbd80ecfae8b",
    "wof:hierarchy":[
        {
            "continent_id":102191581,
            "country_id":85633337,
            "localadmin_id":404474217,
            "postalcode_id":890749781,
            "region_id":85687041
        }
    ],
    "wof:id":890749781,
    "wof:lastmodified":1469673334,
    "wof:name":"2461ER",
    "wof:parent_id":404474217,
    "wof:placetype":"postalcode",
    "wof:repo":"whosonfirst-data-postalcode-nl",
    "wof:superseded_by":[],
    "wof:supersedes":[],
    "wof:tags":[]
},
  "bbox": [
    4.713897705078125,
    52.17033767700195,
    4.71943187713623,
    52.178558349609375
],
  "geometry": {"coordinates":[[[4.71389770507812,52.17033767700195],[4.71588182449341,52.17449188232422],[4.71632432937622,52.17521286010742],[4.71756744384766,52.17711639404297],[4.71784019470215,52.17747116088867],[4.71905422210693,52.17840194702148],[4.71943187713623,52.17855834960938],[4.71597003936768,52.17068099975586],[4.71389770507812,52.17033767700195]]],"type":"Polygon"}
}