{
  "id": 891136321,
  "type": "Feature",
  "properties": {
    "clustr:alpha":0.05,
    "clustr:area":10.61,
    "clustr:count":22,
    "clustr:density":2.07,
    "clustr:perimeter":0.14,
    "edtf:cessation":"uuuu",
    "edtf:inception":"uuuu",
    "geom:area":0.0,
    "geom:bbox":"5.99631595612,50.883556366,5.99711799622,50.8839874268",
    "geom:latitude":50.883741,
    "geom:longitude":5.996777,
    "iso:country":"NL",
    "mz:hierarchy_label":1,
    "mz:is_approximate":1,
    "mz:is_clustr":1,
    "src:geom":"oa",
    "wof:belongsto":[
        85687033,
        102191581,
        404474485,
        85633337,
        101839245
    ],
    "wof:breaches":[],
    "wof:country":"NL",
    "wof:created":1469688811,
    "wof:geomhash":"e99227a9c1faea12127c5000c869e9e3",
    "wof:hierarchy":[
        {
            "continent_id":102191581,
            "country_id":85633337,
            "localadmin_id":404474485,
            "locality_id":101839245,
            "postalcode_id":891136321,
            "region_id":85687033
        }
    ],
    "wof:id":891136321,
    "wof:lastmodified":1469688811,
    "wof:name":"6416CD",
    "wof:parent_id":101839245,
    "wof:placetype":"postalcode",
    "wof:repo":"whosonfirst-data-postalcode-nl",
    "wof:superseded_by":[],
    "wof:supersedes":[],
    "wof:tags":[]
},
  "bbox": [
    5.996315956115723,
    50.8835563659668,
    5.99711799621582,
    50.88398742675781
],
  "geometry": {"coordinates":[[[5.99682092666626,50.88372039794922],[5.99690008163452,50.8836784362793],[5.99711799621582,50.8835563659668],[5.99631595611572,50.88398742675781],[5.99682092666626,50.88372039794922]]],"type":"Polygon"}
}