{
  "id": 891270309,
  "type": "Feature",
  "properties": {
    "clustr:alpha":0.05,
    "clustr:area":116.46,
    "clustr:count":10,
    "clustr:density":0.09,
    "clustr:perimeter":0.34,
    "edtf:cessation":"uuuu",
    "edtf:inception":"uuuu",
    "geom:area":0.0,
    "geom:bbox":"6.85699987411,52.7099914551,6.85773897171,52.7124023438",
    "geom:latitude":52.711062,
    "geom:longitude":6.857442,
    "iso:country":"NL",
    "mz:hierarchy_label":1,
    "mz:is_approximate":1,
    "mz:is_clustr":1,
    "src:geom":"oa",
    "wof:belongsto":[
        85687051,
        102191581,
        404473809,
        85633337,
        101837881
    ],
    "wof:breaches":[],
    "wof:country":"NL",
    "wof:created":1469694242,
    "wof:geomhash":"e7e0a87b07ef61468a64e24e0eac5df4",
    "wof:hierarchy":[
        {
            "continent_id":102191581,
            "country_id":85633337,
            "localadmin_id":404473809,
            "locality_id":101837881,
            "postalcode_id":891270309,
            "region_id":85687051
        }
    ],
    "wof:id":891270309,
    "wof:lastmodified":1469694242,
    "wof:name":"7833EB",
    "wof:parent_id":101837881,
    "wof:placetype":"postalcode",
    "wof:repo":"whosonfirst-data-postalcode-nl",
    "wof:superseded_by":[],
    "wof:supersedes":[],
    "wof:tags":[]
},
  "bbox": [
    6.85699987411499,
    52.709991455078125,
    6.857738971710205,
    52.71240234375
],
  "geometry": {"coordinates":[[[6.85773897171021,52.71061325073242],[6.85767412185669,52.70999145507812],[6.85739469528198,52.71092987060547],[6.85710191726685,52.7119140625],[6.8570499420166,52.71213150024414],[6.85699987411499,52.71240234375],[6.85773897171021,52.71061325073242]]],"type":"Polygon"}
}