{
  "id": 891226619,
  "type": "Feature",
  "properties": {
    "clustr:alpha":0.05,
    "clustr:area":163.35,
    "clustr:count":20,
    "clustr:density":0.12,
    "clustr:perimeter":0.15,
    "edtf:cessation":"uuuu",
    "edtf:inception":"uuuu",
    "geom:area":0.0,
    "geom:bbox":"6.22722196579,52.261428833,6.22880792618,52.26197052",
    "geom:latitude":52.26167,
    "geom:longitude":6.22811,
    "iso:country":"NL",
    "mz:hierarchy_label":1,
    "mz:is_approximate":1,
    "mz:is_clustr":1,
    "src:geom":"oa",
    "wof:belongsto":[
        85687045,
        102191581,
        404473825,
        85633337,
        101751865
    ],
    "wof:breaches":[],
    "wof:country":"NL",
    "wof:created":1469692473,
    "wof:geomhash":"b09d533e281fdb231fe6f18e8240247c",
    "wof:hierarchy":[
        {
            "continent_id":102191581,
            "country_id":85633337,
            "localadmin_id":404473825,
            "locality_id":101751865,
            "postalcode_id":891226619,
            "region_id":85687045
        }
    ],
    "wof:id":891226619,
    "wof:lastmodified":1469692473,
    "wof:name":"7425HJ",
    "wof:parent_id":101751865,
    "wof:placetype":"postalcode",
    "wof:repo":"whosonfirst-data-postalcode-nl",
    "wof:superseded_by":[],
    "wof:supersedes":[],
    "wof:tags":[]
},
  "bbox": [
    6.227221965789795,
    52.26142883300781,
    6.228807926177979,
    52.26197052001953
],
  "geometry": {"coordinates":[[[6.22862195968628,52.26197052001953],[6.22880792617798,52.26174545288086],[6.22826242446899,52.26155853271484],[6.22783517837524,52.26142883300781],[6.22722196578979,52.26152420043945],[6.22862195968628,52.26197052001953]]],"type":"Polygon"}
}