{
  "id": 891244995,
  "type": "Feature",
  "properties": {
    "clustr:alpha":0.05,
    "clustr:area":4.39,
    "clustr:count":19,
    "clustr:density":4.33,
    "clustr:perimeter":0.2,
    "edtf:cessation":"uuuu",
    "edtf:inception":"uuuu",
    "geom:area":0.0,
    "geom:bbox":"6.80461359024,52.2684822083,6.80476427078,52.269443512",
    "geom:latitude":52.269043,
    "geom:longitude":6.804704,
    "iso:country":"NL",
    "mz:hierarchy_label":1,
    "mz:is_approximate":1,
    "mz:is_clustr":1,
    "src:geom":"oa",
    "wof:belongsto":[
        85687045,
        102191581,
        404473837,
        85633337,
        101751869
    ],
    "wof:breaches":[],
    "wof:country":"NL",
    "wof:created":1469693209,
    "wof:geomhash":"0d6a4895852c4bf033fba8feaaadf748",
    "wof:hierarchy":[
        {
            "continent_id":102191581,
            "country_id":85633337,
            "localadmin_id":404473837,
            "locality_id":101751869,
            "postalcode_id":891244995,
            "region_id":85687045
        }
    ],
    "wof:id":891244995,
    "wof:lastmodified":1469693209,
    "wof:name":"7557PS",
    "wof:parent_id":101751869,
    "wof:placetype":"postalcode",
    "wof:repo":"whosonfirst-data-postalcode-nl",
    "wof:superseded_by":[],
    "wof:supersedes":[],
    "wof:tags":[]
},
  "bbox": [
    6.804613590240479,
    52.26848220825195,
    6.804764270782471,
    52.26944351196289
],
  "geometry": {"coordinates":[[[6.80474948883057,52.26934051513672],[6.80476427078247,52.26925659179688],[6.80475997924805,52.2691650390625],[6.80475568771362,52.26912307739258],[6.8046464920044,52.26863098144531],[6.80461359024048,52.26848220825195],[6.80472660064697,52.26944351196289],[6.80474948883057,52.26934051513672]]],"type":"Polygon"}
}