{
  "id": 891276665,
  "type": "Feature",
  "properties": {
    "edtf:cessation":"uuuu",
    "edtf:inception":"uuuu",
    "geom:area":0.0,
    "geom:bbox":"6.615443,52.734277,6.615443,52.734277",
    "geom:latitude":52.734277,
    "geom:longitude":6.615443,
    "iso:country":"NL",
    "mz:hierarchy_label":1,
    "mz:is_approximate":1,
    "src:geom":"oa",
    "wof:belongsto":[
        102191581,
        404473807,
        85633337,
        85687051
    ],
    "wof:breaches":[],
    "wof:country":"NL",
    "wof:created":1469694498,
    "wof:geomhash":"0a82866c6780d72b00d1f18e56623d6e",
    "wof:hierarchy":[
        {
            "continent_id":102191581,
            "country_id":85633337,
            "localadmin_id":404473807,
            "postalcode_id":891276665,
            "region_id":85687051
        }
    ],
    "wof:id":891276665,
    "wof:lastmodified":1469694498,
    "wof:name":"7917TP",
    "wof:parent_id":404473807,
    "wof:placetype":"postalcode",
    "wof:repo":"whosonfirst-data-postalcode-nl",
    "wof:superseded_by":[],
    "wof:supersedes":[],
    "wof:tags":[]
},
  "bbox": [
    6.615443,
    52.734277,
    6.615443,
    52.734277
],
  "geometry": {"coordinates":[6.615443,52.734277],"type":"Point"}
}