{
  "id": 907083111,
  "type": "Feature",
  "properties": {
    "clustr:alpha":0.05,
    "clustr:area":30.23,
    "clustr:count":10,
    "clustr:density":0.33,
    "clustr:perimeter":0.21,
    "edtf:cessation":"uuuu",
    "edtf:inception":"uuuu",
    "geom:area":0.0,
    "geom:bbox":"6.40694952011,53.125164032,6.40837621689,53.1256752014",
    "geom:latitude":53.125416,
    "geom:longitude":6.407582,
    "iso:country":"NL",
    "mz:hierarchy_label":1,
    "mz:is_approximate":1,
    "mz:is_clustr":1,
    "src:geom":"oa",
    "wof:belongsto":[
        102191581,
        404474609,
        85633337,
        85687051
    ],
    "wof:breaches":[],
    "wof:country":"NL",
    "wof:created":1469698418,
    "wof:geomhash":"df75e8993a5f0e3e3d3283048fa47f4f",
    "wof:hierarchy":[
        {
            "continent_id":102191581,
            "country_id":85633337,
            "localadmin_id":404474609,
            "postalcode_id":907083111,
            "region_id":85687051
        }
    ],
    "wof:id":907083111,
    "wof:lastmodified":1469698418,
    "wof:name":"9302CE",
    "wof:parent_id":404474609,
    "wof:placetype":"postalcode",
    "wof:repo":"whosonfirst-data-postalcode-nl",
    "wof:superseded_by":[],
    "wof:supersedes":[],
    "wof:tags":[]
},
  "bbox": [
    6.406949520111084,
    53.12516403198242,
    6.408376216888428,
    53.125675201416016
],
  "geometry": {"coordinates":[[[6.40709114074707,53.12549591064453],[6.40694952011108,53.12567520141602],[6.40837621688843,53.12540817260742],[6.40746402740479,53.12516403198242],[6.40740919113159,53.12520980834961],[6.40732097625732,53.12528610229492],[6.40709114074707,53.12549591064453]]],"type":"Polygon"}
}