{
  "id": 890925379,
  "type": "Feature",
  "properties": {
    "clustr:alpha":0.05,
    "clustr:area":25.45,
    "clustr:count":19,
    "clustr:density":0.75,
    "clustr:perimeter":0.22,
    "edtf:cessation":"uuuu",
    "edtf:inception":"uuuu",
    "geom:area":0.0,
    "geom:bbox":"5.29957389832,52.0571899414,5.30091333389,52.0578651428",
    "geom:latitude":52.057518,
    "geom:longitude":5.300198,
    "iso:country":"NL",
    "mz:hierarchy_label":1,
    "mz:is_approximate":1,
    "mz:is_clustr":1,
    "src:geom":"oa",
    "wof:belongsto":[
        85687039,
        102191581,
        404474547,
        85633337,
        101806999
    ],
    "wof:breaches":[],
    "wof:country":"NL",
    "wof:created":1469680276,
    "wof:geomhash":"de442218ba6acb7956d3f921f476c136",
    "wof:hierarchy":[
        {
            "continent_id":102191581,
            "country_id":85633337,
            "localadmin_id":404474547,
            "locality_id":101806999,
            "postalcode_id":890925379,
            "region_id":85687039
        }
    ],
    "wof:id":890925379,
    "wof:lastmodified":1469680276,
    "wof:name":"3971AJ",
    "wof:parent_id":101806999,
    "wof:placetype":"postalcode",
    "wof:repo":"whosonfirst-data-postalcode-nl",
    "wof:superseded_by":[],
    "wof:supersedes":[],
    "wof:tags":[]
},
  "bbox": [
    5.29957389831543,
    52.05718994140625,
    5.300913333892822,
    52.057865142822266
],
  "geometry": {"coordinates":[[[5.30056428909302,52.05774688720703],[5.30091333389282,52.05786514282227],[5.30082654953003,52.05777359008789],[5.30037498474121,52.05752944946289],[5.29958820343018,52.05718994140625],[5.29957389831543,52.05728912353516],[5.30034589767456,52.05764770507812],[5.30056428909302,52.05774688720703]]],"type":"Polygon"}
}