{
  "id": 890726287,
  "type": "Feature",
  "properties": {
    "clustr:alpha":0.05,
    "clustr:area":129.04,
    "clustr:count":25,
    "clustr:density":0.19,
    "clustr:perimeter":0.19,
    "edtf:cessation":"uuuu",
    "edtf:inception":"uuuu",
    "geom:area":0.000001,
    "geom:bbox":"4.39537382126,52.1007995605,4.3969335556,52.1013336182",
    "geom:latitude":52.101081,
    "geom:longitude":4.396165,
    "iso:country":"NL",
    "mz:hierarchy_label":1,
    "mz:is_approximate":1,
    "mz:is_clustr":1,
    "src:geom":"oa",
    "wof:belongsto":[
        85687041,
        102191581,
        404474685,
        85633337,
        101754679
    ],
    "wof:breaches":[],
    "wof:country":"NL",
    "wof:created":1469672396,
    "wof:geomhash":"04999c7019f98cdc0b2eab3f1765e432",
    "wof:hierarchy":[
        {
            "continent_id":102191581,
            "country_id":85633337,
            "localadmin_id":404474685,
            "locality_id":101754679,
            "postalcode_id":890726287,
            "region_id":85687041
        }
    ],
    "wof:id":890726287,
    "wof:lastmodified":1469672396,
    "wof:name":"2261HE",
    "wof:parent_id":101754679,
    "wof:placetype":"postalcode",
    "wof:repo":"whosonfirst-data-postalcode-nl",
    "wof:superseded_by":[],
    "wof:supersedes":[],
    "wof:tags":[]
},
  "bbox": [
    4.395373821258545,
    52.100799560546875,
    4.396933555603027,
    52.10133361816406
],
  "geometry": {"coordinates":[[[4.3964376449585,52.10133361816406],[4.39674997329712,52.10107040405273],[4.39688587188721,52.1009521484375],[4.39693355560303,52.10091018676758],[4.39597320556641,52.10079956054688],[4.39553308486938,52.10114288330078],[4.39542579650879,52.10123443603516],[4.39537382125854,52.10128021240234],[4.3964376449585,52.10133361816406]]],"type":"Polygon"}
}