{
  "id": 891234871,
  "type": "Feature",
  "properties": {
    "clustr:alpha":0.05,
    "clustr:area":301.58,
    "clustr:count":18,
    "clustr:density":0.06,
    "clustr:perimeter":0.3,
    "edtf:cessation":"uuuu",
    "edtf:inception":"uuuu",
    "geom:area":0.000001,
    "geom:bbox":"6.63381004333,52.1962547302,6.63685703278,52.1969566345",
    "geom:latitude":52.196695,
    "geom:longitude":6.635077,
    "iso:country":"NL",
    "mz:hierarchy_label":1,
    "mz:is_approximate":1,
    "mz:is_clustr":1,
    "src:geom":"oa",
    "wof:belongsto":[
        102191581,
        404474653,
        85633337,
        85687045
    ],
    "wof:breaches":[],
    "wof:country":"NL",
    "wof:created":1469692802,
    "wof:geomhash":"bc8d6e8b75ac6f22e353d928e906c7ce",
    "wof:hierarchy":[
        {
            "continent_id":102191581,
            "country_id":85633337,
            "localadmin_id":404474653,
            "postalcode_id":891234871,
            "region_id":85687045
        }
    ],
    "wof:id":891234871,
    "wof:lastmodified":1469692802,
    "wof:name":"7496BE",
    "wof:parent_id":404474653,
    "wof:placetype":"postalcode",
    "wof:repo":"whosonfirst-data-postalcode-nl",
    "wof:superseded_by":[],
    "wof:supersedes":[],
    "wof:tags":[]
},
  "bbox": [
    6.633810043334961,
    52.19625473022461,
    6.636857032775879,
    52.196956634521484
],
  "geometry": {"coordinates":[[[6.63674020767212,52.19695663452148],[6.63685703277588,52.19694519042969],[6.63664150238037,52.19679641723633],[6.63426351547241,52.19625473022461],[6.63392210006714,52.19659805297852],[6.63381004333496,52.1967887878418],[6.63425254821777,52.1969108581543],[6.63674020767212,52.19695663452148]]],"type":"Polygon"}
}