{
  "id": 890893151,
  "type": "Feature",
  "properties": {
    "clustr:alpha":0.05,
    "clustr:area":5.71,
    "clustr:count":19,
    "clustr:density":3.33,
    "clustr:perimeter":0.12,
    "edtf:cessation":"uuuu",
    "edtf:inception":"uuuu",
    "geom:area":0.0,
    "geom:bbox":"5.17766809464,52.1082572937,5.17803430557,52.1088104248",
    "geom:latitude":52.108536,
    "geom:longitude":5.177859,
    "iso:country":"NL",
    "mz:hierarchy_label":1,
    "mz:is_approximate":1,
    "mz:is_clustr":1,
    "src:geom":"oa",
    "wof:belongsto":[
        85687039,
        102191581,
        404473975,
        85633337,
        101837653
    ],
    "wof:breaches":[],
    "wof:country":"NL",
    "wof:created":1469678815,
    "wof:geomhash":"5efbf4aa14e9998014984df540615a3a",
    "wof:hierarchy":[
        {
            "continent_id":102191581,
            "country_id":85633337,
            "localadmin_id":404473975,
            "locality_id":101837653,
            "postalcode_id":890893151,
            "region_id":85687039
        }
    ],
    "wof:id":890893151,
    "wof:lastmodified":1469678815,
    "wof:name":"3731TK",
    "wof:parent_id":101837653,
    "wof:placetype":"postalcode",
    "wof:repo":"whosonfirst-data-postalcode-nl",
    "wof:superseded_by":[],
    "wof:supersedes":[],
    "wof:tags":[]
},
  "bbox": [
    5.17766809463501,
    52.10825729370117,
    5.17803430557251,
    52.10881042480469
],
  "geometry": {"coordinates":[[[5.17797708511353,52.10870742797852],[5.17783212661743,52.10848236083984],[5.17774868011475,52.10836410522461],[5.17766809463501,52.10825729370117],[5.17803430557251,52.10881042480469],[5.17797708511353,52.10870742797852]]],"type":"Polygon"}
}