{
  "id": 907082075,
  "type": "Feature",
  "properties": {
    "clustr:alpha":0.05,
    "clustr:area":2.84,
    "clustr:count":8,
    "clustr:density":2.82,
    "clustr:perimeter":0.07,
    "edtf:cessation":"uuuu",
    "edtf:inception":"uuuu",
    "geom:area":0.0,
    "geom:bbox":"6.11394119263,53.2801513672,6.1140332222,53.2806968689",
    "geom:latitude":53.28045,
    "geom:longitude":6.113992,
    "iso:country":"NL",
    "mz:hierarchy_label":1,
    "mz:is_approximate":1,
    "mz:is_clustr":1,
    "src:geom":"oa",
    "wof:belongsto":[
        102191581,
        404473773,
        85633337,
        85687055
    ],
    "wof:breaches":[],
    "wof:country":"NL",
    "wof:created":1469698339,
    "wof:geomhash":"4610defb7bfef7e1850d57dc9e5aa33b",
    "wof:hierarchy":[
        {
            "continent_id":102191581,
            "country_id":85633337,
            "localadmin_id":404473773,
            "postalcode_id":907082075,
            "region_id":85687055
        }
    ],
    "wof:id":907082075,
    "wof:lastmodified":1469698339,
    "wof:name":"9294KL",
    "wof:parent_id":404473773,
    "wof:placetype":"postalcode",
    "wof:repo":"whosonfirst-data-postalcode-nl",
    "wof:superseded_by":[],
    "wof:supersedes":[],
    "wof:tags":[]
},
  "bbox": [
    6.113941192626953,
    53.2801513671875,
    6.114033222198486,
    53.280696868896484
],
  "geometry": {"coordinates":[[[6.11402273178101,53.28064346313477],[6.11403322219849,53.28069686889648],[6.11400747299194,53.28053283691406],[6.11399841308594,53.28047943115234],[6.11394119262695,53.2801513671875],[6.11394929885864,53.28020477294922],[6.11402273178101,53.28064346313477]]],"type":"Polygon"}
}