{
  "id": 891220469,
  "type": "Feature",
  "properties": {
    "clustr:alpha":0.05,
    "clustr:area":151.61,
    "clustr:count":13,
    "clustr:density":0.09,
    "clustr:perimeter":0.3,
    "edtf:cessation":"uuuu",
    "edtf:inception":"uuuu",
    "geom:area":0.000001,
    "geom:bbox":"5.89891672134,52.1219749451,5.90084075928,52.1233978271",
    "geom:latitude":52.122627,
    "geom:longitude":5.899845,
    "iso:country":"NL",
    "mz:hierarchy_label":1,
    "mz:is_approximate":1,
    "mz:is_clustr":1,
    "src:geom":"oa",
    "wof:belongsto":[
        102191581,
        404473867,
        85633337,
        85687043
    ],
    "wof:breaches":[],
    "wof:country":"NL",
    "wof:created":1469692241,
    "wof:geomhash":"746775dd36de22f8f909b72e751ff358",
    "wof:hierarchy":[
        {
            "continent_id":102191581,
            "country_id":85633337,
            "localadmin_id":404473867,
            "postalcode_id":891220469,
            "region_id":85687043
        }
    ],
    "wof:id":891220469,
    "wof:lastmodified":1469692241,
    "wof:name":"7351BT",
    "wof:parent_id":404473867,
    "wof:placetype":"postalcode",
    "wof:repo":"whosonfirst-data-postalcode-nl",
    "wof:superseded_by":[],
    "wof:supersedes":[],
    "wof:tags":[]
},
  "bbox": [
    5.898916721343994,
    52.12197494506836,
    5.900840759277344,
    52.12339782714844
],
  "geometry": {"coordinates":[[[5.89891672134399,52.12294769287109],[5.89925479888916,52.12339782714844],[5.89986944198608,52.12307739257812],[5.8999490737915,52.1230354309082],[5.9002628326416,52.12277221679688],[5.9005184173584,52.12249755859375],[5.90084075927734,52.12202072143555],[5.90005159378052,52.12197494506836],[5.89891672134399,52.12294769287109]]],"type":"Polygon"}
}