{
  "id": 891283773,
  "type": "Feature",
  "properties": {
    "clustr:alpha":0.05,
    "clustr:area":65.21,
    "clustr:count":13,
    "clustr:density":0.2,
    "clustr:perimeter":0.11,
    "edtf:cessation":"uuuu",
    "edtf:inception":"uuuu",
    "geom:area":0.0,
    "geom:bbox":"6.0994977951,52.4873313904,6.10016870499,52.4879455566",
    "geom:latitude":52.487665,
    "geom:longitude":6.099847,
    "iso:country":"NL",
    "mz:hierarchy_label":1,
    "mz:is_approximate":1,
    "mz:is_clustr":1,
    "src:geom":"oa",
    "wof:belongsto":[
        85687045,
        102191581,
        404473861,
        85633337,
        101751861
    ],
    "wof:breaches":[],
    "wof:country":"NL",
    "wof:created":1469694898,
    "wof:geomhash":"dce0c3ec314c9ce8dccdeb78f31a76b5",
    "wof:hierarchy":[
        {
            "continent_id":102191581,
            "country_id":85633337,
            "localadmin_id":404473861,
            "locality_id":101751861,
            "postalcode_id":891283773,
            "region_id":85687045
        }
    ],
    "wof:id":891283773,
    "wof:lastmodified":1469694898,
    "wof:name":"8016DE",
    "wof:parent_id":101751861,
    "wof:placetype":"postalcode",
    "wof:repo":"whosonfirst-data-postalcode-nl",
    "wof:superseded_by":[],
    "wof:supersedes":[],
    "wof:tags":[]
},
  "bbox": [
    6.09949779510498,
    52.48733139038086,
    6.100168704986572,
    52.487945556640625
],
  "geometry": {"coordinates":[[[6.09955787658691,52.48794555664062],[6.10005521774292,52.48757553100586],[6.10016870498657,52.48733139038086],[6.09957599639893,52.48783874511719],[6.09949779510498,52.48793411254883],[6.09955787658691,52.48794555664062]]],"type":"Polygon"}
}