{
  "id": 891185189,
  "type": "Feature",
  "properties": {
    "clustr:alpha":0.05,
    "clustr:area":3.4,
    "clustr:count":20,
    "clustr:density":5.88,
    "clustr:perimeter":0.67,
    "edtf:cessation":"uuuu",
    "edtf:inception":"uuuu",
    "geom:area":0.000001,
    "geom:bbox":"6.10557746887,51.8525276184,6.11009931564,51.8533363342",
    "geom:latitude":51.852941,
    "geom:longitude":6.107942,
    "iso:country":"NL",
    "mz:hierarchy_label":1,
    "mz:is_approximate":1,
    "mz:is_clustr":1,
    "src:geom":"oa",
    "wof:belongsto":[
        85687043,
        102191581,
        404473863,
        85633337,
        101837777
    ],
    "wof:breaches":[],
    "wof:country":"NL",
    "wof:created":1469690812,
    "wof:geomhash":"0757fb469c1b2a5240c1060298c247c7",
    "wof:hierarchy":[
        {
            "continent_id":102191581,
            "country_id":85633337,
            "localadmin_id":404473863,
            "locality_id":101837777,
            "postalcode_id":891185189,
            "region_id":85687043
        }
    ],
    "wof:id":891185189,
    "wof:lastmodified":1469690812,
    "wof:name":"6916AN",
    "wof:parent_id":101837777,
    "wof:placetype":"postalcode",
    "wof:repo":"whosonfirst-data-postalcode-nl",
    "wof:superseded_by":[],
    "wof:supersedes":[],
    "wof:tags":[]
},
  "bbox": [
    6.10557746887207,
    51.8525276184082,
    6.110099315643311,
    51.853336334228516
],
  "geometry": {"coordinates":[[[6.10560989379883,51.85333633422852],[6.11009931564331,51.8529052734375],[6.10971546173096,51.8525276184082],[6.10580730438232,51.8530387878418],[6.10557746887207,51.85329818725586],[6.10560989379883,51.85333633422852]]],"type":"Polygon"}
}