{
  "id": 890661363,
  "type": "Feature",
  "properties": {
    "clustr:alpha":0.05,
    "clustr:area":32.94,
    "clustr:count":31,
    "clustr:density":0.94,
    "clustr:perimeter":0.25,
    "edtf:cessation":"uuuu",
    "edtf:inception":"uuuu",
    "geom:area":0.0,
    "geom:bbox":"5.05978393555,52.6393699646,5.06168460846,52.6396064758",
    "geom:latitude":52.639465,
    "geom:longitude":5.060525,
    "iso:country":"NL",
    "mz:hierarchy_label":1,
    "mz:is_approximate":1,
    "mz:is_clustr":1,
    "src:geom":"oa",
    "wof:belongsto":[
        85687053,
        102191581,
        404474083,
        85633337,
        101751883
    ],
    "wof:breaches":[],
    "wof:country":"NL",
    "wof:created":1469669524,
    "wof:geomhash":"cbcdb161653ffecad60e716e92521d2e",
    "wof:hierarchy":[
        {
            "continent_id":102191581,
            "country_id":85633337,
            "localadmin_id":404474083,
            "locality_id":101751883,
            "postalcode_id":890661363,
            "region_id":85687053
        }
    ],
    "wof:id":890661363,
    "wof:lastmodified":1469669524,
    "wof:name":"1621BR",
    "wof:parent_id":101751883,
    "wof:placetype":"postalcode",
    "wof:repo":"whosonfirst-data-postalcode-nl",
    "wof:superseded_by":[],
    "wof:supersedes":[],
    "wof:tags":[]
},
  "bbox": [
    5.059783935546875,
    52.63936996459961,
    5.061684608459473,
    52.63960647583008
],
  "geometry": {"coordinates":[[[5.06006479263306,52.63945007324219],[5.06168460845947,52.63960647583008],[5.06144666671753,52.63956832885742],[5.0612998008728,52.63954544067383],[5.0609278678894,52.63948822021484],[5.06069707870483,52.63945388793945],[5.06058406829834,52.63943862915039],[5.06030988693237,52.639404296875],[5.06003332138062,52.63937377929688],[5.05978393554688,52.63936996459961],[5.05978536605835,52.63939666748047],[5.06006479263306,52.63945007324219]]],"type":"Polygon"}
}