{
  "id": 891115489,
  "type": "Feature",
  "properties": {
    "clustr:alpha":0.05,
    "clustr:area":40.2,
    "clustr:count":13,
    "clustr:density":0.32,
    "clustr:perimeter":0.17,
    "edtf:cessation":"uuuu",
    "edtf:inception":"uuuu",
    "geom:area":0.0,
    "geom:bbox":"5.87937355042,51.0073776245,5.88063907623,51.007648468",
    "geom:latitude":51.007517,
    "geom:longitude":5.879987,
    "iso:country":"NL",
    "mz:hierarchy_label":1,
    "mz:is_approximate":1,
    "mz:is_clustr":1,
    "src:geom":"oa",
    "wof:belongsto":[
        85687033,
        102191581,
        404474675,
        85633337,
        101839313
    ],
    "wof:breaches":[],
    "wof:country":"NL",
    "wof:created":1469687856,
    "wof:geomhash":"9d25535ddd34a089916700d8ceb51426",
    "wof:hierarchy":[
        {
            "continent_id":102191581,
            "country_id":85633337,
            "localadmin_id":404474675,
            "locality_id":101839313,
            "postalcode_id":891115489,
            "region_id":85687033
        }
    ],
    "wof:id":891115489,
    "wof:lastmodified":1469687856,
    "wof:name":"6136TC",
    "wof:parent_id":101839313,
    "wof:placetype":"postalcode",
    "wof:repo":"whosonfirst-data-postalcode-nl",
    "wof:superseded_by":[],
    "wof:supersedes":[],
    "wof:tags":[]
},
  "bbox": [
    5.879373550415039,
    51.00737762451172,
    5.88063907623291,
    51.00764846801758
],
  "geometry": {"coordinates":[[[5.87964248657227,51.00746917724609],[5.87937355041504,51.00764083862305],[5.87963008880615,51.00764846801758],[5.87987232208252,51.00764083862305],[5.88011407852173,51.00760269165039],[5.88032722473145,51.00754928588867],[5.88048315048218,51.00749206542969],[5.88063907623291,51.00743103027344],[5.88019704818726,51.00737762451172],[5.87995529174805,51.00741577148438],[5.87964248657227,51.00746917724609]]],"type":"Polygon"}
}