{
  "id": 891283193,
  "type": "Feature",
  "properties": {
    "clustr:alpha":0.05,
    "clustr:area":0.84,
    "clustr:count":16,
    "clustr:density":18.99,
    "clustr:perimeter":0.18,
    "edtf:cessation":"uuuu",
    "edtf:inception":"uuuu",
    "geom:area":0.0,
    "geom:bbox":"6.11751413345,52.484249115,6.11844015121,52.4847793579",
    "geom:latitude":52.484566,
    "geom:longitude":6.117877,
    "iso:country":"NL",
    "mz:hierarchy_label":1,
    "mz:is_approximate":1,
    "mz:is_clustr":1,
    "src:geom":"oa",
    "wof:belongsto":[
        85687045,
        102191581,
        404473861,
        85633337,
        101751861
    ],
    "wof:breaches":[],
    "wof:country":"NL",
    "wof:created":1469694870,
    "wof:geomhash":"4c648ec1ccd83367afa27af7048eb388",
    "wof:hierarchy":[
        {
            "continent_id":102191581,
            "country_id":85633337,
            "localadmin_id":404473861,
            "locality_id":101751861,
            "postalcode_id":891283193,
            "region_id":85687045
        }
    ],
    "wof:id":891283193,
    "wof:lastmodified":1469694870,
    "wof:name":"8014MB",
    "wof:parent_id":101751861,
    "wof:placetype":"postalcode",
    "wof:repo":"whosonfirst-data-postalcode-nl",
    "wof:superseded_by":[],
    "wof:supersedes":[],
    "wof:tags":[]
},
  "bbox": [
    6.117514133453369,
    52.484249114990234,
    6.1184401512146,
    52.484779357910156
],
  "geometry": {"coordinates":[[[6.11752796173096,52.48457336425781],[6.11755084991455,52.48462295532227],[6.11806726455688,52.48477172851562],[6.11827182769775,52.48477935791016],[6.1184401512146,52.48474502563477],[6.1175856590271,52.48424911499023],[6.11755704879761,52.48430252075195],[6.11751413345337,52.48451614379883],[6.11752796173096,52.48457336425781]]],"type":"Polygon"}
}