{
  "id": 891289091,
  "type": "Feature",
  "properties": {
    "clustr:alpha":0.05,
    "clustr:area":7.54,
    "clustr:count":13,
    "clustr:density":1.72,
    "clustr:perimeter":0.14,
    "edtf:cessation":"uuuu",
    "edtf:inception":"uuuu",
    "geom:area":0.0,
    "geom:bbox":"6.10045337677,52.5903739929,6.1008105278,52.5910491943",
    "geom:latitude":52.590715,
    "geom:longitude":6.100633,
    "iso:country":"NL",
    "mz:hierarchy_label":1,
    "mz:is_approximate":1,
    "mz:is_clustr":1,
    "src:geom":"oa",
    "wof:belongsto":[
        85687045,
        102191581,
        404474683,
        85633337,
        101807183
    ],
    "wof:breaches":[],
    "wof:country":"NL",
    "wof:created":1469695121,
    "wof:geomhash":"72532e0b023326c7094ef198a7a56530",
    "wof:hierarchy":[
        {
            "continent_id":102191581,
            "country_id":85633337,
            "localadmin_id":404474683,
            "locality_id":101807183,
            "postalcode_id":891289091,
            "region_id":85687045
        }
    ],
    "wof:id":891289091,
    "wof:lastmodified":1469695121,
    "wof:name":"8061CR",
    "wof:parent_id":101807183,
    "wof:placetype":"postalcode",
    "wof:repo":"whosonfirst-data-postalcode-nl",
    "wof:superseded_by":[],
    "wof:supersedes":[],
    "wof:tags":[]
},
  "bbox": [
    6.10045337677002,
    52.59037399291992,
    6.100810527801514,
    52.59104919433594
],
  "geometry": {"coordinates":[[[6.10072946548462,52.59088897705078],[6.10061311721802,52.59067153930664],[6.10045337677002,52.59037399291992],[6.10053873062134,52.59054183959961],[6.10056638717651,52.59059524536133],[6.10081052780151,52.59104919433594],[6.10072946548462,52.59088897705078]]],"type":"Polygon"}
}