{
  "id": 890685421,
  "type": "Feature",
  "properties": {
    "clustr:alpha":0.05,
    "clustr:area":8.86,
    "clustr:count":21,
    "clustr:density":2.37,
    "clustr:perimeter":0.22,
    "edtf:cessation":"uuuu",
    "edtf:inception":"uuuu",
    "geom:area":0.0,
    "geom:bbox":"4.75063276291,52.6759796143,4.75223302841,52.6762390137",
    "geom:latitude":52.676107,
    "geom:longitude":4.751444,
    "iso:country":"NL",
    "mz:hierarchy_label":1,
    "mz:is_approximate":1,
    "mz:is_clustr":1,
    "src:geom":"oa",
    "wof:belongsto":[
        85687053,
        102191581,
        404474025,
        85633337,
        101751887
    ],
    "wof:breaches":[],
    "wof:country":"NL",
    "wof:created":1469670604,
    "wof:geomhash":"438e0c2e51c2a7ba0c4f77d98eb23828",
    "wof:hierarchy":[
        {
            "continent_id":102191581,
            "country_id":85633337,
            "localadmin_id":404474025,
            "locality_id":101751887,
            "postalcode_id":890685421,
            "region_id":85687053
        }
    ],
    "wof:id":890685421,
    "wof:lastmodified":1469670604,
    "wof:name":"1831EN",
    "wof:parent_id":101751887,
    "wof:placetype":"postalcode",
    "wof:repo":"whosonfirst-data-postalcode-nl",
    "wof:superseded_by":[],
    "wof:supersedes":[],
    "wof:tags":[]
},
  "bbox": [
    4.750632762908936,
    52.67597961425781,
    4.752233028411865,
    52.676239013671875
],
  "geometry": {"coordinates":[[[4.75191354751587,52.67599487304688],[4.75184011459351,52.67599868774414],[4.75063276290894,52.67620468139648],[4.75068187713623,52.67623901367188],[4.75099563598633,52.67621994018555],[4.7522292137146,52.67601776123047],[4.75223302841187,52.67597961425781],[4.75191354751587,52.67599487304688]]],"type":"Polygon"}
}