{
  "id": 890956721,
  "type": "Feature",
  "properties": {
    "clustr:alpha":0.05,
    "clustr:area":43.02,
    "clustr:count":32,
    "clustr:density":0.74,
    "clustr:perimeter":0.26,
    "edtf:cessation":"uuuu",
    "edtf:inception":"uuuu",
    "geom:area":0.0,
    "geom:bbox":"3.95321702957,51.4773406982,3.95490980148,51.4780654907",
    "geom:latitude":51.477699,
    "geom:longitude":3.95405,
    "iso:country":"NL",
    "mz:hierarchy_label":1,
    "mz:is_approximate":1,
    "mz:is_clustr":1,
    "src:geom":"oa",
    "wof:belongsto":[
        102191581,
        404474309,
        85633337,
        85687037
    ],
    "wof:breaches":[],
    "wof:country":"NL",
    "wof:created":1469681473,
    "wof:geomhash":"df55000eb69c9f48d73d1a8ef7fa56a5",
    "wof:hierarchy":[
        {
            "continent_id":102191581,
            "country_id":85633337,
            "localadmin_id":404474309,
            "postalcode_id":890956721,
            "region_id":85687037
        }
    ],
    "wof:id":890956721,
    "wof:lastmodified":1469681473,
    "wof:name":"4421TH",
    "wof:parent_id":404474309,
    "wof:placetype":"postalcode",
    "wof:repo":"whosonfirst-data-postalcode-nl",
    "wof:superseded_by":[],
    "wof:supersedes":[],
    "wof:tags":[]
},
  "bbox": [
    3.953217029571533,
    51.47734069824219,
    3.954909801483154,
    51.478065490722656
],
  "geometry": {"coordinates":[[[3.9535768032074,51.47806549072266],[3.95366191864014,51.47803497314453],[3.95490980148315,51.47753524780273],[3.954514503479,51.47734069824219],[3.9539225101471,51.47755432128906],[3.95369100570679,51.47764205932617],[3.95321702957153,51.47790908813477],[3.9535768032074,51.47806549072266]]],"type":"Polygon"}
}