{
  "id": 890915091,
  "type": "Feature",
  "properties": {
    "clustr:alpha":0.05,
    "clustr:area":10.81,
    "clustr:count":19,
    "clustr:density":1.76,
    "clustr:perimeter":0.35,
    "edtf:cessation":"uuuu",
    "edtf:inception":"uuuu",
    "geom:area":0.000001,
    "geom:bbox":"5.45424604416,52.1743049622,5.45665836334,52.1746559143",
    "geom:latitude":52.174483,
    "geom:longitude":5.455416,
    "iso:country":"NL",
    "mz:hierarchy_label":1,
    "mz:is_approximate":1,
    "mz:is_clustr":1,
    "src:geom":"oa",
    "wof:belongsto":[
        85687043,
        102191581,
        404473921,
        85633337,
        101807081
    ],
    "wof:breaches":[],
    "wof:country":"NL",
    "wof:created":1469679821,
    "wof:geomhash":"f854d69166e663f36638ca08c125d217",
    "wof:hierarchy":[
        {
            "continent_id":102191581,
            "country_id":85633337,
            "localadmin_id":404473921,
            "locality_id":101807081,
            "postalcode_id":890915091,
            "region_id":85687043
        }
    ],
    "wof:id":890915091,
    "wof:lastmodified":1469679821,
    "wof:name":"3871HA",
    "wof:parent_id":101807081,
    "wof:placetype":"postalcode",
    "wof:repo":"whosonfirst-data-postalcode-nl",
    "wof:superseded_by":[],
    "wof:supersedes":[],
    "wof:tags":[]
},
  "bbox": [
    5.454246044158936,
    52.1743049621582,
    5.456658363342285,
    52.17465591430664
],
  "geometry": {"coordinates":[[[5.45466947555542,52.1743049621582],[5.45424604415894,52.17458343505859],[5.45442152023315,52.17460250854492],[5.4548454284668,52.17462921142578],[5.4554009437561,52.17465591430664],[5.45665836334229,52.17460250854492],[5.45614624023438,52.17433166503906],[5.45554685592651,52.1743049621582],[5.45475721359253,52.1743049621582],[5.45466947555542,52.1743049621582]]],"type":"Polygon"}
}