{
  "id": 890612447,
  "type": "Feature",
  "properties": {
    "clustr:alpha":0.05,
    "clustr:area":84.31,
    "clustr:count":68,
    "clustr:density":0.81,
    "clustr:perimeter":0.33,
    "edtf:cessation":"uuuu",
    "edtf:inception":"uuuu",
    "geom:area":0.000001,
    "geom:bbox":"5.10121917725,52.4598655701,5.10305833817,52.4608535767",
    "geom:latitude":52.460347,
    "geom:longitude":5.102131,
    "iso:country":"NL",
    "mz:hierarchy_label":1,
    "mz:is_approximate":1,
    "mz:is_clustr":1,
    "src:geom":"oa",
    "wof:belongsto":[
        85687053,
        102191581,
        404474433,
        85633337,
        101855417
    ],
    "wof:breaches":[],
    "wof:country":"NL",
    "wof:created":1469667339,
    "wof:geomhash":"827196e6c8616c940e9bb370a949fbfb",
    "wof:hierarchy":[
        {
            "continent_id":102191581,
            "country_id":85633337,
            "localadmin_id":404474433,
            "locality_id":101855417,
            "postalcode_id":890612447,
            "region_id":85687053
        }
    ],
    "wof:id":890612447,
    "wof:lastmodified":1469667339,
    "wof:name":"1156AK",
    "wof:parent_id":101855417,
    "wof:placetype":"postalcode",
    "wof:repo":"whosonfirst-data-postalcode-nl",
    "wof:superseded_by":[],
    "wof:supersedes":[],
    "wof:tags":[]
},
  "bbox": [
    5.101219177246094,
    52.45986557006836,
    5.103058338165283,
    52.460853576660156
],
  "geometry": {"coordinates":[[[5.10173082351685,52.45989608764648],[5.10121917724609,52.46002960205078],[5.10138607025146,52.46039199829102],[5.10152387619019,52.46067810058594],[5.10251569747925,52.46085357666016],[5.10305833816528,52.46066284179688],[5.10258340835571,52.45993041992188],[5.10242748260498,52.45986557006836],[5.10173082351685,52.45989608764648]]],"type":"Polygon"}
}