{
  "id": 891164955,
  "type": "Feature",
  "properties": {
    "clustr:alpha":0.05,
    "clustr:area":104.92,
    "clustr:count":21,
    "clustr:density":0.2,
    "clustr:perimeter":0.45,
    "edtf:cessation":"uuuu",
    "edtf:inception":"uuuu",
    "geom:area":0.000001,
    "geom:bbox":"5.96899080276,51.8768081665,5.96977710724,51.8791809082",
    "geom:latitude":51.87814,
    "geom:longitude":5.969258,
    "iso:country":"NL",
    "mz:hierarchy_label":1,
    "mz:is_approximate":1,
    "mz:is_clustr":1,
    "src:geom":"oa",
    "wof:belongsto":[
        85687043,
        102191581,
        404474617,
        85633337,
        101808689
    ],
    "wof:breaches":[],
    "wof:country":"NL",
    "wof:created":1469689977,
    "wof:geomhash":"7d02cec6e3bf2fe2a3107ba02f957fdd",
    "wof:hierarchy":[
        {
            "continent_id":102191581,
            "country_id":85633337,
            "localadmin_id":404474617,
            "locality_id":101808689,
            "postalcode_id":891164955,
            "region_id":85687043
        }
    ],
    "wof:id":891164955,
    "wof:lastmodified":1469689977,
    "wof:name":"6691XX",
    "wof:parent_id":101808689,
    "wof:placetype":"postalcode",
    "wof:repo":"whosonfirst-data-postalcode-nl",
    "wof:superseded_by":[],
    "wof:supersedes":[],
    "wof:tags":[]
},
  "bbox": [
    5.968990802764893,
    51.876808166503906,
    5.96977710723877,
    51.879180908203125
],
  "geometry": {"coordinates":[[[5.96977710723877,51.8784294128418],[5.96899080276489,51.87680816650391],[5.96899127960205,51.87687683105469],[5.96900701522827,51.87918090820312],[5.96977710723877,51.8784294128418]]],"type":"Polygon"}
}