{
  "id": 890621525,
  "type": "Feature",
  "properties": {
    "clustr:alpha":0.05,
    "clustr:area":85.57,
    "clustr:count":19,
    "clustr:density":0.22,
    "clustr:perimeter":0.98,
    "edtf:cessation":"uuuu",
    "edtf:inception":"uuuu",
    "geom:area":0.000006,
    "geom:bbox":"5.1324429512,52.1982154846,5.13620185852,52.2021102905",
    "geom:latitude":52.19998,
    "geom:longitude":5.134231,
    "iso:country":"NL",
    "mz:hierarchy_label":1,
    "mz:is_approximate":1,
    "mz:is_clustr":1,
    "src:geom":"oa",
    "wof:belongsto":[
        85687053,
        102191581,
        404474605,
        85633337,
        101754835
    ],
    "wof:breaches":[],
    "wof:country":"NL",
    "wof:created":1469667764,
    "wof:geomhash":"58d64b4840697b1f4e2786e1425bc859",
    "wof:hierarchy":[
        {
            "continent_id":102191581,
            "country_id":85633337,
            "localadmin_id":404474605,
            "locality_id":101754835,
            "postalcode_id":890621525,
            "region_id":85687053
        }
    ],
    "wof:id":890621525,
    "wof:lastmodified":1469667764,
    "wof:name":"1231KM",
    "wof:parent_id":101754835,
    "wof:placetype":"postalcode",
    "wof:repo":"whosonfirst-data-postalcode-nl",
    "wof:superseded_by":[],
    "wof:supersedes":[],
    "wof:tags":[]
},
  "bbox": [
    5.132442951202393,
    52.19821548461914,
    5.136201858520508,
    52.202110290527344
],
  "geometry": {"coordinates":[[[5.1340594291687,52.19821548461914],[5.13244295120239,52.20208358764648],[5.1325159072876,52.20209503173828],[5.1325888633728,52.20210266113281],[5.13266181945801,52.20211029052734],[5.13620185852051,52.19952011108398],[5.13479280471802,52.19850540161133],[5.1340594291687,52.19821548461914]]],"type":"Polygon"}
}