{
  "id": 891271405,
  "type": "Feature",
  "properties": {
    "clustr:alpha":0.05,
    "clustr:area":113.86,
    "clustr:count":12,
    "clustr:density":0.11,
    "clustr:perimeter":1.14,
    "edtf:cessation":"uuuu",
    "edtf:inception":"uuuu",
    "geom:area":0.000008,
    "geom:bbox":"6.69015455246,52.7467155457,6.69556236267,52.7514762878",
    "geom:latitude":52.748494,
    "geom:longitude":6.692885,
    "iso:country":"NL",
    "mz:hierarchy_label":1,
    "mz:is_approximate":1,
    "mz:is_clustr":1,
    "src:geom":"oa",
    "wof:belongsto":[
        102191581,
        404473807,
        85633337,
        85687051
    ],
    "wof:breaches":[],
    "wof:country":"NL",
    "wof:created":1469694301,
    "wof:geomhash":"a448e4213f4ebfdcd8b9cec3db8c4d53",
    "wof:hierarchy":[
        {
            "continent_id":102191581,
            "country_id":85633337,
            "localadmin_id":404473807,
            "postalcode_id":891271405,
            "region_id":85687051
        }
    ],
    "wof:id":891271405,
    "wof:lastmodified":1469694301,
    "wof:name":"7863PE",
    "wof:parent_id":404473807,
    "wof:placetype":"postalcode",
    "wof:repo":"whosonfirst-data-postalcode-nl",
    "wof:superseded_by":[],
    "wof:supersedes":[],
    "wof:tags":[]
},
  "bbox": [
    6.690154552459717,
    52.7467155456543,
    6.695562362670898,
    52.7514762878418
],
  "geometry": {"coordinates":[[[6.69360971450806,52.7479362487793],[6.69282674789429,52.74696731567383],[6.69242668151855,52.7467155456543],[6.69185256958008,52.74673843383789],[6.69085645675659,52.74684524536133],[6.69015455245972,52.74725723266602],[6.6955623626709,52.7514762878418],[6.69477891921997,52.74966049194336],[6.69360971450806,52.7479362487793]]],"type":"Polygon"}
}