{
  "id": 890946367,
  "type": "Feature",
  "properties": {
    "clustr:alpha":0.05,
    "clustr:area":4.55,
    "clustr:count":23,
    "clustr:density":5.06,
    "clustr:perimeter":0.24,
    "edtf:cessation":"uuuu",
    "edtf:inception":"uuuu",
    "geom:area":0.0,
    "geom:bbox":"4.08767318726,51.6605453491,4.08876180649,51.6613197327",
    "geom:latitude":51.660927,
    "geom:longitude":4.088229,
    "iso:country":"NL",
    "mz:hierarchy_label":1,
    "mz:is_approximate":1,
    "mz:is_clustr":1,
    "src:geom":"oa",
    "wof:belongsto":[
        85687037,
        102191581,
        404474591,
        85633337,
        101808355
    ],
    "wof:breaches":[],
    "wof:country":"NL",
    "wof:created":1469681072,
    "wof:geomhash":"c33cf4e9a2027ea23fdefc0360e020dc",
    "wof:hierarchy":[
        {
            "continent_id":102191581,
            "country_id":85633337,
            "localadmin_id":404474591,
            "locality_id":101808355,
            "postalcode_id":890946367,
            "region_id":85687037
        }
    ],
    "wof:id":890946367,
    "wof:lastmodified":1469681072,
    "wof:name":"4311EW",
    "wof:parent_id":101808355,
    "wof:placetype":"postalcode",
    "wof:repo":"whosonfirst-data-postalcode-nl",
    "wof:superseded_by":[],
    "wof:supersedes":[],
    "wof:tags":[]
},
  "bbox": [
    4.087673187255859,
    51.660545349121094,
    4.088761806488037,
    51.661319732666016
],
  "geometry": {"coordinates":[[[4.08833837509155,51.66074371337891],[4.08767318725586,51.66054534912109],[4.08783102035522,51.66074371337891],[4.08787155151367,51.66079330444336],[4.08815050125122,51.6611213684082],[4.08876180648804,51.66131973266602],[4.08845901489258,51.66089630126953],[4.08837890625,51.66079330444336],[4.08833837509155,51.66074371337891]]],"type":"Polygon"}
}