{
  "id": 890663987,
  "type": "Feature",
  "properties": {
    "clustr:alpha":0.05,
    "clustr:area":9.22,
    "clustr:count":11,
    "clustr:density":1.19,
    "clustr:perimeter":1.7,
    "edtf:cessation":"uuuu",
    "edtf:inception":"uuuu",
    "geom:area":0.000005,
    "geom:bbox":"4.89021158218,52.6263847351,4.89235639572,52.635307312",
    "geom:latitude":52.630917,
    "geom:longitude":4.891307,
    "iso:country":"NL",
    "mz:hierarchy_label":1,
    "mz:is_approximate":1,
    "mz:is_clustr":1,
    "src:geom":"oa",
    "wof:belongsto":[
        85687053,
        102191581,
        404474551,
        85633337,
        101807401
    ],
    "wof:breaches":[],
    "wof:country":"NL",
    "wof:created":1469669631,
    "wof:geomhash":"d2b8625e1aa6a63aed3a8a0e466f5661",
    "wof:hierarchy":[
        {
            "continent_id":102191581,
            "country_id":85633337,
            "localadmin_id":404474551,
            "locality_id":101807401,
            "postalcode_id":890663987,
            "region_id":85687053
        }
    ],
    "wof:id":890663987,
    "wof:lastmodified":1469669631,
    "wof:name":"1645VB",
    "wof:parent_id":101807401,
    "wof:placetype":"postalcode",
    "wof:repo":"whosonfirst-data-postalcode-nl",
    "wof:superseded_by":[],
    "wof:supersedes":[],
    "wof:tags":[]
},
  "bbox": [
    4.890211582183838,
    52.62638473510742,
    4.892356395721436,
    52.63530731201172
],
  "geometry": {"coordinates":[[[4.8921685218811,52.6324577331543],[4.89078760147095,52.62793350219727],[4.89036273956299,52.62657165527344],[4.89021158218384,52.62638473510742],[4.89071846008301,52.63064575195312],[4.89235639572144,52.63530731201172],[4.8921685218811,52.6324577331543]]],"type":"Polygon"}
}