{
  "id": 890932349,
  "type": "Feature",
  "properties": {
    "clustr:alpha":0.05,
    "clustr:area":22.78,
    "clustr:count":6,
    "clustr:density":0.26,
    "clustr:perimeter":0.14,
    "edtf:cessation":"uuuu",
    "edtf:inception":"uuuu",
    "geom:area":0.0,
    "geom:bbox":"5.57166004181,51.9380378723,5.57232189178,51.9385948181",
    "geom:latitude":51.938325,
    "geom:longitude":5.572007,
    "iso:country":"NL",
    "mz:hierarchy_label":1,
    "mz:is_approximate":1,
    "mz:is_clustr":1,
    "src:geom":"oa",
    "wof:belongsto":[
        85687043,
        102191581,
        404474655,
        85633337,
        101808713
    ],
    "wof:breaches":[],
    "wof:country":"NL",
    "wof:created":1469680537,
    "wof:geomhash":"a180a63d92c03d0dcc53d7c776d4e7bd",
    "wof:hierarchy":[
        {
            "continent_id":102191581,
            "country_id":85633337,
            "localadmin_id":404474655,
            "locality_id":101808713,
            "postalcode_id":890932349,
            "region_id":85687043
        }
    ],
    "wof:id":890932349,
    "wof:lastmodified":1469680537,
    "wof:name":"4041JG",
    "wof:parent_id":101808713,
    "wof:placetype":"postalcode",
    "wof:repo":"whosonfirst-data-postalcode-nl",
    "wof:superseded_by":[],
    "wof:supersedes":[],
    "wof:tags":[]
},
  "bbox": [
    5.571660041809082,
    51.93803787231445,
    5.572321891784668,
    51.938594818115234
],
  "geometry": {"coordinates":[[[5.57183504104614,51.93849182128906],[5.57218265533447,51.93820571899414],[5.57232189178467,51.93803787231445],[5.57188701629639,51.93840408325195],[5.57166004180908,51.93859481811523],[5.57183504104614,51.93849182128906]]],"type":"Polygon"}
}