{
  "id": 890888835,
  "type": "Feature",
  "properties": {
    "clustr:alpha":0.05,
    "clustr:area":3.02,
    "clustr:count":15,
    "clustr:density":4.97,
    "clustr:perimeter":0.08,
    "edtf:cessation":"uuuu",
    "edtf:inception":"uuuu",
    "geom:area":0.0,
    "geom:bbox":"4.90168476105,52.1991348267,4.90175819397,52.1995201111",
    "geom:latitude":52.19933,
    "geom:longitude":4.901716,
    "iso:country":"NL",
    "mz:hierarchy_label":1,
    "mz:is_approximate":1,
    "mz:is_clustr":1,
    "src:geom":"oa",
    "wof:belongsto":[
        85687039,
        102191581,
        404474341,
        85633337,
        101837677
    ],
    "wof:breaches":[],
    "wof:country":"NL",
    "wof:created":1469678633,
    "wof:geomhash":"1b5e35ae8af15bf20ec033dbe426e3d7",
    "wof:hierarchy":[
        {
            "continent_id":102191581,
            "country_id":85633337,
            "localadmin_id":404474341,
            "locality_id":101837677,
            "postalcode_id":890888835,
            "region_id":85687039
        }
    ],
    "wof:id":890888835,
    "wof:lastmodified":1469678633,
    "wof:name":"3648XC",
    "wof:parent_id":101837677,
    "wof:placetype":"postalcode",
    "wof:repo":"whosonfirst-data-postalcode-nl",
    "wof:superseded_by":[],
    "wof:supersedes":[],
    "wof:tags":[]
},
  "bbox": [
    4.901684761047363,
    52.199134826660156,
    4.901758193969727,
    52.199520111083984
],
  "geometry": {"coordinates":[[[4.90175771713257,52.19939422607422],[4.90175819396973,52.19934844970703],[4.90173435211182,52.19919967651367],[4.90168523788452,52.19913482666016],[4.90168476104736,52.19938278198242],[4.90169858932495,52.19948959350586],[4.90171384811401,52.19952011108398],[4.90173864364624,52.19945526123047],[4.90175771713257,52.19939422607422]]],"type":"Polygon"}
}