{
  "id": 891005369,
  "type": "Feature",
  "properties": {
    "clustr:alpha":0.05,
    "clustr:area":3.07,
    "clustr:count":14,
    "clustr:density":4.57,
    "clustr:perimeter":0.1,
    "edtf:cessation":"uuuu",
    "edtf:inception":"uuuu",
    "geom:area":0.0,
    "geom:bbox":"5.01754379272,51.5788917542,5.0179901123,51.5792236328",
    "geom:latitude":51.579056,
    "geom:longitude":5.017766,
    "iso:country":"NL",
    "mz:hierarchy_label":1,
    "mz:is_approximate":1,
    "mz:is_clustr":1,
    "src:geom":"oa",
    "wof:belongsto":[
        85687035,
        102191581,
        404474435,
        85633337,
        101751817
    ],
    "wof:breaches":[],
    "wof:country":"NL",
    "wof:created":1469683673,
    "wof:geomhash":"f7ee651a98f618bb3c021990ef4a319e",
    "wof:hierarchy":[
        {
            "continent_id":102191581,
            "country_id":85633337,
            "localadmin_id":404474435,
            "locality_id":101751817,
            "postalcode_id":891005369,
            "region_id":85687035
        }
    ],
    "wof:id":891005369,
    "wof:lastmodified":1469683673,
    "wof:name":"5043HZ",
    "wof:parent_id":101751817,
    "wof:placetype":"postalcode",
    "wof:repo":"whosonfirst-data-postalcode-nl",
    "wof:superseded_by":[],
    "wof:supersedes":[],
    "wof:tags":[]
},
  "bbox": [
    5.017543792724609,
    51.57889175415039,
    5.017990112304688,
    51.5792236328125
],
  "geometry": {"coordinates":[[[5.0179238319397,51.57898712158203],[5.01788997650146,51.57889175415039],[5.01754379272461,51.57893371582031],[5.01759481430054,51.57908248901367],[5.01764583587646,51.5792236328125],[5.01799011230469,51.57917404174805],[5.0179238319397,51.57898712158203]]],"type":"Polygon"}
}