{
  "id": 891127669,
  "type": "Feature",
  "properties": {
    "clustr:alpha":0.05,
    "clustr:area":9.43,
    "clustr:count":22,
    "clustr:density":2.33,
    "clustr:perimeter":0.47,
    "edtf:cessation":"uuuu",
    "edtf:inception":"uuuu",
    "geom:area":0.0,
    "geom:bbox":"5.75842761993,50.8296737671,5.76095676422,50.831073761",
    "geom:latitude":50.830379,
    "geom:longitude":5.759681,
    "iso:country":"NL",
    "mz:hierarchy_label":1,
    "mz:is_approximate":1,
    "mz:is_clustr":1,
    "src:geom":"oa",
    "wof:belongsto":[
        85687033,
        102191581,
        404474497,
        85633337,
        101810577
    ],
    "wof:breaches":[],
    "wof:country":"NL",
    "wof:created":1469688297,
    "wof:geomhash":"d048f51a913f53878e6ad193d81a5aea",
    "wof:hierarchy":[
        {
            "continent_id":102191581,
            "country_id":85633337,
            "localadmin_id":404474497,
            "locality_id":101810577,
            "postalcode_id":891127669,
            "region_id":85687033
        }
    ],
    "wof:id":891127669,
    "wof:lastmodified":1469688297,
    "wof:name":"6267AP",
    "wof:parent_id":101810577,
    "wof:placetype":"postalcode",
    "wof:repo":"whosonfirst-data-postalcode-nl",
    "wof:superseded_by":[],
    "wof:supersedes":[],
    "wof:tags":[]
},
  "bbox": [
    5.758427619934082,
    50.829673767089844,
    5.760956764221191,
    50.83107376098633
],
  "geometry": {"coordinates":[[[5.75993871688843,50.8300895690918],[5.75842761993408,50.83107376098633],[5.75883865356445,50.83097457885742],[5.75917768478394,50.8308219909668],[5.76095676422119,50.82967376708984],[5.76068782806396,50.82973861694336],[5.76046133041382,50.82981872558594],[5.76037645339966,50.82985687255859],[5.76022100448608,50.82992935180664],[5.76015043258667,50.82996368408203],[5.76000928878784,50.83004379272461],[5.75993871688843,50.8300895690918]]],"type":"Polygon"}
}