{
  "id": 907113209,
  "type": "Feature",
  "properties": {
    "clustr:alpha":0.05,
    "clustr:area":15.14,
    "clustr:count":26,
    "clustr:density":1.72,
    "clustr:perimeter":0.03,
    "edtf:cessation":"uuuu",
    "edtf:inception":"uuuu",
    "geom:area":0.0,
    "geom:bbox":"6.55425834656,53.1863212585,6.554459095,53.186416626",
    "geom:latitude":53.186369,
    "geom:longitude":6.554361,
    "iso:country":"NL",
    "mz:hierarchy_label":1,
    "mz:is_approximate":1,
    "mz:is_clustr":1,
    "src:geom":"oa",
    "wof:belongsto":[
        85687059,
        102191581,
        404473713,
        85633337,
        101751909
    ],
    "wof:breaches":[],
    "wof:country":"NL",
    "wof:created":1469700060,
    "wof:geomhash":"ef69f47ba24c894babdad31b0076e25f",
    "wof:hierarchy":[
        {
            "continent_id":102191581,
            "country_id":85633337,
            "localadmin_id":404473713,
            "locality_id":101751909,
            "postalcode_id":907113209,
            "region_id":85687059
        }
    ],
    "wof:id":907113209,
    "wof:lastmodified":1469700060,
    "wof:name":"9728WE",
    "wof:parent_id":101751909,
    "wof:placetype":"postalcode",
    "wof:repo":"whosonfirst-data-postalcode-nl",
    "wof:superseded_by":[],
    "wof:supersedes":[],
    "wof:tags":[]
},
  "bbox": [
    6.554258346557617,
    53.18632125854492,
    6.554459095001221,
    53.18641662597656
],
  "geometry": {"coordinates":[[[6.55425834655762,53.18636322021484],[6.55428409576416,53.18641662597656],[6.55432224273682,53.18640899658203],[6.55444812774658,53.18637847900391],[6.55445909500122,53.18632125854492],[6.55438327789307,53.18633651733398],[6.55425834655762,53.18636322021484]]],"type":"Polygon"}
}