{
  "id": 907066033,
  "type": "Feature",
  "properties": {
    "clustr:alpha":0.05,
    "clustr:area":13.57,
    "clustr:count":15,
    "clustr:density":1.11,
    "clustr:perimeter":0.2,
    "edtf:cessation":"uuuu",
    "edtf:inception":"uuuu",
    "geom:area":0.0,
    "geom:bbox":"5.792075634,53.1929092407,5.79358530045,53.1930580139",
    "geom:latitude":53.19298,
    "geom:longitude":5.792841,
    "iso:country":"NL",
    "mz:hierarchy_label":1,
    "mz:is_approximate":1,
    "mz:is_clustr":1,
    "src:geom":"oa",
    "wof:belongsto":[
        85687055,
        102191581,
        404473775,
        85633337,
        101751907
    ],
    "wof:breaches":[],
    "wof:country":"NL",
    "wof:created":1469697475,
    "wof:geomhash":"86c97d06aa652f5e97215470746aa075",
    "wof:hierarchy":[
        {
            "continent_id":102191581,
            "country_id":85633337,
            "localadmin_id":404473775,
            "locality_id":101751907,
            "postalcode_id":907066033,
            "region_id":85687055
        }
    ],
    "wof:id":907066033,
    "wof:lastmodified":1469697475,
    "wof:name":"8932EJ",
    "wof:parent_id":101751907,
    "wof:placetype":"postalcode",
    "wof:repo":"whosonfirst-data-postalcode-nl",
    "wof:superseded_by":[],
    "wof:supersedes":[],
    "wof:tags":[]
},
  "bbox": [
    5.792075634002686,
    53.192909240722656,
    5.793585300445557,
    53.193058013916016
],
  "geometry": {"coordinates":[[[5.79358530044556,53.19294738769531],[5.79346561431885,53.19290924072266],[5.79234409332275,53.1929931640625],[5.79217958450317,53.19301223754883],[5.79207563400269,53.19305801391602],[5.79259872436523,53.19301986694336],[5.79358530044556,53.19294738769531]]],"type":"Polygon"}
}