{
  "id": 891253887,
  "type": "Feature",
  "properties": {
    "clustr:alpha":0.05,
    "clustr:area":160.72,
    "clustr:count":14,
    "clustr:density":0.09,
    "clustr:perimeter":0.16,
    "edtf:cessation":"uuuu",
    "edtf:inception":"uuuu",
    "geom:area":0.0,
    "geom:bbox":"6.63092517853,52.3308258057,6.63248443604,52.3313064575",
    "geom:latitude":52.331091,
    "geom:longitude":6.631889,
    "iso:country":"NL",
    "mz:hierarchy_label":1,
    "mz:is_approximate":1,
    "mz:is_clustr":1,
    "src:geom":"oa",
    "wof:belongsto":[
        85687045,
        102191581,
        404473819,
        85633337,
        101751863
    ],
    "wof:breaches":[],
    "wof:country":"NL",
    "wof:created":1469693563,
    "wof:geomhash":"5aac9fc3399f409e86cfbd40a798e18e",
    "wof:hierarchy":[
        {
            "continent_id":102191581,
            "country_id":85633337,
            "localadmin_id":404473819,
            "locality_id":101751863,
            "postalcode_id":891253887,
            "region_id":85687045
        }
    ],
    "wof:id":891253887,
    "wof:lastmodified":1469693563,
    "wof:name":"7609JG",
    "wof:parent_id":101751863,
    "wof:placetype":"postalcode",
    "wof:repo":"whosonfirst-data-postalcode-nl",
    "wof:superseded_by":[],
    "wof:supersedes":[],
    "wof:tags":[]
},
  "bbox": [
    6.630925178527832,
    52.33082580566406,
    6.632484436035156,
    52.33130645751953
],
  "geometry": {"coordinates":[[[6.63247442245483,52.33108520507812],[6.63248443603516,52.33092498779297],[6.6324667930603,52.33082580566406],[6.63157939910889,52.33108520507812],[6.63092517852783,52.331298828125],[6.631028175354,52.33130645751953],[6.63117456436157,52.33130645751953],[6.63247442245483,52.33108520507812]]],"type":"Polygon"}
}