{
  "id": 891010261,
  "type": "Feature",
  "properties": {
    "clustr:alpha":0.05,
    "clustr:area":61.68,
    "clustr:count":24,
    "clustr:density":0.39,
    "clustr:perimeter":1.18,
    "edtf:cessation":"uuuu",
    "edtf:inception":"uuuu",
    "geom:area":0.000005,
    "geom:bbox":"5.14341402054,51.6041526794,5.14858818054,51.6085014343",
    "geom:latitude":51.605869,
    "geom:longitude":5.14578,
    "iso:country":"NL",
    "mz:hierarchy_label":1,
    "mz:is_approximate":1,
    "mz:is_clustr":1,
    "src:geom":"oa",
    "wof:belongsto":[
        85687035,
        102191581,
        404474435,
        85633337,
        101808325
    ],
    "wof:breaches":[],
    "wof:country":"NL",
    "wof:created":1469683877,
    "wof:geomhash":"1f0bcd74842b115df969cee7c167db04",
    "wof:hierarchy":[
        {
            "continent_id":102191581,
            "country_id":85633337,
            "localadmin_id":404474435,
            "locality_id":101808325,
            "postalcode_id":891010261,
            "region_id":85687035
        }
    ],
    "wof:id":891010261,
    "wof:lastmodified":1469683877,
    "wof:name":"5071CC",
    "wof:parent_id":101808325,
    "wof:placetype":"postalcode",
    "wof:repo":"whosonfirst-data-postalcode-nl",
    "wof:superseded_by":[],
    "wof:supersedes":[],
    "wof:tags":[]
},
  "bbox": [
    5.14341402053833,
    51.60415267944336,
    5.148588180541992,
    51.60850143432617
],
  "geometry": {"coordinates":[[[5.1446943283081,51.60415267944336],[5.14409399032593,51.60440826416016],[5.14341402053833,51.60481262207031],[5.14858818054199,51.60850143432617],[5.14756107330322,51.60695266723633],[5.1452169418335,51.60438537597656],[5.1446943283081,51.60415267944336]]],"type":"Polygon"}
}