{
  "id": 890685305,
  "type": "Feature",
  "properties": {
    "clustr:alpha":0.05,
    "clustr:area":5.95,
    "clustr:count":15,
    "clustr:density":2.52,
    "clustr:perimeter":0.2,
    "edtf:cessation":"uuuu",
    "edtf:inception":"uuuu",
    "geom:area":0.0,
    "geom:bbox":"4.75640678406,52.6721305847,4.75749826431,52.6727027893",
    "geom:latitude":52.672473,
    "geom:longitude":4.757026,
    "iso:country":"NL",
    "mz:hierarchy_label":1,
    "mz:is_approximate":1,
    "mz:is_clustr":1,
    "src:geom":"oa",
    "wof:belongsto":[
        85687053,
        102191581,
        404474025,
        85633337,
        101751887
    ],
    "wof:breaches":[],
    "wof:country":"NL",
    "wof:created":1469670600,
    "wof:geomhash":"44f6efbb9e514f38645005a529409ec6",
    "wof:hierarchy":[
        {
            "continent_id":102191581,
            "country_id":85633337,
            "localadmin_id":404474025,
            "locality_id":101751887,
            "postalcode_id":890685305,
            "region_id":85687053
        }
    ],
    "wof:id":890685305,
    "wof:lastmodified":1469670600,
    "wof:name":"1831AH",
    "wof:parent_id":101751887,
    "wof:placetype":"postalcode",
    "wof:repo":"whosonfirst-data-postalcode-nl",
    "wof:superseded_by":[],
    "wof:supersedes":[],
    "wof:tags":[]
},
  "bbox": [
    4.756406784057617,
    52.6721305847168,
    4.757498264312744,
    52.67270278930664
],
  "geometry": {"coordinates":[[[4.7573938369751,52.67232513427734],[4.75749826431274,52.6721305847168],[4.75640678405762,52.67270278930664],[4.75656270980835,52.67269515991211],[4.75697088241577,52.67263031005859],[4.75716018676758,52.67255783081055],[4.75721025466919,52.67251586914062],[4.7573504447937,52.67239761352539],[4.7573938369751,52.67232513427734]]],"type":"Polygon"}
}