{
  "id": 890662267,
  "type": "Feature",
  "properties": {
    "clustr:alpha":0.05,
    "clustr:area":73.5,
    "clustr:count":20,
    "clustr:density":0.27,
    "clustr:perimeter":0.16,
    "edtf:cessation":"uuuu",
    "edtf:inception":"uuuu",
    "geom:area":0.0,
    "geom:bbox":"5.06906747818,52.6487159729,5.07012319565,52.6492500305",
    "geom:latitude":52.648996,
    "geom:longitude":5.069592,
    "iso:country":"NL",
    "mz:hierarchy_label":1,
    "mz:is_approximate":1,
    "mz:is_clustr":1,
    "src:geom":"oa",
    "wof:belongsto":[
        85687053,
        102191581,
        404474083,
        85633337,
        101751883
    ],
    "wof:breaches":[],
    "wof:country":"NL",
    "wof:created":1469669565,
    "wof:geomhash":"99fa3c5f254824c3263d2f782caac13d",
    "wof:hierarchy":[
        {
            "continent_id":102191581,
            "country_id":85633337,
            "localadmin_id":404474083,
            "locality_id":101751883,
            "postalcode_id":890662267,
            "region_id":85687053
        }
    ],
    "wof:id":890662267,
    "wof:lastmodified":1469669565,
    "wof:name":"1624GB",
    "wof:parent_id":101751883,
    "wof:placetype":"postalcode",
    "wof:repo":"whosonfirst-data-postalcode-nl",
    "wof:superseded_by":[],
    "wof:supersedes":[],
    "wof:tags":[]
},
  "bbox": [
    5.069067478179932,
    52.64871597290039,
    5.070123195648193,
    52.64925003051758
],
  "geometry": {"coordinates":[[[5.06923866271973,52.64875793457031],[5.06906747817993,52.64871597290039],[5.06918716430664,52.64907073974609],[5.06998443603516,52.64925003051758],[5.07002067565918,52.64919662475586],[5.0700569152832,52.64914321899414],[5.0700831413269,52.64909744262695],[5.07012319564819,52.64897537231445],[5.07003736495972,52.64895248413086],[5.06986570358276,52.64891052246094],[5.06923866271973,52.64875793457031]]],"type":"Polygon"}
}