{
  "id": 890725845,
  "type": "Feature",
  "properties": {
    "clustr:alpha":0.05,
    "clustr:area":40.04,
    "clustr:count":25,
    "clustr:density":0.62,
    "clustr:perimeter":0.38,
    "edtf:cessation":"uuuu",
    "edtf:inception":"uuuu",
    "geom:area":0.000001,
    "geom:bbox":"4.46372747421,52.1351470947,4.46560716629,52.1365013123",
    "geom:latitude":52.135746,
    "geom:longitude":4.464563,
    "iso:country":"NL",
    "mz:hierarchy_label":1,
    "mz:is_approximate":1,
    "mz:is_clustr":1,
    "src:geom":"oa",
    "wof:belongsto":[
        85687041,
        102191581,
        404474199,
        85633337,
        101751833
    ],
    "wof:breaches":[],
    "wof:country":"NL",
    "wof:created":1469672377,
    "wof:geomhash":"e0a5ea04dcf41f5f0a82ae246281c83e",
    "wof:hierarchy":[
        {
            "continent_id":102191581,
            "country_id":85633337,
            "localadmin_id":404474199,
            "locality_id":101751833,
            "postalcode_id":890725845,
            "region_id":85687041
        }
    ],
    "wof:id":890725845,
    "wof:lastmodified":1469672377,
    "wof:name":"2253JK",
    "wof:parent_id":101751833,
    "wof:placetype":"postalcode",
    "wof:repo":"whosonfirst-data-postalcode-nl",
    "wof:superseded_by":[],
    "wof:supersedes":[],
    "wof:tags":[]
},
  "bbox": [
    4.463727474212646,
    52.13514709472656,
    4.465607166290283,
    52.13650131225586
],
  "geometry": {"coordinates":[[[4.4655327796936,52.13523101806641],[4.46560716629028,52.13514709472656],[4.46528100967407,52.13515853881836],[4.46372747421265,52.13562774658203],[4.4638819694519,52.13597106933594],[4.46391439437866,52.13602066040039],[4.46398115158081,52.13611602783203],[4.4643816947937,52.13650131225586],[4.46523237228394,52.13556289672852],[4.4655327796936,52.13523101806641]]],"type":"Polygon"}
}