{
  "id": 891088075,
  "type": "Feature",
  "properties": {
    "clustr:alpha":0.05,
    "clustr:area":12.63,
    "clustr:count":13,
    "clustr:density":1.03,
    "clustr:perimeter":0.31,
    "edtf:cessation":"uuuu",
    "edtf:inception":"uuuu",
    "geom:area":0.000001,
    "geom:bbox":"6.0049829483,51.5982627869,6.00644683838,51.5992355347",
    "geom:latitude":51.598802,
    "geom:longitude":6.005883,
    "iso:country":"NL",
    "mz:hierarchy_label":1,
    "mz:is_approximate":1,
    "mz:is_clustr":1,
    "src:geom":"oa",
    "wof:belongsto":[
        85687035,
        102191581,
        404474359,
        85633337,
        101808335
    ],
    "wof:breaches":[],
    "wof:country":"NL",
    "wof:created":1469686787,
    "wof:geomhash":"684661cd66dab08249a6442850a0eccd",
    "wof:hierarchy":[
        {
            "continent_id":102191581,
            "country_id":85633337,
            "localadmin_id":404474359,
            "locality_id":101808335,
            "postalcode_id":891088075,
            "region_id":85687035
        }
    ],
    "wof:id":891088075,
    "wof:lastmodified":1469686787,
    "wof:name":"5821GH",
    "wof:parent_id":101808335,
    "wof:placetype":"postalcode",
    "wof:repo":"whosonfirst-data-postalcode-nl",
    "wof:superseded_by":[],
    "wof:supersedes":[],
    "wof:tags":[]
},
  "bbox": [
    6.004982948303223,
    51.598262786865234,
    6.006446838378906,
    51.59923553466797
],
  "geometry": {"coordinates":[[[6.00618600845337,51.59923553466797],[6.00627040863037,51.59909057617188],[6.00639533996582,51.59872055053711],[6.00644683837891,51.59826278686523],[6.00498294830322,51.59887313842773],[6.00538921356201,51.59904861450195],[6.00618600845337,51.59923553466797]]],"type":"Polygon"}
}