{
  "id": 890670801,
  "type": "Feature",
  "properties": {
    "clustr:alpha":0.05,
    "clustr:area":17.26,
    "clustr:count":21,
    "clustr:density":1.22,
    "clustr:perimeter":0.4,
    "edtf:cessation":"uuuu",
    "edtf:inception":"uuuu",
    "geom:area":0.0,
    "geom:bbox":"4.81311178207,52.6963615417,4.81598806381,52.6970214844",
    "geom:latitude":52.696705,
    "geom:longitude":4.814646,
    "iso:country":"NL",
    "mz:hierarchy_label":1,
    "mz:is_approximate":1,
    "mz:is_clustr":1,
    "src:geom":"oa",
    "wof:belongsto":[
        85687053,
        102191581,
        404474093,
        85633337,
        101754803
    ],
    "wof:breaches":[],
    "wof:country":"NL",
    "wof:created":1469670007,
    "wof:geomhash":"2a971e30be28ce3fbd53de866a6d1f76",
    "wof:hierarchy":[
        {
            "continent_id":102191581,
            "country_id":85633337,
            "localadmin_id":404474093,
            "locality_id":101754803,
            "postalcode_id":890670801,
            "region_id":85687053
        }
    ],
    "wof:id":890670801,
    "wof:lastmodified":1469670007,
    "wof:name":"1722ZP",
    "wof:parent_id":101754803,
    "wof:placetype":"postalcode",
    "wof:repo":"whosonfirst-data-postalcode-nl",
    "wof:superseded_by":[],
    "wof:supersedes":[],
    "wof:tags":[]
},
  "bbox": [
    4.813111782073975,
    52.69636154174805,
    4.815988063812256,
    52.697021484375
],
  "geometry": {"coordinates":[[[4.81325960159302,52.69640731811523],[4.81563377380371,52.69695663452148],[4.81589937210083,52.6970100402832],[4.81598806381226,52.697021484375],[4.81539869308472,52.69684600830078],[4.81401205062866,52.69653701782227],[4.8139238357544,52.69651794433594],[4.81345129013062,52.69642639160156],[4.81311178207397,52.69636154174805],[4.81325960159302,52.69640731811523]]],"type":"Polygon"}
}