{
  "id": 890868899,
  "type": "Feature",
  "properties": {
    "clustr:alpha":0.05,
    "clustr:area":10.32,
    "clustr:count":11,
    "clustr:density":1.07,
    "clustr:perimeter":0.12,
    "edtf:cessation":"uuuu",
    "edtf:inception":"uuuu",
    "geom:area":0.0,
    "geom:bbox":"4.8627076149,52.0880737305,4.86356782913,52.0882453918",
    "geom:latitude":52.088159,
    "geom:longitude":4.863137,
    "iso:country":"NL",
    "mz:hierarchy_label":1,
    "mz:is_approximate":1,
    "mz:is_clustr":1,
    "src:geom":"oa",
    "wof:belongsto":[
        85687039,
        102191581,
        404474285,
        85633337,
        101808435
    ],
    "wof:breaches":[],
    "wof:country":"NL",
    "wof:created":1469677848,
    "wof:geomhash":"c0883b144daed0b16e4f08efd3a1b0ab",
    "wof:hierarchy":[
        {
            "continent_id":102191581,
            "country_id":85633337,
            "localadmin_id":404474285,
            "locality_id":101808435,
            "postalcode_id":890868899,
            "region_id":85687039
        }
    ],
    "wof:id":890868899,
    "wof:lastmodified":1469677848,
    "wof:name":"3443VS",
    "wof:parent_id":101808435,
    "wof:placetype":"postalcode",
    "wof:repo":"whosonfirst-data-postalcode-nl",
    "wof:superseded_by":[],
    "wof:supersedes":[],
    "wof:tags":[]
},
  "bbox": [
    4.862707614898682,
    52.08807373046875,
    4.86356782913208,
    52.0882453918457
],
  "geometry": {"coordinates":[[[4.86279392242432,52.08808898925781],[4.86270761489868,52.08807373046875],[4.86287975311279,52.08810806274414],[4.8630518913269,52.08814239501953],[4.86322355270386,52.08817672729492],[4.86339569091797,52.08821105957031],[4.86356782913208,52.0882453918457],[4.86348152160645,52.08822631835938],[4.86330986022949,52.08819198608398],[4.86313772201538,52.08815765380859],[4.86296558380127,52.0881233215332],[4.86279392242432,52.08808898925781]]],"type":"Polygon"}
}