{
  "id": 891096053,
  "type": "Feature",
  "properties": {
    "clustr:alpha":0.05,
    "clustr:area":35.36,
    "clustr:count":29,
    "clustr:density":0.82,
    "clustr:perimeter":0.42,
    "edtf:cessation":"uuuu",
    "edtf:inception":"uuuu",
    "geom:area":0.000001,
    "geom:bbox":"6.08757543564,51.2820396423,6.0900592804,51.28332901",
    "geom:latitude":51.282739,
    "geom:longitude":6.088883,
    "iso:country":"NL",
    "mz:hierarchy_label":1,
    "mz:is_approximate":1,
    "mz:is_clustr":1,
    "src:geom":"oa",
    "wof:belongsto":[
        85687033,
        102191581,
        404474473,
        85633337,
        101809609
    ],
    "wof:breaches":[],
    "wof:country":"NL",
    "wof:created":1469687097,
    "wof:geomhash":"1c13b55bc0aaeb51915bf3272063ef5a",
    "wof:hierarchy":[
        {
            "continent_id":102191581,
            "country_id":85633337,
            "localadmin_id":404474473,
            "locality_id":101809609,
            "postalcode_id":891096053,
            "region_id":85687033
        }
    ],
    "wof:id":891096053,
    "wof:lastmodified":1469687097,
    "wof:name":"5953RB",
    "wof:parent_id":101809609,
    "wof:placetype":"postalcode",
    "wof:repo":"whosonfirst-data-postalcode-nl",
    "wof:superseded_by":[],
    "wof:supersedes":[],
    "wof:tags":[]
},
  "bbox": [
    6.087575435638428,
    51.282039642333984,
    6.090059280395508,
    51.283329010009766
],
  "geometry": {"coordinates":[[[6.08973932266235,51.28292846679688],[6.08953619003296,51.28276443481445],[6.08757543563843,51.28203964233398],[6.0878963470459,51.28239822387695],[6.0879693031311,51.28247833251953],[6.0880126953125,51.28252410888672],[6.08814382553101,51.28264999389648],[6.0881872177124,51.28268432617188],[6.08981704711914,51.28332901000977],[6.08987426757812,51.28332138061523],[6.0899453163147,51.28329467773438],[6.09000253677368,51.28326797485352],[6.09005928039551,51.28322982788086],[6.08973932266235,51.28292846679688]]],"type":"Polygon"}
}