{
  "id": 891109501,
  "type": "Feature",
  "properties": {
    "clustr:alpha":0.05,
    "clustr:area":12.9,
    "clustr:count":5,
    "clustr:density":0.39,
    "clustr:perimeter":0.16,
    "edtf:cessation":"uuuu",
    "edtf:inception":"uuuu",
    "geom:area":0.0,
    "geom:bbox":"5.97763442993,51.2349586487,5.97830438614,51.2355995178",
    "geom:latitude":51.235286,
    "geom:longitude":5.978071,
    "iso:country":"NL",
    "mz:hierarchy_label":1,
    "mz:is_approximate":1,
    "mz:is_clustr":1,
    "src:geom":"oa",
    "wof:belongsto":[
        85687033,
        102191581,
        404474557,
        85633337,
        101809543
    ],
    "wof:breaches":[],
    "wof:country":"NL",
    "wof:created":1469687634,
    "wof:geomhash":"8c94128a709d4181b5c2e49bd5d4ceb7",
    "wof:hierarchy":[
        {
            "continent_id":102191581,
            "country_id":85633337,
            "localadmin_id":404474557,
            "locality_id":101809543,
            "postalcode_id":891109501,
            "region_id":85687033
        }
    ],
    "wof:id":891109501,
    "wof:lastmodified":1469687634,
    "wof:name":"6082AL",
    "wof:parent_id":101809543,
    "wof:placetype":"postalcode",
    "wof:repo":"whosonfirst-data-postalcode-nl",
    "wof:superseded_by":[],
    "wof:supersedes":[],
    "wof:tags":[]
},
  "bbox": [
    5.977634429931641,
    51.23495864868164,
    5.978304386138916,
    51.235599517822266
],
  "geometry": {"coordinates":[[[5.97817659378052,51.2352409362793],[5.97763442993164,51.23495864868164],[5.97830438613892,51.23559951782227],[5.97829246520996,51.23534774780273],[5.97817659378052,51.2352409362793]]],"type":"Polygon"}
}