{
  "id": 907043005,
  "type": "Feature",
  "properties": {
    "clustr:alpha":0.05,
    "clustr:area":2391.56,
    "clustr:count":5,
    "clustr:density":0.0,
    "clustr:perimeter":4.67,
    "edtf:cessation":"uuuu",
    "edtf:inception":"uuuu",
    "geom:area":0.000137,
    "geom:bbox":"5.93235492706,52.8169174194,5.97577047348,52.8226928711",
    "geom:latitude":52.81897,
    "geom:longitude":5.953706,
    "iso:country":"NL",
    "mz:hierarchy_label":1,
    "mz:is_approximate":1,
    "mz:is_clustr":1,
    "src:geom":"oa",
    "wof:belongsto":[
        102191581,
        404474621,
        85633337,
        85687045
    ],
    "wof:breaches":[],
    "wof:country":"NL",
    "wof:created":1469696440,
    "wof:geomhash":"086874edbf600fd766bb1600679da785",
    "wof:hierarchy":[
        {
            "continent_id":102191581,
            "country_id":85633337,
            "localadmin_id":404474621,
            "postalcode_id":907043005,
            "region_id":85687045
        }
    ],
    "wof:id":907043005,
    "wof:lastmodified":1469696440,
    "wof:name":"8375EA",
    "wof:parent_id":404474621,
    "wof:placetype":"postalcode",
    "wof:repo":"whosonfirst-data-postalcode-nl",
    "wof:superseded_by":[],
    "wof:supersedes":[],
    "wof:tags":[]
},
  "bbox": [
    5.932354927062988,
    52.816917419433594,
    5.975770473480225,
    52.82269287109375
],
  "geometry": {"coordinates":[[[5.95641422271729,52.82269287109375],[5.97577047348022,52.81691741943359],[5.93235492706299,52.8170280456543],[5.93712663650513,52.81894683837891],[5.94190883636475,52.82023239135742],[5.95641422271729,52.82269287109375]]],"type":"Polygon"}
}