{
  "id": 907085505,
  "type": "Feature",
  "properties": {
    "clustr:alpha":0.05,
    "clustr:area":65.39,
    "clustr:count":12,
    "clustr:density":0.18,
    "clustr:perimeter":0.16,
    "edtf:cessation":"uuuu",
    "edtf:inception":"uuuu",
    "geom:area":0.0,
    "geom:bbox":"6.25205135345,53.140247345,6.25354576111,53.1403007507",
    "geom:latitude":53.140268,
    "geom:longitude":6.252918,
    "iso:country":"NL",
    "mz:hierarchy_label":1,
    "mz:is_approximate":1,
    "mz:is_clustr":1,
    "src:geom":"oa",
    "wof:belongsto":[
        85687059,
        102191581,
        404473727,
        85633337,
        101806203
    ],
    "wof:breaches":[],
    "wof:country":"NL",
    "wof:created":1469698536,
    "wof:geomhash":"3c6deb1985cc357ead9700690a9ad044",
    "wof:hierarchy":[
        {
            "continent_id":102191581,
            "country_id":85633337,
            "localadmin_id":404473727,
            "locality_id":101806203,
            "postalcode_id":907085505,
            "region_id":85687059
        }
    ],
    "wof:id":907085505,
    "wof:lastmodified":1469698536,
    "wof:name":"9363EX",
    "wof:parent_id":101806203,
    "wof:placetype":"postalcode",
    "wof:repo":"whosonfirst-data-postalcode-nl",
    "wof:superseded_by":[],
    "wof:supersedes":[],
    "wof:tags":[]
},
  "bbox": [
    6.25205135345459,
    53.1402473449707,
    6.253545761108398,
    53.14030075073242
],
  "geometry": {"coordinates":[[[6.2534122467041,53.14030075073242],[6.2535457611084,53.14025497436523],[6.25205135345459,53.1402473449707],[6.2521562576294,53.14026260375977],[6.25285911560059,53.14028549194336],[6.2534122467041,53.14030075073242]]],"type":"Polygon"}
}