{
  "id": 890663235,
  "type": "Feature",
  "properties": {
    "clustr:alpha":0.05,
    "clustr:area":50.94,
    "clustr:count":14,
    "clustr:density":0.27,
    "clustr:perimeter":0.19,
    "edtf:cessation":"uuuu",
    "edtf:inception":"uuuu",
    "geom:area":0.0,
    "geom:bbox":"5.09034872055,52.6505317688,5.0917725563,52.6508712769",
    "geom:latitude":52.650739,
    "geom:longitude":5.090942,
    "iso:country":"NL",
    "mz:hierarchy_label":1,
    "mz:is_approximate":1,
    "mz:is_clustr":1,
    "src:geom":"oa",
    "wof:belongsto":[
        85687053,
        102191581,
        404474083,
        85633337,
        101751883
    ],
    "wof:breaches":[],
    "wof:country":"NL",
    "wof:created":1469669603,
    "wof:geomhash":"76e24dba449a5a1bf6c8724b1ee36276",
    "wof:hierarchy":[
        {
            "continent_id":102191581,
            "country_id":85633337,
            "localadmin_id":404474083,
            "locality_id":101751883,
            "postalcode_id":890663235,
            "region_id":85687053
        }
    ],
    "wof:id":890663235,
    "wof:lastmodified":1469669603,
    "wof:name":"1628MR",
    "wof:parent_id":101751883,
    "wof:placetype":"postalcode",
    "wof:repo":"whosonfirst-data-postalcode-nl",
    "wof:superseded_by":[],
    "wof:supersedes":[],
    "wof:tags":[]
},
  "bbox": [
    5.090348720550537,
    52.65053176879883,
    5.091772556304932,
    52.65087127685547
],
  "geometry": {"coordinates":[[[5.09062576293945,52.65053176879883],[5.09034872055054,52.65083694458008],[5.09177255630493,52.65087127685547],[5.09171438217163,52.65084838867188],[5.09149217605591,52.6507682800293],[5.09127473831177,52.65069198608398],[5.09105777740479,52.65061569213867],[5.09062576293945,52.65053176879883]]],"type":"Polygon"}
}