{
  "id": 891073167,
  "type": "Feature",
  "properties": {
    "clustr:alpha":0.05,
    "clustr:area":12.55,
    "clustr:count":25,
    "clustr:density":1.99,
    "clustr:perimeter":0.21,
    "edtf:cessation":"uuuu",
    "edtf:inception":"uuuu",
    "geom:area":0.0,
    "geom:bbox":"5.54980802536,51.4519424438,5.55044841766,51.452835083",
    "geom:latitude":51.452443,
    "geom:longitude":5.55015,
    "iso:country":"NL",
    "mz:hierarchy_label":1,
    "mz:is_approximate":1,
    "mz:is_clustr":1,
    "src:geom":"oa",
    "wof:belongsto":[
        85687035,
        102191581,
        404474659,
        85633337,
        101754575
    ],
    "wof:breaches":[],
    "wof:country":"NL",
    "wof:created":1469686219,
    "wof:geomhash":"15c2bfcfb5e4d161b2e949f26e20029b",
    "wof:hierarchy":[
        {
            "continent_id":102191581,
            "country_id":85633337,
            "localadmin_id":404474659,
            "locality_id":101754575,
            "postalcode_id":891073167,
            "region_id":85687035
        }
    ],
    "wof:id":891073167,
    "wof:lastmodified":1469686219,
    "wof:name":"5674VE",
    "wof:parent_id":101754575,
    "wof:placetype":"postalcode",
    "wof:repo":"whosonfirst-data-postalcode-nl",
    "wof:superseded_by":[],
    "wof:supersedes":[],
    "wof:tags":[]
},
  "bbox": [
    5.549808025360107,
    51.451942443847656,
    5.550448417663574,
    51.45283508300781
],
  "geometry": {"coordinates":[[[5.54980802536011,51.4527587890625],[5.55031108856201,51.45283508300781],[5.55044841766357,51.45194244384766],[5.5499963760376,51.45218276977539],[5.54987764358521,51.45247268676758],[5.54980802536011,51.4527587890625]]],"type":"Polygon"}
}