{
  "id": 890722479,
  "type": "Feature",
  "properties": {
    "clustr:alpha":0.05,
    "clustr:area":0.82,
    "clustr:count":45,
    "clustr:density":55.08,
    "clustr:perimeter":0.11,
    "edtf:cessation":"uuuu",
    "edtf:inception":"uuuu",
    "geom:area":0.0,
    "geom:bbox":"4.43189620972,52.1902084351,4.43226146698,52.1905860901",
    "geom:latitude":52.19042,
    "geom:longitude":4.432068,
    "iso:country":"NL",
    "mz:hierarchy_label":1,
    "mz:is_approximate":1,
    "mz:is_clustr":1,
    "src:geom":"oa",
    "wof:belongsto":[
        85687041,
        102191581,
        404474191,
        85633337,
        101754741
    ],
    "wof:breaches":[],
    "wof:country":"NL",
    "wof:created":1469672242,
    "wof:geomhash":"61e187ed867a763ee04b08958e0e1425",
    "wof:hierarchy":[
        {
            "continent_id":102191581,
            "country_id":85633337,
            "localadmin_id":404474191,
            "locality_id":101754741,
            "postalcode_id":890722479,
            "region_id":85687041
        }
    ],
    "wof:id":890722479,
    "wof:lastmodified":1469672242,
    "wof:name":"2231DK",
    "wof:parent_id":101754741,
    "wof:placetype":"postalcode",
    "wof:repo":"whosonfirst-data-postalcode-nl",
    "wof:superseded_by":[],
    "wof:supersedes":[],
    "wof:tags":[]
},
  "bbox": [
    4.431896209716797,
    52.190208435058594,
    4.43226146697998,
    52.19058609008789
],
  "geometry": {"coordinates":[[[4.43191146850586,52.19020843505859],[4.43190431594849,52.19020843505859],[4.43189668655396,52.19020843505859],[4.4318962097168,52.19022369384766],[4.43207931518555,52.19055938720703],[4.43212270736694,52.19058609008789],[4.43212985992432,52.19058609008789],[4.43213748931885,52.19058609008789],[4.43214464187622,52.19058609008789],[4.43215179443359,52.19058609008789],[4.43215942382812,52.19058609008789],[4.4321665763855,52.19058609008789],[4.43217372894287,52.19058609008789],[4.43218088150024,52.19058609008789],[4.43218851089478,52.19058609008789],[4.43219566345215,52.19058609008789],[4.43220329284668,52.19058609008789],[4.43221044540405,52.19058609008789],[4.43221759796143,52.19058609008789],[4.43222522735596,52.19058609008789],[4.43223237991333,52.19058609008789],[4.4322395324707,52.19058609008789],[4.43224668502808,52.19058609008789],[4.43225431442261,52.19058609008789],[4.43226146697998,52.19058609008789],[4.43196249008179,52.19020843505859],[4.43195533752441,52.19020843505859],[4.43194770812988,52.19020843505859],[4.43194055557251,52.19020843505859],[4.43193340301514,52.19020843505859],[4.4319257736206,52.19020843505859],[4.43191862106323,52.19020843505859],[4.43191146850586,52.19020843505859]]],"type":"Polygon"}
}