{
  "id": 890679351,
  "type": "Feature",
  "properties": {
    "clustr:alpha":0.05,
    "clustr:area":58.2,
    "clustr:count":20,
    "clustr:density":0.34,
    "clustr:perimeter":0.19,
    "edtf:cessation":"uuuu",
    "edtf:inception":"uuuu",
    "geom:area":0.0,
    "geom:bbox":"4.80077886581,53.0535736084,4.8020157814,53.0540809631",
    "geom:latitude":53.053805,
    "geom:longitude":4.80145,
    "iso:country":"NL",
    "mz:hierarchy_label":1,
    "mz:is_approximate":1,
    "mz:is_clustr":1,
    "src:geom":"oa",
    "wof:belongsto":[
        85687053,
        102191581,
        404474115,
        85633337,
        101806069
    ],
    "wof:breaches":[],
    "wof:country":"NL",
    "wof:created":1469670370,
    "wof:geomhash":"79790f9858042894f6983e867dd5bf94",
    "wof:hierarchy":[
        {
            "continent_id":102191581,
            "country_id":85633337,
            "localadmin_id":404474115,
            "locality_id":101806069,
            "postalcode_id":890679351,
            "region_id":85687053
        }
    ],
    "wof:id":890679351,
    "wof:lastmodified":1469670370,
    "wof:name":"1791AK",
    "wof:parent_id":101806069,
    "wof:placetype":"postalcode",
    "wof:repo":"whosonfirst-data-postalcode-nl",
    "wof:superseded_by":[],
    "wof:supersedes":[],
    "wof:tags":[]
},
  "bbox": [
    4.800778865814209,
    53.05357360839844,
    4.802015781402588,
    53.054080963134766
],
  "geometry": {"coordinates":[[[4.80148363113403,53.05358505249023],[4.80095338821411,53.05357360839844],[4.80077886581421,53.05379486083984],[4.80162048339844,53.05408096313477],[4.80201578140259,53.05400085449219],[4.80198669433594,53.05372619628906],[4.80148363113403,53.05358505249023]]],"type":"Polygon"}
}