{
  "id": 890634495,
  "type": "Feature",
  "properties": {
    "clustr:alpha":0.05,
    "clustr:area":204.66,
    "clustr:count":25,
    "clustr:density":0.12,
    "clustr:perimeter":0.29,
    "edtf:cessation":"uuuu",
    "edtf:inception":"uuuu",
    "geom:area":0.000001,
    "geom:bbox":"5.30361175537,52.3958320618,5.30585098267,52.3972740173",
    "geom:latitude":52.396584,
    "geom:longitude":5.304618,
    "iso:country":"NL",
    "mz:hierarchy_label":1,
    "mz:is_approximate":1,
    "mz:is_clustr":1,
    "src:geom":"oa",
    "wof:belongsto":[
        85687049,
        102191581,
        404473729,
        85633337,
        101751875
    ],
    "wof:breaches":[],
    "wof:country":"NL",
    "wof:created":1469668297,
    "wof:geomhash":"f262622dfd7649ebccb31862eb0c6160",
    "wof:hierarchy":[
        {
            "continent_id":102191581,
            "country_id":85633337,
            "localadmin_id":404473729,
            "locality_id":101751875,
            "postalcode_id":890634495,
            "region_id":85687049
        }
    ],
    "wof:id":890634495,
    "wof:lastmodified":1469668297,
    "wof:name":"1339NW",
    "wof:parent_id":101751875,
    "wof:placetype":"postalcode",
    "wof:repo":"whosonfirst-data-postalcode-nl",
    "wof:superseded_by":[],
    "wof:supersedes":[],
    "wof:tags":[]
},
  "bbox": [
    5.303611755371094,
    52.39583206176758,
    5.305850982666016,
    52.397274017333984
],
  "geometry": {"coordinates":[[[5.30405282974243,52.3960075378418],[5.30371189117432,52.39583206176758],[5.30361175537109,52.39635467529297],[5.30512857437134,52.39707946777344],[5.30525207519531,52.39713668823242],[5.30551195144653,52.39724731445312],[5.30558109283447,52.39727401733398],[5.30585098266602,52.39704513549805],[5.30405282974243,52.3960075378418]]],"type":"Polygon"}
}