{
  "id": 907092637,
  "type": "Feature",
  "properties": {
    "clustr:alpha":0.05,
    "clustr:area":15.98,
    "clustr:count":20,
    "clustr:density":1.25,
    "clustr:perimeter":0.29,
    "edtf:cessation":"uuuu",
    "edtf:inception":"uuuu",
    "geom:area":0.000001,
    "geom:bbox":"6.70973539352,53.0608444214,6.71150541306,53.0616378784",
    "geom:latitude":53.061271,
    "geom:longitude":6.710625,
    "iso:country":"NL",
    "mz:hierarchy_label":1,
    "mz:is_approximate":1,
    "mz:is_clustr":1,
    "src:geom":"oa",
    "wof:belongsto":[
        85687051,
        102191581,
        404474593,
        85633337,
        101806045
    ],
    "wof:breaches":[],
    "wof:country":"NL",
    "wof:created":1469698943,
    "wof:geomhash":"83e4920a7a7bcded9b3e8923b7c56510",
    "wof:hierarchy":[
        {
            "continent_id":102191581,
            "country_id":85633337,
            "localadmin_id":404474593,
            "locality_id":101806045,
            "postalcode_id":907092637,
            "region_id":85687051
        }
    ],
    "wof:id":907092637,
    "wof:lastmodified":1469698943,
    "wof:name":"9468GW",
    "wof:parent_id":101806045,
    "wof:placetype":"postalcode",
    "wof:repo":"whosonfirst-data-postalcode-nl",
    "wof:superseded_by":[],
    "wof:supersedes":[],
    "wof:tags":[]
},
  "bbox": [
    6.70973539352417,
    53.06084442138672,
    6.71150541305542,
    53.06163787841797
],
  "geometry": {"coordinates":[[[6.71142101287842,53.06135940551758],[6.71150541305542,53.06119918823242],[6.71115922927856,53.06110382080078],[6.71021175384521,53.06084442138672],[6.70973539352417,53.06137084960938],[6.71077299118042,53.06163787841797],[6.71130657196045,53.0615234375],[6.71142101287842,53.06135940551758]]],"type":"Polygon"}
}