{
  "id": 890991931,
  "type": "Feature",
  "properties": {
    "clustr:alpha":0.05,
    "clustr:area":36.04,
    "clustr:count":17,
    "clustr:density":0.47,
    "clustr:perimeter":0.32,
    "edtf:cessation":"uuuu",
    "edtf:inception":"uuuu",
    "geom:area":0.0,
    "geom:bbox":"4.85289859772,51.5068740845,4.85525083542,51.5072669983",
    "geom:latitude":51.507093,
    "geom:longitude":4.854099,
    "iso:country":"NL",
    "mz:hierarchy_label":1,
    "mz:is_approximate":1,
    "mz:is_clustr":1,
    "src:geom":"oa",
    "wof:belongsto":[
        85687035,
        102191581,
        404474637,
        85633337,
        101808175
    ],
    "wof:breaches":[],
    "wof:country":"NL",
    "wof:created":1469683149,
    "wof:geomhash":"c16b6b2fca82b06f36ec84b256dfa4a4",
    "wof:hierarchy":[
        {
            "continent_id":102191581,
            "country_id":85633337,
            "localadmin_id":404474637,
            "locality_id":101808175,
            "postalcode_id":890991931,
            "region_id":85687035
        }
    ],
    "wof:id":890991931,
    "wof:lastmodified":1469683149,
    "wof:name":"4861EJ",
    "wof:parent_id":101808175,
    "wof:placetype":"postalcode",
    "wof:repo":"whosonfirst-data-postalcode-nl",
    "wof:superseded_by":[],
    "wof:supersedes":[],
    "wof:tags":[]
},
  "bbox": [
    4.852898597717285,
    51.506874084472656,
    4.855250835418701,
    51.507266998291016
],
  "geometry": {"coordinates":[[[4.85423946380615,51.50712203979492],[4.8552508354187,51.50687408447266],[4.85289859771729,51.50726699829102],[4.85308599472046,51.50725173950195],[4.85340309143066,51.50721740722656],[4.85395097732544,51.50715637207031],[4.85423946380615,51.50712203979492]]],"type":"Polygon"}
}