{
  "id": 890995559,
  "type": "Feature",
  "properties": {
    "clustr:alpha":0.05,
    "clustr:area":14.53,
    "clustr:count":15,
    "clustr:density":1.03,
    "clustr:perimeter":0.3,
    "edtf:cessation":"uuuu",
    "edtf:inception":"uuuu",
    "geom:area":0.0,
    "geom:bbox":"4.84832429886,51.6380577087,4.85045576096,51.638343811",
    "geom:latitude":51.638172,
    "geom:longitude":4.849508,
    "iso:country":"NL",
    "mz:hierarchy_label":1,
    "mz:is_approximate":1,
    "mz:is_clustr":1,
    "src:geom":"oa",
    "wof:belongsto":[
        85687035,
        102191581,
        404474413,
        85633337,
        101808317
    ],
    "wof:breaches":[],
    "wof:country":"NL",
    "wof:created":1469683292,
    "wof:geomhash":"cf493d52a3b6a6fa9d54e49dc0d54d71",
    "wof:hierarchy":[
        {
            "continent_id":102191581,
            "country_id":85633337,
            "localadmin_id":404474413,
            "locality_id":101808317,
            "postalcode_id":890995559,
            "region_id":85687035
        }
    ],
    "wof:id":890995559,
    "wof:lastmodified":1469683292,
    "wof:name":"4902DX",
    "wof:parent_id":101808317,
    "wof:placetype":"postalcode",
    "wof:repo":"whosonfirst-data-postalcode-nl",
    "wof:superseded_by":[],
    "wof:supersedes":[],
    "wof:tags":[]
},
  "bbox": [
    4.848324298858643,
    51.638057708740234,
    4.850455760955811,
    51.638343811035156
],
  "geometry": {"coordinates":[[[4.84959506988525,51.63834381103516],[4.84964275360107,51.63834381103516],[4.8497428894043,51.63834381103516],[4.84980297088623,51.63834381103516],[4.84991502761841,51.63834381103516],[4.85045576095581,51.63808059692383],[4.8498477935791,51.6380615234375],[4.84832429885864,51.63805770874023],[4.84947776794434,51.63834381103516],[4.84959506988525,51.63834381103516]]],"type":"Polygon"}
}