{
  "id": 890613139,
  "type": "Feature",
  "properties": {
    "clustr:alpha":0.05,
    "clustr:area":18.88,
    "clustr:count":18,
    "clustr:density":0.95,
    "clustr:perimeter":0.1,
    "edtf:cessation":"uuuu",
    "edtf:inception":"uuuu",
    "geom:area":0.0,
    "geom:bbox":"4.77256965637,52.3390579224,4.77317237854,52.3393630981",
    "geom:latitude":52.339233,
    "geom:longitude":4.772912,
    "iso:country":"NL",
    "mz:hierarchy_label":1,
    "mz:is_approximate":1,
    "mz:is_clustr":1,
    "src:geom":"oa",
    "wof:belongsto":[
        85687053,
        102191581,
        404474065,
        85633337,
        101754789
    ],
    "wof:breaches":[],
    "wof:country":"NL",
    "wof:created":1469667375,
    "wof:geomhash":"e85fd153bdfb3c4a25fe36f51dc52d3a",
    "wof:hierarchy":[
        {
            "continent_id":102191581,
            "country_id":85633337,
            "localadmin_id":404474065,
            "locality_id":101754789,
            "postalcode_id":890613139,
            "region_id":85687053
        }
    ],
    "wof:id":890613139,
    "wof:lastmodified":1469667375,
    "wof:name":"1171AD",
    "wof:parent_id":101754789,
    "wof:placetype":"postalcode",
    "wof:repo":"whosonfirst-data-postalcode-nl",
    "wof:superseded_by":[],
    "wof:supersedes":[],
    "wof:tags":[]
},
  "bbox": [
    4.77256965637207,
    52.33905792236328,
    4.773172378540039,
    52.33936309814453
],
  "geometry": {"coordinates":[[[4.77272653579712,52.33936309814453],[4.77289915084839,52.33933258056641],[4.77304363250732,52.33926773071289],[4.77314376831055,52.33916854858398],[4.77317237854004,52.33906936645508],[4.77313661575317,52.33906173706055],[4.77311038970947,52.33905792236328],[4.77257776260376,52.33933258056641],[4.77256965637207,52.33935165405273],[4.77272653579712,52.33936309814453]]],"type":"Polygon"}
}