{
  "id": 890667899,
  "type": "Feature",
  "properties": {
    "clustr:alpha":0.05,
    "clustr:area":14.61,
    "clustr:count":8,
    "clustr:density":0.55,
    "clustr:perimeter":0.07,
    "edtf:cessation":"uuuu",
    "edtf:inception":"uuuu",
    "geom:area":0.0,
    "geom:bbox":"4.8162612915,52.6615333557,4.8167257309,52.661781311",
    "geom:latitude":52.661654,
    "geom:longitude":4.816486,
    "iso:country":"NL",
    "mz:hierarchy_label":1,
    "mz:is_approximate":1,
    "mz:is_clustr":1,
    "src:geom":"oa",
    "wof:belongsto":[
        85687053,
        102191581,
        404474075,
        85633337,
        101754815
    ],
    "wof:breaches":[],
    "wof:country":"NL",
    "wof:created":1469669858,
    "wof:geomhash":"348f189f441d3496a958dcf1a0a1ef92",
    "wof:hierarchy":[
        {
            "continent_id":102191581,
            "country_id":85633337,
            "localadmin_id":404474075,
            "locality_id":101754815,
            "postalcode_id":890667899,
            "region_id":85687053
        }
    ],
    "wof:id":890667899,
    "wof:lastmodified":1469669858,
    "wof:name":"1703BE",
    "wof:parent_id":101754815,
    "wof:placetype":"postalcode",
    "wof:repo":"whosonfirst-data-postalcode-nl",
    "wof:superseded_by":[],
    "wof:supersedes":[],
    "wof:tags":[]
},
  "bbox": [
    4.816261291503906,
    52.66153335571289,
    4.816725730895996,
    52.661781311035156
],
  "geometry": {"coordinates":[[[4.81638956069946,52.66160583496094],[4.816725730896,52.66178131103516],[4.81665754318237,52.6617431640625],[4.81626129150391,52.66153335571289],[4.81638956069946,52.66160583496094]]],"type":"Polygon"}
}