{
  "id": 891275227,
  "type": "Feature",
  "properties": {
    "clustr:alpha":0.05,
    "clustr:area":4.23,
    "clustr:count":14,
    "clustr:density":3.31,
    "clustr:perimeter":0.16,
    "edtf:cessation":"uuuu",
    "edtf:inception":"uuuu",
    "geom:area":0.0,
    "geom:bbox":"6.49378395081,52.7128181458,6.4947218895,52.7132263184",
    "geom:latitude":52.713073,
    "geom:longitude":6.494345,
    "iso:country":"NL",
    "mz:hierarchy_label":1,
    "mz:is_approximate":1,
    "mz:is_clustr":1,
    "src:geom":"oa",
    "wof:belongsto":[
        85687051,
        102191581,
        404473811,
        85633337,
        101837877
    ],
    "wof:breaches":[],
    "wof:country":"NL",
    "wof:created":1469694447,
    "wof:geomhash":"714cd2a891b6d77ac93b2ad40058c524",
    "wof:hierarchy":[
        {
            "continent_id":102191581,
            "country_id":85633337,
            "localadmin_id":404473811,
            "locality_id":101837877,
            "postalcode_id":891275227,
            "region_id":85687051
        }
    ],
    "wof:id":891275227,
    "wof:lastmodified":1469694447,
    "wof:name":"7906KM",
    "wof:parent_id":101837877,
    "wof:placetype":"postalcode",
    "wof:repo":"whosonfirst-data-postalcode-nl",
    "wof:superseded_by":[],
    "wof:supersedes":[],
    "wof:tags":[]
},
  "bbox": [
    6.493783950805664,
    52.71281814575195,
    6.49472188949585,
    52.713226318359375
],
  "geometry": {"coordinates":[[[6.49465322494507,52.71302795410156],[6.49469518661499,52.71292877197266],[6.49470853805542,52.71287536621094],[6.49472188949585,52.71281814575195],[6.49378395080566,52.71318817138672],[6.49385833740234,52.71319580078125],[6.49431800842285,52.71322631835938],[6.49440670013428,52.71322631835938],[6.49462509155273,52.71308135986328],[6.49465322494507,52.71302795410156]]],"type":"Polygon"}
}