{
  "id": 891195805,
  "type": "Feature",
  "properties": {
    "clustr:alpha":0.05,
    "clustr:area":24.54,
    "clustr:count":17,
    "clustr:density":0.69,
    "clustr:perimeter":0.37,
    "edtf:cessation":"uuuu",
    "edtf:inception":"uuuu",
    "geom:area":0.000001,
    "geom:bbox":"6.18805837631,51.9067726135,6.19022798538,51.9078102112",
    "geom:latitude":51.907259,
    "geom:longitude":6.188942,
    "iso:country":"NL",
    "mz:hierarchy_label":1,
    "mz:is_approximate":1,
    "mz:is_clustr":1,
    "src:geom":"oa",
    "wof:belongsto":[
        85687043,
        102191581,
        404474689,
        85633337,
        101808591
    ],
    "wof:breaches":[],
    "wof:country":"NL",
    "wof:created":1469691227,
    "wof:geomhash":"556c3b2f16e6e1139979641c99d6dfa7",
    "wof:hierarchy":[
        {
            "continent_id":102191581,
            "country_id":85633337,
            "localadmin_id":404474689,
            "locality_id":101808591,
            "postalcode_id":891195805,
            "region_id":85687043
        }
    ],
    "wof:id":891195805,
    "wof:lastmodified":1469691227,
    "wof:name":"7037AL",
    "wof:parent_id":101808591,
    "wof:placetype":"postalcode",
    "wof:repo":"whosonfirst-data-postalcode-nl",
    "wof:superseded_by":[],
    "wof:supersedes":[],
    "wof:tags":[]
},
  "bbox": [
    6.188058376312256,
    51.90677261352539,
    6.19022798538208,
    51.90781021118164
],
  "geometry": {"coordinates":[[[6.18828773498535,51.90734481811523],[6.18805837631226,51.90750885009766],[6.18829584121704,51.90781021118164],[6.19022798538208,51.90677261352539],[6.19005060195923,51.90679168701172],[6.18948078155518,51.90687561035156],[6.18919038772583,51.90694046020508],[6.18847322463989,51.9072151184082],[6.18828773498535,51.90734481811523]]],"type":"Polygon"}
}