{
  "id": 890907175,
  "type": "Feature",
  "properties": {
    "clustr:alpha":0.05,
    "clustr:area":104.56,
    "clustr:count":14,
    "clustr:density":0.13,
    "clustr:perimeter":0.29,
    "edtf:cessation":"uuuu",
    "edtf:inception":"uuuu",
    "geom:area":0.000001,
    "geom:bbox":"5.37907791138,52.1991767883,5.38018798828,52.2003822327",
    "geom:latitude":52.199611,
    "geom:longitude":5.37948,
    "iso:country":"NL",
    "mz:hierarchy_label":1,
    "mz:is_approximate":1,
    "mz:is_clustr":1,
    "src:geom":"oa",
    "wof:belongsto":[
        85687039,
        102191581,
        404473971,
        85633337,
        101751821
    ],
    "wof:breaches":[],
    "wof:country":"NL",
    "wof:created":1469679512,
    "wof:geomhash":"923df62db12592be18d11103585a4e27",
    "wof:hierarchy":[
        {
            "continent_id":102191581,
            "country_id":85633337,
            "localadmin_id":404473971,
            "locality_id":101751821,
            "postalcode_id":890907175,
            "region_id":85687039
        }
    ],
    "wof:id":890907175,
    "wof:lastmodified":1469679512,
    "wof:name":"3824XK",
    "wof:parent_id":101751821,
    "wof:placetype":"postalcode",
    "wof:repo":"whosonfirst-data-postalcode-nl",
    "wof:superseded_by":[],
    "wof:supersedes":[],
    "wof:tags":[]
},
  "bbox": [
    5.379077911376953,
    52.19917678833008,
    5.38018798828125,
    52.200382232666016
],
  "geometry": {"coordinates":[[[5.37907791137695,52.19925308227539],[5.37914800643921,52.20015716552734],[5.37916088104248,52.20022964477539],[5.37917995452881,52.20030975341797],[5.37919902801514,52.20038223266602],[5.38018798828125,52.19917678833008],[5.38005399703979,52.19918441772461],[5.37993288040161,52.19919204711914],[5.37907791137695,52.19925308227539]]],"type":"Polygon"}
}