{
  "id": 890784583,
  "type": "Feature",
  "properties": {
    "clustr:alpha":0.05,
    "clustr:area":103.29,
    "clustr:count":17,
    "clustr:density":0.16,
    "clustr:perimeter":0.19,
    "edtf:cessation":"uuuu",
    "edtf:inception":"uuuu",
    "geom:area":0.0,
    "geom:bbox":"4.25234746933,51.9733085632,4.25340175629,51.9743728638",
    "geom:latitude":51.973856,
    "geom:longitude":4.252829,
    "iso:country":"NL",
    "mz:hierarchy_label":1,
    "mz:is_approximate":1,
    "mz:is_clustr":1,
    "src:geom":"oa",
    "wof:belongsto":[
        85687041,
        102191581,
        404474667,
        85633337,
        101807027
    ],
    "wof:breaches":[],
    "wof:country":"NL",
    "wof:created":1469674663,
    "wof:geomhash":"e30ebaaee67cfafd1d0a13f7790b14f2",
    "wof:hierarchy":[
        {
            "continent_id":102191581,
            "country_id":85633337,
            "localadmin_id":404474667,
            "locality_id":101807027,
            "postalcode_id":890784583,
            "region_id":85687041
        }
    ],
    "wof:id":890784583,
    "wof:lastmodified":1469674663,
    "wof:name":"2678EP",
    "wof:parent_id":101807027,
    "wof:placetype":"postalcode",
    "wof:repo":"whosonfirst-data-postalcode-nl",
    "wof:superseded_by":[],
    "wof:supersedes":[],
    "wof:tags":[]
},
  "bbox": [
    4.252347469329834,
    51.97330856323242,
    4.253401756286621,
    51.97437286376953
],
  "geometry": {"coordinates":[[[4.25261211395264,51.9739875793457],[4.25236415863037,51.97434616088867],[4.25234746932983,51.97437286376953],[4.25321960449219,51.97351455688477],[4.25338459014893,51.97334671020508],[4.25340175628662,51.97330856323242],[4.25261211395264,51.9739875793457]]],"type":"Polygon"}
}