{
  "id": 891197351,
  "type": "Feature",
  "properties": {
    "clustr:alpha":0.05,
    "clustr:area":19.56,
    "clustr:count":16,
    "clustr:density":0.82,
    "clustr:perimeter":0.24,
    "edtf:cessation":"uuuu",
    "edtf:inception":"uuuu",
    "geom:area":0.0,
    "geom:bbox":"6.35360956192,51.9216766357,6.35532617569,51.9219894409",
    "geom:latitude":51.921798,
    "geom:longitude":6.354489,
    "iso:country":"NL",
    "mz:hierarchy_label":1,
    "mz:is_approximate":1,
    "mz:is_clustr":1,
    "src:geom":"oa",
    "wof:belongsto":[
        85687043,
        102191581,
        404474543,
        85633337,
        101837839
    ],
    "wof:breaches":[],
    "wof:country":"NL",
    "wof:created":1469691309,
    "wof:geomhash":"ed492a1e4207802a9c5633cfc8676254",
    "wof:hierarchy":[
        {
            "continent_id":102191581,
            "country_id":85633337,
            "localadmin_id":404474543,
            "locality_id":101837839,
            "postalcode_id":891197351,
            "region_id":85687043
        }
    ],
    "wof:id":891197351,
    "wof:lastmodified":1469691309,
    "wof:name":"7061BP",
    "wof:parent_id":101837839,
    "wof:placetype":"postalcode",
    "wof:repo":"whosonfirst-data-postalcode-nl",
    "wof:superseded_by":[],
    "wof:supersedes":[],
    "wof:tags":[]
},
  "bbox": [
    6.353609561920166,
    51.92167663574219,
    6.355326175689697,
    51.92198944091797
],
  "geometry": {"coordinates":[[[6.35410737991333,51.92184066772461],[6.35386848449707,51.92190933227539],[6.35369396209717,51.92196273803711],[6.35360956192017,51.92198944091797],[6.3553261756897,51.92167663574219],[6.35495662689209,51.92168807983398],[6.35477256774902,51.92170715332031],[6.35460567474365,51.92173004150391],[6.3543529510498,51.92177581787109],[6.3542628288269,51.92179870605469],[6.35410737991333,51.92184066772461]]],"type":"Polygon"}
}