{
  "id": 890848127,
  "type": "Feature",
  "properties": {
    "clustr:alpha":0.05,
    "clustr:area":1.19,
    "clustr:count":24,
    "clustr:density":20.13,
    "clustr:perimeter":0.26,
    "edtf:cessation":"uuuu",
    "edtf:inception":"uuuu",
    "geom:area":0.0,
    "geom:bbox":"4.41323518753,51.8272476196,4.41361665726,51.8283958435",
    "geom:latitude":51.827825,
    "geom:longitude":4.413437,
    "iso:country":"NL",
    "mz:hierarchy_label":1,
    "mz:is_approximate":1,
    "mz:is_clustr":1,
    "src:geom":"oa",
    "wof:belongsto":[
        85687041,
        102191581,
        404474231,
        85633337,
        101754705
    ],
    "wof:breaches":[],
    "wof:country":"NL",
    "wof:created":1469677050,
    "wof:geomhash":"2e2f094f8efbde10ca7fd0b3c59e8de7",
    "wof:hierarchy":[
        {
            "continent_id":102191581,
            "country_id":85633337,
            "localadmin_id":404474231,
            "locality_id":101754705,
            "postalcode_id":890848127,
            "region_id":85687041
        }
    ],
    "wof:id":890848127,
    "wof:lastmodified":1469677050,
    "wof:name":"3261EX",
    "wof:parent_id":101754705,
    "wof:placetype":"postalcode",
    "wof:repo":"whosonfirst-data-postalcode-nl",
    "wof:superseded_by":[],
    "wof:supersedes":[],
    "wof:tags":[]
},
  "bbox": [
    4.413235187530518,
    51.827247619628906,
    4.41361665725708,
    51.82839584350586
],
  "geometry": {"coordinates":[[[4.41361665725708,51.828369140625],[4.41340923309326,51.82756805419922],[4.41323518753052,51.82724761962891],[4.4134840965271,51.82811737060547],[4.41360902786255,51.82839584350586],[4.41361665725708,51.828369140625]]],"type":"Polygon"}
}