{
  "id": 890998685,
  "type": "Feature",
  "properties": {
    "clustr:alpha":0.05,
    "clustr:area":5.64,
    "clustr:count":12,
    "clustr:density":2.13,
    "clustr:perimeter":0.66,
    "edtf:cessation":"uuuu",
    "edtf:inception":"uuuu",
    "geom:area":0.000003,
    "geom:bbox":"4.86824083328,51.6998329163,4.87103652954,51.702922821",
    "geom:latitude":51.701456,
    "geom:longitude":4.869287,
    "iso:country":"NL",
    "mz:hierarchy_label":1,
    "mz:is_approximate":1,
    "mz:is_clustr":1,
    "src:geom":"oa",
    "wof:belongsto":[
        85687035,
        102191581,
        404474379,
        85633337,
        101839411
    ],
    "wof:breaches":[],
    "wof:country":"NL",
    "wof:created":1469683418,
    "wof:geomhash":"5fbcc78ba3107967935b0f693f27dab2",
    "wof:hierarchy":[
        {
            "continent_id":102191581,
            "country_id":85633337,
            "localadmin_id":404474379,
            "locality_id":101839411,
            "postalcode_id":890998685,
            "region_id":85687035
        }
    ],
    "wof:id":890998685,
    "wof:lastmodified":1469683418,
    "wof:name":"4941GB",
    "wof:parent_id":101839411,
    "wof:placetype":"postalcode",
    "wof:repo":"whosonfirst-data-postalcode-nl",
    "wof:superseded_by":[],
    "wof:supersedes":[],
    "wof:tags":[]
},
  "bbox": [
    4.868240833282471,
    51.699832916259766,
    4.871036529541016,
    51.70292282104492
],
  "geometry": {"coordinates":[[[4.86842107772827,51.70292282104492],[4.86927318572998,51.70222473144531],[4.87103652954102,51.69983291625977],[4.86824083328247,51.70149612426758],[4.86842107772827,51.70292282104492]]],"type":"Polygon"}
}