{
  "id": 890749663,
  "type": "Feature",
  "properties": {
    "clustr:alpha":0.05,
    "clustr:area":79.35,
    "clustr:count":17,
    "clustr:density":0.21,
    "clustr:perimeter":0.14,
    "edtf:cessation":"uuuu",
    "edtf:inception":"uuuu",
    "geom:area":0.0,
    "geom:bbox":"4.70172691345,52.168056488,4.70257425308,52.1690406799",
    "geom:latitude":52.16858,
    "geom:longitude":4.702144,
    "iso:country":"NL",
    "mz:hierarchy_label":1,
    "mz:is_approximate":1,
    "mz:is_clustr":1,
    "src:geom":"oa",
    "wof:belongsto":[
        85687041,
        102191581,
        404474217,
        85633337,
        101807015
    ],
    "wof:breaches":[],
    "wof:country":"NL",
    "wof:created":1469673325,
    "wof:geomhash":"9351c9e56a2714ffb307cb987be67b4d",
    "wof:hierarchy":[
        {
            "continent_id":102191581,
            "country_id":85633337,
            "localadmin_id":404474217,
            "locality_id":101807015,
            "postalcode_id":890749663,
            "region_id":85687041
        }
    ],
    "wof:id":890749663,
    "wof:lastmodified":1469673325,
    "wof:name":"2461BN",
    "wof:parent_id":101807015,
    "wof:placetype":"postalcode",
    "wof:repo":"whosonfirst-data-postalcode-nl",
    "wof:superseded_by":[],
    "wof:supersedes":[],
    "wof:tags":[]
},
  "bbox": [
    4.701726913452148,
    52.16805648803711,
    4.702574253082275,
    52.16904067993164
],
  "geometry": {"coordinates":[[[4.70182847976685,52.1681022644043],[4.70172691345215,52.16805648803711],[4.70214033126831,52.16875076293945],[4.70238590240479,52.16892242431641],[4.70257425308228,52.16904067993164],[4.70256042480469,52.16898727416992],[4.70182847976685,52.1681022644043]]],"type":"Polygon"}
}