{
  "id": 891046861,
  "type": "Feature",
  "properties": {
    "clustr:alpha":0.05,
    "clustr:area":46.73,
    "clustr:count":9,
    "clustr:density":0.19,
    "clustr:perimeter":0.09,
    "edtf:cessation":"uuuu",
    "edtf:inception":"uuuu",
    "geom:area":0.0,
    "geom:bbox":"5.77167463303,51.6879615784,5.77210998535,51.6883735657",
    "geom:latitude":51.688163,
    "geom:longitude":5.771823,
    "iso:country":"NL",
    "mz:hierarchy_label":1,
    "mz:is_approximate":1,
    "mz:is_clustr":1,
    "src:geom":"oa",
    "wof:belongsto":[
        85687035,
        102191581,
        404474403,
        85633337,
        101808275
    ],
    "wof:breaches":[],
    "wof:country":"NL",
    "wof:created":1469685258,
    "wof:geomhash":"5bae5135e40ceb89924706d1f95e2954",
    "wof:hierarchy":[
        {
            "continent_id":102191581,
            "country_id":85633337,
            "localadmin_id":404474403,
            "locality_id":101808275,
            "postalcode_id":891046861,
            "region_id":85687035
        }
    ],
    "wof:id":891046861,
    "wof:lastmodified":1469685258,
    "wof:name":"5451VV",
    "wof:parent_id":101808275,
    "wof:placetype":"postalcode",
    "wof:repo":"whosonfirst-data-postalcode-nl",
    "wof:superseded_by":[],
    "wof:supersedes":[],
    "wof:tags":[]
},
  "bbox": [
    5.771674633026123,
    51.68796157836914,
    5.772109985351562,
    51.68837356567383
],
  "geometry": {"coordinates":[[[5.77203798294067,51.68819427490234],[5.77210998535156,51.68814849853516],[5.77167463302612,51.68796157836914],[5.77167797088623,51.68837356567383],[5.77203798294067,51.68819427490234]]],"type":"Polygon"}
}