{
  "id": 891239007,
  "type": "Feature",
  "properties": {
    "clustr:alpha":0.05,
    "clustr:area":34.36,
    "clustr:count":14,
    "clustr:density":0.41,
    "clustr:perimeter":0.17,
    "edtf:cessation":"uuuu",
    "edtf:inception":"uuuu",
    "geom:area":0.0,
    "geom:bbox":"6.91352462769,52.2097129822,6.91395616531,52.21068573",
    "geom:latitude":52.210158,
    "geom:longitude":6.913772,
    "iso:country":"NL",
    "mz:hierarchy_label":1,
    "mz:is_approximate":1,
    "mz:is_clustr":1,
    "src:geom":"oa",
    "wof:belongsto":[
        85687045,
        102191581,
        404473827,
        85633337,
        101751871
    ],
    "wof:breaches":[],
    "wof:country":"NL",
    "wof:created":1469692969,
    "wof:geomhash":"8d1437b03637c5487fb3352a92e9419c",
    "wof:hierarchy":[
        {
            "continent_id":102191581,
            "country_id":85633337,
            "localadmin_id":404473827,
            "locality_id":101751871,
            "postalcode_id":891239007,
            "region_id":85687045
        }
    ],
    "wof:id":891239007,
    "wof:lastmodified":1469692969,
    "wof:name":"7535ZN",
    "wof:parent_id":101751871,
    "wof:placetype":"postalcode",
    "wof:repo":"whosonfirst-data-postalcode-nl",
    "wof:superseded_by":[],
    "wof:supersedes":[],
    "wof:tags":[]
},
  "bbox": [
    6.913524627685547,
    52.209712982177734,
    6.913956165313721,
    52.21068572998047
],
  "geometry": {"coordinates":[[[6.91394901275635,52.20979690551758],[6.91395473480225,52.20975494384766],[6.91395616531372,52.20971298217773],[6.91366147994995,52.21036911010742],[6.91352462768555,52.21068572998047],[6.91354846954346,52.21064758300781],[6.91373157501221,52.21029663085938],[6.91394901275635,52.20979690551758]]],"type":"Polygon"}
}