{
  "id": 890730109,
  "type": "Feature",
  "properties": {
    "clustr:alpha":0.05,
    "clustr:area":79.13,
    "clustr:count":27,
    "clustr:density":0.34,
    "clustr:perimeter":0.24,
    "edtf:cessation":"uuuu",
    "edtf:inception":"uuuu",
    "geom:area":0.000001,
    "geom:bbox":"4.34328889847,52.0577430725,4.34512329102,52.058467865",
    "geom:latitude":52.058104,
    "geom:longitude":4.34411,
    "iso:country":"NL",
    "mz:hierarchy_label":1,
    "mz:is_approximate":1,
    "mz:is_clustr":1,
    "src:geom":"oa",
    "wof:belongsto":[
        85687041,
        102191581,
        404474251,
        85633337,
        101754743
    ],
    "wof:breaches":[],
    "wof:country":"NL",
    "wof:created":1469672557,
    "wof:geomhash":"19c390a5be24cb56b453d64c584273b8",
    "wof:hierarchy":[
        {
            "continent_id":102191581,
            "country_id":85633337,
            "localadmin_id":404474251,
            "locality_id":101754743,
            "postalcode_id":890730109,
            "region_id":85687041
        }
    ],
    "wof:id":890730109,
    "wof:lastmodified":1469672557,
    "wof:name":"2281CZ",
    "wof:parent_id":101754743,
    "wof:placetype":"postalcode",
    "wof:repo":"whosonfirst-data-postalcode-nl",
    "wof:superseded_by":[],
    "wof:supersedes":[],
    "wof:tags":[]
},
  "bbox": [
    4.343288898468018,
    52.057743072509766,
    4.345123291015625,
    52.058467864990234
],
  "geometry": {"coordinates":[[[4.34328889846802,52.05820083618164],[4.34330987930298,52.05826568603516],[4.34360074996948,52.05837631225586],[4.34388542175293,52.05846786499023],[4.34512329101562,52.05807113647461],[4.34497213363647,52.05800628662109],[4.34482336044312,52.05794525146484],[4.34474658966065,52.05791473388672],[4.34389972686768,52.05774307250977],[4.34328889846802,52.05820083618164]]],"type":"Polygon"}
}