{
  "id": 891256523,
  "type": "Feature",
  "properties": {
    "clustr:alpha":0.05,
    "clustr:area":37.16,
    "clustr:count":12,
    "clustr:density":0.32,
    "clustr:perimeter":0.31,
    "edtf:cessation":"uuuu",
    "edtf:inception":"uuuu",
    "geom:area":0.000001,
    "geom:bbox":"6.5807723999,52.3642845154,6.5821852684,52.3655319214",
    "geom:latitude":52.36489,
    "geom:longitude":6.581533,
    "iso:country":"NL",
    "mz:hierarchy_label":1,
    "mz:is_approximate":1,
    "mz:is_clustr":1,
    "src:geom":"oa",
    "wof:belongsto":[
        85687045,
        102191581,
        404473859,
        85633337,
        101754779
    ],
    "wof:breaches":[],
    "wof:country":"NL",
    "wof:created":1469693662,
    "wof:geomhash":"f759b7d4802515d97cf442c833116868",
    "wof:hierarchy":[
        {
            "continent_id":102191581,
            "country_id":85633337,
            "localadmin_id":404473859,
            "locality_id":101754779,
            "postalcode_id":891256523,
            "region_id":85687045
        }
    ],
    "wof:id":891256523,
    "wof:lastmodified":1469693662,
    "wof:name":"7641SH",
    "wof:parent_id":101754779,
    "wof:placetype":"postalcode",
    "wof:repo":"whosonfirst-data-postalcode-nl",
    "wof:superseded_by":[],
    "wof:supersedes":[],
    "wof:tags":[]
},
  "bbox": [
    6.580772399902344,
    52.36428451538086,
    6.5821852684021,
    52.36553192138672
],
  "geometry": {"coordinates":[[[6.58207416534424,52.36479187011719],[6.5821852684021,52.36456680297852],[6.58159065246582,52.36428451538086],[6.58077239990234,52.36553192138672],[6.58102035522461,52.3654670715332],[6.58122396469116,52.36538314819336],[6.5814414024353,52.36529159545898],[6.58163022994995,52.36520767211914],[6.58180284500122,52.36508178710938],[6.58207416534424,52.36479187011719]]],"type":"Polygon"}
}