{
  "id": 890608663,
  "type": "Feature",
  "properties": {
    "clustr:alpha":0.05,
    "clustr:area":29.37,
    "clustr:count":26,
    "clustr:density":0.89,
    "clustr:perimeter":0.22,
    "edtf:cessation":"uuuu",
    "edtf:inception":"uuuu",
    "geom:area":0.0,
    "geom:bbox":"4.97437953949,52.3330917358,4.97544908524,52.3340454102",
    "geom:latitude":52.333607,
    "geom:longitude":4.974955,
    "iso:country":"NL",
    "mz:hierarchy_label":1,
    "mz:is_approximate":1,
    "mz:is_clustr":1,
    "src:geom":"oa",
    "wof:belongsto":[
        102191581,
        404474055,
        85633337,
        85687053
    ],
    "wof:breaches":[],
    "wof:country":"NL",
    "wof:created":1469667185,
    "wof:geomhash":"b5df2cb5903768e1863a2b7abc799803",
    "wof:hierarchy":[
        {
            "continent_id":102191581,
            "country_id":85633337,
            "localadmin_id":404474055,
            "postalcode_id":890608663,
            "region_id":85687053
        }
    ],
    "wof:id":890608663,
    "wof:lastmodified":1469667185,
    "wof:name":"1112WS",
    "wof:parent_id":404474055,
    "wof:placetype":"postalcode",
    "wof:repo":"whosonfirst-data-postalcode-nl",
    "wof:superseded_by":[],
    "wof:supersedes":[],
    "wof:tags":[]
},
  "bbox": [
    4.974379539489746,
    52.333091735839844,
    4.975449085235596,
    52.33404541015625
],
  "geometry": {"coordinates":[[[4.9750509262085,52.33345413208008],[4.97496843338013,52.33334732055664],[4.97437953948975,52.33309173583984],[4.97456169128418,52.33334732055664],[4.97459650039673,52.33339309692383],[4.97470569610596,52.33353424072266],[4.97512340545654,52.33404541015625],[4.9754490852356,52.3339729309082],[4.97532749176025,52.33381271362305],[4.9750509262085,52.33345413208008]]],"type":"Polygon"}
}