{
  "id": 890954789,
  "type": "Feature",
  "properties": {
    "clustr:alpha":0.05,
    "clustr:area":26.2,
    "clustr:count":14,
    "clustr:density":0.53,
    "clustr:perimeter":0.19,
    "edtf:cessation":"uuuu",
    "edtf:inception":"uuuu",
    "geom:area":0.0,
    "geom:bbox":"3.6056060791,51.4666061401,3.60632991791,51.4676399231",
    "geom:latitude":51.467159,
    "geom:longitude":3.605954,
    "iso:country":"NL",
    "mz:hierarchy_label":1,
    "mz:is_approximate":1,
    "mz:is_clustr":1,
    "src:geom":"oa",
    "wof:belongsto":[
        85687037,
        102191581,
        404474335,
        85633337,
        101839443
    ],
    "wof:breaches":[],
    "wof:country":"NL",
    "wof:created":1469681389,
    "wof:geomhash":"b6026022313ac2e3e1e3025332789df1",
    "wof:hierarchy":[
        {
            "continent_id":102191581,
            "country_id":85633337,
            "localadmin_id":404474335,
            "locality_id":101839443,
            "postalcode_id":890954789,
            "region_id":85687037
        }
    ],
    "wof:id":890954789,
    "wof:lastmodified":1469681389,
    "wof:name":"4388NS",
    "wof:parent_id":101839443,
    "wof:placetype":"postalcode",
    "wof:repo":"whosonfirst-data-postalcode-nl",
    "wof:superseded_by":[],
    "wof:supersedes":[],
    "wof:tags":[]
},
  "bbox": [
    3.605606079101562,
    51.46660614013672,
    3.606329917907715,
    51.4676399230957
],
  "geometry": {"coordinates":[[[3.60585403442383,51.46711730957031],[3.606041431427,51.46734619140625],[3.60612535476685,51.46744537353516],[3.60621500015259,51.46753692626953],[3.60626077651977,51.46758270263672],[3.60632991790771,51.4676399230957],[3.60560607910156,51.46660614013672],[3.60585403442383,51.46711730957031]]],"type":"Polygon"}
}