{
  "id": 891025113,
  "type": "Feature",
  "properties": {
    "clustr:alpha":0.05,
    "clustr:area":37.75,
    "clustr:count":8,
    "clustr:density":0.21,
    "clustr:perimeter":0.25,
    "edtf:cessation":"uuuu",
    "edtf:inception":"uuuu",
    "geom:area":0.0,
    "geom:bbox":"5.35168981552,51.7132568359,5.35269117355,51.7143936157",
    "geom:latitude":51.713839,
    "geom:longitude":5.352177,
    "iso:country":"NL",
    "mz:hierarchy_label":1,
    "mz:is_approximate":1,
    "mz:is_clustr":1,
    "src:geom":"oa",
    "wof:belongsto":[
        85687035,
        102191581,
        404474393,
        85633337,
        101754587
    ],
    "wof:breaches":[],
    "wof:country":"NL",
    "wof:created":1469684435,
    "wof:geomhash":"fc560a40ce98418b765434c099c7c15f",
    "wof:hierarchy":[
        {
            "continent_id":102191581,
            "country_id":85633337,
            "localadmin_id":404474393,
            "locality_id":101754587,
            "postalcode_id":891025113,
            "region_id":85687035
        }
    ],
    "wof:id":891025113,
    "wof:lastmodified":1469684435,
    "wof:name":"5241AK",
    "wof:parent_id":101754587,
    "wof:placetype":"postalcode",
    "wof:repo":"whosonfirst-data-postalcode-nl",
    "wof:superseded_by":[],
    "wof:supersedes":[],
    "wof:tags":[]
},
  "bbox": [
    5.35168981552124,
    51.7132568359375,
    5.352691173553467,
    51.714393615722656
],
  "geometry": {"coordinates":[[[5.3519606590271,51.71405410766602],[5.35168981552124,51.71439361572266],[5.3518762588501,51.71424865722656],[5.35242080688477,51.71358489990234],[5.35269117355347,51.7132568359375],[5.35250520706177,51.71340560913086],[5.3519606590271,51.71405410766602]]],"type":"Polygon"}
}