{
  "id": 890826835,
  "type": "Feature",
  "properties": {
    "clustr:alpha":0.05,
    "clustr:area":9.9,
    "clustr:count":77,
    "clustr:density":7.77,
    "clustr:perimeter":0.53,
    "edtf:cessation":"uuuu",
    "edtf:inception":"uuuu",
    "geom:area":0.000001,
    "geom:bbox":"4.56981277466,51.8960151672,4.57087993622,51.8983230591",
    "geom:latitude":51.897224,
    "geom:longitude":4.570317,
    "iso:country":"NL",
    "mz:hierarchy_label":1,
    "mz:is_approximate":1,
    "mz:is_clustr":1,
    "src:geom":"oa",
    "wof:belongsto":[
        85687041,
        102191581,
        404474245,
        85633337,
        101760473
    ],
    "wof:breaches":[],
    "wof:country":"NL",
    "wof:created":1469676258,
    "wof:geomhash":"80c0ec3dce4f5a70a65f0b1f157d0eda",
    "wof:hierarchy":[
        {
            "continent_id":102191581,
            "country_id":85633337,
            "localadmin_id":404474245,
            "locality_id":101760473,
            "postalcode_id":890826835,
            "region_id":85687041
        }
    ],
    "wof:id":890826835,
    "wof:lastmodified":1469676258,
    "wof:name":"3077JL",
    "wof:parent_id":101760473,
    "wof:placetype":"postalcode",
    "wof:repo":"whosonfirst-data-postalcode-nl",
    "wof:superseded_by":[],
    "wof:supersedes":[],
    "wof:tags":[]
},
  "bbox": [
    4.569812774658203,
    51.89601516723633,
    4.570879936218262,
    51.89832305908203
],
  "geometry": {"coordinates":[[[4.57036161422729,51.89805603027344],[4.57046556472778,51.89832305908203],[4.57087993621826,51.89828872680664],[4.57055902481079,51.89730834960938],[4.57051372528076,51.89717102050781],[4.57032918930054,51.89661026000977],[4.57023763656616,51.89633178710938],[4.57013368606567,51.89601516723633],[4.5698127746582,51.89619827270508],[4.56991147994995,51.89667510986328],[4.57022190093994,51.89762496948242],[4.57036161422729,51.89805603027344]]],"type":"Polygon"}
}