{
  "id": 890680267,
  "type": "Feature",
  "properties": {
    "clustr:alpha":0.05,
    "clustr:area":37.06,
    "clustr:count":9,
    "clustr:density":0.24,
    "clustr:perimeter":0.26,
    "edtf:cessation":"uuuu",
    "edtf:inception":"uuuu",
    "geom:area":0.0,
    "geom:bbox":"4.75848579407,53.0930595398,4.76032114029,53.09375",
    "geom:latitude":53.093429,
    "geom:longitude":4.759472,
    "iso:country":"NL",
    "mz:hierarchy_label":1,
    "mz:is_approximate":1,
    "mz:is_clustr":1,
    "src:geom":"oa",
    "wof:belongsto":[
        85687053,
        102191581,
        404474115,
        85633337,
        101806063
    ],
    "wof:breaches":[],
    "wof:country":"NL",
    "wof:created":1469670403,
    "wof:geomhash":"c29e970b4097732719ebf35bf68d8f3f",
    "wof:hierarchy":[
        {
            "continent_id":102191581,
            "country_id":85633337,
            "localadmin_id":404474115,
            "locality_id":101806063,
            "postalcode_id":890680267,
            "region_id":85687053
        }
    ],
    "wof:id":890680267,
    "wof:lastmodified":1469670403,
    "wof:name":"1796AS",
    "wof:parent_id":101806063,
    "wof:placetype":"postalcode",
    "wof:repo":"whosonfirst-data-postalcode-nl",
    "wof:superseded_by":[],
    "wof:supersedes":[],
    "wof:tags":[]
},
  "bbox": [
    4.758485794067383,
    53.09305953979492,
    4.760321140289307,
    53.09375
],
  "geometry": {"coordinates":[[[4.76032114028931,53.09375],[4.75999355316162,53.09357452392578],[4.75874948501587,53.09313583374023],[4.75848579406738,53.09305953979492],[4.75915241241455,53.09335708618164],[4.76013851165771,53.09370803833008],[4.76032114028931,53.09375]]],"type":"Polygon"}
}