{
  "id": 907079493,
  "type": "Feature",
  "properties": {
    "clustr:alpha":0.05,
    "clustr:area":37.09,
    "clustr:count":12,
    "clustr:density":0.32,
    "clustr:perimeter":0.17,
    "edtf:cessation":"uuuu",
    "edtf:inception":"uuuu",
    "geom:area":0.0,
    "geom:bbox":"5.92988538742,53.2133789062,5.93028926849,53.2140884399",
    "geom:latitude":53.213849,
    "geom:longitude":5.930142,
    "iso:country":"NL",
    "mz:hierarchy_label":1,
    "mz:is_approximate":1,
    "mz:is_clustr":1,
    "src:geom":"oa",
    "wof:belongsto":[
        85687055,
        102191581,
        404474343,
        85633337,
        101806143
    ],
    "wof:breaches":[],
    "wof:country":"NL",
    "wof:created":1469698214,
    "wof:geomhash":"692e0639bbb64dd83ce276aa88dd8bf3",
    "wof:hierarchy":[
        {
            "continent_id":102191581,
            "country_id":85633337,
            "localadmin_id":404474343,
            "locality_id":101806143,
            "postalcode_id":907079493,
            "region_id":85687055
        }
    ],
    "wof:id":907079493,
    "wof:lastmodified":1469698214,
    "wof:name":"9254JT",
    "wof:parent_id":101806143,
    "wof:placetype":"postalcode",
    "wof:repo":"whosonfirst-data-postalcode-nl",
    "wof:superseded_by":[],
    "wof:supersedes":[],
    "wof:tags":[]
},
  "bbox": [
    5.929885387420654,
    53.21337890625,
    5.930289268493652,
    53.214088439941406
],
  "geometry": {"coordinates":[[[5.93019962310791,53.21408843994141],[5.93028926849365,53.21408843994141],[5.93026971817017,53.21369934082031],[5.93025064468384,53.21337890625],[5.92988538742065,53.21408081054688],[5.93019962310791,53.21408843994141]]],"type":"Polygon"}
}