{
  "id": 907049541,
  "type": "Feature",
  "properties": {
    "clustr:alpha":0.05,
    "clustr:area":61.02,
    "clustr:count":33,
    "clustr:density":0.54,
    "clustr:perimeter":1.45,
    "edtf:cessation":"uuuu",
    "edtf:inception":"uuuu",
    "geom:area":0.000003,
    "geom:bbox":"5.98550891876,52.8758888245,5.99038314819,52.8819389343",
    "geom:latitude":52.879665,
    "geom:longitude":5.987416,
    "iso:country":"NL",
    "mz:hierarchy_label":1,
    "mz:is_approximate":1,
    "mz:is_clustr":1,
    "src:geom":"oa",
    "wof:belongsto":[
        85687055,
        102191581,
        404473801,
        85633337,
        101808823
    ],
    "wof:breaches":[],
    "wof:country":"NL",
    "wof:created":1469696777,
    "wof:geomhash":"e03716f42beae00b8a957745853082b3",
    "wof:hierarchy":[
        {
            "continent_id":102191581,
            "country_id":85633337,
            "localadmin_id":404473801,
            "locality_id":101808823,
            "postalcode_id":907049541,
            "region_id":85687055
        }
    ],
    "wof:id":907049541,
    "wof:lastmodified":1469696777,
    "wof:name":"8471EM",
    "wof:parent_id":101808823,
    "wof:placetype":"postalcode",
    "wof:repo":"whosonfirst-data-postalcode-nl",
    "wof:superseded_by":[],
    "wof:supersedes":[],
    "wof:tags":[]
},
  "bbox": [
    5.985508918762207,
    52.87588882446289,
    5.990383148193359,
    52.88193893432617
],
  "geometry": {"coordinates":[[[5.98605489730835,52.88193893432617],[5.98610305786133,52.88187026977539],[5.99038314819336,52.87588882446289],[5.99015998840332,52.87612152099609],[5.98974514007568,52.87657928466797],[5.98924875259399,52.87713241577148],[5.98917722702026,52.87721633911133],[5.98670244216919,52.88018417358398],[5.98550891876221,52.88162994384766],[5.98605489730835,52.88193893432617]]],"type":"Polygon"}
}