{
  "id": 891263243,
  "type": "Feature",
  "properties": {
    "clustr:alpha":0.05,
    "clustr:area":2.52,
    "clustr:count":14,
    "clustr:density":5.56,
    "clustr:perimeter":0.12,
    "edtf:cessation":"uuuu",
    "edtf:inception":"uuuu",
    "geom:area":0.0,
    "geom:bbox":"6.41109704971,52.5279884338,6.41186189651,52.5282173157",
    "geom:latitude":52.528076,
    "geom:longitude":6.411406,
    "iso:country":"NL",
    "mz:hierarchy_label":1,
    "mz:is_approximate":1,
    "mz:is_clustr":1,
    "src:geom":"oa",
    "wof:belongsto":[
        85687045,
        102191581,
        404473847,
        85633337,
        101807231
    ],
    "wof:breaches":[],
    "wof:country":"NL",
    "wof:created":1469693942,
    "wof:geomhash":"0aba2d6fb3edbb7b92b142a962c3260c",
    "wof:hierarchy":[
        {
            "continent_id":102191581,
            "country_id":85633337,
            "localadmin_id":404473847,
            "locality_id":101807231,
            "postalcode_id":891263243,
            "region_id":85687045
        }
    ],
    "wof:id":891263243,
    "wof:lastmodified":1469693942,
    "wof:name":"7731XZ",
    "wof:parent_id":101807231,
    "wof:placetype":"postalcode",
    "wof:repo":"whosonfirst-data-postalcode-nl",
    "wof:superseded_by":[],
    "wof:supersedes":[],
    "wof:tags":[]
},
  "bbox": [
    6.411097049713135,
    52.52798843383789,
    6.411861896514893,
    52.52821731567383
],
  "geometry": {"coordinates":[[[6.41111612319946,52.528076171875],[6.41109704971313,52.5281867980957],[6.4111385345459,52.52821731567383],[6.41186189651489,52.52803421020508],[6.41186094284058,52.52799987792969],[6.4116473197937,52.52798843383789],[6.41112804412842,52.52801132202148],[6.41111612319946,52.528076171875]]],"type":"Polygon"}
}