{
  "id": 907051475,
  "type": "Feature",
  "properties": {
    "clustr:alpha":0.05,
    "clustr:area":14.95,
    "clustr:count":25,
    "clustr:density":1.67,
    "clustr:perimeter":0.49,
    "edtf:cessation":"uuuu",
    "edtf:inception":"uuuu",
    "geom:area":0.000001,
    "geom:bbox":"5.81130552292,52.9643783569,5.81319999695,52.9663581848",
    "geom:latitude":52.965168,
    "geom:longitude":5.812208,
    "iso:country":"NL",
    "mz:hierarchy_label":1,
    "mz:is_approximate":1,
    "mz:is_clustr":1,
    "src:geom":"oa",
    "wof:belongsto":[
        85687055,
        102191581,
        404473745,
        85633337,
        101806179
    ],
    "wof:breaches":[],
    "wof:country":"NL",
    "wof:created":1469696873,
    "wof:geomhash":"e5600b2bd11cb9b841bfddc781f313b6",
    "wof:hierarchy":[
        {
            "continent_id":102191581,
            "country_id":85633337,
            "localadmin_id":404473745,
            "locality_id":101806179,
            "postalcode_id":907051475,
            "region_id":85687055
        }
    ],
    "wof:id":907051475,
    "wof:lastmodified":1469696873,
    "wof:name":"8501TD",
    "wof:parent_id":101806179,
    "wof:placetype":"postalcode",
    "wof:repo":"whosonfirst-data-postalcode-nl",
    "wof:superseded_by":[],
    "wof:supersedes":[],
    "wof:tags":[]
},
  "bbox": [
    5.811305522918701,
    52.964378356933594,
    5.813199996948242,
    52.96635818481445
],
  "geometry": {"coordinates":[[[5.81319999694824,52.96633148193359],[5.81304883956909,52.96610641479492],[5.81212759017944,52.96474456787109],[5.81133508682251,52.96437835693359],[5.8113055229187,52.96438598632812],[5.81148624420166,52.96460342407227],[5.81319999694824,52.96635818481445],[5.81319999694824,52.96633148193359]]],"type":"Polygon"}
}