{
  "id": 907046543,
  "type": "Feature",
  "properties": {
    "clustr:alpha":0.05,
    "clustr:area":8.4,
    "clustr:count":36,
    "clustr:density":4.28,
    "clustr:perimeter":0.35,
    "edtf:cessation":"uuuu",
    "edtf:inception":"uuuu",
    "geom:area":0.000001,
    "geom:bbox":"6.33644723892,53.0658531189,6.33778333664,53.06690979",
    "geom:latitude":53.066425,
    "geom:longitude":6.337147,
    "iso:country":"NL",
    "mz:hierarchy_label":1,
    "mz:is_approximate":1,
    "mz:is_clustr":1,
    "src:geom":"oa",
    "wof:belongsto":[
        85687055,
        102191581,
        404473785,
        85633337,
        101806149
    ],
    "wof:breaches":[],
    "wof:country":"NL",
    "wof:created":1469696621,
    "wof:geomhash":"532e45761b5f47206fc517ef057029b1",
    "wof:hierarchy":[
        {
            "continent_id":102191581,
            "country_id":85633337,
            "localadmin_id":404473785,
            "locality_id":101806149,
            "postalcode_id":907046543,
            "region_id":85687055
        }
    ],
    "wof:id":907046543,
    "wof:lastmodified":1469696621,
    "wof:name":"8433MJ",
    "wof:parent_id":101806149,
    "wof:placetype":"postalcode",
    "wof:repo":"whosonfirst-data-postalcode-nl",
    "wof:superseded_by":[],
    "wof:supersedes":[],
    "wof:tags":[]
},
  "bbox": [
    6.336447238922119,
    53.065853118896484,
    6.337783336639404,
    53.06690979003906
],
  "geometry": {"coordinates":[[[6.33651828765869,53.0669059753418],[6.33776712417603,53.06675720214844],[6.3377833366394,53.06654739379883],[6.33778190612793,53.06647491455078],[6.33762168884277,53.06585311889648],[6.33667516708374,53.06610107421875],[6.33658266067505,53.06622695922852],[6.33644723892212,53.06690979003906],[6.33651828765869,53.0669059753418]]],"type":"Polygon"}
}