{
  "id": 891155917,
  "type": "Feature",
  "properties": {
    "clustr:alpha":0.05,
    "clustr:area":4.78,
    "clustr:count":87,
    "clustr:density":18.2,
    "clustr:perimeter":0.53,
    "edtf:cessation":"uuuu",
    "edtf:inception":"uuuu",
    "geom:area":0.000002,
    "geom:bbox":"5.75539207458,51.8042449951,5.75742816925,51.8060455322",
    "geom:latitude":51.805285,
    "geom:longitude":5.756158,
    "iso:country":"NL",
    "mz:hierarchy_label":1,
    "mz:is_approximate":1,
    "mz:is_clustr":1,
    "src:geom":"oa",
    "wof:belongsto":[
        85687043,
        102191581,
        404473953,
        85633337,
        101754751
    ],
    "wof:breaches":[],
    "wof:country":"NL",
    "wof:created":1469689595,
    "wof:geomhash":"95456edf66a2691c5ce7f4aa123674b0",
    "wof:hierarchy":[
        {
            "continent_id":102191581,
            "country_id":85633337,
            "localadmin_id":404473953,
            "locality_id":101754751,
            "postalcode_id":891155917,
            "region_id":85687043
        }
    ],
    "wof:id":891155917,
    "wof:lastmodified":1469689595,
    "wof:name":"6603CD",
    "wof:parent_id":101754751,
    "wof:placetype":"postalcode",
    "wof:repo":"whosonfirst-data-postalcode-nl",
    "wof:superseded_by":[],
    "wof:supersedes":[],
    "wof:tags":[]
},
  "bbox": [
    5.755392074584961,
    51.80424499511719,
    5.757428169250488,
    51.80604553222656
],
  "geometry": {"coordinates":[[[5.75578737258911,51.80577850341797],[5.75742816925049,51.80604553222656],[5.75643301010132,51.80492401123047],[5.75544166564941,51.80424499511719],[5.75539207458496,51.80526733398438],[5.75542116165161,51.80531311035156],[5.75574350357056,51.80573654174805],[5.75578737258911,51.80577850341797]]],"type":"Polygon"}
}