{
  "id": 907103971,
  "type": "Feature",
  "properties": {
    "clustr:alpha":0.05,
    "clustr:area":168.35,
    "clustr:count":18,
    "clustr:density":0.11,
    "clustr:perimeter":0.14,
    "edtf:cessation":"uuuu",
    "edtf:inception":"uuuu",
    "geom:area":0.0,
    "geom:bbox":"7.03108119965,53.1462287903,7.0328245163,53.1463851929",
    "geom:latitude":53.146307,
    "geom:longitude":7.032053,
    "iso:country":"NL",
    "mz:hierarchy_label":1,
    "mz:is_approximate":1,
    "mz:is_clustr":1,
    "src:geom":"oa",
    "wof:belongsto":[
        85687059,
        102191581,
        404473747,
        85633337,
        101838027
    ],
    "wof:breaches":[],
    "wof:country":"NL",
    "wof:created":1469699607,
    "wof:geomhash":"0f0d40c07b00247d7634499cd8560628",
    "wof:hierarchy":[
        {
            "continent_id":102191581,
            "country_id":85633337,
            "localadmin_id":404473747,
            "locality_id":101838027,
            "postalcode_id":907103971,
            "region_id":85687059
        }
    ],
    "wof:id":907103971,
    "wof:lastmodified":1469699607,
    "wof:name":"9671JE",
    "wof:parent_id":101838027,
    "wof:placetype":"postalcode",
    "wof:repo":"whosonfirst-data-postalcode-nl",
    "wof:superseded_by":[],
    "wof:supersedes":[],
    "wof:tags":[]
},
  "bbox": [
    7.031081199645996,
    53.1462287902832,
    7.032824516296387,
    53.146385192871094
],
  "geometry": {"coordinates":[[[7.03249597549438,53.14633178710938],[7.03282451629639,53.14630889892578],[7.03274202346802,53.14628601074219],[7.03249835968018,53.146240234375],[7.032386302948,53.1462287902832],[7.03212070465088,53.146240234375],[7.03116321563721,53.1463623046875],[7.031081199646,53.14638519287109],[7.03249597549438,53.14633178710938]]],"type":"Polygon"}
}