{
  "id": 890609443,
  "type": "Feature",
  "properties": {
    "clustr:alpha":0.05,
    "clustr:area":32.35,
    "clustr:count":5,
    "clustr:density":0.15,
    "clustr:perimeter":0.09,
    "edtf:cessation":"uuuu",
    "edtf:inception":"uuuu",
    "geom:area":0.0,
    "geom:bbox":"4.90786027908,52.4212608337,4.90823364258,52.4219436646",
    "geom:latitude":52.421625,
    "geom:longitude":4.908092,
    "iso:country":"NL",
    "mz:hierarchy_label":1,
    "mz:is_approximate":1,
    "mz:is_clustr":1,
    "src:geom":"oa",
    "wof:belongsto":[
        85687053,
        102191581,
        404474091,
        85633337,
        101754829
    ],
    "wof:breaches":[],
    "wof:country":"NL",
    "wof:created":1469667213,
    "wof:geomhash":"163531fde3cb61c30178a2439f455dba",
    "wof:hierarchy":[
        {
            "continent_id":102191581,
            "country_id":85633337,
            "localadmin_id":404474091,
            "locality_id":101754829,
            "postalcode_id":890609443,
            "region_id":85687053
        }
    ],
    "wof:id":890609443,
    "wof:lastmodified":1469667213,
    "wof:name":"1121DH",
    "wof:parent_id":101754829,
    "wof:placetype":"postalcode",
    "wof:repo":"whosonfirst-data-postalcode-nl",
    "wof:superseded_by":[],
    "wof:supersedes":[],
    "wof:tags":[]
},
  "bbox": [
    4.907860279083252,
    52.421260833740234,
    4.908233642578125,
    52.42194366455078
],
  "geometry": {"coordinates":[[[4.90823364257812,52.42194366455078],[4.90818309783935,52.42166900634766],[4.90786027908325,52.42126083374023],[4.90791034698486,52.42135238647461],[4.90823364257812,52.42194366455078]]],"type":"Polygon"}
}