{
  "id": 890658863,
  "type": "Feature",
  "properties": {
    "clustr:alpha":0.05,
    "clustr:area":4.86,
    "clustr:count":19,
    "clustr:density":3.91,
    "clustr:perimeter":0.35,
    "edtf:cessation":"uuuu",
    "edtf:inception":"uuuu",
    "geom:area":0.000001,
    "geom:bbox":"5.26425743103,52.7097320557,5.26553106308,52.7109184265",
    "geom:latitude":52.710217,
    "geom:longitude":5.264949,
    "iso:country":"NL",
    "mz:hierarchy_label":1,
    "mz:is_approximate":1,
    "mz:is_clustr":1,
    "src:geom":"oa",
    "wof:belongsto":[
        85687053,
        102191581,
        404474187,
        85633337,
        101837903
    ],
    "wof:breaches":[],
    "wof:country":"NL",
    "wof:created":1469669412,
    "wof:geomhash":"e2c64ffdcbcd824820f54c3a33d319db",
    "wof:hierarchy":[
        {
            "continent_id":102191581,
            "country_id":85633337,
            "localadmin_id":404474187,
            "locality_id":101837903,
            "postalcode_id":890658863,
            "region_id":85687053
        }
    ],
    "wof:id":890658863,
    "wof:lastmodified":1469669412,
    "wof:name":"1602JB",
    "wof:parent_id":101837903,
    "wof:placetype":"postalcode",
    "wof:repo":"whosonfirst-data-postalcode-nl",
    "wof:superseded_by":[],
    "wof:supersedes":[],
    "wof:tags":[]
},
  "bbox": [
    5.264257431030273,
    52.70973205566406,
    5.265531063079834,
    52.71091842651367
],
  "geometry": {"coordinates":[[[5.26551532745361,52.71027374267578],[5.26553106307983,52.70985794067383],[5.26425886154175,52.70973205566406],[5.26425743103027,52.71028137207031],[5.26546907424927,52.71091842651367],[5.26549959182739,52.71051406860352],[5.26551532745361,52.71027374267578]]],"type":"Polygon"}
}