{
  "id": 891109995,
  "type": "Feature",
  "properties": {
    "clustr:alpha":0.05,
    "clustr:area":21.69,
    "clustr:count":20,
    "clustr:density":0.92,
    "clustr:perimeter":0.31,
    "edtf:cessation":"uuuu",
    "edtf:inception":"uuuu",
    "geom:area":0.0,
    "geom:bbox":"5.92718172073,51.2630500793,5.9291062355,51.2639083862",
    "geom:latitude":51.263477,
    "geom:longitude":5.928246,
    "iso:country":"NL",
    "mz:hierarchy_label":1,
    "mz:is_approximate":1,
    "mz:is_clustr":1,
    "src:geom":"oa",
    "wof:belongsto":[
        85687033,
        102191581,
        404474557,
        85633337,
        101809613
    ],
    "wof:breaches":[],
    "wof:country":"NL",
    "wof:created":1469687651,
    "wof:geomhash":"2206c57fac9d0ef477d6610fec289b75",
    "wof:hierarchy":[
        {
            "continent_id":102191581,
            "country_id":85633337,
            "localadmin_id":404474557,
            "locality_id":101809613,
            "postalcode_id":891109995,
            "region_id":85687033
        }
    ],
    "wof:id":891109995,
    "wof:lastmodified":1469687651,
    "wof:name":"6088AZ",
    "wof:parent_id":101809613,
    "wof:placetype":"postalcode",
    "wof:repo":"whosonfirst-data-postalcode-nl",
    "wof:superseded_by":[],
    "wof:supersedes":[],
    "wof:tags":[]
},
  "bbox": [
    5.927181720733643,
    51.2630500793457,
    5.92910623550415,
    51.26390838623047
],
  "geometry": {"coordinates":[[[5.92873477935791,51.26365661621094],[5.92856168746948,51.26354598999023],[5.92835807800293,51.263427734375],[5.92718172073364,51.2630500793457],[5.92903852462769,51.26388549804688],[5.92910623550415,51.26390838623047],[5.92892408370972,51.2637825012207],[5.92873477935791,51.26365661621094]]],"type":"Polygon"}
}