{
  "id": 890906989,
  "type": "Feature",
  "properties": {
    "clustr:alpha":0.05,
    "clustr:area":12.5,
    "clustr:count":31,
    "clustr:density":2.48,
    "clustr:perimeter":0.18,
    "edtf:cessation":"uuuu",
    "edtf:inception":"uuuu",
    "geom:area":0.0,
    "geom:bbox":"5.36889743805,52.2055549622,5.36948347092,52.2062797546",
    "geom:latitude":52.205939,
    "geom:longitude":5.369224,
    "iso:country":"NL",
    "mz:hierarchy_label":1,
    "mz:is_approximate":1,
    "mz:is_clustr":1,
    "src:geom":"oa",
    "wof:belongsto":[
        85687039,
        102191581,
        404473971,
        85633337,
        101837671
    ],
    "wof:breaches":[],
    "wof:country":"NL",
    "wof:created":1469679504,
    "wof:geomhash":"bb5d21fc6e3020c578040a4413b3d3a5",
    "wof:hierarchy":[
        {
            "continent_id":102191581,
            "country_id":85633337,
            "localadmin_id":404473971,
            "locality_id":101837671,
            "postalcode_id":890906989,
            "region_id":85687039
        }
    ],
    "wof:id":890906989,
    "wof:lastmodified":1469679504,
    "wof:name":"3824LZ",
    "wof:parent_id":101837671,
    "wof:placetype":"postalcode",
    "wof:repo":"whosonfirst-data-postalcode-nl",
    "wof:superseded_by":[],
    "wof:supersedes":[],
    "wof:tags":[]
},
  "bbox": [
    5.368897438049316,
    52.2055549621582,
    5.369483470916748,
    52.20627975463867
],
  "geometry": {"coordinates":[[[5.36928987503052,52.20624923706055],[5.36948347091675,52.20595932006836],[5.36936140060425,52.2055549621582],[5.36889743804932,52.20592498779297],[5.3689489364624,52.20599746704102],[5.36913871765137,52.20623779296875],[5.36919021606445,52.20627975463867],[5.36928987503052,52.20624923706055]]],"type":"Polygon"}
}