{
  "id": 891033339,
  "type": "Feature",
  "properties": {
    "clustr:alpha":0.05,
    "clustr:area":20.86,
    "clustr:count":23,
    "clustr:density":1.1,
    "clustr:perimeter":1.27,
    "edtf:cessation":"uuuu",
    "edtf:inception":"uuuu",
    "geom:area":0.000005,
    "geom:bbox":"5.18767595291,51.796546936,5.19497919083,51.799987793",
    "geom:latitude":51.798459,
    "geom:longitude":5.190775,
    "iso:country":"NL",
    "mz:hierarchy_label":1,
    "mz:is_approximate":1,
    "mz:is_clustr":1,
    "src:geom":"oa",
    "wof:belongsto":[
        102191581,
        404473955,
        85633337,
        85687043
    ],
    "wof:breaches":[],
    "wof:country":"NL",
    "wof:created":1469684747,
    "wof:geomhash":"d91ddcc5d708b6745eab2b29a7180937",
    "wof:hierarchy":[
        {
            "continent_id":102191581,
            "country_id":85633337,
            "localadmin_id":404473955,
            "postalcode_id":891033339,
            "region_id":85687043
        }
    ],
    "wof:id":891033339,
    "wof:lastmodified":1469684747,
    "wof:name":"5311BE",
    "wof:parent_id":404473955,
    "wof:placetype":"postalcode",
    "wof:repo":"whosonfirst-data-postalcode-nl",
    "wof:superseded_by":[],
    "wof:supersedes":[],
    "wof:tags":[]
},
  "bbox": [
    5.187675952911377,
    51.796546936035156,
    5.194979190826416,
    51.79998779296875
],
  "geometry": {"coordinates":[[[5.18787717819214,51.79685974121094],[5.18851137161255,51.79776000976562],[5.18874216079712,51.79803085327148],[5.1893196105957,51.79860687255859],[5.1901445388794,51.79885864257812],[5.19241809844971,51.79950332641602],[5.19344615936279,51.79973602294922],[5.19472312927246,51.79998779296875],[5.19497919082642,51.79997634887695],[5.18767595291138,51.79654693603516],[5.18787717819214,51.79685974121094]]],"type":"Polygon"}
}