{
  "id": 891279241,
  "type": "Feature",
  "properties": {
    "clustr:alpha":0.05,
    "clustr:area":855.61,
    "clustr:count":20,
    "clustr:density":0.02,
    "clustr:perimeter":2.4,
    "edtf:cessation":"uuuu",
    "edtf:inception":"uuuu",
    "geom:area":0.000094,
    "geom:bbox":"6.10074710846,52.6961212158,6.1187415123,52.7090682983",
    "geom:latitude":52.702302,
    "geom:longitude":6.109528,
    "iso:country":"NL",
    "mz:hierarchy_label":1,
    "mz:is_approximate":1,
    "mz:is_clustr":1,
    "src:geom":"oa",
    "wof:belongsto":[
        102191581,
        404474621,
        85633337,
        85687045
    ],
    "wof:breaches":[],
    "wof:country":"NL",
    "wof:created":1469694632,
    "wof:geomhash":"8395ebb74395166a70616553ee70d485",
    "wof:hierarchy":[
        {
            "continent_id":102191581,
            "country_id":85633337,
            "localadmin_id":404474621,
            "postalcode_id":891279241,
            "region_id":85687045
        }
    ],
    "wof:id":891279241,
    "wof:lastmodified":1469694632,
    "wof:name":"7946LM",
    "wof:parent_id":404474621,
    "wof:placetype":"postalcode",
    "wof:repo":"whosonfirst-data-postalcode-nl",
    "wof:superseded_by":[],
    "wof:supersedes":[],
    "wof:tags":[]
},
  "bbox": [
    6.100747108459473,
    52.69612121582031,
    6.118741512298584,
    52.709068298339844
],
  "geometry": {"coordinates":[[[6.10074710845947,52.69623184204102],[6.10936069488525,52.70898056030273],[6.10944986343384,52.70906829833984],[6.11874151229858,52.70209503173828],[6.11868524551392,52.70206451416016],[6.11567974090576,52.7010498046875],[6.11454916000366,52.70066070556641],[6.10171842575073,52.69612121582031],[6.10074710845947,52.69623184204102]]],"type":"Polygon"}
}