{
  "id": 890899717,
  "type": "Feature",
  "properties": {
    "clustr:alpha":0.05,
    "clustr:area":92.46,
    "clustr:count":10,
    "clustr:density":0.11,
    "clustr:perimeter":0.74,
    "edtf:cessation":"uuuu",
    "edtf:inception":"uuuu",
    "geom:area":0.000001,
    "geom:bbox":"5.59416770935,52.1501922607,5.59696054459,52.1537094116",
    "geom:latitude":52.152138,
    "geom:longitude":5.595555,
    "iso:country":"NL",
    "mz:hierarchy_label":1,
    "mz:is_approximate":1,
    "mz:is_clustr":1,
    "src:geom":"oa",
    "wof:belongsto":[
        85687043,
        102191581,
        404473873,
        85633337,
        101807053
    ],
    "wof:breaches":[],
    "wof:country":"NL",
    "wof:created":1469679114,
    "wof:geomhash":"c8c184019b873d6c81ba797c328938dd",
    "wof:hierarchy":[
        {
            "continent_id":102191581,
            "country_id":85633337,
            "localadmin_id":404473873,
            "locality_id":101807053,
            "postalcode_id":890899717,
            "region_id":85687043
        }
    ],
    "wof:id":890899717,
    "wof:lastmodified":1469679114,
    "wof:name":"3771VE",
    "wof:parent_id":101807053,
    "wof:placetype":"postalcode",
    "wof:repo":"whosonfirst-data-postalcode-nl",
    "wof:superseded_by":[],
    "wof:supersedes":[],
    "wof:tags":[]
},
  "bbox": [
    5.594167709350586,
    52.15019226074219,
    5.596960544586182,
    52.153709411621094
],
  "geometry": {"coordinates":[[[5.59533405303955,52.15164184570312],[5.59416770935059,52.15019226074219],[5.59534645080566,52.15225601196289],[5.59561967849731,52.15260696411133],[5.59696054458618,52.15370941162109],[5.59621047973633,52.1527214050293],[5.59533405303955,52.15164184570312]]],"type":"Polygon"}
}