{
  "id": 891196865,
  "type": "Feature",
  "properties": {
    "clustr:alpha":0.05,
    "clustr:area":10.13,
    "clustr:count":10,
    "clustr:density":0.99,
    "clustr:perimeter":0.15,
    "edtf:cessation":"uuuu",
    "edtf:inception":"uuuu",
    "geom:area":0.0,
    "geom:bbox":"6.46201229095,51.9410667419,6.46307039261,51.9412765503",
    "geom:latitude":51.941143,
    "geom:longitude":6.462616,
    "iso:country":"NL",
    "mz:hierarchy_label":1,
    "mz:is_approximate":1,
    "mz:is_clustr":1,
    "src:geom":"oa",
    "wof:belongsto":[
        85687043,
        102191581,
        404474543,
        85633337,
        101808737
    ],
    "wof:breaches":[],
    "wof:country":"NL",
    "wof:created":1469691290,
    "wof:geomhash":"bbc4a81d4459a86ee31553b87bca2bb9",
    "wof:hierarchy":[
        {
            "continent_id":102191581,
            "country_id":85633337,
            "localadmin_id":404474543,
            "locality_id":101808737,
            "postalcode_id":891196865,
            "region_id":85687043
        }
    ],
    "wof:id":891196865,
    "wof:lastmodified":1469691290,
    "wof:name":"7051CA",
    "wof:parent_id":101808737,
    "wof:placetype":"postalcode",
    "wof:repo":"whosonfirst-data-postalcode-nl",
    "wof:superseded_by":[],
    "wof:supersedes":[],
    "wof:tags":[]
},
  "bbox": [
    6.46201229095459,
    51.94106674194336,
    6.463070392608643,
    51.94127655029297
],
  "geometry": {"coordinates":[[[6.46266889572144,51.94110488891602],[6.46201229095459,51.94127655029297],[6.46227836608887,51.94122695922852],[6.46307039260864,51.94107055664062],[6.462975025177,51.94106674194336],[6.46274900436401,51.94108581542969],[6.46266889572144,51.94110488891602]]],"type":"Polygon"}
}