{
  "id": 891285695,
  "type": "Feature",
  "properties": {
    "clustr:alpha":0.05,
    "clustr:area":327.31,
    "clustr:count":16,
    "clustr:density":0.05,
    "clustr:perimeter":0.61,
    "edtf:cessation":"uuuu",
    "edtf:inception":"uuuu",
    "geom:area":0.000003,
    "geom:bbox":"6.13067913055,52.5227165222,6.1334643364,52.525554657",
    "geom:latitude":52.52442,
    "geom:longitude":6.13173,
    "iso:country":"NL",
    "mz:hierarchy_label":1,
    "mz:is_approximate":1,
    "mz:is_clustr":1,
    "src:geom":"oa",
    "wof:belongsto":[
        85687045,
        102191581,
        404473861,
        85633337,
        101751861
    ],
    "wof:breaches":[],
    "wof:country":"NL",
    "wof:created":1469694978,
    "wof:geomhash":"08110388a1adca070717ac05b3d5f356",
    "wof:hierarchy":[
        {
            "continent_id":102191581,
            "country_id":85633337,
            "localadmin_id":404473861,
            "locality_id":101751861,
            "postalcode_id":891285695,
            "region_id":85687045
        }
    ],
    "wof:id":891285695,
    "wof:lastmodified":1469694978,
    "wof:name":"8024XR",
    "wof:parent_id":101751861,
    "wof:placetype":"postalcode",
    "wof:repo":"whosonfirst-data-postalcode-nl",
    "wof:superseded_by":[],
    "wof:supersedes":[],
    "wof:tags":[]
},
  "bbox": [
    6.130679130554199,
    52.5227165222168,
    6.133464336395264,
    52.52555465698242
],
  "geometry": {"coordinates":[[[6.13346433639526,52.52555465698242],[6.13345098495483,52.52537155151367],[6.13086938858032,52.5227165222168],[6.1306791305542,52.52496337890625],[6.13346433639526,52.52555465698242]]],"type":"Polygon"}
}