{
  "id": 891263643,
  "type": "Feature",
  "properties": {
    "clustr:alpha":0.05,
    "clustr:area":12.38,
    "clustr:count":18,
    "clustr:density":1.45,
    "clustr:perimeter":0.14,
    "edtf:cessation":"uuuu",
    "edtf:inception":"uuuu",
    "geom:area":0.0,
    "geom:bbox":"6.73676919937,52.6613235474,6.73687505722,52.6619796753",
    "geom:latitude":52.661573,
    "geom:longitude":6.736827,
    "iso:country":"NL",
    "mz:hierarchy_label":1,
    "mz:is_approximate":1,
    "mz:is_clustr":1,
    "src:geom":"oa",
    "wof:belongsto":[
        85687051,
        102191581,
        404473807,
        85633337,
        101807741
    ],
    "wof:breaches":[],
    "wof:country":"NL",
    "wof:created":1469693969,
    "wof:geomhash":"48e9e35226fa0c67ed6149a6ffb58cfb",
    "wof:hierarchy":[
        {
            "continent_id":102191581,
            "country_id":85633337,
            "localadmin_id":404473807,
            "locality_id":101807741,
            "postalcode_id":891263643,
            "region_id":85687051
        }
    ],
    "wof:id":891263643,
    "wof:lastmodified":1469693969,
    "wof:name":"7741HH",
    "wof:parent_id":101807741,
    "wof:placetype":"postalcode",
    "wof:repo":"whosonfirst-data-postalcode-nl",
    "wof:superseded_by":[],
    "wof:supersedes":[],
    "wof:tags":[]
},
  "bbox": [
    6.736769199371338,
    52.66132354736328,
    6.736875057220459,
    52.66197967529297
],
  "geometry": {"coordinates":[[[6.7367696762085,52.66132354736328],[6.73676919937134,52.66141510009766],[6.73682594299316,52.66194915771484],[6.73683309555054,52.66197967529297],[6.73686361312866,52.66176605224609],[6.73687505722046,52.66133880615234],[6.7367696762085,52.66132354736328]]],"type":"Polygon"}
}