{
  "id": 890627687,
  "type": "Feature",
  "properties": {
    "clustr:alpha":0.05,
    "clustr:area":35.32,
    "clustr:count":4,
    "clustr:density":0.11,
    "clustr:perimeter":0.12,
    "edtf:cessation":"uuuu",
    "edtf:inception":"uuuu",
    "geom:area":0.0,
    "geom:bbox":"5.2154302597,52.3670692444,5.21607971191,52.3676719666",
    "geom:latitude":52.367399,
    "geom:longitude":5.215747,
    "iso:country":"NL",
    "mz:hierarchy_label":1,
    "mz:is_approximate":1,
    "mz:is_clustr":1,
    "src:geom":"oa",
    "wof:belongsto":[
        85687049,
        102191581,
        404473729,
        85633337,
        101751877
    ],
    "wof:breaches":[],
    "wof:country":"NL",
    "wof:created":1469668021,
    "wof:geomhash":"a4221ffcd24dd297e796d5d4cc0f65d7",
    "wof:hierarchy":[
        {
            "continent_id":102191581,
            "country_id":85633337,
            "localadmin_id":404473729,
            "locality_id":101751877,
            "postalcode_id":890627687,
            "region_id":85687049
        }
    ],
    "wof:id":890627687,
    "wof:lastmodified":1469668021,
    "wof:name":"1315SB",
    "wof:parent_id":101751877,
    "wof:placetype":"postalcode",
    "wof:repo":"whosonfirst-data-postalcode-nl",
    "wof:superseded_by":[],
    "wof:supersedes":[],
    "wof:tags":[]
},
  "bbox": [
    5.21543025970459,
    52.367069244384766,
    5.216079711914062,
    52.367671966552734
],
  "geometry": {"coordinates":[[[5.21575498580933,52.36706924438477],[5.21543025970459,52.36753463745117],[5.21568298339844,52.36767196655273],[5.21607971191406,52.36739730834961],[5.21575498580933,52.36706924438477]]],"type":"Polygon"}
}