{
  "id": 891126971,
  "type": "Feature",
  "properties": {
    "clustr:alpha":0.05,
    "clustr:area":12.55,
    "clustr:count":6,
    "clustr:density":0.48,
    "clustr:perimeter":0.08,
    "edtf:cessation":"uuuu",
    "edtf:inception":"uuuu",
    "geom:area":0.0,
    "geom:bbox":"5.70733308792,50.7820053101,5.70798492432,50.7820129395",
    "geom:latitude":50.78201,
    "geom:longitude":5.707632,
    "iso:country":"NL",
    "mz:hierarchy_label":1,
    "mz:is_approximate":1,
    "mz:is_clustr":1,
    "src:geom":"oa",
    "wof:belongsto":[
        85687033,
        102191581,
        404474479,
        85633337,
        101755865
    ],
    "wof:breaches":[],
    "wof:country":"NL",
    "wof:created":1469688274,
    "wof:geomhash":"c526d3b5b91a09a1adf6d1138b987217",
    "wof:hierarchy":[
        {
            "continent_id":102191581,
            "country_id":85633337,
            "localadmin_id":404474479,
            "locality_id":101755865,
            "postalcode_id":891126971,
            "region_id":85687033
        }
    ],
    "wof:id":891126971,
    "wof:lastmodified":1469688274,
    "wof:name":"6245GN",
    "wof:parent_id":101755865,
    "wof:placetype":"postalcode",
    "wof:repo":"whosonfirst-data-postalcode-nl",
    "wof:superseded_by":[],
    "wof:supersedes":[],
    "wof:tags":[]
},
  "bbox": [
    5.707333087921143,
    50.782005310058594,
    5.707984924316406,
    50.782012939453125
],
  "geometry": {"coordinates":[[[5.70743227005005,50.78200531005859],[5.70733308792114,50.78200531005859],[5.70761632919312,50.78201293945312],[5.70771551132202,50.78201293945312],[5.70790004730225,50.78201293945312],[5.70798492431641,50.78201293945312],[5.70743227005005,50.78200531005859]]],"type":"Polygon"}
}