{
  "id": 890946181,
  "type": "Feature",
  "properties": {
    "clustr:alpha":0.05,
    "clustr:area":12.08,
    "clustr:count":13,
    "clustr:density":1.08,
    "clustr:perimeter":0.13,
    "edtf:cessation":"uuuu",
    "edtf:inception":"uuuu",
    "geom:area":0.0,
    "geom:bbox":"4.03714799881,51.6489295959,4.03788709641,51.6493606567",
    "geom:latitude":51.64913,
    "geom:longitude":4.037486,
    "iso:country":"NL",
    "mz:hierarchy_label":1,
    "mz:is_approximate":1,
    "mz:is_clustr":1,
    "src:geom":"oa",
    "wof:belongsto":[
        85687037,
        102191581,
        404474591,
        85633337,
        101808417
    ],
    "wof:breaches":[],
    "wof:country":"NL",
    "wof:created":1469681065,
    "wof:geomhash":"df08f13682143cc5d931833d9109869c",
    "wof:hierarchy":[
        {
            "continent_id":102191581,
            "country_id":85633337,
            "localadmin_id":404474591,
            "locality_id":101808417,
            "postalcode_id":890946181,
            "region_id":85687037
        }
    ],
    "wof:id":890946181,
    "wof:lastmodified":1469681065,
    "wof:name":"4307LM",
    "wof:parent_id":101808417,
    "wof:placetype":"postalcode",
    "wof:repo":"whosonfirst-data-postalcode-nl",
    "wof:superseded_by":[],
    "wof:supersedes":[],
    "wof:tags":[]
},
  "bbox": [
    4.037147998809814,
    51.648929595947266,
    4.037887096405029,
    51.64936065673828
],
  "geometry": {"coordinates":[[[4.03722381591797,51.64913558959961],[4.03715801239014,51.64931488037109],[4.03714799880981,51.64936065673828],[4.03788709640503,51.64917373657227],[4.03781795501709,51.64904403686523],[4.03759813308716,51.64896011352539],[4.03749847412109,51.64894866943359],[4.03730630874634,51.64892959594727],[4.03722381591797,51.64913558959961]]],"type":"Polygon"}
}