{
  "id": 890869895,
  "type": "Feature",
  "properties": {
    "clustr:alpha":0.05,
    "clustr:area":196.23,
    "clustr:count":11,
    "clustr:density":0.06,
    "clustr:perimeter":0.34,
    "edtf:cessation":"uuuu",
    "edtf:inception":"uuuu",
    "geom:area":0.0,
    "geom:bbox":"5.00876045227,52.1063575745,5.0116314888,52.1075363159",
    "geom:latitude":52.107076,
    "geom:longitude":5.010058,
    "iso:country":"NL",
    "mz:hierarchy_label":1,
    "mz:is_approximate":1,
    "mz:is_clustr":1,
    "src:geom":"oa",
    "wof:belongsto":[
        85687039,
        102191581,
        404474007,
        85633337,
        101808427
    ],
    "wof:breaches":[],
    "wof:country":"NL",
    "wof:created":1469677886,
    "wof:geomhash":"39dc1d92c17f7887c2da084d19adc313",
    "wof:hierarchy":[
        {
            "continent_id":102191581,
            "country_id":85633337,
            "localadmin_id":404474007,
            "locality_id":101808427,
            "postalcode_id":890869895,
            "region_id":85687039
        }
    ],
    "wof:id":890869895,
    "wof:lastmodified":1469677886,
    "wof:name":"3451BH",
    "wof:parent_id":101808427,
    "wof:placetype":"postalcode",
    "wof:repo":"whosonfirst-data-postalcode-nl",
    "wof:superseded_by":[],
    "wof:supersedes":[],
    "wof:tags":[]
},
  "bbox": [
    5.008760452270508,
    52.10635757446289,
    5.011631488800049,
    52.10753631591797
],
  "geometry": {"coordinates":[[[5.01163148880005,52.10635757446289],[5.00876045227051,52.10753631591797],[5.00905418395996,52.10749435424805],[5.00936841964722,52.10743713378906],[5.00939464569092,52.10742950439453],[5.00962114334106,52.10735702514648],[5.0100998878479,52.10718154907227],[5.01163148880005,52.10635757446289]]],"type":"Polygon"}
}