{
  "id": 890766163,
  "type": "Feature",
  "properties": {
    "clustr:alpha":0.05,
    "clustr:area":3.07,
    "clustr:count":23,
    "clustr:density":7.49,
    "clustr:perimeter":0.15,
    "edtf:cessation":"uuuu",
    "edtf:inception":"uuuu",
    "geom:area":0.0,
    "geom:bbox":"4.27211475372,52.0800285339,4.27312374115,52.0802764893",
    "geom:latitude":52.080123,
    "geom:longitude":4.272557,
    "iso:country":"NL",
    "mz:hierarchy_label":1,
    "mz:is_approximate":1,
    "mz:is_clustr":1,
    "src:geom":"oa",
    "wof:belongsto":[
        85687041,
        102191581,
        404474179,
        85633337,
        101752763
    ],
    "wof:breaches":[],
    "wof:country":"NL",
    "wof:created":1469673976,
    "wof:geomhash":"88a7d9db75b5c946a9b835f61b82f648",
    "wof:hierarchy":[
        {
            "continent_id":102191581,
            "country_id":85633337,
            "localadmin_id":404474179,
            "locality_id":101752763,
            "postalcode_id":890766163,
            "region_id":85687041
        }
    ],
    "wof:id":890766163,
    "wof:lastmodified":1469673976,
    "wof:name":"2565ML",
    "wof:parent_id":101752763,
    "wof:placetype":"postalcode",
    "wof:repo":"whosonfirst-data-postalcode-nl",
    "wof:superseded_by":[],
    "wof:supersedes":[],
    "wof:tags":[]
},
  "bbox": [
    4.272114753723145,
    52.08002853393555,
    4.273123741149902,
    52.08027648925781
],
  "geometry": {"coordinates":[[[4.27214002609253,52.08003616333008],[4.27211475372315,52.08003997802734],[4.2731237411499,52.08027648925781],[4.27279901504517,52.08016586303711],[4.27256965637207,52.0800895690918],[4.27222490310669,52.08002853393555],[4.27214002609253,52.08003616333008]]],"type":"Polygon"}
}