{
  "id": 891118171,
  "type": "Feature",
  "properties": {
    "clustr:alpha":0.05,
    "clustr:area":54.38,
    "clustr:count":22,
    "clustr:density":0.4,
    "clustr:perimeter":0.06,
    "edtf:cessation":"uuuu",
    "edtf:inception":"uuuu",
    "geom:area":0.0,
    "geom:bbox":"5.83269357681,50.9614372253,5.83320665359,50.9616165161",
    "geom:latitude":50.961528,
    "geom:longitude":5.832959,
    "iso:country":"NL",
    "mz:hierarchy_label":1,
    "mz:is_approximate":1,
    "mz:is_clustr":1,
    "src:geom":"oa",
    "wof:belongsto":[
        85687033,
        102191581,
        404474675,
        85633337,
        101839721
    ],
    "wof:breaches":[],
    "wof:country":"NL",
    "wof:created":1469687963,
    "wof:geomhash":"9d56437418ff1e2f7112b1499331aa94",
    "wof:hierarchy":[
        {
            "continent_id":102191581,
            "country_id":85633337,
            "localadmin_id":404474675,
            "locality_id":101839721,
            "postalcode_id":891118171,
            "region_id":85687033
        }
    ],
    "wof:id":891118171,
    "wof:lastmodified":1469687963,
    "wof:name":"6165SC",
    "wof:parent_id":101839721,
    "wof:placetype":"postalcode",
    "wof:repo":"whosonfirst-data-postalcode-nl",
    "wof:superseded_by":[],
    "wof:supersedes":[],
    "wof:tags":[]
},
  "bbox": [
    5.832693576812744,
    50.9614372253418,
    5.833206653594971,
    50.96161651611328
],
  "geometry": {"coordinates":[[[5.8331356048584,50.96161651611328],[5.83320665359497,50.96160125732422],[5.83310604095459,50.96149063110352],[5.83303451538086,50.96145629882812],[5.83293485641479,50.9614372253418],[5.83283519744873,50.96145629882812],[5.83269357681274,50.96152877807617],[5.8326940536499,50.9615478515625],[5.8331356048584,50.96161651611328]]],"type":"Polygon"}
}