{
  "id": 890703825,
  "type": "Feature",
  "properties": {
    "clustr:alpha":0.05,
    "clustr:area":149.47,
    "clustr:count":85,
    "clustr:density":0.57,
    "clustr:perimeter":1.67,
    "edtf:cessation":"uuuu",
    "edtf:inception":"uuuu",
    "geom:area":0.000008,
    "geom:bbox":"4.64232492447,52.3568649292,4.64401388168,52.3658866882",
    "geom:latitude":52.36172,
    "geom:longitude":4.64314,
    "iso:country":"NL",
    "mz:hierarchy_label":1,
    "mz:is_approximate":1,
    "mz:is_clustr":1,
    "src:geom":"oa",
    "wof:belongsto":[
        85687053,
        102191581,
        404474061,
        85633337,
        101751897
    ],
    "wof:breaches":[],
    "wof:country":"NL",
    "wof:created":1469671397,
    "wof:geomhash":"a821831bf8a2147d000fbc3f907d4a5a",
    "wof:hierarchy":[
        {
            "continent_id":102191581,
            "country_id":85633337,
            "localadmin_id":404474061,
            "locality_id":101751897,
            "postalcode_id":890703825,
            "region_id":85687053
        }
    ],
    "wof:id":890703825,
    "wof:lastmodified":1469671397,
    "wof:name":"2034PG",
    "wof:parent_id":101751897,
    "wof:placetype":"postalcode",
    "wof:repo":"whosonfirst-data-postalcode-nl",
    "wof:superseded_by":[],
    "wof:supersedes":[],
    "wof:tags":[]
},
  "bbox": [
    4.642324924468994,
    52.35686492919922,
    4.64401388168335,
    52.36588668823242
],
  "geometry": {"coordinates":[[[4.64232492446899,52.36013793945312],[4.6425986289978,52.36402893066406],[4.64401388168335,52.36588668823242],[4.64401245117188,52.36572265625],[4.64400672912598,52.3655891418457],[4.64340496063232,52.35843658447266],[4.64327049255371,52.35686492919922],[4.64232492446899,52.36013793945312]]],"type":"Polygon"}
}