{
  "id": 890855149,
  "type": "Feature",
  "properties": {
    "clustr:alpha":0.05,
    "clustr:area":2.46,
    "clustr:count":18,
    "clustr:density":7.32,
    "clustr:perimeter":0.05,
    "edtf:cessation":"uuuu",
    "edtf:inception":"uuuu",
    "geom:area":0.0,
    "geom:bbox":"4.680103302,51.7854309082,4.6804523468,51.7854766846",
    "geom:latitude":51.785452,
    "geom:longitude":4.680269,
    "iso:country":"NL",
    "mz:hierarchy_label":1,
    "mz:is_approximate":1,
    "mz:is_clustr":1,
    "src:geom":"oa",
    "wof:belongsto":[
        85687041,
        102191581,
        404474169,
        85633337,
        101751841
    ],
    "wof:breaches":[],
    "wof:country":"NL",
    "wof:created":1469677304,
    "wof:geomhash":"9297fc2d2379e70f77b1ecddadb81988",
    "wof:hierarchy":[
        {
            "continent_id":102191581,
            "country_id":85633337,
            "localadmin_id":404474169,
            "locality_id":101751841,
            "postalcode_id":890855149,
            "region_id":85687041
        }
    ],
    "wof:id":890855149,
    "wof:lastmodified":1469677304,
    "wof:name":"3318TH",
    "wof:parent_id":101751841,
    "wof:placetype":"postalcode",
    "wof:repo":"whosonfirst-data-postalcode-nl",
    "wof:superseded_by":[],
    "wof:supersedes":[],
    "wof:tags":[]
},
  "bbox": [
    4.680103302001953,
    51.785430908203125,
    4.680452346801758,
    51.78547668457031
],
  "geometry": {"coordinates":[[[4.68010330200195,51.78547668457031],[4.68016815185547,51.78547286987305],[4.68040895462036,51.78545761108398],[4.68045234680176,51.78545379638672],[4.68040466308594,51.78543090820312],[4.68036127090454,51.78543090820312],[4.68012046813965,51.78544616699219],[4.68010330200195,51.78547668457031]]],"type":"Polygon"}
}