{
  "id": 891235247,
  "type": "Feature",
  "properties": {
    "clustr:alpha":0.05,
    "clustr:area":18.31,
    "clustr:count":27,
    "clustr:density":1.47,
    "clustr:perimeter":0.31,
    "edtf:cessation":"uuuu",
    "edtf:inception":"uuuu",
    "geom:area":0.000001,
    "geom:bbox":"6.90412950516,52.2208251953,6.9052863121,52.2219734192",
    "geom:latitude":52.221506,
    "geom:longitude":6.904698,
    "iso:country":"NL",
    "mz:hierarchy_label":1,
    "mz:is_approximate":1,
    "mz:is_clustr":1,
    "src:geom":"oa",
    "wof:belongsto":[
        85687045,
        102191581,
        404473827,
        85633337,
        101751871
    ],
    "wof:breaches":[],
    "wof:country":"NL",
    "wof:created":1469692818,
    "wof:geomhash":"3efe1bfd8df5d08911ec8c5250241231",
    "wof:hierarchy":[
        {
            "continent_id":102191581,
            "country_id":85633337,
            "localadmin_id":404473827,
            "locality_id":101751871,
            "postalcode_id":891235247,
            "region_id":85687045
        }
    ],
    "wof:id":891235247,
    "wof:lastmodified":1469692818,
    "wof:name":"7511ZG",
    "wof:parent_id":101751871,
    "wof:placetype":"postalcode",
    "wof:repo":"whosonfirst-data-postalcode-nl",
    "wof:superseded_by":[],
    "wof:supersedes":[],
    "wof:tags":[]
},
  "bbox": [
    6.904129505157471,
    52.2208251953125,
    6.905286312103271,
    52.22197341918945
],
  "geometry": {"coordinates":[[[6.90436172485352,52.22194290161133],[6.90468740463257,52.22197341918945],[6.90497732162476,52.22167587280273],[6.9052267074585,52.22106170654297],[6.90528631210327,52.2208251953125],[6.90412950515747,52.22157669067383],[6.9042067527771,52.2219123840332],[6.90436172485352,52.22194290161133]]],"type":"Polygon"}
}