{
  "id": 891031667,
  "type": "Feature",
  "properties": {
    "clustr:alpha":0.05,
    "clustr:area":13.21,
    "clustr:count":6,
    "clustr:density":0.45,
    "clustr:perimeter":0.13,
    "edtf:cessation":"uuuu",
    "edtf:inception":"uuuu",
    "geom:area":0.0,
    "geom:bbox":"5.32438993454,51.5982513428,5.32512569427,51.5986480713",
    "geom:latitude":51.59845,
    "geom:longitude":5.324755,
    "iso:country":"NL",
    "mz:hierarchy_label":1,
    "mz:is_approximate":1,
    "mz:is_clustr":1,
    "src:geom":"oa",
    "wof:belongsto":[
        85687035,
        102191581,
        404474361,
        85633337,
        101839333
    ],
    "wof:breaches":[],
    "wof:country":"NL",
    "wof:created":1469684674,
    "wof:geomhash":"d85633ebb068d3c182528a9b7994d799",
    "wof:hierarchy":[
        {
            "continent_id":102191581,
            "country_id":85633337,
            "localadmin_id":404474361,
            "locality_id":101839333,
            "postalcode_id":891031667,
            "region_id":85687035
        }
    ],
    "wof:id":891031667,
    "wof:lastmodified":1469684674,
    "wof:name":"5283WC",
    "wof:parent_id":101839333,
    "wof:placetype":"postalcode",
    "wof:repo":"whosonfirst-data-postalcode-nl",
    "wof:superseded_by":[],
    "wof:supersedes":[],
    "wof:tags":[]
},
  "bbox": [
    5.324389934539795,
    51.59825134277344,
    5.325125694274902,
    51.59864807128906
],
  "geometry": {"coordinates":[[[5.32449102401733,51.59825134277344],[5.32438993453979,51.59830474853516],[5.32462072372437,51.59844970703125],[5.32503890991211,51.59864807128906],[5.3251256942749,51.59858322143555],[5.32449102401733,51.59825134277344]]],"type":"Polygon"}
}