{
  "id": 891037529,
  "type": "Feature",
  "properties": {
    "clustr:alpha":0.05,
    "clustr:area":102.09,
    "clustr:count":11,
    "clustr:density":0.11,
    "clustr:perimeter":0.25,
    "edtf:cessation":"uuuu",
    "edtf:inception":"uuuu",
    "geom:area":0.0,
    "geom:bbox":"5.580037117,51.7716674805,5.58226966858,51.7719802856",
    "geom:latitude":51.77182,
    "geom:longitude":5.581229,
    "iso:country":"NL",
    "mz:hierarchy_label":1,
    "mz:is_approximate":1,
    "mz:is_clustr":1,
    "src:geom":"oa",
    "wof:belongsto":[
        85687035,
        102191581,
        404474415,
        85633337,
        101808165
    ],
    "wof:breaches":[],
    "wof:country":"NL",
    "wof:created":1469684918,
    "wof:geomhash":"32d463048fdcb040985e28bbc75782c1",
    "wof:hierarchy":[
        {
            "continent_id":102191581,
            "country_id":85633337,
            "localadmin_id":404474415,
            "locality_id":101808165,
            "postalcode_id":891037529,
            "region_id":85687035
        }
    ],
    "wof:id":891037529,
    "wof:lastmodified":1469684918,
    "wof:name":"5351GT",
    "wof:parent_id":101808165,
    "wof:placetype":"postalcode",
    "wof:repo":"whosonfirst-data-postalcode-nl",
    "wof:superseded_by":[],
    "wof:supersedes":[],
    "wof:tags":[]
},
  "bbox": [
    5.580037117004395,
    51.77166748046875,
    5.582269668579102,
    51.77198028564453
],
  "geometry": {"coordinates":[[[5.58142137527466,51.77182006835938],[5.58120775222778,51.77179336547852],[5.58081388473511,51.77175140380859],[5.5800371170044,51.77166748046875],[5.5822696685791,51.77198028564453],[5.58142137527466,51.77182006835938]]],"type":"Polygon"}
}