{
  "id": 891196895,
  "type": "Feature",
  "properties": {
    "clustr:alpha":0.05,
    "clustr:area":9.99,
    "clustr:count":4,
    "clustr:density":0.4,
    "clustr:perimeter":0.08,
    "edtf:cessation":"uuuu",
    "edtf:inception":"uuuu",
    "geom:area":0.0,
    "geom:bbox":"6.46497344971,51.9385108948,6.4651966095,51.9389152527",
    "geom:latitude":51.938711,
    "geom:longitude":6.465081,
    "iso:country":"NL",
    "mz:hierarchy_label":1,
    "mz:is_approximate":1,
    "mz:is_clustr":1,
    "src:geom":"oa",
    "wof:belongsto":[
        85687043,
        102191581,
        404474543,
        85633337,
        101808737
    ],
    "wof:breaches":[],
    "wof:country":"NL",
    "wof:created":1469691291,
    "wof:geomhash":"4661ab17024cea0f9aa4cf162eb95610",
    "wof:hierarchy":[
        {
            "continent_id":102191581,
            "country_id":85633337,
            "localadmin_id":404474543,
            "locality_id":101808737,
            "postalcode_id":891196895,
            "region_id":85687043
        }
    ],
    "wof:id":891196895,
    "wof:lastmodified":1469691291,
    "wof:name":"7051CR",
    "wof:parent_id":101808737,
    "wof:placetype":"postalcode",
    "wof:repo":"whosonfirst-data-postalcode-nl",
    "wof:superseded_by":[],
    "wof:supersedes":[],
    "wof:tags":[]
},
  "bbox": [
    6.464973449707031,
    51.93851089477539,
    6.46519660949707,
    51.93891525268555
],
  "geometry": {"coordinates":[[[6.46509742736816,51.93866348266602],[6.46503114700317,51.93878936767578],[6.46497344970703,51.93891525268555],[6.46519660949707,51.93851089477539],[6.46509742736816,51.93866348266602]]],"type":"Polygon"}
}