{
  "id": 891268905,
  "type": "Feature",
  "properties": {
    "clustr:alpha":0.05,
    "clustr:area":35.21,
    "clustr:count":20,
    "clustr:density":0.57,
    "clustr:perimeter":0.14,
    "edtf:cessation":"uuuu",
    "edtf:inception":"uuuu",
    "geom:area":0.0,
    "geom:bbox":"6.92587518692,52.7814102173,6.92633628845,52.7819633484",
    "geom:latitude":52.781756,
    "geom:longitude":6.926166,
    "iso:country":"NL",
    "mz:hierarchy_label":1,
    "mz:is_approximate":1,
    "mz:is_clustr":1,
    "src:geom":"oa",
    "wof:belongsto":[
        85687051,
        102191581,
        404473809,
        85633337,
        101751881
    ],
    "wof:breaches":[],
    "wof:country":"NL",
    "wof:created":1469694188,
    "wof:geomhash":"73666828fc25a372e01b02fb126aa269",
    "wof:hierarchy":[
        {
            "continent_id":102191581,
            "country_id":85633337,
            "localadmin_id":404473809,
            "locality_id":101751881,
            "postalcode_id":891268905,
            "region_id":85687051
        }
    ],
    "wof:id":891268905,
    "wof:lastmodified":1469694188,
    "wof:name":"7824GA",
    "wof:parent_id":101751881,
    "wof:placetype":"postalcode",
    "wof:repo":"whosonfirst-data-postalcode-nl",
    "wof:superseded_by":[],
    "wof:supersedes":[],
    "wof:tags":[]
},
  "bbox": [
    6.925875186920166,
    52.781410217285156,
    6.926336288452148,
    52.78196334838867
],
  "geometry": {"coordinates":[[[6.92633628845215,52.78196334838867],[6.92632293701172,52.78158950805664],[6.92624235153198,52.78141021728516],[6.92587518692017,52.78192520141602],[6.92594957351685,52.78193283081055],[6.92603874206543,52.78194046020508],[6.92633628845215,52.78196334838867]]],"type":"Polygon"}
}