{
  "id": 890600235,
  "type": "Feature",
  "properties": {
    "clustr:alpha":0.05,
    "clustr:area":12.32,
    "clustr:count":27,
    "clustr:density":2.19,
    "clustr:perimeter":0.04,
    "edtf:cessation":"uuuu",
    "edtf:inception":"uuuu",
    "geom:area":0.0,
    "geom:bbox":"4.88825130463,52.3317718506,4.88853025436,52.3318099976",
    "geom:latitude":52.331792,
    "geom:longitude":4.888356,
    "iso:country":"NL",
    "mz:hierarchy_label":1,
    "mz:is_approximate":1,
    "mz:is_clustr":1,
    "src:geom":"oa",
    "wof:belongsto":[
        85687053,
        102191581,
        404474029,
        85633337,
        101751893
    ],
    "wof:breaches":[],
    "wof:country":"NL",
    "wof:created":1469666790,
    "wof:geomhash":"7bab3774aae422f7df022055c6bd7699",
    "wof:hierarchy":[
        {
            "continent_id":102191581,
            "country_id":85633337,
            "localadmin_id":404474029,
            "locality_id":101751893,
            "postalcode_id":890600235,
            "region_id":85687053
        }
    ],
    "wof:id":890600235,
    "wof:lastmodified":1469666790,
    "wof:name":"1083GS",
    "wof:parent_id":101751893,
    "wof:placetype":"postalcode",
    "wof:repo":"whosonfirst-data-postalcode-nl",
    "wof:superseded_by":[],
    "wof:supersedes":[],
    "wof:tags":[]
},
  "bbox": [
    4.888251304626465,
    52.33177185058594,
    4.888530254364014,
    52.331809997558594
],
  "geometry": {"coordinates":[[[4.88833999633789,52.33177185058594],[4.88825178146362,52.33177185058594],[4.88825130462646,52.33180999755859],[4.88853025436401,52.33180236816406],[4.8884425163269,52.33178329467773],[4.88833999633789,52.33177185058594]]],"type":"Polygon"}
}