{
  "id": 891116521,
  "type": "Feature",
  "properties": {
    "clustr:alpha":0.05,
    "clustr:area":30.14,
    "clustr:count":28,
    "clustr:density":0.93,
    "clustr:perimeter":0.67,
    "edtf:cessation":"uuuu",
    "edtf:inception":"uuuu",
    "geom:area":0.0,
    "geom:bbox":"5.85689163208,50.9714126587,5.85958147049,50.9740867615",
    "geom:latitude":50.972978,
    "geom:longitude":5.858359,
    "iso:country":"NL",
    "mz:hierarchy_label":1,
    "mz:is_approximate":1,
    "mz:is_clustr":1,
    "src:geom":"oa",
    "wof:belongsto":[
        85687033,
        102191581,
        404474675,
        85633337,
        101839267
    ],
    "wof:breaches":[],
    "wof:country":"NL",
    "wof:created":1469687897,
    "wof:geomhash":"3785ae6aabbc85be7566c52bf6f1abc8",
    "wof:hierarchy":[
        {
            "continent_id":102191581,
            "country_id":85633337,
            "localadmin_id":404474675,
            "locality_id":101839267,
            "postalcode_id":891116521,
            "region_id":85687033
        }
    ],
    "wof:id":891116521,
    "wof:lastmodified":1469687897,
    "wof:name":"6151GJ",
    "wof:parent_id":101839267,
    "wof:placetype":"postalcode",
    "wof:repo":"whosonfirst-data-postalcode-nl",
    "wof:superseded_by":[],
    "wof:supersedes":[],
    "wof:tags":[]
},
  "bbox": [
    5.856891632080078,
    50.971412658691406,
    5.859581470489502,
    50.97408676147461
],
  "geometry": {"coordinates":[[[5.85730886459351,50.9718132019043],[5.85703563690185,50.9715461730957],[5.85694932937622,50.97146606445312],[5.85689163208008,50.97141265869141],[5.85833311080933,50.9731330871582],[5.85841941833496,50.97322845458984],[5.85846281051636,50.97327423095703],[5.85856342315674,50.97336578369141],[5.8589940071106,50.97374725341797],[5.85906600952148,50.97379302978516],[5.8595814704895,50.97408676147461],[5.85730886459351,50.9718132019043]]],"type":"Polygon"}
}