{
  "id": 890876447,
  "type": "Feature",
  "properties": {
    "clustr:alpha":0.05,
    "clustr:area":17.65,
    "clustr:count":22,
    "clustr:density":1.25,
    "clustr:perimeter":0.12,
    "edtf:cessation":"uuuu",
    "edtf:inception":"uuuu",
    "geom:area":0.0,
    "geom:bbox":"5.09761857986,52.0641365051,5.09789228439,52.0647201538",
    "geom:latitude":52.064432,
    "geom:longitude":5.097744,
    "iso:country":"NL",
    "mz:hierarchy_label":1,
    "mz:is_approximate":1,
    "mz:is_clustr":1,
    "src:geom":"oa",
    "wof:belongsto":[
        85687039,
        102191581,
        404474007,
        85633337,
        101751827
    ],
    "wof:breaches":[],
    "wof:country":"NL",
    "wof:created":1469678124,
    "wof:geomhash":"a35d74712cf7d84075ca001f5d791c10",
    "wof:hierarchy":[
        {
            "continent_id":102191581,
            "country_id":85633337,
            "localadmin_id":404474007,
            "locality_id":101751827,
            "postalcode_id":890876447,
            "region_id":85687039
        }
    ],
    "wof:id":890876447,
    "wof:lastmodified":1469678124,
    "wof:name":"3526RP",
    "wof:parent_id":101751827,
    "wof:placetype":"postalcode",
    "wof:repo":"whosonfirst-data-postalcode-nl",
    "wof:superseded_by":[],
    "wof:supersedes":[],
    "wof:tags":[]
},
  "bbox": [
    5.097618579864502,
    52.06413650512695,
    5.097892284393311,
    52.064720153808594
],
  "geometry": {"coordinates":[[[5.09775018692017,52.06457901000977],[5.09789228439331,52.06413650512695],[5.09770107269287,52.0643424987793],[5.0976185798645,52.06472015380859],[5.09775018692017,52.06457901000977]]],"type":"Polygon"}
}