{
  "id": 890946591,
  "type": "Feature",
  "properties": {
    "clustr:alpha":0.05,
    "clustr:area":2.07,
    "clustr:count":4,
    "clustr:density":1.93,
    "clustr:perimeter":0.05,
    "edtf:cessation":"uuuu",
    "edtf:inception":"uuuu",
    "geom:area":0.0,
    "geom:bbox":"3.95200800896,51.7134971619,3.95224690437,51.7137031555",
    "geom:latitude":51.713595,
    "geom:longitude":3.952131,
    "iso:country":"NL",
    "mz:hierarchy_label":1,
    "mz:is_approximate":1,
    "mz:is_clustr":1,
    "src:geom":"oa",
    "wof:belongsto":[
        102191581,
        404474591,
        85633337,
        85687037
    ],
    "wof:breaches":[],
    "wof:country":"NL",
    "wof:created":1469681081,
    "wof:geomhash":"b33d01340d56a315702dda207e4cd703",
    "wof:hierarchy":[
        {
            "continent_id":102191581,
            "country_id":85633337,
            "localadmin_id":404474591,
            "postalcode_id":890946591,
            "region_id":85687037
        }
    ],
    "wof:id":890946591,
    "wof:lastmodified":1469681081,
    "wof:name":"4316BB",
    "wof:parent_id":404474591,
    "wof:placetype":"postalcode",
    "wof:repo":"whosonfirst-data-postalcode-nl",
    "wof:superseded_by":[],
    "wof:supersedes":[],
    "wof:tags":[]
},
  "bbox": [
    3.952008008956909,
    51.713497161865234,
    3.952246904373169,
    51.71370315551758
],
  "geometry": {"coordinates":[[[3.95201826095581,51.71349716186523],[3.95200800895691,51.71358108520508],[3.95222592353821,51.71370315551758],[3.95224690437317,51.71358871459961],[3.95201826095581,51.71349716186523]]],"type":"Polygon"}
}