{
  "id": 890778751,
  "type": "Feature",
  "properties": {
    "clustr:alpha":0.05,
    "clustr:area":39.48,
    "clustr:count":27,
    "clustr:density":0.68,
    "clustr:perimeter":0.41,
    "edtf:cessation":"uuuu",
    "edtf:inception":"uuuu",
    "geom:area":0.000001,
    "geom:bbox":"4.33629798889,52.0044975281,4.3388671875,52.0054664612",
    "geom:latitude":52.004917,
    "geom:longitude":4.337794,
    "iso:country":"NL",
    "mz:hierarchy_label":1,
    "mz:is_approximate":1,
    "mz:is_clustr":1,
    "src:geom":"oa",
    "wof:belongsto":[
        85687041,
        102191581,
        404474165,
        85633337,
        101758619
    ],
    "wof:breaches":[],
    "wof:country":"NL",
    "wof:created":1469674430,
    "wof:geomhash":"9c781d5c7a48b825db48c15a69f057aa",
    "wof:hierarchy":[
        {
            "continent_id":102191581,
            "country_id":85633337,
            "localadmin_id":404474165,
            "locality_id":101758619,
            "postalcode_id":890778751,
            "region_id":85687041
        }
    ],
    "wof:id":890778751,
    "wof:lastmodified":1469674430,
    "wof:name":"2635JT",
    "wof:parent_id":101758619,
    "wof:placetype":"postalcode",
    "wof:repo":"whosonfirst-data-postalcode-nl",
    "wof:superseded_by":[],
    "wof:supersedes":[],
    "wof:tags":[]
},
  "bbox": [
    4.336297988891602,
    52.00449752807617,
    4.3388671875,
    52.00546646118164
],
  "geometry": {"coordinates":[[[4.33853769302368,52.00474548339844],[4.3362979888916,52.00449752807617],[4.33820199966431,52.00546646118164],[4.3388671875,52.00481796264648],[4.33853769302368,52.00474548339844]]],"type":"Polygon"}
}