{
  "id": 891130979,
  "type": "Feature",
  "properties": {
    "clustr:alpha":0.05,
    "clustr:area":98.2,
    "clustr:count":9,
    "clustr:density":0.09,
    "clustr:perimeter":0.2,
    "edtf:cessation":"uuuu",
    "edtf:inception":"uuuu",
    "geom:area":0.000001,
    "geom:bbox":"5.97900295258,50.8167686462,5.97996759415,50.8175964355",
    "geom:latitude":50.817212,
    "geom:longitude":5.979483,
    "iso:country":"NL",
    "mz:hierarchy_label":1,
    "mz:is_approximate":1,
    "mz:is_clustr":1,
    "src:geom":"oa",
    "wof:belongsto":[
        102191581,
        404474519,
        85633337,
        85687033
    ],
    "wof:breaches":[],
    "wof:country":"NL",
    "wof:created":1469688548,
    "wof:geomhash":"274ac26546624a9406a5fad76a960e64",
    "wof:hierarchy":[
        {
            "continent_id":102191581,
            "country_id":85633337,
            "localadmin_id":404474519,
            "postalcode_id":891130979,
            "region_id":85687033
        }
    ],
    "wof:id":891130979,
    "wof:lastmodified":1469688548,
    "wof:name":"6351JS",
    "wof:parent_id":404474519,
    "wof:placetype":"postalcode",
    "wof:repo":"whosonfirst-data-postalcode-nl",
    "wof:superseded_by":[],
    "wof:supersedes":[],
    "wof:tags":[]
},
  "bbox": [
    5.979002952575684,
    50.816768646240234,
    5.979967594146729,
    50.817596435546875
],
  "geometry": {"coordinates":[[[5.97988653182983,50.81745147705078],[5.97996759414673,50.81711578369141],[5.97962236404419,50.81676864624023],[5.97953748703003,50.81678771972656],[5.97900295257568,50.817138671875],[5.97901916503906,50.81730270385742],[5.97912216186523,50.81759643554688],[5.97988653182983,50.81745147705078]]],"type":"Polygon"}
}