{
  "id": 891020125,
  "type": "Feature",
  "properties": {
    "clustr:alpha":0.05,
    "clustr:area":14.97,
    "clustr:count":10,
    "clustr:density":0.67,
    "clustr:perimeter":0.02,
    "edtf:cessation":"uuuu",
    "edtf:inception":"uuuu",
    "geom:area":0.0,
    "geom:bbox":"5.30502176285,51.6892089844,5.30519866943,51.6892852783",
    "geom:latitude":51.689239,
    "geom:longitude":5.30513,
    "iso:country":"NL",
    "mz:hierarchy_label":1,
    "mz:is_approximate":1,
    "mz:is_clustr":1,
    "src:geom":"oa",
    "wof:belongsto":[
        85687035,
        102191581,
        404474393,
        85633337,
        101751809
    ],
    "wof:breaches":[],
    "wof:country":"NL",
    "wof:created":1469684251,
    "wof:geomhash":"f89182f555c2b1c47fc6bf4435b09d7b",
    "wof:hierarchy":[
        {
            "continent_id":102191581,
            "country_id":85633337,
            "localadmin_id":404474393,
            "locality_id":101751809,
            "postalcode_id":891020125,
            "region_id":85687035
        }
    ],
    "wof:id":891020125,
    "wof:lastmodified":1469684251,
    "wof:name":"5211NS",
    "wof:parent_id":101751809,
    "wof:placetype":"postalcode",
    "wof:repo":"whosonfirst-data-postalcode-nl",
    "wof:superseded_by":[],
    "wof:supersedes":[],
    "wof:tags":[]
},
  "bbox": [
    5.3050217628479,
    51.689208984375,
    5.305198669433594,
    51.68928527832031
],
  "geometry": {"coordinates":[[[5.30515050888062,51.68928527832031],[5.30518531799316,51.68927383422852],[5.30519866943359,51.68923568725586],[5.30517768859863,51.689208984375],[5.3050217628479,51.68921279907227],[5.30515050888062,51.68928527832031]]],"type":"Polygon"}
}