{
  "id": 891220297,
  "type": "Feature",
  "properties": {
    "clustr:alpha":0.05,
    "clustr:area":3.54,
    "clustr:count":11,
    "clustr:density":3.1,
    "clustr:perimeter":0.22,
    "edtf:cessation":"uuuu",
    "edtf:inception":"uuuu",
    "geom:area":0.0,
    "geom:bbox":"5.95768070221,52.2405662537,5.95798110962,52.2418136597",
    "geom:latitude":52.241165,
    "geom:longitude":5.957832,
    "iso:country":"NL",
    "mz:hierarchy_label":1,
    "mz:is_approximate":1,
    "mz:is_clustr":1,
    "src:geom":"oa",
    "wof:belongsto":[
        102191581,
        404473867,
        85633337,
        85687043
    ],
    "wof:breaches":[],
    "wof:country":"NL",
    "wof:created":1469692231,
    "wof:geomhash":"a102720c693849539571905de9c008f9",
    "wof:hierarchy":[
        {
            "continent_id":102191581,
            "country_id":85633337,
            "localadmin_id":404473867,
            "postalcode_id":891220297,
            "region_id":85687043
        }
    ],
    "wof:id":891220297,
    "wof:lastmodified":1469692231,
    "wof:name":"7345BA",
    "wof:parent_id":404473867,
    "wof:placetype":"postalcode",
    "wof:repo":"whosonfirst-data-postalcode-nl",
    "wof:superseded_by":[],
    "wof:supersedes":[],
    "wof:tags":[]
},
  "bbox": [
    5.957680702209473,
    52.24056625366211,
    5.957981109619141,
    52.24181365966797
],
  "geometry": {"coordinates":[[[5.9578857421875,52.24123001098633],[5.95782947540283,52.24100112915039],[5.95768070220947,52.24056625366211],[5.95769166946411,52.24066162109375],[5.95771789550781,52.24079132080078],[5.95786094665527,52.24140930175781],[5.95798110961914,52.24181365966797],[5.9578857421875,52.24123001098633]]],"type":"Polygon"}
}