{
  "id": 907038321,
  "type": "Feature",
  "properties": {
    "clustr:alpha":0.05,
    "clustr:area":9.65,
    "clustr:count":19,
    "clustr:density":1.97,
    "clustr:perimeter":0.39,
    "edtf:cessation":"uuuu",
    "edtf:inception":"uuuu",
    "geom:area":0.000001,
    "geom:bbox":"5.7439250946,52.7057380676,5.74659252167,52.706413269",
    "geom:latitude":52.706086,
    "geom:longitude":5.745432,
    "iso:country":"NL",
    "mz:hierarchy_label":1,
    "mz:is_approximate":1,
    "mz:is_clustr":1,
    "src:geom":"oa",
    "wof:belongsto":[
        85687049,
        102191581,
        404473843,
        85633337,
        101807245
    ],
    "wof:breaches":[],
    "wof:country":"NL",
    "wof:created":1469696183,
    "wof:geomhash":"3df91b956e4febefded671156fdce532",
    "wof:hierarchy":[
        {
            "continent_id":102191581,
            "country_id":85633337,
            "localadmin_id":404473843,
            "locality_id":101807245,
            "postalcode_id":907038321,
            "region_id":85687049
        }
    ],
    "wof:id":907038321,
    "wof:lastmodified":1469696183,
    "wof:name":"8303ZX",
    "wof:parent_id":101807245,
    "wof:placetype":"postalcode",
    "wof:repo":"whosonfirst-data-postalcode-nl",
    "wof:superseded_by":[],
    "wof:supersedes":[],
    "wof:tags":[]
},
  "bbox": [
    5.743925094604492,
    52.70573806762695,
    5.74659252166748,
    52.70641326904297
],
  "geometry": {"coordinates":[[[5.74653434753418,52.70634841918945],[5.74659252166748,52.70621490478516],[5.74448776245117,52.70578002929688],[5.74438381195068,52.70576477050781],[5.74407291412354,52.70573806762695],[5.74392509460449,52.70573806762695],[5.74520111083984,52.70618438720703],[5.74646091461182,52.70641326904297],[5.74653434753418,52.70634841918945]]],"type":"Polygon"}
}