{
  "id": 890884489,
  "type": "Feature",
  "properties": {
    "clustr:alpha":0.05,
    "clustr:area":54.82,
    "clustr:count":16,
    "clustr:density":0.29,
    "clustr:perimeter":0.75,
    "edtf:cessation":"uuuu",
    "edtf:inception":"uuuu",
    "geom:area":0.0,
    "geom:bbox":"5.03781700134,52.1473083496,5.04170322418,52.15001297",
    "geom:latitude":52.148715,
    "geom:longitude":5.039845,
    "iso:country":"NL",
    "mz:hierarchy_label":1,
    "mz:is_approximate":1,
    "mz:is_clustr":1,
    "src:geom":"oa",
    "wof:belongsto":[
        85687039,
        102191581,
        404473997,
        85633337,
        101754599
    ],
    "wof:breaches":[],
    "wof:country":"NL",
    "wof:created":1469678456,
    "wof:geomhash":"02539a9e9c524f987ded22ca89d71a70",
    "wof:hierarchy":[
        {
            "continent_id":102191581,
            "country_id":85633337,
            "localadmin_id":404473997,
            "locality_id":101754599,
            "postalcode_id":890884489,
            "region_id":85687039
        }
    ],
    "wof:id":890884489,
    "wof:lastmodified":1469678456,
    "wof:name":"3601HM",
    "wof:parent_id":101754599,
    "wof:placetype":"postalcode",
    "wof:repo":"whosonfirst-data-postalcode-nl",
    "wof:superseded_by":[],
    "wof:supersedes":[],
    "wof:tags":[]
},
  "bbox": [
    5.037817001342773,
    52.147308349609375,
    5.041703224182129,
    52.1500129699707
],
  "geometry": {"coordinates":[[[5.04121398925781,52.14961242675781],[5.03901195526123,52.1480827331543],[5.03883504867554,52.14796829223633],[5.03781700134277,52.14730834960938],[5.03782844543457,52.14735412597656],[5.04132747650146,52.14979553222656],[5.04151010513306,52.14990997314453],[5.04170322418213,52.1500129699707],[5.04121398925781,52.14961242675781]]],"type":"Polygon"}
}