{
  "id": 890991247,
  "type": "Feature",
  "properties": {
    "clustr:alpha":0.05,
    "clustr:area":70.08,
    "clustr:count":8,
    "clustr:density":0.11,
    "clustr:perimeter":0.1,
    "edtf:cessation":"uuuu",
    "edtf:inception":"uuuu",
    "geom:area":0.0,
    "geom:bbox":"4.79347658157,51.5505714417,4.79449319839,51.5507240295",
    "geom:latitude":51.550644,
    "geom:longitude":4.793962,
    "iso:country":"NL",
    "mz:hierarchy_label":1,
    "mz:is_approximate":1,
    "mz:is_clustr":1,
    "src:geom":"oa",
    "wof:belongsto":[
        85687035,
        102191581,
        404474363,
        85633337,
        101808327
    ],
    "wof:breaches":[],
    "wof:country":"NL",
    "wof:created":1469683123,
    "wof:geomhash":"7a955808f0444b46f2a4bf43064998e8",
    "wof:hierarchy":[
        {
            "continent_id":102191581,
            "country_id":85633337,
            "localadmin_id":404474363,
            "locality_id":101808327,
            "postalcode_id":890991247,
            "region_id":85687035
        }
    ],
    "wof:id":890991247,
    "wof:lastmodified":1469683123,
    "wof:name":"4851CS",
    "wof:parent_id":101808327,
    "wof:placetype":"postalcode",
    "wof:repo":"whosonfirst-data-postalcode-nl",
    "wof:superseded_by":[],
    "wof:supersedes":[],
    "wof:tags":[]
},
  "bbox": [
    4.793476581573486,
    51.55057144165039,
    4.794493198394775,
    51.550724029541016
],
  "geometry": {"coordinates":[[[4.79391765594482,51.55063629150391],[4.79347658157349,51.55057144165039],[4.79364633560181,51.55059814453125],[4.79374885559082,51.55061340332031],[4.79436063766479,51.55070495605469],[4.79449319839478,51.55072402954102],[4.79391765594482,51.55063629150391]]],"type":"Polygon"}
}