{
  "id": 891110009,
  "type": "Feature",
  "properties": {
    "clustr:alpha":0.05,
    "clustr:area":53.01,
    "clustr:count":11,
    "clustr:density":0.21,
    "clustr:perimeter":0.73,
    "edtf:cessation":"uuuu",
    "edtf:inception":"uuuu",
    "geom:area":0.000002,
    "geom:bbox":"5.92945194244,51.2667427063,5.93041372299,51.2706298828",
    "geom:latitude":51.268318,
    "geom:longitude":5.929871,
    "iso:country":"NL",
    "mz:hierarchy_label":1,
    "mz:is_approximate":1,
    "mz:is_clustr":1,
    "src:geom":"oa",
    "wof:belongsto":[
        102191581,
        404474557,
        85633337,
        85687033
    ],
    "wof:breaches":[],
    "wof:country":"NL",
    "wof:created":1469687651,
    "wof:geomhash":"031b9c83c3e4a388e2ca775ad235d31b",
    "wof:hierarchy":[
        {
            "continent_id":102191581,
            "country_id":85633337,
            "localadmin_id":404474557,
            "postalcode_id":891110009,
            "region_id":85687033
        }
    ],
    "wof:id":891110009,
    "wof:lastmodified":1469687651,
    "wof:name":"6088BH",
    "wof:parent_id":404474557,
    "wof:placetype":"postalcode",
    "wof:repo":"whosonfirst-data-postalcode-nl",
    "wof:superseded_by":[],
    "wof:supersedes":[],
    "wof:tags":[]
},
  "bbox": [
    5.929451942443848,
    51.26674270629883,
    5.930413722991943,
    51.2706298828125
],
  "geometry": {"coordinates":[[[5.93041372299194,51.26740646362305],[5.92945194244385,51.26674270629883],[5.92970037460327,51.2706298828125],[5.92993402481079,51.26981735229492],[5.93016004562378,51.26889801025391],[5.93041372299194,51.26740646362305]]],"type":"Polygon"}
}