{
  "id": 907064095,
  "type": "Feature",
  "properties": {
    "clustr:alpha":0.05,
    "clustr:area":10.65,
    "clustr:count":13,
    "clustr:density":1.22,
    "clustr:perimeter":0.14,
    "edtf:cessation":"uuuu",
    "edtf:inception":"uuuu",
    "geom:area":0.0,
    "geom:bbox":"5.81217098236,53.2005500793,5.81318569183,53.2008171082",
    "geom:latitude":53.200666,
    "geom:longitude":5.812692,
    "iso:country":"NL",
    "mz:hierarchy_label":1,
    "mz:is_approximate":1,
    "mz:is_clustr":1,
    "src:geom":"oa",
    "wof:belongsto":[
        85687055,
        102191581,
        404473775,
        85633337,
        101751907
    ],
    "wof:breaches":[],
    "wof:country":"NL",
    "wof:created":1469697398,
    "wof:geomhash":"df85d3767d391fb3462e13ba68cec025",
    "wof:hierarchy":[
        {
            "continent_id":102191581,
            "country_id":85633337,
            "localadmin_id":404473775,
            "locality_id":101751907,
            "postalcode_id":907064095,
            "region_id":85687055
        }
    ],
    "wof:id":907064095,
    "wof:lastmodified":1469697398,
    "wof:name":"8921BS",
    "wof:parent_id":101751907,
    "wof:placetype":"postalcode",
    "wof:repo":"whosonfirst-data-postalcode-nl",
    "wof:superseded_by":[],
    "wof:supersedes":[],
    "wof:tags":[]
},
  "bbox": [
    5.81217098236084,
    53.2005500793457,
    5.813185691833496,
    53.2008171081543
],
  "geometry": {"coordinates":[[[5.81309604644775,53.2005500793457],[5.81293201446533,53.20058822631836],[5.81272268295288,53.20064163208008],[5.8126482963562,53.20066070556641],[5.81237936019897,53.20073318481445],[5.81221532821655,53.20079803466797],[5.81217098236084,53.2008171081543],[5.8131856918335,53.2005500793457],[5.81309604644775,53.2005500793457]]],"type":"Polygon"}
}