{
  "id": 891240409,
  "type": "Feature",
  "properties": {
    "clustr:alpha":0.05,
    "clustr:area":19.52,
    "clustr:count":22,
    "clustr:density":1.13,
    "clustr:perimeter":0.15,
    "edtf:cessation":"uuuu",
    "edtf:inception":"uuuu",
    "geom:area":0.0,
    "geom:bbox":"6.85817670822,52.2142791748,6.8593878746,52.2143135071",
    "geom:latitude":52.214298,
    "geom:longitude":6.858765,
    "iso:country":"NL",
    "mz:hierarchy_label":1,
    "mz:is_approximate":1,
    "mz:is_clustr":1,
    "src:geom":"oa",
    "wof:belongsto":[
        85687045,
        102191581,
        404473827,
        85633337,
        101751871
    ],
    "wof:breaches":[],
    "wof:country":"NL",
    "wof:created":1469693025,
    "wof:geomhash":"01084b618b6c219ae425fe22b8c9aae3",
    "wof:hierarchy":[
        {
            "continent_id":102191581,
            "country_id":85633337,
            "localadmin_id":404473827,
            "locality_id":101751871,
            "postalcode_id":891240409,
            "region_id":85687045
        }
    ],
    "wof:id":891240409,
    "wof:lastmodified":1469693025,
    "wof:name":"7545BD",
    "wof:parent_id":101751871,
    "wof:placetype":"postalcode",
    "wof:repo":"whosonfirst-data-postalcode-nl",
    "wof:superseded_by":[],
    "wof:supersedes":[],
    "wof:tags":[]
},
  "bbox": [
    6.858176708221436,
    52.21427917480469,
    6.859387874603271,
    52.21431350708008
],
  "geometry": {"coordinates":[[[6.85833692550659,52.21427917480469],[6.85817670822144,52.21428298950195],[6.85888576507568,52.21431350708008],[6.85938787460327,52.21430587768555],[6.85833692550659,52.21427917480469]]],"type":"Polygon"}
}