{
  "id": 890659299,
  "type": "Feature",
  "properties": {
    "clustr:alpha":0.05,
    "clustr:area":97.5,
    "clustr:count":7,
    "clustr:density":0.07,
    "clustr:perimeter":0.22,
    "edtf:cessation":"uuuu",
    "edtf:inception":"uuuu",
    "geom:area":0.0,
    "geom:bbox":"5.20822381973,52.6655731201,5.20905351639,52.6665153503",
    "geom:latitude":52.665896,
    "geom:longitude":5.208519,
    "iso:country":"NL",
    "mz:hierarchy_label":1,
    "mz:is_approximate":1,
    "mz:is_clustr":1,
    "src:geom":"oa",
    "wof:belongsto":[
        85687053,
        102191581,
        404474155,
        85633337,
        101837941
    ],
    "wof:breaches":[],
    "wof:country":"NL",
    "wof:created":1469669436,
    "wof:geomhash":"c442577ae475c6a97278634ff445f936",
    "wof:hierarchy":[
        {
            "continent_id":102191581,
            "country_id":85633337,
            "localadmin_id":404474155,
            "locality_id":101837941,
            "postalcode_id":890659299,
            "region_id":85687053
        }
    ],
    "wof:id":890659299,
    "wof:lastmodified":1469669436,
    "wof:name":"1606CE",
    "wof:parent_id":101837941,
    "wof:placetype":"postalcode",
    "wof:repo":"whosonfirst-data-postalcode-nl",
    "wof:superseded_by":[],
    "wof:supersedes":[],
    "wof:tags":[]
},
  "bbox": [
    5.208223819732666,
    52.66557312011719,
    5.209053516387939,
    52.6665153503418
],
  "geometry": {"coordinates":[[[5.2082405090332,52.66557312011719],[5.20822381973267,52.66601181030273],[5.20831060409546,52.6665153503418],[5.20905351638794,52.66557312011719],[5.2082405090332,52.66557312011719]]],"type":"Polygon"}
}