{
  "id": 890877561,
  "type": "Feature",
  "properties": {
    "clustr:alpha":0.05,
    "clustr:area":19.13,
    "clustr:count":24,
    "clustr:density":1.25,
    "clustr:perimeter":0.09,
    "edtf:cessation":"uuuu",
    "edtf:inception":"uuuu",
    "geom:area":0.0,
    "geom:bbox":"5.08249473572,52.0937614441,5.0829706192,52.094127655",
    "geom:latitude":52.093945,
    "geom:longitude":5.082733,
    "iso:country":"NL",
    "mz:hierarchy_label":1,
    "mz:is_approximate":1,
    "mz:is_clustr":1,
    "src:geom":"oa",
    "wof:belongsto":[
        85687039,
        102191581,
        404474007,
        85633337,
        101751827
    ],
    "wof:breaches":[],
    "wof:country":"NL",
    "wof:created":1469678162,
    "wof:geomhash":"c1752e9cf84314c80b19ad7161252e89",
    "wof:hierarchy":[
        {
            "continent_id":102191581,
            "country_id":85633337,
            "localadmin_id":404474007,
            "locality_id":101751827,
            "postalcode_id":890877561,
            "region_id":85687039
        }
    ],
    "wof:id":890877561,
    "wof:lastmodified":1469678162,
    "wof:name":"3532SR",
    "wof:parent_id":101751827,
    "wof:placetype":"postalcode",
    "wof:repo":"whosonfirst-data-postalcode-nl",
    "wof:superseded_by":[],
    "wof:supersedes":[],
    "wof:tags":[]
},
  "bbox": [
    5.082494735717773,
    52.0937614440918,
    5.08297061920166,
    52.0941276550293
],
  "geometry": {"coordinates":[[[5.08258056640625,52.09385299682617],[5.08249473571777,52.09389877319336],[5.08270406723022,52.0941276550293],[5.08273601531982,52.09411239624023],[5.0829381942749,52.09400939941406],[5.08297061920166,52.09399032592773],[5.08276176452637,52.0937614440918],[5.08274555206299,52.09376907348633],[5.08272933959961,52.09377670288086],[5.08258056640625,52.09385299682617]]],"type":"Polygon"}
}