{
  "id": 890865507,
  "type": "Feature",
  "properties": {
    "clustr:alpha":0.05,
    "clustr:area":1.0,
    "clustr:count":10,
    "clustr:density":9.98,
    "clustr:perimeter":0.12,
    "edtf:cessation":"uuuu",
    "edtf:inception":"uuuu",
    "geom:area":0.0,
    "geom:bbox":"5.09673023224,52.0239334106,5.09686851501,52.0245666504",
    "geom:latitude":52.024244,
    "geom:longitude":5.096804,
    "iso:country":"NL",
    "mz:hierarchy_label":1,
    "mz:is_approximate":1,
    "mz:is_clustr":1,
    "src:geom":"oa",
    "wof:belongsto":[
        85687039,
        102191581,
        404474021,
        85633337,
        101751825
    ],
    "wof:breaches":[],
    "wof:country":"NL",
    "wof:created":1469677699,
    "wof:geomhash":"d8c419aace148e4279c17a33187204bf",
    "wof:hierarchy":[
        {
            "continent_id":102191581,
            "country_id":85633337,
            "localadmin_id":404474021,
            "locality_id":101751825,
            "postalcode_id":890865507,
            "region_id":85687039
        }
    ],
    "wof:id":890865507,
    "wof:lastmodified":1469677699,
    "wof:name":"3432RD",
    "wof:parent_id":101751825,
    "wof:placetype":"postalcode",
    "wof:repo":"whosonfirst-data-postalcode-nl",
    "wof:superseded_by":[],
    "wof:supersedes":[],
    "wof:tags":[]
},
  "bbox": [
    5.09673023223877,
    52.02393341064453,
    5.096868515014648,
    52.024566650390625
],
  "geometry": {"coordinates":[[[5.09674263000488,52.02413177490234],[5.09684419631958,52.02456665039062],[5.09686851501465,52.0242805480957],[5.09677171707153,52.02402496337891],[5.09673023223877,52.02393341064453],[5.09674263000488,52.02413177490234]]],"type":"Polygon"}
}