{
  "id": 907119383,
  "type": "Feature",
  "properties": {
    "clustr:alpha":0.05,
    "clustr:area":52.61,
    "clustr:count":17,
    "clustr:density":0.32,
    "clustr:perimeter":0.12,
    "edtf:cessation":"uuuu",
    "edtf:inception":"uuuu",
    "geom:area":0.0,
    "geom:bbox":"6.59799194336,53.2979736328,6.59915018082,53.298122406",
    "geom:latitude":53.298063,
    "geom:longitude":6.598557,
    "iso:country":"NL",
    "mz:hierarchy_label":1,
    "mz:is_approximate":1,
    "mz:is_clustr":1,
    "src:geom":"oa",
    "wof:belongsto":[
        85687059,
        102191581,
        404473703,
        85633337,
        101806189
    ],
    "wof:breaches":[],
    "wof:country":"NL",
    "wof:created":1469700342,
    "wof:geomhash":"dd649ebf5f067da5b78a855a5085d303",
    "wof:hierarchy":[
        {
            "continent_id":102191581,
            "country_id":85633337,
            "localadmin_id":404473703,
            "locality_id":101806189,
            "postalcode_id":907119383,
            "region_id":85687059
        }
    ],
    "wof:id":907119383,
    "wof:lastmodified":1469700342,
    "wof:name":"9781JR",
    "wof:parent_id":101806189,
    "wof:placetype":"postalcode",
    "wof:repo":"whosonfirst-data-postalcode-nl",
    "wof:superseded_by":[],
    "wof:supersedes":[],
    "wof:tags":[]
},
  "bbox": [
    6.597991943359375,
    53.2979736328125,
    6.59915018081665,
    53.29812240600586
],
  "geometry": {"coordinates":[[[6.59845399856567,53.29810333251953],[6.59859418869019,53.29811859130859],[6.59863948822021,53.29812240600586],[6.59915018081665,53.298095703125],[6.59873104095459,53.29804992675781],[6.59824180603027,53.29799652099609],[6.59816217422485,53.29798889160156],[6.59807729721069,53.29798126220703],[6.59799194335938,53.2979736328125],[6.59845399856567,53.29810333251953]]],"type":"Polygon"}
}