{
  "id": 891286707,
  "type": "Feature",
  "properties": {
    "clustr:alpha":0.05,
    "clustr:area":1.82,
    "clustr:count":11,
    "clustr:density":6.04,
    "clustr:perimeter":0.13,
    "edtf:cessation":"uuuu",
    "edtf:inception":"uuuu",
    "geom:area":0.0,
    "geom:bbox":"6.10294532776,52.5316390991,6.10368108749,52.5320358276",
    "geom:latitude":52.53185,
    "geom:longitude":6.103301,
    "iso:country":"NL",
    "mz:hierarchy_label":1,
    "mz:is_approximate":1,
    "mz:is_clustr":1,
    "src:geom":"oa",
    "wof:belongsto":[
        85687045,
        102191581,
        404473861,
        85633337,
        101751861
    ],
    "wof:breaches":[],
    "wof:country":"NL",
    "wof:created":1469695022,
    "wof:geomhash":"e6d10eb9cf17fac2f6a4c04f9614e5fc",
    "wof:hierarchy":[
        {
            "continent_id":102191581,
            "country_id":85633337,
            "localadmin_id":404473861,
            "locality_id":101751861,
            "postalcode_id":891286707,
            "region_id":85687045
        }
    ],
    "wof:id":891286707,
    "wof:lastmodified":1469695022,
    "wof:name":"8032JD",
    "wof:parent_id":101751861,
    "wof:placetype":"postalcode",
    "wof:repo":"whosonfirst-data-postalcode-nl",
    "wof:superseded_by":[],
    "wof:supersedes":[],
    "wof:tags":[]
},
  "bbox": [
    6.102945327758789,
    52.531639099121094,
    6.103681087493896,
    52.53203582763672
],
  "geometry": {"coordinates":[[[6.1036810874939,52.53196716308594],[6.1036524772644,52.53191375732422],[6.1031174659729,52.53167724609375],[6.10300493240356,52.53163909912109],[6.10294532775879,52.53173065185547],[6.10313415527344,52.53190231323242],[6.10322141647339,52.53193664550781],[6.103675365448,52.53203582763672],[6.1036810874939,52.53196716308594]]],"type":"Polygon"}
}