{
  "id": 890877585,
  "type": "Feature",
  "properties": {
    "clustr:alpha":0.05,
    "clustr:area":2.0,
    "clustr:count":15,
    "clustr:density":7.51,
    "clustr:perimeter":0.13,
    "edtf:cessation":"uuuu",
    "edtf:inception":"uuuu",
    "geom:area":0.0,
    "geom:bbox":"5.09818410873,52.0948410034,5.098300457,52.0954780579",
    "geom:latitude":52.095131,
    "geom:longitude":5.098235,
    "iso:country":"NL",
    "mz:hierarchy_label":1,
    "mz:is_approximate":1,
    "mz:is_clustr":1,
    "src:geom":"oa",
    "wof:belongsto":[
        85687039,
        102191581,
        404474007,
        85633337,
        101751827
    ],
    "wof:breaches":[],
    "wof:country":"NL",
    "wof:created":1469678163,
    "wof:geomhash":"dd6e350afe1b56a5dc96cba89fe1c343",
    "wof:hierarchy":[
        {
            "continent_id":102191581,
            "country_id":85633337,
            "localadmin_id":404474007,
            "locality_id":101751827,
            "postalcode_id":890877585,
            "region_id":85687039
        }
    ],
    "wof:id":890877585,
    "wof:lastmodified":1469678163,
    "wof:name":"3532TH",
    "wof:parent_id":101751827,
    "wof:placetype":"postalcode",
    "wof:repo":"whosonfirst-data-postalcode-nl",
    "wof:superseded_by":[],
    "wof:supersedes":[],
    "wof:tags":[]
},
  "bbox": [
    5.098184108734131,
    52.09484100341797,
    5.098300457000732,
    52.09547805786133
],
  "geometry": {"coordinates":[[[5.09821462631226,52.09498977661133],[5.09818410873413,52.09484100341797],[5.09821176528931,52.09503555297852],[5.098219871521,52.0950813293457],[5.09825706481934,52.09527206420898],[5.09827709197998,52.09536743164062],[5.09830045700073,52.09547805786133],[5.09821462631226,52.09498977661133]]],"type":"Polygon"}
}