{
  "id": 891188923,
  "type": "Feature",
  "properties": {
    "clustr:alpha":0.05,
    "clustr:area":7.37,
    "clustr:count":8,
    "clustr:density":1.09,
    "clustr:perimeter":0.12,
    "edtf:cessation":"uuuu",
    "edtf:inception":"uuuu",
    "geom:area":0.0,
    "geom:bbox":"6.10649442673,52.0409011841,6.10720396042,52.0411300659",
    "geom:latitude":52.04105,
    "geom:longitude":6.106761,
    "iso:country":"NL",
    "mz:hierarchy_label":1,
    "mz:is_approximate":1,
    "mz:is_clustr":1,
    "src:geom":"oa",
    "wof:belongsto":[
        85687043,
        102191581,
        404473933,
        85633337,
        101837757
    ],
    "wof:breaches":[],
    "wof:country":"NL",
    "wof:created":1469690963,
    "wof:geomhash":"758d9842b83a18c07d07bc8b31b854c2",
    "wof:hierarchy":[
        {
            "continent_id":102191581,
            "country_id":85633337,
            "localadmin_id":404473933,
            "locality_id":101837757,
            "postalcode_id":891188923,
            "region_id":85687043
        }
    ],
    "wof:id":891188923,
    "wof:lastmodified":1469690963,
    "wof:name":"6953BB",
    "wof:parent_id":101837757,
    "wof:placetype":"postalcode",
    "wof:repo":"whosonfirst-data-postalcode-nl",
    "wof:superseded_by":[],
    "wof:supersedes":[],
    "wof:tags":[]
},
  "bbox": [
    6.106494426727295,
    52.04090118408203,
    6.107203960418701,
    52.04113006591797
],
  "geometry": {"coordinates":[[[6.10658073425293,52.04090118408203],[6.10649442672729,52.0411262512207],[6.1072039604187,52.04113006591797],[6.10664319992065,52.04091644287109],[6.10658073425293,52.04090118408203]]],"type":"Polygon"}
}