{
  "id": 907083211,
  "type": "Feature",
  "properties": {
    "clustr:alpha":0.05,
    "clustr:area":85.87,
    "clustr:count":15,
    "clustr:density":0.17,
    "clustr:perimeter":1.52,
    "edtf:cessation":"uuuu",
    "edtf:inception":"uuuu",
    "geom:area":0.000005,
    "geom:bbox":"6.4468255043,53.1158905029,6.45074939728,53.1226234436",
    "geom:latitude":53.118257,
    "geom:longitude":6.448947,
    "iso:country":"NL",
    "mz:hierarchy_label":1,
    "mz:is_approximate":1,
    "mz:is_clustr":1,
    "src:geom":"oa",
    "wof:belongsto":[
        102191581,
        404474609,
        85633337,
        85687051
    ],
    "wof:breaches":[],
    "wof:country":"NL",
    "wof:created":1469698422,
    "wof:geomhash":"cf6b5ca1c315b6262c6c71896420fff8",
    "wof:hierarchy":[
        {
            "continent_id":102191581,
            "country_id":85633337,
            "localadmin_id":404474609,
            "postalcode_id":907083211,
            "region_id":85687051
        }
    ],
    "wof:id":907083211,
    "wof:lastmodified":1469698422,
    "wof:name":"9304TJ",
    "wof:parent_id":404474609,
    "wof:placetype":"postalcode",
    "wof:repo":"whosonfirst-data-postalcode-nl",
    "wof:superseded_by":[],
    "wof:supersedes":[],
    "wof:tags":[]
},
  "bbox": [
    6.446825504302979,
    53.11589050292969,
    6.450749397277832,
    53.122623443603516
],
  "geometry": {"coordinates":[[[6.44895219802856,53.11690902709961],[6.44682550430298,53.12262344360352],[6.45074939727783,53.11594772338867],[6.45030546188354,53.11589050292969],[6.44957876205444,53.11610412597656],[6.44895219802856,53.11690902709961]]],"type":"Polygon"}
}