{
  "id": 890667449,
  "type": "Feature",
  "properties": {
    "clustr:alpha":0.05,
    "clustr:area":22.28,
    "clustr:count":23,
    "clustr:density":1.03,
    "clustr:perimeter":0.3,
    "edtf:cessation":"uuuu",
    "edtf:inception":"uuuu",
    "geom:area":0.0,
    "geom:bbox":"4.85308504105,52.6775016785,4.85364580154,52.6787223816",
    "geom:latitude":52.677914,
    "geom:longitude":4.853366,
    "iso:country":"NL",
    "mz:hierarchy_label":1,
    "mz:is_approximate":1,
    "mz:is_clustr":1,
    "src:geom":"oa",
    "wof:belongsto":[
        85687053,
        102191581,
        404474075,
        85633337,
        101754815
    ],
    "wof:breaches":[],
    "wof:country":"NL",
    "wof:created":1469669833,
    "wof:geomhash":"f401d363b9e631b1230a2a76214cbfd4",
    "wof:hierarchy":[
        {
            "continent_id":102191581,
            "country_id":85633337,
            "localadmin_id":404474075,
            "locality_id":101754815,
            "postalcode_id":890667449,
            "region_id":85687053
        }
    ],
    "wof:id":890667449,
    "wof:lastmodified":1469669833,
    "wof:name":"1701XE",
    "wof:parent_id":101754815,
    "wof:placetype":"postalcode",
    "wof:repo":"whosonfirst-data-postalcode-nl",
    "wof:superseded_by":[],
    "wof:supersedes":[],
    "wof:tags":[]
},
  "bbox": [
    4.853085041046143,
    52.6775016784668,
    4.853645801544189,
    52.6787223815918
],
  "geometry": {"coordinates":[[[4.85317802429199,52.67751693725586],[4.85308504104614,52.67752075195312],[4.85336828231812,52.6787223815918],[4.85364580154419,52.6775016784668],[4.85336303710938,52.67750930786133],[4.85317802429199,52.67751693725586]]],"type":"Polygon"}
}