{
  "id": 890607229,
  "type": "Feature",
  "properties": {
    "clustr:alpha":0.05,
    "clustr:area":5.87,
    "clustr:count":12,
    "clustr:density":2.04,
    "clustr:perimeter":0.09,
    "edtf:cessation":"uuuu",
    "edtf:inception":"uuuu",
    "geom:area":0.0,
    "geom:bbox":"4.97708129883,52.2917938232,4.97710084915,52.2923622131",
    "geom:latitude":52.292083,
    "geom:longitude":4.977091,
    "iso:country":"NL",
    "mz:hierarchy_label":1,
    "mz:is_approximate":1,
    "mz:is_clustr":1,
    "src:geom":"oa",
    "wof:belongsto":[
        85687053,
        102191581,
        404474029,
        85633337,
        101751895
    ],
    "wof:breaches":[],
    "wof:country":"NL",
    "wof:created":1469667124,
    "wof:geomhash":"2dd205d1a4cdaceb5e1b52dad25065ca",
    "wof:hierarchy":[
        {
            "continent_id":102191581,
            "country_id":85633337,
            "localadmin_id":404474029,
            "locality_id":101751895,
            "postalcode_id":890607229,
            "region_id":85687053
        }
    ],
    "wof:id":890607229,
    "wof:lastmodified":1469667124,
    "wof:name":"1107WD",
    "wof:parent_id":101751895,
    "wof:placetype":"postalcode",
    "wof:repo":"whosonfirst-data-postalcode-nl",
    "wof:superseded_by":[],
    "wof:supersedes":[],
    "wof:tags":[]
},
  "bbox": [
    4.977081298828125,
    52.29179382324219,
    4.977100849151611,
    52.292362213134766
],
  "geometry": {"coordinates":[[[4.97708320617676,52.29211807250977],[4.97708177566528,52.29227066040039],[4.97708129882812,52.29236221313477],[4.97709846496582,52.29207229614258],[4.97709941864014,52.29198455810547],[4.97709989547729,52.29193878173828],[4.97710037231445,52.29188537597656],[4.97710084915161,52.29179382324219],[4.97708320617676,52.29211807250977]]],"type":"Polygon"}
}