{
  "id": 891227543,
  "type": "Feature",
  "properties": {
    "clustr:alpha":0.05,
    "clustr:area":594.14,
    "clustr:count":25,
    "clustr:density":0.04,
    "clustr:perimeter":2.05,
    "edtf:cessation":"uuuu",
    "edtf:inception":"uuuu",
    "geom:area":0.000011,
    "geom:bbox":"6.26662540436,52.2487564087,6.28383302689,52.2509536743",
    "geom:latitude":52.24982,
    "geom:longitude":6.276686,
    "iso:country":"NL",
    "mz:hierarchy_label":1,
    "mz:is_approximate":1,
    "mz:is_clustr":1,
    "src:geom":"oa",
    "wof:belongsto":[
        85687045,
        102191581,
        404473825,
        85633337,
        101807137
    ],
    "wof:breaches":[],
    "wof:country":"NL",
    "wof:created":1469692507,
    "wof:geomhash":"380c1e64988901ab8c8c3101825b0b13",
    "wof:hierarchy":[
        {
            "continent_id":102191581,
            "country_id":85633337,
            "localadmin_id":404473825,
            "locality_id":101807137,
            "postalcode_id":891227543,
            "region_id":85687045
        }
    ],
    "wof:id":891227543,
    "wof:lastmodified":1469692507,
    "wof:name":"7437BH",
    "wof:parent_id":101807137,
    "wof:placetype":"postalcode",
    "wof:repo":"whosonfirst-data-postalcode-nl",
    "wof:superseded_by":[],
    "wof:supersedes":[],
    "wof:tags":[]
},
  "bbox": [
    6.26662540435791,
    52.248756408691406,
    6.283833026885986,
    52.250953674316406
],
  "geometry": {"coordinates":[[[6.27846670150757,52.24950408935547],[6.27713298797607,52.24930191040039],[6.27665996551514,52.24927139282227],[6.26676797866821,52.24875640869141],[6.26662540435791,52.2487907409668],[6.28167247772217,52.25095367431641],[6.28383302688599,52.25046157836914],[6.28346538543701,52.25035095214844],[6.27846670150757,52.24950408935547]]],"type":"Polygon"}
}