{
  "id": 891202119,
  "type": "Feature",
  "properties": {
    "clustr:alpha":0.05,
    "clustr:area":19.86,
    "clustr:count":5,
    "clustr:density":0.25,
    "clustr:perimeter":0.1,
    "edtf:cessation":"uuuu",
    "edtf:inception":"uuuu",
    "geom:area":0.0,
    "geom:bbox":"6.55434417725,51.9884185791,6.55487251282,51.9888153076",
    "geom:latitude":51.988613,
    "geom:longitude":6.554617,
    "iso:country":"NL",
    "mz:hierarchy_label":1,
    "mz:is_approximate":1,
    "mz:is_clustr":1,
    "src:geom":"oa",
    "wof:belongsto":[
        85687043,
        102191581,
        404474549,
        85633337,
        101808627
    ],
    "wof:breaches":[],
    "wof:country":"NL",
    "wof:created":1469691485,
    "wof:geomhash":"1745720bba8226c4b5bfec85efdd42d8",
    "wof:hierarchy":[
        {
            "continent_id":102191581,
            "country_id":85633337,
            "localadmin_id":404474549,
            "locality_id":101808627,
            "postalcode_id":891202119,
            "region_id":85687043
        }
    ],
    "wof:id":891202119,
    "wof:lastmodified":1469691485,
    "wof:name":"7131AD",
    "wof:parent_id":101808627,
    "wof:placetype":"postalcode",
    "wof:repo":"whosonfirst-data-postalcode-nl",
    "wof:superseded_by":[],
    "wof:supersedes":[],
    "wof:tags":[]
},
  "bbox": [
    6.554344177246094,
    51.98841857910156,
    6.554872512817383,
    51.98881530761719
],
  "geometry": {"coordinates":[[[6.55449342727661,51.98870849609375],[6.55474328994751,51.98852157592773],[6.55487251281738,51.98841857910156],[6.55460214614868,51.98862075805664],[6.55434417724609,51.98881530761719],[6.55449342727661,51.98870849609375]]],"type":"Polygon"}
}