{
  "id": 890684203,
  "type": "Feature",
  "properties": {
    "clustr:alpha":0.05,
    "clustr:area":19.93,
    "clustr:count":13,
    "clustr:density":0.65,
    "clustr:perimeter":0.1,
    "edtf:cessation":"uuuu",
    "edtf:inception":"uuuu",
    "geom:area":0.0,
    "geom:bbox":"4.75419044495,52.6549224854,4.75452899933,52.655506134",
    "geom:latitude":52.655223,
    "geom:longitude":4.754363,
    "iso:country":"NL",
    "mz:hierarchy_label":1,
    "mz:is_approximate":1,
    "mz:is_clustr":1,
    "src:geom":"oa",
    "wof:belongsto":[
        85687053,
        102191581,
        404474025,
        85633337,
        101751887
    ],
    "wof:breaches":[],
    "wof:country":"NL",
    "wof:created":1469670554,
    "wof:geomhash":"ddd3e3963076cff9049dee7c76fae4d9",
    "wof:hierarchy":[
        {
            "continent_id":102191581,
            "country_id":85633337,
            "localadmin_id":404474025,
            "locality_id":101751887,
            "postalcode_id":890684203,
            "region_id":85687053
        }
    ],
    "wof:id":890684203,
    "wof:lastmodified":1469670554,
    "wof:name":"1825PR",
    "wof:parent_id":101751887,
    "wof:placetype":"postalcode",
    "wof:repo":"whosonfirst-data-postalcode-nl",
    "wof:superseded_by":[],
    "wof:supersedes":[],
    "wof:tags":[]
},
  "bbox": [
    4.754190444946289,
    52.65492248535156,
    4.754528999328613,
    52.6555061340332
],
  "geometry": {"coordinates":[[[4.7543306350708,52.65514755249023],[4.75422096252441,52.65496444702148],[4.75419044494629,52.65492248535156],[4.75435781478882,52.65523529052734],[4.75440645217896,52.65532302856445],[4.75446462631226,52.65541458129883],[4.75449180603027,52.65545654296875],[4.75452899932861,52.6555061340332],[4.7543306350708,52.65514755249023]]],"type":"Polygon"}
}