{
  "id": 891198131,
  "type": "Feature",
  "properties": {
    "clustr:alpha":0.05,
    "clustr:area":3.02,
    "clustr:count":13,
    "clustr:density":4.3,
    "clustr:perimeter":0.29,
    "edtf:cessation":"uuuu",
    "edtf:inception":"uuuu",
    "geom:area":0.0,
    "geom:bbox":"6.37046289444,51.8952331543,6.37054920197,51.8966064453",
    "geom:latitude":51.895952,
    "geom:longitude":6.370504,
    "iso:country":"NL",
    "mz:hierarchy_label":1,
    "mz:is_approximate":1,
    "mz:is_clustr":1,
    "src:geom":"oa",
    "wof:belongsto":[
        85687043,
        102191581,
        404474543,
        85633337,
        101837811
    ],
    "wof:breaches":[],
    "wof:country":"NL",
    "wof:created":1469691338,
    "wof:geomhash":"9b878c5fd298869ee0c4eca01c011427",
    "wof:hierarchy":[
        {
            "continent_id":102191581,
            "country_id":85633337,
            "localadmin_id":404474543,
            "locality_id":101837811,
            "postalcode_id":891198131,
            "region_id":85687043
        }
    ],
    "wof:id":891198131,
    "wof:lastmodified":1469691338,
    "wof:name":"7071JL",
    "wof:parent_id":101837811,
    "wof:placetype":"postalcode",
    "wof:repo":"whosonfirst-data-postalcode-nl",
    "wof:superseded_by":[],
    "wof:supersedes":[],
    "wof:tags":[]
},
  "bbox": [
    6.370462894439697,
    51.895233154296875,
    6.370549201965332,
    51.8966064453125
],
  "geometry": {"coordinates":[[[6.3704628944397,51.89540100097656],[6.37049865722656,51.89616775512695],[6.37054920196533,51.8966064453125],[6.37054920196533,51.89649963378906],[6.37054777145386,51.89643859863281],[6.37047147750854,51.89529037475586],[6.37046718597412,51.89523315429688],[6.3704628944397,51.89540100097656]]],"type":"Polygon"}
}