{
  "id": 891203307,
  "type": "Feature",
  "properties": {
    "clustr:alpha":0.05,
    "clustr:area":7.77,
    "clustr:count":7,
    "clustr:density":0.9,
    "clustr:perimeter":0.94,
    "edtf:cessation":"uuuu",
    "edtf:inception":"uuuu",
    "geom:area":0.000005,
    "geom:bbox":"6.6131567955,52.0523986816,6.61671686172,52.0556182861",
    "geom:latitude":52.054382,
    "geom:longitude":6.61509,
    "iso:country":"NL",
    "mz:hierarchy_label":1,
    "mz:is_approximate":1,
    "mz:is_clustr":1,
    "src:geom":"oa",
    "wof:belongsto":[
        102191581,
        404474549,
        85633337,
        85687043
    ],
    "wof:breaches":[],
    "wof:country":"NL",
    "wof:created":1469691542,
    "wof:geomhash":"ed4a94ec0ea82783d53cf50ae8334cd8",
    "wof:hierarchy":[
        {
            "continent_id":102191581,
            "country_id":85633337,
            "localadmin_id":404474549,
            "postalcode_id":891203307,
            "region_id":85687043
        }
    ],
    "wof:id":891203307,
    "wof:lastmodified":1469691542,
    "wof:name":"7141JA",
    "wof:parent_id":404474549,
    "wof:placetype":"postalcode",
    "wof:repo":"whosonfirst-data-postalcode-nl",
    "wof:superseded_by":[],
    "wof:supersedes":[],
    "wof:tags":[]
},
  "bbox": [
    6.613156795501709,
    52.052398681640625,
    6.616716861724854,
    52.05561828613281
],
  "geometry": {"coordinates":[[[6.61671686172485,52.05252456665039],[6.61663722991943,52.05239868164062],[6.61315679550171,52.05504989624023],[6.61332511901855,52.05561828613281],[6.61542797088623,52.0555419921875],[6.61661052703857,52.05344390869141],[6.61671686172485,52.05252456665039]]],"type":"Polygon"}
}