{
  "id": 907061487,
  "type": "Feature",
  "properties": {
    "clustr:alpha":0.05,
    "clustr:area":2.99,
    "clustr:count":5,
    "clustr:density":1.67,
    "clustr:perimeter":0.13,
    "edtf:cessation":"uuuu",
    "edtf:inception":"uuuu",
    "geom:area":0.0,
    "geom:bbox":"5.4293513298,53.1589164734,5.42993497849,53.1594085693",
    "geom:latitude":53.159167,
    "geom:longitude":5.429606,
    "iso:country":"NL",
    "mz:hierarchy_label":1,
    "mz:is_approximate":1,
    "mz:is_clustr":1,
    "src:geom":"oa",
    "wof:belongsto":[
        85687055,
        102191581,
        404473769,
        85633337,
        101806147
    ],
    "wof:breaches":[],
    "wof:country":"NL",
    "wof:created":1469697293,
    "wof:geomhash":"9384637da6c933c4703c7db6792107f7",
    "wof:hierarchy":[
        {
            "continent_id":102191581,
            "country_id":85633337,
            "localadmin_id":404473769,
            "locality_id":101806147,
            "postalcode_id":907061487,
            "region_id":85687055
        }
    ],
    "wof:id":907061487,
    "wof:lastmodified":1469697293,
    "wof:name":"8862LG",
    "wof:parent_id":101806147,
    "wof:placetype":"postalcode",
    "wof:repo":"whosonfirst-data-postalcode-nl",
    "wof:superseded_by":[],
    "wof:supersedes":[],
    "wof:tags":[]
},
  "bbox": [
    5.429351329803467,
    53.15891647338867,
    5.429934978485107,
    53.15940856933594
],
  "geometry": {"coordinates":[[[5.42935132980347,53.15894317626953],[5.42935180664062,53.15919494628906],[5.4295015335083,53.15940856933594],[5.42993497848511,53.15936279296875],[5.42971038818359,53.15891647338867],[5.42935132980347,53.15894317626953]]],"type":"Polygon"}
}