{
  "id": 890828769,
  "type": "Feature",
  "properties": {
    "clustr:alpha":0.05,
    "clustr:area":57.34,
    "clustr:count":14,
    "clustr:density":0.24,
    "clustr:perimeter":0.13,
    "edtf:cessation":"uuuu",
    "edtf:inception":"uuuu",
    "geom:area":0.0,
    "geom:bbox":"4.46403408051,51.8878707886,4.46447896957,51.8885917664",
    "geom:latitude":51.888202,
    "geom:longitude":4.464281,
    "iso:country":"NL",
    "mz:hierarchy_label":1,
    "mz:is_approximate":1,
    "mz:is_clustr":1,
    "src:geom":"oa",
    "wof:belongsto":[
        85687041,
        102191581,
        404474245,
        85633337,
        101751843
    ],
    "wof:breaches":[],
    "wof:country":"NL",
    "wof:created":1469676338,
    "wof:geomhash":"5bbc412771eeb415cdeb592994219986",
    "wof:hierarchy":[
        {
            "continent_id":102191581,
            "country_id":85633337,
            "localadmin_id":404474245,
            "locality_id":101751843,
            "postalcode_id":890828769,
            "region_id":85687041
        }
    ],
    "wof:id":890828769,
    "wof:lastmodified":1469676338,
    "wof:name":"3082VK",
    "wof:parent_id":101751843,
    "wof:placetype":"postalcode",
    "wof:repo":"whosonfirst-data-postalcode-nl",
    "wof:superseded_by":[],
    "wof:supersedes":[],
    "wof:tags":[]
},
  "bbox": [
    4.464034080505371,
    51.88787078857422,
    4.464478969573975,
    51.88859176635742
],
  "geometry": {"coordinates":[[[4.46403408050537,51.88814163208008],[4.46429681777954,51.88854217529297],[4.46433019638062,51.88859176635742],[4.46447896957397,51.88787078857422],[4.46403408050537,51.88814163208008]]],"type":"Polygon"}
}