{
  "id": 891205053,
  "type": "Feature",
  "properties": {
    "clustr:alpha":0.05,
    "clustr:area":179.23,
    "clustr:count":10,
    "clustr:density":0.06,
    "clustr:perimeter":1.99,
    "edtf:cessation":"uuuu",
    "edtf:inception":"uuuu",
    "geom:area":0.000011,
    "geom:bbox":"6.62524366379,52.1377906799,6.63799238205,52.1427497864",
    "geom:latitude":52.139962,
    "geom:longitude":6.6318,
    "iso:country":"NL",
    "mz:hierarchy_label":1,
    "mz:is_approximate":1,
    "mz:is_clustr":1,
    "src:geom":"oa",
    "wof:belongsto":[
        102191581,
        404474671,
        85633337,
        85687043
    ],
    "wof:breaches":[],
    "wof:country":"NL",
    "wof:created":1469691612,
    "wof:geomhash":"c9023282642a637586dfc633af1edb6d",
    "wof:hierarchy":[
        {
            "continent_id":102191581,
            "country_id":85633337,
            "localadmin_id":404474671,
            "postalcode_id":891205053,
            "region_id":85687043
        }
    ],
    "wof:id":891205053,
    "wof:lastmodified":1469691612,
    "wof:name":"7161RJ",
    "wof:parent_id":404474671,
    "wof:placetype":"postalcode",
    "wof:repo":"whosonfirst-data-postalcode-nl",
    "wof:superseded_by":[],
    "wof:supersedes":[],
    "wof:tags":[]
},
  "bbox": [
    6.625243663787842,
    52.13779067993164,
    6.637992382049561,
    52.14274978637695
],
  "geometry": {"coordinates":[[[6.62668943405151,52.13779067993164],[6.62524366378784,52.13800430297852],[6.63799238204956,52.14274978637695],[6.63509654998779,52.14041900634766],[6.62668943405151,52.13779067993164]]],"type":"Polygon"}
}