{
  "id": 907047141,
  "type": "Feature",
  "properties": {
    "clustr:alpha":0.05,
    "clustr:area":3.71,
    "clustr:count":33,
    "clustr:density":8.9,
    "clustr:perimeter":0.29,
    "edtf:cessation":"uuuu",
    "edtf:inception":"uuuu",
    "geom:area":0.000001,
    "geom:bbox":"5.9272942543,52.957233429,5.92881965637,52.9579734802",
    "geom:latitude":52.957523,
    "geom:longitude":5.928173,
    "iso:country":"NL",
    "mz:hierarchy_label":1,
    "mz:is_approximate":1,
    "mz:is_clustr":1,
    "src:geom":"oa",
    "wof:belongsto":[
        85687055,
        102191581,
        404473771,
        85633337,
        101837957
    ],
    "wof:breaches":[],
    "wof:country":"NL",
    "wof:created":1469696658,
    "wof:geomhash":"685c68627b6b656b1e910f3f5d800576",
    "wof:hierarchy":[
        {
            "continent_id":102191581,
            "country_id":85633337,
            "localadmin_id":404473771,
            "locality_id":101837957,
            "postalcode_id":907047141,
            "region_id":85687055
        }
    ],
    "wof:id":907047141,
    "wof:lastmodified":1469696658,
    "wof:name":"8442CL",
    "wof:parent_id":101837957,
    "wof:placetype":"postalcode",
    "wof:repo":"whosonfirst-data-postalcode-nl",
    "wof:superseded_by":[],
    "wof:supersedes":[],
    "wof:tags":[]
},
  "bbox": [
    5.927294254302979,
    52.95723342895508,
    5.92881965637207,
    52.95797348022461
],
  "geometry": {"coordinates":[[[5.92880487442017,52.95796203613281],[5.92881965637207,52.95794677734375],[5.9286642074585,52.95743179321289],[5.92841005325317,52.95730972290039],[5.92755889892578,52.95724105834961],[5.92742919921875,52.95723342895508],[5.92735290527344,52.9572868347168],[5.92729425430298,52.95735168457031],[5.92877531051636,52.95797348022461],[5.92880487442017,52.95796203613281]]],"type":"Polygon"}
}