{
  "id": 890989651,
  "type": "Feature",
  "properties": {
    "clustr:alpha":0.05,
    "clustr:area":0.22,
    "clustr:count":16,
    "clustr:density":72.97,
    "clustr:perimeter":0.05,
    "edtf:cessation":"uuuu",
    "edtf:inception":"uuuu",
    "geom:area":0.0,
    "geom:bbox":"4.76898670197,51.569442749,4.76912021637,51.5696563721",
    "geom:latitude":51.569564,
    "geom:longitude":4.76905,
    "iso:country":"NL",
    "mz:hierarchy_label":1,
    "mz:is_approximate":1,
    "mz:is_clustr":1,
    "src:geom":"oa",
    "wof:belongsto":[
        85687035,
        102191581,
        404474363,
        85633337,
        101751811
    ],
    "wof:breaches":[],
    "wof:country":"NL",
    "wof:created":1469683049,
    "wof:geomhash":"2c49d8722e152263703e2eaa2160b902",
    "wof:hierarchy":[
        {
            "continent_id":102191581,
            "country_id":85633337,
            "localadmin_id":404474363,
            "locality_id":101751811,
            "postalcode_id":890989651,
            "region_id":85687035
        }
    ],
    "wof:id":890989651,
    "wof:lastmodified":1469683049,
    "wof:name":"4837CL",
    "wof:parent_id":101751811,
    "wof:placetype":"postalcode",
    "wof:repo":"whosonfirst-data-postalcode-nl",
    "wof:superseded_by":[],
    "wof:supersedes":[],
    "wof:tags":[]
},
  "bbox": [
    4.768986701965332,
    51.56944274902344,
    4.769120216369629,
    51.56965637207031
],
  "geometry": {"coordinates":[[[4.76899290084839,51.56955337524414],[4.76900577545166,51.56962585449219],[4.76903057098389,51.56965637207031],[4.76912021636963,51.56964874267578],[4.76906776428223,51.56944274902344],[4.76898670196533,51.56950759887695],[4.76899290084839,51.56955337524414]]],"type":"Polygon"}
}