{
  "id": 891159433,
  "type": "Feature",
  "properties": {
    "clustr:alpha":0.05,
    "clustr:area":137.26,
    "clustr:count":48,
    "clustr:density":0.35,
    "clustr:perimeter":0.56,
    "edtf:cessation":"uuuu",
    "edtf:inception":"uuuu",
    "geom:area":0.000002,
    "geom:bbox":"5.60339975357,51.892414093,5.60532283783,51.8949699402",
    "geom:latitude":51.893959,
    "geom:longitude":5.604428,
    "iso:country":"NL",
    "mz:hierarchy_label":1,
    "mz:is_approximate":1,
    "mz:is_clustr":1,
    "src:geom":"oa",
    "wof:belongsto":[
        85687043,
        102191581,
        404473889,
        85633337,
        101837761
    ],
    "wof:breaches":[],
    "wof:country":"NL",
    "wof:created":1469689765,
    "wof:geomhash":"b7c9d1f85f681ed6a7e946988041869a",
    "wof:hierarchy":[
        {
            "continent_id":102191581,
            "country_id":85633337,
            "localadmin_id":404473889,
            "locality_id":101837761,
            "postalcode_id":891159433,
            "region_id":85687043
        }
    ],
    "wof:id":891159433,
    "wof:lastmodified":1469689765,
    "wof:name":"6651TL",
    "wof:parent_id":101837761,
    "wof:placetype":"postalcode",
    "wof:repo":"whosonfirst-data-postalcode-nl",
    "wof:superseded_by":[],
    "wof:supersedes":[],
    "wof:tags":[]
},
  "bbox": [
    5.603399753570557,
    51.89241409301758,
    5.60532283782959,
    51.89496994018555
],
  "geometry": {"coordinates":[[[5.60457229614258,51.89496994018555],[5.60466003417969,51.89469528198242],[5.60532283782959,51.89241409301758],[5.60340929031372,51.89446258544922],[5.60339975357056,51.89450073242188],[5.60457229614258,51.89496994018555]]],"type":"Polygon"}
}