{
  "id": 890708149,
  "type": "Feature",
  "properties": {
    "clustr:alpha":0.05,
    "clustr:area":8.12,
    "clustr:count":5,
    "clustr:density":0.62,
    "clustr:perimeter":0.04,
    "edtf:cessation":"uuuu",
    "edtf:inception":"uuuu",
    "geom:area":0.0,
    "geom:bbox":"4.61833047867,52.3340759277,4.61858701706,52.3341941833",
    "geom:latitude":52.334139,
    "geom:longitude":4.618449,
    "iso:country":"NL",
    "mz:hierarchy_label":1,
    "mz:is_approximate":1,
    "mz:is_clustr":1,
    "src:geom":"oa",
    "wof:belongsto":[
        85687053,
        102191581,
        404474073,
        85633337,
        101754813
    ],
    "wof:breaches":[],
    "wof:country":"NL",
    "wof:created":1469671608,
    "wof:geomhash":"0fd604a504321729d73eb588a7849418",
    "wof:hierarchy":[
        {
            "continent_id":102191581,
            "country_id":85633337,
            "localadmin_id":404474073,
            "locality_id":101754813,
            "postalcode_id":890708149,
            "region_id":85687053
        }
    ],
    "wof:id":890708149,
    "wof:lastmodified":1469671608,
    "wof:name":"2104TE",
    "wof:parent_id":101754813,
    "wof:placetype":"postalcode",
    "wof:repo":"whosonfirst-data-postalcode-nl",
    "wof:superseded_by":[],
    "wof:supersedes":[],
    "wof:tags":[]
},
  "bbox": [
    4.618330478668213,
    52.334075927734375,
    4.618587017059326,
    52.33419418334961
],
  "geometry": {"coordinates":[[[4.61839437484741,52.33415985107422],[4.61833047866821,52.33419418334961],[4.61853265762329,52.33410263061523],[4.61858701705933,52.33407592773438],[4.61839437484741,52.33415985107422]]],"type":"Polygon"}
}