{
  "id": 891132009,
  "type": "Feature",
  "properties": {
    "clustr:alpha":0.05,
    "clustr:area":17.84,
    "clustr:count":15,
    "clustr:density":0.84,
    "clustr:perimeter":0.16,
    "edtf:cessation":"uuuu",
    "edtf:inception":"uuuu",
    "geom:area":0.0,
    "geom:bbox":"5.92227458954,50.8811950684,5.922519207,50.8820075989",
    "geom:latitude":50.881613,
    "geom:longitude":5.922382,
    "iso:country":"NL",
    "mz:hierarchy_label":1,
    "mz:is_approximate":1,
    "mz:is_clustr":1,
    "src:geom":"oa",
    "wof:belongsto":[
        85687033,
        102191581,
        404474529,
        85633337,
        101839291
    ],
    "wof:breaches":[],
    "wof:country":"NL",
    "wof:created":1469688618,
    "wof:geomhash":"b99849aef9a3682d7f5336ef78932f1a",
    "wof:hierarchy":[
        {
            "continent_id":102191581,
            "country_id":85633337,
            "localadmin_id":404474529,
            "locality_id":101839291,
            "postalcode_id":891132009,
            "region_id":85687033
        }
    ],
    "wof:id":891132009,
    "wof:lastmodified":1469688618,
    "wof:name":"6367VK",
    "wof:parent_id":101839291,
    "wof:placetype":"postalcode",
    "wof:repo":"whosonfirst-data-postalcode-nl",
    "wof:superseded_by":[],
    "wof:supersedes":[],
    "wof:tags":[]
},
  "bbox": [
    5.922274589538574,
    50.881195068359375,
    5.922519207000732,
    50.88200759887695
],
  "geometry": {"coordinates":[[[5.9224853515625,50.88123321533203],[5.92236375808716,50.88140869140625],[5.92233276367188,50.88150024414062],[5.92228651046753,50.88164138793945],[5.92227458953857,50.88174057006836],[5.92227649688721,50.88178634643555],[5.922278881073,50.88182830810547],[5.9223690032959,50.88200759887695],[5.92251920700073,50.88119506835938],[5.9224853515625,50.88123321533203]]],"type":"Polygon"}
}