{
  "id": 891209373,
  "type": "Feature",
  "properties": {
    "clustr:alpha":0.05,
    "clustr:area":79.34,
    "clustr:count":21,
    "clustr:density":0.26,
    "clustr:perimeter":0.45,
    "edtf:cessation":"uuuu",
    "edtf:inception":"uuuu",
    "geom:area":0.000002,
    "geom:bbox":"6.41806077957,52.1620788574,6.42106246948,52.1632270813",
    "geom:latitude":52.162694,
    "geom:longitude":6.419659,
    "iso:country":"NL",
    "mz:hierarchy_label":1,
    "mz:is_approximate":1,
    "mz:is_clustr":1,
    "src:geom":"oa",
    "wof:belongsto":[
        85687043,
        102191581,
        404473915,
        85633337,
        101807065
    ],
    "wof:breaches":[],
    "wof:country":"NL",
    "wof:created":1469691806,
    "wof:geomhash":"7bfbce1098efd4801b6074064ff4760a",
    "wof:hierarchy":[
        {
            "continent_id":102191581,
            "country_id":85633337,
            "localadmin_id":404473915,
            "locality_id":101807065,
            "postalcode_id":891209373,
            "region_id":85687043
        }
    ],
    "wof:id":891209373,
    "wof:lastmodified":1469691806,
    "wof:name":"7241DH",
    "wof:parent_id":101807065,
    "wof:placetype":"postalcode",
    "wof:repo":"whosonfirst-data-postalcode-nl",
    "wof:superseded_by":[],
    "wof:supersedes":[],
    "wof:tags":[]
},
  "bbox": [
    6.418060779571533,
    52.162078857421875,
    6.421062469482422,
    52.16322708129883
],
  "geometry": {"coordinates":[[[6.42077589035034,52.16282272338867],[6.42106246948242,52.16250610351562],[6.42032194137573,52.16207885742188],[6.41886949539185,52.16247940063477],[6.41836166381836,52.16264343261719],[6.41806077957153,52.16291046142578],[6.41927337646484,52.16322708129883],[6.42015504837036,52.16307830810547],[6.42077589035034,52.16282272338867]]],"type":"Polygon"}
}