{
  "id": 890644957,
  "type": "Feature",
  "properties": {
    "clustr:alpha":0.05,
    "clustr:area":30.46,
    "clustr:count":18,
    "clustr:density":0.59,
    "clustr:perimeter":0.15,
    "edtf:cessation":"uuuu",
    "edtf:inception":"uuuu",
    "geom:area":0.0,
    "geom:bbox":"4.74814462662,52.2318763733,4.74906396866,52.2324104309",
    "geom:latitude":52.232154,
    "geom:longitude":4.748586,
    "iso:country":"NL",
    "mz:hierarchy_label":1,
    "mz:is_approximate":1,
    "mz:is_clustr":1,
    "src:geom":"oa",
    "wof:belongsto":[
        85687053,
        102191581,
        404474023,
        85633337,
        101807363
    ],
    "wof:breaches":[],
    "wof:country":"NL",
    "wof:created":1469668772,
    "wof:geomhash":"041cc3e24a5ca59235480b09ee721a07",
    "wof:hierarchy":[
        {
            "continent_id":102191581,
            "country_id":85633337,
            "localadmin_id":404474023,
            "locality_id":101807363,
            "postalcode_id":890644957,
            "region_id":85687053
        }
    ],
    "wof:id":890644957,
    "wof:lastmodified":1469668772,
    "wof:name":"1433JD",
    "wof:parent_id":101807363,
    "wof:placetype":"postalcode",
    "wof:repo":"whosonfirst-data-postalcode-nl",
    "wof:superseded_by":[],
    "wof:supersedes":[],
    "wof:tags":[]
},
  "bbox": [
    4.748144626617432,
    52.231876373291016,
    4.749063968658447,
    52.2324104309082
],
  "geometry": {"coordinates":[[[4.74820327758789,52.2320556640625],[4.74814462661743,52.23210144042969],[4.74822378158569,52.23219299316406],[4.74837779998779,52.23226928710938],[4.74860954284668,52.23237991333008],[4.74875783920288,52.2324104309082],[4.74906396865845,52.232177734375],[4.74843788146973,52.23187637329102],[4.74820327758789,52.2320556640625]]],"type":"Polygon"}
}