{
  "id": 891234003,
  "type": "Feature",
  "properties": {
    "clustr:alpha":0.05,
    "clustr:area":35.01,
    "clustr:count":22,
    "clustr:density":0.63,
    "clustr:perimeter":0.18,
    "edtf:cessation":"uuuu",
    "edtf:inception":"uuuu",
    "geom:area":0.0,
    "geom:bbox":"6.74835681915,52.1638832092,6.74956989288,52.1644172668",
    "geom:latitude":52.164128,
    "geom:longitude":6.748984,
    "iso:country":"NL",
    "mz:hierarchy_label":1,
    "mz:is_approximate":1,
    "mz:is_clustr":1,
    "src:geom":"oa",
    "wof:belongsto":[
        85687045,
        102191581,
        404473829,
        85633337,
        101807203
    ],
    "wof:breaches":[],
    "wof:country":"NL",
    "wof:created":1469692769,
    "wof:geomhash":"1611d39ffc3df92c4c15332b114c7f9b",
    "wof:hierarchy":[
        {
            "continent_id":102191581,
            "country_id":85633337,
            "localadmin_id":404473829,
            "locality_id":101807203,
            "postalcode_id":891234003,
            "region_id":85687045
        }
    ],
    "wof:id":891234003,
    "wof:lastmodified":1469692769,
    "wof:name":"7482VD",
    "wof:parent_id":101807203,
    "wof:placetype":"postalcode",
    "wof:repo":"whosonfirst-data-postalcode-nl",
    "wof:superseded_by":[],
    "wof:supersedes":[],
    "wof:tags":[]
},
  "bbox": [
    6.748356819152832,
    52.163883209228516,
    6.749569892883301,
    52.1644172668457
],
  "geometry": {"coordinates":[[[6.74859571456909,52.16423797607422],[6.74890756607056,52.1644172668457],[6.74912357330322,52.164306640625],[6.74949789047241,52.16411209106445],[6.7495698928833,52.1640739440918],[6.74925708770752,52.16388320922852],[6.74835681915283,52.16408157348633],[6.74841642379761,52.16412353515625],[6.74847602844238,52.16416168212891],[6.74859571456909,52.16423797607422]]],"type":"Polygon"}
}