{
  "id": 890781995,
  "type": "Feature",
  "properties": {
    "clustr:alpha":0.05,
    "clustr:area":63.99,
    "clustr:count":23,
    "clustr:density":0.36,
    "clustr:perimeter":0.17,
    "edtf:cessation":"uuuu",
    "edtf:inception":"uuuu",
    "geom:area":0.0,
    "geom:bbox":"4.4906167984,51.9898109436,4.49167823792,51.9907989502",
    "geom:latitude":51.990204,
    "geom:longitude":4.491081,
    "iso:country":"NL",
    "mz:hierarchy_label":1,
    "mz:is_approximate":1,
    "mz:is_clustr":1,
    "src:geom":"oa",
    "wof:belongsto":[
        85687041,
        102191581,
        404474555,
        85633337,
        101754617
    ],
    "wof:breaches":[],
    "wof:country":"NL",
    "wof:created":1469674557,
    "wof:geomhash":"eeabdf453c2747278246ea3a77f96514",
    "wof:hierarchy":[
        {
            "continent_id":102191581,
            "country_id":85633337,
            "localadmin_id":404474555,
            "locality_id":101754617,
            "postalcode_id":890781995,
            "region_id":85687041
        }
    ],
    "wof:id":890781995,
    "wof:lastmodified":1469674557,
    "wof:name":"2661VJ",
    "wof:parent_id":101754617,
    "wof:placetype":"postalcode",
    "wof:repo":"whosonfirst-data-postalcode-nl",
    "wof:superseded_by":[],
    "wof:supersedes":[],
    "wof:tags":[]
},
  "bbox": [
    4.490616798400879,
    51.989810943603516,
    4.491678237915039,
    51.99079895019531
],
  "geometry": {"coordinates":[[[4.49108362197876,51.98997497558594],[4.4908971786499,51.98981094360352],[4.49061679840088,51.98999786376953],[4.4907603263855,51.99011611938477],[4.49167823791504,51.99079895019531],[4.49108362197876,51.98997497558594]]],"type":"Polygon"}
}