{
  "id": 891083243,
  "type": "Feature",
  "properties": {
    "clustr:alpha":0.05,
    "clustr:area":1.17,
    "clustr:count":4,
    "clustr:density":3.42,
    "clustr:perimeter":0.31,
    "edtf:cessation":"uuuu",
    "edtf:inception":"uuuu",
    "geom:area":0.0,
    "geom:bbox":"5.63952589035,51.5197715759,5.64016723633,51.5211334229",
    "geom:latitude":51.520596,
    "geom:longitude":5.639869,
    "iso:country":"NL",
    "mz:hierarchy_label":1,
    "mz:is_approximate":1,
    "mz:is_clustr":1,
    "src:geom":"oa",
    "wof:belongsto":[
        85687035,
        102191581,
        404474569,
        85633337,
        101808161
    ],
    "wof:breaches":[],
    "wof:country":"NL",
    "wof:created":1469686613,
    "wof:geomhash":"c8a1aa3f22fe41662a16f428f580ad51",
    "wof:hierarchy":[
        {
            "continent_id":102191581,
            "country_id":85633337,
            "localadmin_id":404474569,
            "locality_id":101808161,
            "postalcode_id":891083243,
            "region_id":85687035
        }
    ],
    "wof:id":891083243,
    "wof:lastmodified":1469686613,
    "wof:name":"5741HH",
    "wof:parent_id":101808161,
    "wof:placetype":"postalcode",
    "wof:repo":"whosonfirst-data-postalcode-nl",
    "wof:superseded_by":[],
    "wof:supersedes":[],
    "wof:tags":[]
},
  "bbox": [
    5.639525890350342,
    51.519771575927734,
    5.640167236328125,
    51.52113342285156
],
  "geometry": {"coordinates":[[[5.64016723632812,51.52088928222656],[5.64015245437622,51.52085113525391],[5.63952589035034,51.51977157592773],[5.63990926742554,51.52113342285156],[5.64016723632812,51.52088928222656]]],"type":"Polygon"}
}