{
  "id": 890913589,
  "type": "Feature",
  "properties": {
    "clustr:alpha":0.05,
    "clustr:area":5.39,
    "clustr:count":23,
    "clustr:density":4.27,
    "clustr:perimeter":0.32,
    "edtf:cessation":"uuuu",
    "edtf:inception":"uuuu",
    "geom:area":0.0,
    "geom:bbox":"5.47635936737,52.2201423645,5.47672510147,52.2215843201",
    "geom:latitude":52.22086,
    "geom:longitude":5.476534,
    "iso:country":"NL",
    "mz:hierarchy_label":1,
    "mz:is_approximate":1,
    "mz:is_clustr":1,
    "src:geom":"oa",
    "wof:belongsto":[
        85687043,
        102191581,
        404473921,
        85633337,
        101807075
    ],
    "wof:breaches":[],
    "wof:country":"NL",
    "wof:created":1469679768,
    "wof:geomhash":"7f4d24ed7f86542bce164e8490906a3a",
    "wof:hierarchy":[
        {
            "continent_id":102191581,
            "country_id":85633337,
            "localadmin_id":404473921,
            "locality_id":101807075,
            "postalcode_id":890913589,
            "region_id":85687043
        }
    ],
    "wof:id":890913589,
    "wof:lastmodified":1469679768,
    "wof:name":"3861EV",
    "wof:parent_id":101807075,
    "wof:placetype":"postalcode",
    "wof:repo":"whosonfirst-data-postalcode-nl",
    "wof:superseded_by":[],
    "wof:supersedes":[],
    "wof:tags":[]
},
  "bbox": [
    5.476359367370605,
    52.22014236450195,
    5.476725101470947,
    52.22158432006836
],
  "geometry": {"coordinates":[[[5.47664070129395,52.22020721435547],[5.4763593673706,52.2209587097168],[5.47636938095093,52.22111129760742],[5.47637462615967,52.22117614746094],[5.47651720046997,52.22158432006836],[5.47672510147095,52.22018814086914],[5.47667789459229,52.22014236450195],[5.47664070129395,52.22020721435547]]],"type":"Polygon"}
}