{
  "id": 890814111,
  "type": "Feature",
  "properties": {
    "clustr:alpha":0.05,
    "clustr:area":87.85,
    "clustr:count":30,
    "clustr:density":0.34,
    "clustr:perimeter":0.07,
    "edtf:cessation":"uuuu",
    "edtf:inception":"uuuu",
    "geom:area":0.0,
    "geom:bbox":"4.45248174667,51.9045753479,4.45331382751,51.9046478271",
    "geom:latitude":51.904609,
    "geom:longitude":4.452892,
    "iso:country":"NL",
    "mz:hierarchy_label":1,
    "mz:is_approximate":1,
    "mz:is_clustr":1,
    "src:geom":"oa",
    "wof:belongsto":[
        85687041,
        102191581,
        404474245,
        85633337,
        101751843
    ],
    "wof:breaches":[],
    "wof:country":"NL",
    "wof:created":1469675755,
    "wof:geomhash":"c74ddc96d92852bf536f343a48eb2c1b",
    "wof:hierarchy":[
        {
            "continent_id":102191581,
            "country_id":85633337,
            "localadmin_id":404474245,
            "locality_id":101751843,
            "postalcode_id":890814111,
            "region_id":85687041
        }
    ],
    "wof:id":890814111,
    "wof:lastmodified":1469675755,
    "wof:name":"3024CW",
    "wof:parent_id":101751843,
    "wof:placetype":"postalcode",
    "wof:repo":"whosonfirst-data-postalcode-nl",
    "wof:superseded_by":[],
    "wof:supersedes":[],
    "wof:tags":[]
},
  "bbox": [
    4.452481746673584,
    51.90457534790039,
    4.453313827514648,
    51.90464782714844
],
  "geometry": {"coordinates":[[[4.45320415496826,51.90464782714844],[4.45331382751465,51.90464401245117],[4.45276021957397,51.90457534790039],[4.45248174667358,51.90458679199219],[4.45320415496826,51.90464782714844]]],"type":"Polygon"}
}