{
  "id": 890605401,
  "type": "Feature",
  "properties": {
    "clustr:alpha":0.05,
    "clustr:area":3.39,
    "clustr:count":21,
    "clustr:density":6.19,
    "clustr:perimeter":0.01,
    "edtf:cessation":"uuuu",
    "edtf:inception":"uuuu",
    "geom:area":0.0,
    "geom:bbox":"4.97674846649,52.3252296448,4.97679233551,52.3252449036",
    "geom:latitude":52.325236,
    "geom:longitude":4.976774,
    "iso:country":"NL",
    "mz:hierarchy_label":1,
    "mz:is_approximate":1,
    "mz:is_clustr":1,
    "src:geom":"oa",
    "wof:belongsto":[
        85687053,
        102191581,
        404474029,
        85633337,
        101751895
    ],
    "wof:breaches":[],
    "wof:country":"NL",
    "wof:created":1469667040,
    "wof:geomhash":"3f339ae36cdbee9b8dacc35a86c9a380",
    "wof:hierarchy":[
        {
            "continent_id":102191581,
            "country_id":85633337,
            "localadmin_id":404474029,
            "locality_id":101751895,
            "postalcode_id":890605401,
            "region_id":85687053
        }
    ],
    "wof:id":890605401,
    "wof:lastmodified":1469667040,
    "wof:name":"1103LH",
    "wof:parent_id":101751895,
    "wof:placetype":"postalcode",
    "wof:repo":"whosonfirst-data-postalcode-nl",
    "wof:superseded_by":[],
    "wof:supersedes":[],
    "wof:tags":[]
},
  "bbox": [
    4.976748466491699,
    52.32522964477539,
    4.976792335510254,
    52.32524490356445
],
  "geometry": {"coordinates":[[[4.9767632484436,52.32522964477539],[4.9767484664917,52.32522964477539],[4.97676277160645,52.32523727416992],[4.97679233551025,52.32524490356445],[4.97679233551025,52.32523727416992],[4.9767632484436,52.32522964477539]]],"type":"Polygon"}
}