{
  "id": 890963935,
  "type": "Feature",
  "properties": {
    "clustr:alpha":0.05,
    "clustr:area":34.24,
    "clustr:count":17,
    "clustr:density":0.5,
    "clustr:perimeter":0.22,
    "edtf:cessation":"uuuu",
    "edtf:inception":"uuuu",
    "geom:area":0.0,
    "geom:bbox":"3.85036158562,51.3125152588,3.85139203072,51.3132781982",
    "geom:latitude":51.31296,
    "geom:longitude":3.850955,
    "iso:country":"NL",
    "mz:hierarchy_label":1,
    "mz:is_approximate":1,
    "mz:is_clustr":1,
    "src:geom":"oa",
    "wof:belongsto":[
        85687037,
        102191581,
        404474329,
        85633337,
        101809831
    ],
    "wof:breaches":[],
    "wof:country":"NL",
    "wof:created":1469681870,
    "wof:geomhash":"2c68abda7bc379e5fcf1c32d1f6f62b4",
    "wof:hierarchy":[
        {
            "continent_id":102191581,
            "country_id":85633337,
            "localadmin_id":404474329,
            "locality_id":101809831,
            "postalcode_id":890963935,
            "region_id":85687037
        }
    ],
    "wof:id":890963935,
    "wof:lastmodified":1469681870,
    "wof:name":"4535GD",
    "wof:parent_id":101809831,
    "wof:placetype":"postalcode",
    "wof:repo":"whosonfirst-data-postalcode-nl",
    "wof:superseded_by":[],
    "wof:supersedes":[],
    "wof:tags":[]
},
  "bbox": [
    3.850361585617065,
    51.31251525878906,
    3.851392030715942,
    51.31327819824219
],
  "geometry": {"coordinates":[[[3.85139203071594,51.31303787231445],[3.85138511657715,51.31271743774414],[3.85110116004944,51.31251525878906],[3.85036158561706,51.31314086914062],[3.85041475296021,51.31317901611328],[3.85051107406616,51.31324768066406],[3.85055899620056,51.31327819824219],[3.85096621513367,51.31327438354492],[3.8511278629303,51.31318664550781],[3.85139203071594,51.31303787231445]]],"type":"Polygon"}
}