{
  "id": 890684185,
  "type": "Feature",
  "properties": {
    "clustr:alpha":0.05,
    "clustr:area":13.18,
    "clustr:count":14,
    "clustr:density":1.06,
    "clustr:perimeter":0.09,
    "edtf:cessation":"uuuu",
    "edtf:inception":"uuuu",
    "geom:area":0.0,
    "geom:bbox":"4.75520706177,52.6579742432,4.75591611862,52.6581268311",
    "geom:latitude":52.658042,
    "geom:longitude":4.755597,
    "iso:country":"NL",
    "mz:hierarchy_label":1,
    "mz:is_approximate":1,
    "mz:is_clustr":1,
    "src:geom":"oa",
    "wof:belongsto":[
        85687053,
        102191581,
        404474025,
        85633337,
        101751887
    ],
    "wof:breaches":[],
    "wof:country":"NL",
    "wof:created":1469670554,
    "wof:geomhash":"490c2ea24ea980c611715bdde47eeca6",
    "wof:hierarchy":[
        {
            "continent_id":102191581,
            "country_id":85633337,
            "localadmin_id":404474025,
            "locality_id":101751887,
            "postalcode_id":890684185,
            "region_id":85687053
        }
    ],
    "wof:id":890684185,
    "wof:lastmodified":1469670554,
    "wof:name":"1825PD",
    "wof:parent_id":101751887,
    "wof:placetype":"postalcode",
    "wof:repo":"whosonfirst-data-postalcode-nl",
    "wof:superseded_by":[],
    "wof:supersedes":[],
    "wof:tags":[]
},
  "bbox": [
    4.755207061767578,
    52.65797424316406,
    4.755916118621826,
    52.65812683105469
],
  "geometry": {"coordinates":[[[4.75542879104614,52.6580810546875],[4.7555365562439,52.65805816650391],[4.75591611862183,52.65797424316406],[4.75575256347656,52.65800476074219],[4.75548028945923,52.65806579589844],[4.75520706176758,52.65812683105469],[4.75542879104614,52.6580810546875]]],"type":"Polygon"}
}