{
  "id": 890997763,
  "type": "Feature",
  "properties": {
    "clustr:alpha":0.05,
    "clustr:area":64.58,
    "clustr:count":12,
    "clustr:density":0.19,
    "clustr:perimeter":0.11,
    "edtf:cessation":"uuuu",
    "edtf:inception":"uuuu",
    "geom:area":0.0,
    "geom:bbox":"4.79414319992,51.6715698242,4.7949256897,51.6719322205",
    "geom:latitude":51.671751,
    "geom:longitude":4.794533,
    "iso:country":"NL",
    "mz:hierarchy_label":1,
    "mz:is_approximate":1,
    "mz:is_clustr":1,
    "src:geom":"oa",
    "wof:belongsto":[
        85687035,
        102191581,
        404474631,
        85633337,
        101808193
    ],
    "wof:breaches":[],
    "wof:country":"NL",
    "wof:created":1469683387,
    "wof:geomhash":"eb1f49d1ac466d370903efc60e120204",
    "wof:hierarchy":[
        {
            "continent_id":102191581,
            "country_id":85633337,
            "localadmin_id":404474631,
            "locality_id":101808193,
            "postalcode_id":890997763,
            "region_id":85687035
        }
    ],
    "wof:id":890997763,
    "wof:lastmodified":1469683387,
    "wof:name":"4921VW",
    "wof:parent_id":101808193,
    "wof:placetype":"postalcode",
    "wof:repo":"whosonfirst-data-postalcode-nl",
    "wof:superseded_by":[],
    "wof:supersedes":[],
    "wof:tags":[]
},
  "bbox": [
    4.794143199920654,
    51.67156982421875,
    4.794925689697266,
    51.671932220458984
],
  "geometry": {"coordinates":[[[4.79467678070068,51.67192077636719],[4.79476356506348,51.67193222045898],[4.79492568969727,51.67168045043945],[4.79483938217163,51.67166137695312],[4.7942910194397,51.67156982421875],[4.79414319992065,51.67182159423828],[4.79467678070068,51.67192077636719]]],"type":"Polygon"}
}