{
  "id": 890681915,
  "type": "Feature",
  "properties": {
    "clustr:alpha":0.05,
    "clustr:area":9.92,
    "clustr:count":20,
    "clustr:density":2.02,
    "clustr:perimeter":0.3,
    "edtf:cessation":"uuuu",
    "edtf:inception":"uuuu",
    "geom:area":0.0,
    "geom:bbox":"4.73744010925,52.6341667175,4.73902130127,52.6351394653",
    "geom:latitude":52.634538,
    "geom:longitude":4.738054,
    "iso:country":"NL",
    "mz:hierarchy_label":1,
    "mz:is_approximate":1,
    "mz:is_clustr":1,
    "src:geom":"oa",
    "wof:belongsto":[
        85687053,
        102191581,
        404474025,
        85633337,
        101751887
    ],
    "wof:breaches":[],
    "wof:country":"NL",
    "wof:created":1469670468,
    "wof:geomhash":"6c477c6747f83a04be824c9e687378bc",
    "wof:hierarchy":[
        {
            "continent_id":102191581,
            "country_id":85633337,
            "localadmin_id":404474025,
            "locality_id":101751887,
            "postalcode_id":890681915,
            "region_id":85687053
        }
    ],
    "wof:id":890681915,
    "wof:lastmodified":1469670468,
    "wof:name":"1815DE",
    "wof:parent_id":101751887,
    "wof:placetype":"postalcode",
    "wof:repo":"whosonfirst-data-postalcode-nl",
    "wof:superseded_by":[],
    "wof:supersedes":[],
    "wof:tags":[]
},
  "bbox": [
    4.73744010925293,
    52.6341667175293,
    4.739021301269531,
    52.63513946533203
],
  "geometry": {"coordinates":[[[4.73751306533813,52.63417816162109],[4.73744010925293,52.6341667175293],[4.73775672912598,52.63437652587891],[4.73894453048706,52.63509750366211],[4.73902130126953,52.63513946533203],[4.73760032653809,52.63423156738281],[4.73751306533813,52.63417816162109]]],"type":"Polygon"}
}