{
  "id": 907026861,
  "type": "Feature",
  "properties": {
    "clustr:alpha":0.05,
    "clustr:area":67.5,
    "clustr:count":13,
    "clustr:density":0.19,
    "clustr:perimeter":0.39,
    "edtf:cessation":"uuuu",
    "edtf:inception":"uuuu",
    "geom:area":0.000001,
    "geom:bbox":"5.96983003616,52.2849082947,5.97261428833,52.285697937",
    "geom:latitude":52.285325,
    "geom:longitude":5.971285,
    "iso:country":"NL",
    "mz:hierarchy_label":1,
    "mz:is_approximate":1,
    "mz:is_clustr":1,
    "src:geom":"oa",
    "wof:belongsto":[
        85687043,
        102191581,
        404473897,
        85633337,
        101808551
    ],
    "wof:breaches":[],
    "wof:country":"NL",
    "wof:created":1469695629,
    "wof:geomhash":"9a1623263e1f5ea247f03992a4191814",
    "wof:hierarchy":[
        {
            "continent_id":102191581,
            "country_id":85633337,
            "localadmin_id":404473897,
            "locality_id":101808551,
            "postalcode_id":907026861,
            "region_id":85687043
        }
    ],
    "wof:id":907026861,
    "wof:lastmodified":1469695629,
    "wof:name":"8171NJ",
    "wof:parent_id":101808551,
    "wof:placetype":"postalcode",
    "wof:repo":"whosonfirst-data-postalcode-nl",
    "wof:superseded_by":[],
    "wof:supersedes":[],
    "wof:tags":[]
},
  "bbox": [
    5.96983003616333,
    52.284908294677734,
    5.972614288330078,
    52.28569793701172
],
  "geometry": {"coordinates":[[[5.96983003616333,52.28557586669922],[5.97014760971069,52.28569793701172],[5.97200775146484,52.28547668457031],[5.97261428833008,52.28516387939453],[5.97249269485474,52.28490829467773],[5.9703483581543,52.28524398803711],[5.96983003616333,52.28557586669922]]],"type":"Polygon"}
}