{
  "id": 891055951,
  "type": "Feature",
  "properties": {
    "clustr:alpha":0.05,
    "clustr:area":15.79,
    "clustr:count":50,
    "clustr:density":3.17,
    "clustr:perimeter":0.57,
    "edtf:cessation":"uuuu",
    "edtf:inception":"uuuu",
    "geom:area":0.000002,
    "geom:bbox":"5.1659693718,51.3554496765,5.16855382919,51.3574104309",
    "geom:latitude":51.356362,
    "geom:longitude":5.16707,
    "iso:country":"NL",
    "mz:hierarchy_label":1,
    "mz:is_approximate":1,
    "mz:is_clustr":1,
    "src:geom":"oa",
    "wof:belongsto":[
        85687035,
        102191581,
        404474579,
        85633337,
        101809761
    ],
    "wof:breaches":[],
    "wof:country":"NL",
    "wof:created":1469685576,
    "wof:geomhash":"441f8200c03a7351f3eb187faad76578",
    "wof:hierarchy":[
        {
            "continent_id":102191581,
            "country_id":85633337,
            "localadmin_id":404474579,
            "locality_id":101809761,
            "postalcode_id":891055951,
            "region_id":85687035
        }
    ],
    "wof:id":891055951,
    "wof:lastmodified":1469685576,
    "wof:name":"5541TH",
    "wof:parent_id":101809761,
    "wof:placetype":"postalcode",
    "wof:repo":"whosonfirst-data-postalcode-nl",
    "wof:superseded_by":[],
    "wof:supersedes":[],
    "wof:tags":[]
},
  "bbox": [
    5.165969371795654,
    51.35544967651367,
    5.168553829193115,
    51.3574104309082
],
  "geometry": {"coordinates":[[[5.16650390625,51.35740280151367],[5.16654872894287,51.3574104309082],[5.16855382919312,51.35596084594727],[5.16686773300171,51.35544967651367],[5.16653680801392,51.35589599609375],[5.16596937179565,51.35687255859375],[5.1662974357605,51.35724639892578],[5.16636800765991,51.35732650756836],[5.16650390625,51.35740280151367]]],"type":"Polygon"}
}