{
  "id": 891143949,
  "type": "Feature",
  "properties": {
    "clustr:alpha":0.05,
    "clustr:area":2.31,
    "clustr:count":18,
    "clustr:density":7.79,
    "clustr:perimeter":0.18,
    "edtf:cessation":"uuuu",
    "edtf:inception":"uuuu",
    "geom:area":0.0,
    "geom:bbox":"5.87426376343,51.8364868164,5.87454652786,51.837348938",
    "geom:latitude":51.836925,
    "geom:longitude":5.874408,
    "iso:country":"NL",
    "mz:hierarchy_label":1,
    "mz:is_approximate":1,
    "mz:is_clustr":1,
    "src:geom":"oa",
    "wof:belongsto":[
        85687043,
        102191581,
        404473925,
        85633337,
        101751859
    ],
    "wof:breaches":[],
    "wof:country":"NL",
    "wof:created":1469689086,
    "wof:geomhash":"86d2850689b94adb2b3e751103444859",
    "wof:hierarchy":[
        {
            "continent_id":102191581,
            "country_id":85633337,
            "localadmin_id":404473925,
            "locality_id":101751859,
            "postalcode_id":891143949,
            "region_id":85687043
        }
    ],
    "wof:id":891143949,
    "wof:lastmodified":1469689086,
    "wof:name":"6521EL",
    "wof:parent_id":101751859,
    "wof:placetype":"postalcode",
    "wof:repo":"whosonfirst-data-postalcode-nl",
    "wof:superseded_by":[],
    "wof:supersedes":[],
    "wof:tags":[]
},
  "bbox": [
    5.874263763427734,
    51.83648681640625,
    5.874546527862549,
    51.83734893798828
],
  "geometry": {"coordinates":[[[5.87451076507568,51.83719635009766],[5.87426376342773,51.83648681640625],[5.87429046630859,51.83660125732422],[5.87430667877197,51.83665084838867],[5.87435817718506,51.83680725097656],[5.8743748664856,51.83685684204102],[5.87454652786255,51.83734893798828],[5.87451076507568,51.83719635009766]]],"type":"Polygon"}
}