{
  "id": 890619563,
  "type": "Feature",
  "properties": {
    "clustr:alpha":0.05,
    "clustr:area":48.59,
    "clustr:count":10,
    "clustr:density":0.21,
    "clustr:perimeter":0.48,
    "edtf:cessation":"uuuu",
    "edtf:inception":"uuuu",
    "geom:area":0.000001,
    "geom:bbox":"5.15655708313,52.2332839966,5.15915060043,52.234790802",
    "geom:latitude":52.234229,
    "geom:longitude":5.157874,
    "iso:country":"NL",
    "mz:hierarchy_label":1,
    "mz:is_approximate":1,
    "mz:is_clustr":1,
    "src:geom":"oa",
    "wof:belongsto":[
        85687053,
        102191581,
        404474081,
        85633337,
        101751905
    ],
    "wof:breaches":[],
    "wof:country":"NL",
    "wof:created":1469667690,
    "wof:geomhash":"4b133fa17218f0280bf2273521cd51f1",
    "wof:hierarchy":[
        {
            "continent_id":102191581,
            "country_id":85633337,
            "localadmin_id":404474081,
            "locality_id":101751905,
            "postalcode_id":890619563,
            "region_id":85687053
        }
    ],
    "wof:id":890619563,
    "wof:lastmodified":1469667690,
    "wof:name":"1217CP",
    "wof:parent_id":101751905,
    "wof:placetype":"postalcode",
    "wof:repo":"whosonfirst-data-postalcode-nl",
    "wof:superseded_by":[],
    "wof:supersedes":[],
    "wof:tags":[]
},
  "bbox": [
    5.156557083129883,
    52.23328399658203,
    5.15915060043335,
    52.23479080200195
],
  "geometry": {"coordinates":[[[5.15781497955322,52.23463439941406],[5.15834712982178,52.23417663574219],[5.15898847579956,52.23347854614258],[5.15915060043335,52.23328399658203],[5.15655708312988,52.23479080200195],[5.15699434280396,52.23475646972656],[5.15742158889771,52.23470306396484],[5.15781497955322,52.23463439941406]]],"type":"Polygon"}
}