{
  "id": 890710143,
  "type": "Feature",
  "properties": {
    "clustr:alpha":0.05,
    "clustr:area":119.45,
    "clustr:count":65,
    "clustr:density":0.54,
    "clustr:perimeter":0.55,
    "edtf:cessation":"uuuu",
    "edtf:inception":"uuuu",
    "geom:area":0.000003,
    "geom:bbox":"4.69736146927,52.2942352295,4.70075178146,52.2958221436",
    "geom:latitude":52.294907,
    "geom:longitude":4.699282,
    "iso:country":"NL",
    "mz:hierarchy_label":1,
    "mz:is_approximate":1,
    "mz:is_clustr":1,
    "src:geom":"oa",
    "wof:belongsto":[
        85687053,
        102191581,
        404474065,
        85633337,
        101751899
    ],
    "wof:breaches":[],
    "wof:country":"NL",
    "wof:created":1469671702,
    "wof:geomhash":"000268604faedf59c8a96f797c5e6d34",
    "wof:hierarchy":[
        {
            "continent_id":102191581,
            "country_id":85633337,
            "localadmin_id":404474065,
            "locality_id":101751899,
            "postalcode_id":890710143,
            "region_id":85687053
        }
    ],
    "wof:id":890710143,
    "wof:lastmodified":1469671702,
    "wof:name":"2132HB",
    "wof:parent_id":101751899,
    "wof:placetype":"postalcode",
    "wof:repo":"whosonfirst-data-postalcode-nl",
    "wof:superseded_by":[],
    "wof:supersedes":[],
    "wof:tags":[]
},
  "bbox": [
    4.697361469268799,
    52.29423522949219,
    4.700751781463623,
    52.29582214355469
],
  "geometry": {"coordinates":[[[4.6973614692688,52.29423904418945],[4.6979513168335,52.29471588134766],[4.69855356216431,52.29504776000977],[4.69861841201782,52.29508209228516],[4.69881248474121,52.2951774597168],[4.69887733459473,52.29520797729492],[4.69894218444824,52.29523849487305],[4.70023012161255,52.29582214355469],[4.70070028305054,52.29553985595703],[4.70075178146362,52.29549789428711],[4.70007133483887,52.29452896118164],[4.69834661483765,52.29423522949219],[4.6973614692688,52.29423904418945]]],"type":"Polygon"}
}