{
  "id": 890983829,
  "type": "Feature",
  "properties": {
    "clustr:alpha":0.05,
    "clustr:area":3.79,
    "clustr:count":47,
    "clustr:density":12.39,
    "clustr:perimeter":0.22,
    "edtf:cessation":"uuuu",
    "edtf:inception":"uuuu",
    "geom:area":0.0,
    "geom:bbox":"4.77924871445,51.5859947205,4.78019380569,51.5867385864",
    "geom:latitude":51.586336,
    "geom:longitude":4.779708,
    "iso:country":"NL",
    "mz:hierarchy_label":1,
    "mz:is_approximate":1,
    "mz:is_clustr":1,
    "src:geom":"oa",
    "wof:belongsto":[
        85687035,
        102191581,
        404474363,
        85633337,
        101751811
    ],
    "wof:breaches":[],
    "wof:country":"NL",
    "wof:created":1469682800,
    "wof:geomhash":"b1ab02dcd2e45eaaf5bb666a83c64849",
    "wof:hierarchy":[
        {
            "continent_id":102191581,
            "country_id":85633337,
            "localadmin_id":404474363,
            "locality_id":101751811,
            "postalcode_id":890983829,
            "region_id":85687035
        }
    ],
    "wof:id":890983829,
    "wof:lastmodified":1469682800,
    "wof:name":"4811HN",
    "wof:parent_id":101751811,
    "wof:placetype":"postalcode",
    "wof:repo":"whosonfirst-data-postalcode-nl",
    "wof:superseded_by":[],
    "wof:supersedes":[],
    "wof:tags":[]
},
  "bbox": [
    4.779248714447021,
    51.585994720458984,
    4.78019380569458,
    51.58673858642578
],
  "geometry": {"coordinates":[[[4.77929162979126,51.58599472045898],[4.77928400039673,51.58602142333984],[4.77924871444702,51.58621978759766],[4.77976369857788,51.58672332763672],[4.77979946136475,51.58673858642578],[4.77994108200073,51.58660888671875],[4.78011131286621,51.58645248413086],[4.78019380569458,51.58635330200195],[4.78016090393066,51.58629989624023],[4.78012466430664,51.58624267578125],[4.77935552597046,51.58599853515625],[4.77932262420654,51.58599472045898],[4.77929162979126,51.58599472045898]]],"type":"Polygon"}
}