{
  "id": 890896285,
  "type": "Feature",
  "properties": {
    "clustr:alpha":0.05,
    "clustr:area":39.78,
    "clustr:count":12,
    "clustr:density":0.3,
    "clustr:perimeter":0.04,
    "edtf:cessation":"uuuu",
    "edtf:inception":"uuuu",
    "geom:area":0.0,
    "geom:bbox":"5.36393785477,52.2387428284,5.36436080933,52.2388458252",
    "geom:latitude":52.238795,
    "geom:longitude":5.364153,
    "iso:country":"NL",
    "mz:hierarchy_label":1,
    "mz:is_approximate":1,
    "mz:is_clustr":1,
    "src:geom":"oa",
    "wof:belongsto":[
        85687039,
        102191581,
        404473983,
        85633337,
        101806987
    ],
    "wof:breaches":[],
    "wof:country":"NL",
    "wof:created":1469678938,
    "wof:geomhash":"71c1e31d226fc0d84c016a3030b6461f",
    "wof:hierarchy":[
        {
            "continent_id":102191581,
            "country_id":85633337,
            "localadmin_id":404473983,
            "locality_id":101806987,
            "postalcode_id":890896285,
            "region_id":85687039
        }
    ],
    "wof:id":890896285,
    "wof:lastmodified":1469678938,
    "wof:name":"3752NL",
    "wof:parent_id":101806987,
    "wof:placetype":"postalcode",
    "wof:repo":"whosonfirst-data-postalcode-nl",
    "wof:superseded_by":[],
    "wof:supersedes":[],
    "wof:tags":[]
},
  "bbox": [
    5.363937854766846,
    52.23874282836914,
    5.364360809326172,
    52.23884582519531
],
  "geometry": {"coordinates":[[[5.36401796340942,52.23879241943359],[5.36393785476685,52.23881149291992],[5.36395311355591,52.23884582519531],[5.36427927017212,52.23880004882812],[5.36436080932617,52.23878479003906],[5.36434125900269,52.23874282836914],[5.36401796340942,52.23879241943359]]],"type":"Polygon"}
}