{
  "id": 890951533,
  "type": "Feature",
  "properties": {
    "clustr:alpha":0.05,
    "clustr:area":164.96,
    "clustr:count":12,
    "clustr:density":0.07,
    "clustr:perimeter":0.33,
    "edtf:cessation":"uuuu",
    "edtf:inception":"uuuu",
    "geom:area":0.000001,
    "geom:bbox":"3.45819330215,51.512462616,3.46044445038,51.513835907",
    "geom:latitude":51.513193,
    "geom:longitude":3.459233,
    "iso:country":"NL",
    "mz:hierarchy_label":1,
    "mz:is_approximate":1,
    "mz:is_clustr":1,
    "src:geom":"oa",
    "wof:belongsto":[
        85687037,
        102191581,
        404474333,
        85633337,
        101839447
    ],
    "wof:breaches":[],
    "wof:country":"NL",
    "wof:created":1469681270,
    "wof:geomhash":"a3d0d4984b7310e9bbea9a7050b1668f",
    "wof:hierarchy":[
        {
            "continent_id":102191581,
            "country_id":85633337,
            "localadmin_id":404474333,
            "locality_id":101839447,
            "postalcode_id":890951533,
            "region_id":85687037
        }
    ],
    "wof:id":890951533,
    "wof:lastmodified":1469681270,
    "wof:name":"4361KN",
    "wof:parent_id":101839447,
    "wof:placetype":"postalcode",
    "wof:repo":"whosonfirst-data-postalcode-nl",
    "wof:superseded_by":[],
    "wof:supersedes":[],
    "wof:tags":[]
},
  "bbox": [
    3.458193302154541,
    51.5124626159668,
    3.460444450378418,
    51.51383590698242
],
  "geometry": {"coordinates":[[[3.45840287208557,51.51337432861328],[3.45819330215454,51.51355743408203],[3.45854187011719,51.51383590698242],[3.46024227142334,51.51280975341797],[3.46044445037842,51.5124626159668],[3.45969676971436,51.51276397705078],[3.45840287208557,51.51337432861328]]],"type":"Polygon"}
}