{
  "id": 891035959,
  "type": "Feature",
  "properties": {
    "clustr:alpha":0.05,
    "clustr:area":24.28,
    "clustr:count":28,
    "clustr:density":1.15,
    "clustr:perimeter":0.29,
    "edtf:cessation":"uuuu",
    "edtf:inception":"uuuu",
    "geom:area":0.000001,
    "geom:bbox":"5.50790548325,51.7534255981,5.50985336304,51.7540969849",
    "geom:latitude":51.753751,
    "geom:longitude":5.508939,
    "iso:country":"NL",
    "mz:hierarchy_label":1,
    "mz:is_approximate":1,
    "mz:is_clustr":1,
    "src:geom":"oa",
    "wof:belongsto":[
        85687035,
        102191581,
        404474415,
        85633337,
        101751807
    ],
    "wof:breaches":[],
    "wof:country":"NL",
    "wof:created":1469684848,
    "wof:geomhash":"6e58547d4f47e15124891070d9d7765b",
    "wof:hierarchy":[
        {
            "continent_id":102191581,
            "country_id":85633337,
            "localadmin_id":404474415,
            "locality_id":101751807,
            "postalcode_id":891035959,
            "region_id":85687035
        }
    ],
    "wof:id":891035959,
    "wof:lastmodified":1469684848,
    "wof:name":"5344TA",
    "wof:parent_id":101751807,
    "wof:placetype":"postalcode",
    "wof:repo":"whosonfirst-data-postalcode-nl",
    "wof:superseded_by":[],
    "wof:supersedes":[],
    "wof:tags":[]
},
  "bbox": [
    5.50790548324585,
    51.75342559814453,
    5.509853363037109,
    51.75409698486328
],
  "geometry": {"coordinates":[[[5.50977945327759,51.7539176940918],[5.50985336303711,51.75384140014648],[5.5096001625061,51.75374603271484],[5.50952529907227,51.75372314453125],[5.50848627090454,51.75342559814453],[5.50790548324585,51.75363159179688],[5.50798368453979,51.75365829467773],[5.50859975814819,51.75384521484375],[5.50876712799072,51.7538948059082],[5.5096001625061,51.75409698486328],[5.50977945327759,51.7539176940918]]],"type":"Polygon"}
}