{
  "id": 891278269,
  "type": "Feature",
  "properties": {
    "clustr:alpha":0.05,
    "clustr:area":16.66,
    "clustr:count":6,
    "clustr:density":0.36,
    "clustr:perimeter":0.04,
    "edtf:cessation":"uuuu",
    "edtf:inception":"uuuu",
    "geom:area":0.0,
    "geom:bbox":"6.17612028122,52.7078094482,6.17647123337,52.7078895569",
    "geom:latitude":52.70785,
    "geom:longitude":6.176297,
    "iso:country":"NL",
    "mz:hierarchy_label":1,
    "mz:is_approximate":1,
    "mz:is_clustr":1,
    "src:geom":"oa",
    "wof:belongsto":[
        102191581,
        404473813,
        85633337,
        85687051
    ],
    "wof:breaches":[],
    "wof:country":"NL",
    "wof:created":1469694585,
    "wof:geomhash":"1567959cee19453d24ef8cefffe5e118",
    "wof:hierarchy":[
        {
            "continent_id":102191581,
            "country_id":85633337,
            "localadmin_id":404473813,
            "postalcode_id":891278269,
            "region_id":85687051
        }
    ],
    "wof:id":891278269,
    "wof:lastmodified":1469694585,
    "wof:name":"7942NH",
    "wof:parent_id":404473813,
    "wof:placetype":"postalcode",
    "wof:repo":"whosonfirst-data-postalcode-nl",
    "wof:superseded_by":[],
    "wof:supersedes":[],
    "wof:tags":[]
},
  "bbox": [
    6.176120281219482,
    52.70780944824219,
    6.17647123336792,
    52.707889556884766
],
  "geometry": {"coordinates":[[[6.17612028121948,52.70780944824219],[6.17626333236694,52.70784378051758],[6.17633056640625,52.70785903930664],[6.17639780044556,52.7078742980957],[6.17647123336792,52.70788955688477],[6.17618989944458,52.70782470703125],[6.17612028121948,52.70780944824219]]],"type":"Polygon"}
}