{
  "id": 891102685,
  "type": "Feature",
  "properties": {
    "clustr:alpha":0.05,
    "clustr:area":22.05,
    "clustr:count":33,
    "clustr:density":1.5,
    "clustr:perimeter":0.26,
    "edtf:cessation":"uuuu",
    "edtf:inception":"uuuu",
    "geom:area":0.0,
    "geom:bbox":"5.57207489014,51.2774276733,5.5739030838,51.277671814",
    "geom:latitude":51.277573,
    "geom:longitude":5.573016,
    "iso:country":"NL",
    "mz:hierarchy_label":1,
    "mz:is_approximate":1,
    "mz:is_clustr":1,
    "src:geom":"oa",
    "wof:belongsto":[
        85687035,
        102191581,
        404474619,
        85633337,
        101839335
    ],
    "wof:breaches":[],
    "wof:country":"NL",
    "wof:created":1469687382,
    "wof:geomhash":"118d91231caefdc864fa72272606ab65",
    "wof:hierarchy":[
        {
            "continent_id":102191581,
            "country_id":85633337,
            "localadmin_id":404474619,
            "locality_id":101839335,
            "postalcode_id":891102685,
            "region_id":85687035
        }
    ],
    "wof:id":891102685,
    "wof:lastmodified":1469687382,
    "wof:name":"6021EZ",
    "wof:parent_id":101839335,
    "wof:placetype":"postalcode",
    "wof:repo":"whosonfirst-data-postalcode-nl",
    "wof:superseded_by":[],
    "wof:supersedes":[],
    "wof:tags":[]
},
  "bbox": [
    5.572074890136719,
    51.277427673339844,
    5.57390308380127,
    51.277671813964844
],
  "geometry": {"coordinates":[[[5.57225227355957,51.27767181396484],[5.57278823852539,51.27766799926758],[5.57390308380127,51.27765274047852],[5.57337188720703,51.27742767333984],[5.57329559326172,51.27742767333984],[5.57312202453613,51.27742767333984],[5.57302141189575,51.27742767333984],[5.57209014892578,51.27762603759766],[5.57207584381104,51.27765274047852],[5.57207489013672,51.27767181396484],[5.57225227355957,51.27767181396484]]],"type":"Polygon"}
}