{
  "id": 890964501,
  "type": "Feature",
  "properties": {
    "clustr:alpha":0.05,
    "clustr:area":314.17,
    "clustr:count":13,
    "clustr:density":0.04,
    "clustr:perimeter":0.26,
    "edtf:cessation":"uuuu",
    "edtf:inception":"uuuu",
    "geom:area":0.0,
    "geom:bbox":"3.83193778992,51.2750053406,3.83504891396,51.2751159668",
    "geom:latitude":51.275049,
    "geom:longitude":3.833644,
    "iso:country":"NL",
    "mz:hierarchy_label":1,
    "mz:is_approximate":1,
    "mz:is_clustr":1,
    "src:geom":"oa",
    "wof:belongsto":[
        85687037,
        102191581,
        404474329,
        85633337,
        101809829
    ],
    "wof:breaches":[],
    "wof:country":"NL",
    "wof:created":1469681910,
    "wof:geomhash":"430cef2747b937f4e1a0d95eedcca039",
    "wof:hierarchy":[
        {
            "continent_id":102191581,
            "country_id":85633337,
            "localadmin_id":404474329,
            "locality_id":101809829,
            "postalcode_id":890964501,
            "region_id":85687037
        }
    ],
    "wof:id":890964501,
    "wof:lastmodified":1469681910,
    "wof:name":"4541CE",
    "wof:parent_id":101809829,
    "wof:placetype":"postalcode",
    "wof:repo":"whosonfirst-data-postalcode-nl",
    "wof:superseded_by":[],
    "wof:supersedes":[],
    "wof:tags":[]
},
  "bbox": [
    3.831937789916992,
    51.27500534057617,
    3.835048913955688,
    51.275115966796875
],
  "geometry": {"coordinates":[[[3.8344578742981,51.27502822875977],[3.83504891395569,51.27500534057617],[3.83495378494263,51.27500534057617],[3.83483695983887,51.27500534057617],[3.83389568328857,51.27502822875977],[3.83361840248108,51.2750358581543],[3.83193778991699,51.27511596679688],[3.8344578742981,51.27502822875977]]],"type":"Polygon"}
}