{
  "id": 890754763,
  "type": "Feature",
  "properties": {
    "clustr:alpha":0.05,
    "clustr:area":67.44,
    "clustr:count":32,
    "clustr:density":0.47,
    "clustr:perimeter":0.11,
    "edtf:cessation":"uuuu",
    "edtf:inception":"uuuu",
    "geom:area":0.0,
    "geom:bbox":"4.28303861618,52.0824699402,4.28407096863,52.0825843811",
    "geom:latitude":52.082538,
    "geom:longitude":4.283525,
    "iso:country":"NL",
    "mz:hierarchy_label":1,
    "mz:is_approximate":1,
    "mz:is_clustr":1,
    "src:geom":"oa",
    "wof:belongsto":[
        85687041,
        102191581,
        404474179,
        85633337,
        101752763
    ],
    "wof:breaches":[],
    "wof:country":"NL",
    "wof:created":1469673527,
    "wof:geomhash":"946bdabd61cbfbf7ed56f77ed639e6d5",
    "wof:hierarchy":[
        {
            "continent_id":102191581,
            "country_id":85633337,
            "localadmin_id":404474179,
            "locality_id":101752763,
            "postalcode_id":890754763,
            "region_id":85687041
        }
    ],
    "wof:id":890754763,
    "wof:lastmodified":1469673527,
    "wof:name":"2517XD",
    "wof:parent_id":101752763,
    "wof:placetype":"postalcode",
    "wof:repo":"whosonfirst-data-postalcode-nl",
    "wof:superseded_by":[],
    "wof:supersedes":[],
    "wof:tags":[]
},
  "bbox": [
    4.28303861618042,
    52.08246994018555,
    4.28407096862793,
    52.082584381103516
],
  "geometry": {"coordinates":[[[4.28342485427856,52.08249664306641],[4.28332328796387,52.08248519897461],[4.28313016891479,52.08247375488281],[4.28303861618042,52.08246994018555],[4.28349685668945,52.08258438110352],[4.28407096862793,52.08258056640625],[4.28398466110229,52.08256912231445],[4.28342485427856,52.08249664306641]]],"type":"Polygon"}
}