{
  "id": 891278995,
  "type": "Feature",
  "properties": {
    "clustr:alpha":0.05,
    "clustr:area":23.29,
    "clustr:count":34,
    "clustr:density":1.46,
    "clustr:perimeter":0.53,
    "edtf:cessation":"uuuu",
    "edtf:inception":"uuuu",
    "geom:area":0.000001,
    "geom:bbox":"6.17343664169,52.6805458069,6.17677021027,52.6816978455",
    "geom:latitude":52.681128,
    "geom:longitude":6.175055,
    "iso:country":"NL",
    "mz:hierarchy_label":1,
    "mz:is_approximate":1,
    "mz:is_clustr":1,
    "src:geom":"oa",
    "wof:belongsto":[
        85687051,
        102191581,
        404473813,
        85633337,
        101807279
    ],
    "wof:breaches":[],
    "wof:country":"NL",
    "wof:created":1469694616,
    "wof:geomhash":"6f981ca307be3901a501051219e2d1dc",
    "wof:hierarchy":[
        {
            "continent_id":102191581,
            "country_id":85633337,
            "localadmin_id":404473813,
            "locality_id":101807279,
            "postalcode_id":891278995,
            "region_id":85687051
        }
    ],
    "wof:id":891278995,
    "wof:lastmodified":1469694616,
    "wof:name":"7944NL",
    "wof:parent_id":101807279,
    "wof:placetype":"postalcode",
    "wof:repo":"whosonfirst-data-postalcode-nl",
    "wof:superseded_by":[],
    "wof:supersedes":[],
    "wof:tags":[]
},
  "bbox": [
    6.173436641693115,
    52.680545806884766,
    6.176770210266113,
    52.681697845458984
],
  "geometry": {"coordinates":[[[6.17636585235596,52.68164825439453],[6.17656564712524,52.68169784545898],[6.17677021026611,52.68140029907227],[6.17656993865967,52.68134689331055],[6.17461061477661,52.68082046508789],[6.17448139190674,52.6807861328125],[6.17422151565552,52.68071746826172],[6.17409181594849,52.68068313598633],[6.17357444763184,52.68054580688477],[6.17343664169312,52.68090438842773],[6.17362308502197,52.68095397949219],[6.17429971694946,52.68112564086914],[6.17484140396118,52.6812629699707],[6.17626142501831,52.68162155151367],[6.17636585235596,52.68164825439453]]],"type":"Polygon"}
}