{
  "id": 907075343,
  "type": "Feature",
  "properties": {
    "clustr:alpha":0.05,
    "clustr:area":7.16,
    "clustr:count":39,
    "clustr:density":5.45,
    "clustr:perimeter":0.45,
    "edtf:cessation":"uuuu",
    "edtf:inception":"uuuu",
    "geom:area":0.000001,
    "geom:bbox":"6.10943651199,53.1095314026,6.11252641678,53.1099433899",
    "geom:latitude":53.109696,
    "geom:longitude":6.110792,
    "iso:country":"NL",
    "mz:hierarchy_label":1,
    "mz:is_approximate":1,
    "mz:is_clustr":1,
    "src:geom":"oa",
    "wof:belongsto":[
        85687055,
        102191581,
        404473791,
        85633337,
        101806135
    ],
    "wof:breaches":[],
    "wof:country":"NL",
    "wof:created":1469697934,
    "wof:geomhash":"eecd30eaf2cf1a7cdc952a0cd775aa1b",
    "wof:hierarchy":[
        {
            "continent_id":102191581,
            "country_id":85633337,
            "localadmin_id":404473791,
            "locality_id":101806135,
            "postalcode_id":907075343,
            "region_id":85687055
        }
    ],
    "wof:id":907075343,
    "wof:lastmodified":1469697934,
    "wof:name":"9202GN",
    "wof:parent_id":101806135,
    "wof:placetype":"postalcode",
    "wof:repo":"whosonfirst-data-postalcode-nl",
    "wof:superseded_by":[],
    "wof:supersedes":[],
    "wof:tags":[]
},
  "bbox": [
    6.109436511993408,
    53.10953140258789,
    6.112526416778564,
    53.10994338989258
],
  "geometry": {"coordinates":[[[6.11250925064087,53.10970306396484],[6.11252641677856,53.109619140625],[6.112135887146,53.10954284667969],[6.10955047607422,53.10953140258789],[6.10943651199341,53.10973358154297],[6.10961675643921,53.10994338989258],[6.11245203018188,53.10973358154297],[6.11250925064087,53.10970306396484]]],"type":"Polygon"}
}