{
  "id": 891233135,
  "type": "Feature",
  "properties": {
    "clustr:alpha":0.05,
    "clustr:area":493.03,
    "clustr:count":17,
    "clustr:density":0.03,
    "clustr:perimeter":0.4,
    "edtf:cessation":"uuuu",
    "edtf:inception":"uuuu",
    "geom:area":0.000001,
    "geom:bbox":"6.74302148819,52.1549453735,6.74756717682,52.1564025879",
    "geom:latitude":52.155562,
    "geom:longitude":6.745162,
    "iso:country":"NL",
    "mz:hierarchy_label":1,
    "mz:is_approximate":1,
    "mz:is_clustr":1,
    "src:geom":"oa",
    "wof:belongsto":[
        85687045,
        102191581,
        404473829,
        85633337,
        101807203
    ],
    "wof:breaches":[],
    "wof:country":"NL",
    "wof:created":1469692736,
    "wof:geomhash":"3cb372101d517cc07bef4cff4535aa69",
    "wof:hierarchy":[
        {
            "continent_id":102191581,
            "country_id":85633337,
            "localadmin_id":404473829,
            "locality_id":101807203,
            "postalcode_id":891233135,
            "region_id":85687045
        }
    ],
    "wof:id":891233135,
    "wof:lastmodified":1469692736,
    "wof:name":"7481CR",
    "wof:parent_id":101807203,
    "wof:placetype":"postalcode",
    "wof:repo":"whosonfirst-data-postalcode-nl",
    "wof:superseded_by":[],
    "wof:supersedes":[],
    "wof:tags":[]
},
  "bbox": [
    6.743021488189697,
    52.154945373535156,
    6.747567176818848,
    52.156402587890625
],
  "geometry": {"coordinates":[[[6.74756717681885,52.15640258789062],[6.74566507339478,52.15537261962891],[6.7430214881897,52.15494537353516],[6.74327707290649,52.15518569946289],[6.7433671951294,52.15526580810547],[6.74756717681885,52.15640258789062]]],"type":"Polygon"}
}