{
  "id": 891001895,
  "type": "Feature",
  "properties": {
    "clustr:alpha":0.05,
    "clustr:area":9.43,
    "clustr:count":65,
    "clustr:density":6.89,
    "clustr:perimeter":0.25,
    "edtf:cessation":"uuuu",
    "edtf:inception":"uuuu",
    "geom:area":0.0,
    "geom:bbox":"5.07044363022,51.5492553711,5.0715713501,51.5500106812",
    "geom:latitude":51.549567,
    "geom:longitude":5.071047,
    "iso:country":"NL",
    "mz:hierarchy_label":1,
    "mz:is_approximate":1,
    "mz:is_clustr":1,
    "src:geom":"oa",
    "wof:belongsto":[
        85687035,
        102191581,
        404474435,
        85633337,
        101751817
    ],
    "wof:breaches":[],
    "wof:country":"NL",
    "wof:created":1469683542,
    "wof:geomhash":"6a0e5315858aed57182a8dcf0cc40bea",
    "wof:hierarchy":[
        {
            "continent_id":102191581,
            "country_id":85633337,
            "localadmin_id":404474435,
            "locality_id":101751817,
            "postalcode_id":891001895,
            "region_id":85687035
        }
    ],
    "wof:id":891001895,
    "wof:lastmodified":1469683542,
    "wof:name":"5025DJ",
    "wof:parent_id":101751817,
    "wof:placetype":"postalcode",
    "wof:repo":"whosonfirst-data-postalcode-nl",
    "wof:superseded_by":[],
    "wof:supersedes":[],
    "wof:tags":[]
},
  "bbox": [
    5.070443630218506,
    51.54925537109375,
    5.071571350097656,
    51.550010681152344
],
  "geometry": {"coordinates":[[[5.0715479850769,51.54941940307617],[5.07146883010864,51.54938125610352],[5.0705680847168,51.54925918579102],[5.0704550743103,51.54925537109375],[5.07044363021851,51.54927444458008],[5.07054424285889,51.54957580566406],[5.07134628295898,51.55001068115234],[5.07136821746826,51.54997253417969],[5.07141065597534,51.54989624023438],[5.07157135009766,51.5494499206543],[5.0715479850769,51.54941940307617]]],"type":"Polygon"}
}