{
  "id": 891055993,
  "type": "Feature",
  "properties": {
    "clustr:alpha":0.05,
    "clustr:area":26.97,
    "clustr:count":18,
    "clustr:density":0.67,
    "clustr:perimeter":0.48,
    "edtf:cessation":"uuuu",
    "edtf:inception":"uuuu",
    "geom:area":0.000001,
    "geom:bbox":"5.16790866852,51.362827301,5.17010116577,51.3644599915",
    "geom:latitude":51.363428,
    "geom:longitude":5.168979,
    "iso:country":"NL",
    "mz:hierarchy_label":1,
    "mz:is_approximate":1,
    "mz:is_clustr":1,
    "src:geom":"oa",
    "wof:belongsto":[
        85687035,
        102191581,
        404474579,
        85633337,
        101809761
    ],
    "wof:breaches":[],
    "wof:country":"NL",
    "wof:created":1469685578,
    "wof:geomhash":"3dfabfbc42a41e2801cc092d2b65726d",
    "wof:hierarchy":[
        {
            "continent_id":102191581,
            "country_id":85633337,
            "localadmin_id":404474579,
            "locality_id":101809761,
            "postalcode_id":891055993,
            "region_id":85687035
        }
    ],
    "wof:id":891055993,
    "wof:lastmodified":1469685578,
    "wof:name":"5541VL",
    "wof:parent_id":101809761,
    "wof:placetype":"postalcode",
    "wof:repo":"whosonfirst-data-postalcode-nl",
    "wof:superseded_by":[],
    "wof:supersedes":[],
    "wof:tags":[]
},
  "bbox": [
    5.167908668518066,
    51.36282730102539,
    5.170101165771484,
    51.36445999145508
],
  "geometry": {"coordinates":[[[5.16986894607544,51.36293411254883],[5.16882944107056,51.36282730102539],[5.16879558563232,51.36288452148438],[5.16863298416138,51.36317443847656],[5.16841173171997,51.36356735229492],[5.16821241378784,51.36392211914062],[5.16790866851807,51.36445999145508],[5.17010116577148,51.36307525634766],[5.16986894607544,51.36293411254883]]],"type":"Polygon"}
}