{
  "id": 890972237,
  "type": "Feature",
  "properties": {
    "clustr:alpha":0.05,
    "clustr:area":104.83,
    "clustr:count":11,
    "clustr:density":0.1,
    "clustr:perimeter":0.26,
    "edtf:cessation":"uuuu",
    "edtf:inception":"uuuu",
    "geom:area":0.000001,
    "geom:bbox":"4.32376432419,51.5926513672,4.32491159439,51.5937042236",
    "geom:latitude":51.593116,
    "geom:longitude":4.324387,
    "iso:country":"NL",
    "mz:hierarchy_label":1,
    "mz:is_approximate":1,
    "mz:is_clustr":1,
    "src:geom":"oa",
    "wof:belongsto":[
        85687035,
        102191581,
        404474431,
        85633337,
        101839423
    ],
    "wof:breaches":[],
    "wof:country":"NL",
    "wof:created":1469682288,
    "wof:geomhash":"da5b4152a7ba83ac6ae33e5339fefe4c",
    "wof:hierarchy":[
        {
            "continent_id":102191581,
            "country_id":85633337,
            "localadmin_id":404474431,
            "locality_id":101839423,
            "postalcode_id":890972237,
            "region_id":85687035
        }
    ],
    "wof:id":890972237,
    "wof:lastmodified":1469682288,
    "wof:name":"4651WE",
    "wof:parent_id":101839423,
    "wof:placetype":"postalcode",
    "wof:repo":"whosonfirst-data-postalcode-nl",
    "wof:superseded_by":[],
    "wof:supersedes":[],
    "wof:tags":[]
},
  "bbox": [
    4.323764324188232,
    51.5926513671875,
    4.324911594390869,
    51.59370422363281
],
  "geometry": {"coordinates":[[[4.32376432418823,51.59276962280273],[4.32405519485474,51.59329223632812],[4.32475280761719,51.59368515014648],[4.32482481002808,51.59370422363281],[4.32491159439087,51.59369659423828],[4.32460403442383,51.5926513671875],[4.32376432418823,51.59276962280273]]],"type":"Polygon"}
}