{
  "id": 907070761,
  "type": "Feature",
  "properties": {
    "clustr:alpha":0.05,
    "clustr:area":184.32,
    "clustr:count":20,
    "clustr:density":0.11,
    "clustr:perimeter":0.5,
    "edtf:cessation":"uuuu",
    "edtf:inception":"uuuu",
    "geom:area":0.0,
    "geom:bbox":"5.78813934326,53.3038749695,5.79134845734,53.3059997559",
    "geom:latitude":53.30505,
    "geom:longitude":5.789562,
    "iso:country":"NL",
    "mz:hierarchy_label":1,
    "mz:is_approximate":1,
    "mz:is_clustr":1,
    "src:geom":"oa",
    "wof:belongsto":[
        85687055,
        102191581,
        404474635,
        85633337,
        101806169
    ],
    "wof:breaches":[],
    "wof:country":"NL",
    "wof:created":1469697702,
    "wof:geomhash":"0a8c9029a31f143094edf4b4ed9de7a6",
    "wof:hierarchy":[
        {
            "continent_id":102191581,
            "country_id":85633337,
            "localadmin_id":404474635,
            "locality_id":101806169,
            "postalcode_id":907070761,
            "region_id":85687055
        }
    ],
    "wof:id":907070761,
    "wof:lastmodified":1469697702,
    "wof:name":"9074LG",
    "wof:parent_id":101806169,
    "wof:placetype":"postalcode",
    "wof:repo":"whosonfirst-data-postalcode-nl",
    "wof:superseded_by":[],
    "wof:supersedes":[],
    "wof:tags":[]
},
  "bbox": [
    5.788139343261719,
    53.30387496948242,
    5.791348457336426,
    53.305999755859375
],
  "geometry": {"coordinates":[[[5.78894758224487,53.30533981323242],[5.78813934326172,53.30599975585938],[5.78837823867798,53.30591583251953],[5.78846025466919,53.30588531494141],[5.78853893280029,53.30585098266602],[5.78989505767822,53.30492401123047],[5.79134845733643,53.30387496948242],[5.79127788543701,53.30391311645508],[5.79047584533691,53.30435562133789],[5.79040813446045,53.30439376831055],[5.78894758224487,53.30533981323242]]],"type":"Polygon"}
}