{
  "id": 890878663,
  "type": "Feature",
  "properties": {
    "clustr:alpha":0.05,
    "clustr:area":0.36,
    "clustr:count":32,
    "clustr:density":89.25,
    "clustr:perimeter":0.31,
    "edtf:cessation":"uuuu",
    "edtf:inception":"uuuu",
    "geom:area":0.0,
    "geom:bbox":"5.05364513397,52.095489502,5.05397558212,52.0973320007",
    "geom:latitude":52.096225,
    "geom:longitude":5.053824,
    "iso:country":"NL",
    "mz:hierarchy_label":1,
    "mz:is_approximate":1,
    "mz:is_clustr":1,
    "src:geom":"oa",
    "wof:belongsto":[
        102191581,
        404474007,
        85633337,
        85687039
    ],
    "wof:breaches":[],
    "wof:country":"NL",
    "wof:created":1469678201,
    "wof:geomhash":"838d74509139fa2aa5673f98f624cb10",
    "wof:hierarchy":[
        {
            "continent_id":102191581,
            "country_id":85633337,
            "localadmin_id":404474007,
            "postalcode_id":890878663,
            "region_id":85687039
        }
    ],
    "wof:id":890878663,
    "wof:lastmodified":1469678201,
    "wof:name":"3544HV",
    "wof:parent_id":404474007,
    "wof:placetype":"postalcode",
    "wof:repo":"whosonfirst-data-postalcode-nl",
    "wof:superseded_by":[],
    "wof:supersedes":[],
    "wof:tags":[]
},
  "bbox": [
    5.053645133972168,
    52.095489501953125,
    5.053975582122803,
    52.09733200073242
],
  "geometry": {"coordinates":[[[5.05388069152832,52.09569549560547],[5.05385494232178,52.09548950195312],[5.05368089675903,52.09549713134766],[5.05364513397217,52.095947265625],[5.05394077301025,52.09733200073242],[5.0539755821228,52.09670257568359],[5.05388069152832,52.09569549560547]]],"type":"Polygon"}
}