{
  "id": 890636241,
  "type": "Feature",
  "properties": {
    "clustr:alpha":0.05,
    "clustr:area":2.75,
    "clustr:count":4,
    "clustr:density":1.45,
    "clustr:perimeter":0.04,
    "edtf:cessation":"uuuu",
    "edtf:inception":"uuuu",
    "geom:area":0.0,
    "geom:bbox":"5.21844959259,52.334072113,5.21862030029,52.3343048096",
    "geom:latitude":52.334176,
    "geom:longitude":5.218514,
    "iso:country":"NL",
    "mz:hierarchy_label":1,
    "mz:is_approximate":1,
    "mz:is_clustr":1,
    "src:geom":"oa",
    "wof:belongsto":[
        85687049,
        102191581,
        404473729,
        85633337,
        101807237
    ],
    "wof:breaches":[],
    "wof:country":"NL",
    "wof:created":1469668368,
    "wof:geomhash":"6ab78af0b99803d4f0b553cfec79e3c5",
    "wof:hierarchy":[
        {
            "continent_id":102191581,
            "country_id":85633337,
            "localadmin_id":404473729,
            "locality_id":101807237,
            "postalcode_id":890636241,
            "region_id":85687049
        }
    ],
    "wof:id":890636241,
    "wof:lastmodified":1469668368,
    "wof:name":"1357NB",
    "wof:parent_id":101807237,
    "wof:placetype":"postalcode",
    "wof:repo":"whosonfirst-data-postalcode-nl",
    "wof:superseded_by":[],
    "wof:supersedes":[],
    "wof:tags":[]
},
  "bbox": [
    5.218449592590332,
    52.33407211303711,
    5.218620300292969,
    52.33430480957031
],
  "geometry": {"coordinates":[[[5.21846008300781,52.33417892456055],[5.21844959259033,52.33430480957031],[5.21862030029297,52.33407211303711],[5.21852588653565,52.33411407470703],[5.21846008300781,52.33417892456055]]],"type":"Polygon"}
}