{
  "id": 891035407,
  "type": "Feature",
  "properties": {
    "clustr:alpha":0.05,
    "clustr:area":35.28,
    "clustr:count":15,
    "clustr:density":0.43,
    "clustr:perimeter":0.12,
    "edtf:cessation":"uuuu",
    "edtf:inception":"uuuu",
    "geom:area":0.0,
    "geom:bbox":"5.53592205048,51.7597618103,5.53681612015,51.7600898743",
    "geom:latitude":51.759948,
    "geom:longitude":5.536363,
    "iso:country":"NL",
    "mz:hierarchy_label":1,
    "mz:is_approximate":1,
    "mz:is_clustr":1,
    "src:geom":"oa",
    "wof:belongsto":[
        85687035,
        102191581,
        404474415,
        85633337,
        101751807
    ],
    "wof:breaches":[],
    "wof:country":"NL",
    "wof:created":1469684829,
    "wof:geomhash":"bc23f30f56064b5ba3dac1de672cf2eb",
    "wof:hierarchy":[
        {
            "continent_id":102191581,
            "country_id":85633337,
            "localadmin_id":404474415,
            "locality_id":101751807,
            "postalcode_id":891035407,
            "region_id":85687035
        }
    ],
    "wof:id":891035407,
    "wof:lastmodified":1469684829,
    "wof:name":"5342TN",
    "wof:parent_id":101751807,
    "wof:placetype":"postalcode",
    "wof:repo":"whosonfirst-data-postalcode-nl",
    "wof:superseded_by":[],
    "wof:supersedes":[],
    "wof:tags":[]
},
  "bbox": [
    5.535922050476074,
    51.759761810302734,
    5.536816120147705,
    51.76008987426758
],
  "geometry": {"coordinates":[[[5.53623676300049,51.760009765625],[5.53629064559937,51.76005172729492],[5.53681612014771,51.76008987426758],[5.53670787811279,51.76000595092773],[5.53630828857422,51.75983428955078],[5.53592205047607,51.75976181030273],[5.53623676300049,51.760009765625]]],"type":"Polygon"}
}