{
  "id": 891086371,
  "type": "Feature",
  "properties": {
    "clustr:alpha":0.05,
    "clustr:area":6.66,
    "clustr:count":6,
    "clustr:density":0.9,
    "clustr:perimeter":0.08,
    "edtf:cessation":"uuuu",
    "edtf:inception":"uuuu",
    "geom:area":0.0,
    "geom:bbox":"5.96469068527,51.5165977478,5.96509933472,51.5168991089",
    "geom:latitude":51.516751,
    "geom:longitude":5.964899,
    "iso:country":"NL",
    "mz:hierarchy_label":1,
    "mz:is_approximate":1,
    "mz:is_clustr":1,
    "src:geom":"oa",
    "wof:belongsto":[
        85687033,
        102191581,
        404474527,
        85633337,
        101839289
    ],
    "wof:breaches":[],
    "wof:country":"NL",
    "wof:created":1469686718,
    "wof:geomhash":"39c0416949b2a569bfd073ef70563602",
    "wof:hierarchy":[
        {
            "continent_id":102191581,
            "country_id":85633337,
            "localadmin_id":404474527,
            "locality_id":101839289,
            "postalcode_id":891086371,
            "region_id":85687033
        }
    ],
    "wof:id":891086371,
    "wof:lastmodified":1469686718,
    "wof:name":"5801RC",
    "wof:parent_id":101839289,
    "wof:placetype":"postalcode",
    "wof:repo":"whosonfirst-data-postalcode-nl",
    "wof:superseded_by":[],
    "wof:supersedes":[],
    "wof:tags":[]
},
  "bbox": [
    5.964690685272217,
    51.516597747802734,
    5.965099334716797,
    51.51689910888672
],
  "geometry": {"coordinates":[[[5.96469068527222,51.51659774780273],[5.9650993347168,51.51689910888672],[5.96503973007202,51.51685333251953],[5.96492195129395,51.51676559448242],[5.96474981307983,51.51663970947266],[5.96469068527222,51.51659774780273]]],"type":"Polygon"}
}