{
  "id": 907118687,
  "type": "Feature",
  "properties": {
    "clustr:alpha":0.05,
    "clustr:area":52.92,
    "clustr:count":11,
    "clustr:density":0.21,
    "clustr:perimeter":0.23,
    "edtf:cessation":"uuuu",
    "edtf:inception":"uuuu",
    "geom:area":0.000001,
    "geom:bbox":"6.56883573532,53.1450157166,6.5696849823,53.1459960938",
    "geom:latitude":53.14551,
    "geom:longitude":6.569243,
    "iso:country":"NL",
    "mz:hierarchy_label":1,
    "mz:is_approximate":1,
    "mz:is_clustr":1,
    "src:geom":"oa",
    "wof:belongsto":[
        85687051,
        102191581,
        404474647,
        85633337,
        101837891
    ],
    "wof:breaches":[],
    "wof:country":"NL",
    "wof:created":1469700318,
    "wof:geomhash":"81bbd510d63e686d4504ff4cc646dc9a",
    "wof:hierarchy":[
        {
            "continent_id":102191581,
            "country_id":85633337,
            "localadmin_id":404474647,
            "locality_id":101837891,
            "postalcode_id":907118687,
            "region_id":85687051
        }
    ],
    "wof:id":907118687,
    "wof:lastmodified":1469700318,
    "wof:name":"9765AN",
    "wof:parent_id":101837891,
    "wof:placetype":"postalcode",
    "wof:repo":"whosonfirst-data-postalcode-nl",
    "wof:superseded_by":[],
    "wof:supersedes":[],
    "wof:tags":[]
},
  "bbox": [
    6.568835735321045,
    53.145015716552734,
    6.569684982299805,
    53.14599609375
],
  "geometry": {"coordinates":[[[6.5696849822998,53.14517974853516],[6.56921720504761,53.14501571655273],[6.56907367706299,53.14523315429688],[6.56887483596802,53.14562225341797],[6.56883573532104,53.14582061767578],[6.5688853263855,53.14599609375],[6.56937503814697,53.14586639404297],[6.56958913803101,53.14550399780273],[6.5696849822998,53.14517974853516]]],"type":"Polygon"}
}