{
  "id": 907122073,
  "type": "Feature",
  "properties": {
    "clustr:alpha":0.05,
    "clustr:area":420.1,
    "clustr:count":18,
    "clustr:density":0.04,
    "clustr:perimeter":1.96,
    "edtf:cessation":"uuuu",
    "edtf:inception":"uuuu",
    "geom:area":0.000033,
    "geom:bbox":"6.21852493286,53.161151886,6.22511339188,53.1734733582",
    "geom:latitude":53.167246,
    "geom:longitude":6.221859,
    "iso:country":"NL",
    "mz:hierarchy_label":1,
    "mz:is_approximate":1,
    "mz:is_clustr":1,
    "src:geom":"oa",
    "wof:belongsto":[
        102191581,
        404473715,
        85633337,
        85687059
    ],
    "wof:breaches":[],
    "wof:country":"NL",
    "wof:created":1469700449,
    "wof:geomhash":"7487c88ee416997390769d187fece55c",
    "wof:hierarchy":[
        {
            "continent_id":102191581,
            "country_id":85633337,
            "localadmin_id":404473715,
            "postalcode_id":907122073,
            "region_id":85687059
        }
    ],
    "wof:id":907122073,
    "wof:lastmodified":1469700449,
    "wof:name":"9865XE",
    "wof:parent_id":404473715,
    "wof:placetype":"postalcode",
    "wof:repo":"whosonfirst-data-postalcode-nl",
    "wof:superseded_by":[],
    "wof:supersedes":[],
    "wof:tags":[]
},
  "bbox": [
    6.218524932861328,
    53.16115188598633,
    6.225113391876221,
    53.1734733581543
],
  "geometry": {"coordinates":[[[6.22511339187622,53.16146469116211],[6.22356748580933,53.16115188598633],[6.21852493286133,53.16951751708984],[6.22126293182373,53.1734733581543],[6.22257328033447,53.17007446289062],[6.22511339187622,53.16146469116211]]],"type":"Polygon"}
}