{
  "id": 890717717,
  "type": "Feature",
  "properties": {
    "clustr:alpha":0.05,
    "clustr:area":87.47,
    "clustr:count":24,
    "clustr:density":0.27,
    "clustr:perimeter":0.15,
    "edtf:cessation":"uuuu",
    "edtf:inception":"uuuu",
    "geom:area":0.0,
    "geom:bbox":"4.4444103241,52.2362709045,4.44548940659,52.2367973328",
    "geom:latitude":52.236579,
    "geom:longitude":4.44499,
    "iso:country":"NL",
    "mz:hierarchy_label":1,
    "mz:is_approximate":1,
    "mz:is_clustr":1,
    "src:geom":"oa",
    "wof:belongsto":[
        85687041,
        102191581,
        404474221,
        85633337,
        101837701
    ],
    "wof:breaches":[],
    "wof:country":"NL",
    "wof:created":1469672065,
    "wof:geomhash":"077460261644c399bee612424fe3d4fa",
    "wof:hierarchy":[
        {
            "continent_id":102191581,
            "country_id":85633337,
            "localadmin_id":404474221,
            "locality_id":101837701,
            "postalcode_id":890717717,
            "region_id":85687041
        }
    ],
    "wof:id":890717717,
    "wof:lastmodified":1469672065,
    "wof:name":"2201KP",
    "wof:parent_id":101837701,
    "wof:placetype":"postalcode",
    "wof:repo":"whosonfirst-data-postalcode-nl",
    "wof:superseded_by":[],
    "wof:supersedes":[],
    "wof:tags":[]
},
  "bbox": [
    4.44441032409668,
    52.236270904541016,
    4.445489406585693,
    52.23679733276367
],
  "geometry": {"coordinates":[[[4.44512557983398,52.23673629760742],[4.44545078277588,52.23666763305664],[4.445481300354,52.23665618896484],[4.44548940658569,52.23662948608398],[4.44509267807007,52.23629760742188],[4.44504070281982,52.23627090454102],[4.44500589370728,52.23628234863281],[4.44441032409668,52.23679733276367],[4.44512557983398,52.23673629760742]]],"type":"Polygon"}
}