{
  "id": 891092941,
  "type": "Feature",
  "properties": {
    "clustr:alpha":0.05,
    "clustr:area":66.18,
    "clustr:count":27,
    "clustr:density":0.41,
    "clustr:perimeter":0.18,
    "edtf:cessation":"uuuu",
    "edtf:inception":"uuuu",
    "geom:area":0.0,
    "geom:bbox":"6.15420436859,51.3698692322,6.15506410599,51.3707504272",
    "geom:latitude":51.370309,
    "geom:longitude":6.154676,
    "iso:country":"NL",
    "mz:hierarchy_label":1,
    "mz:is_approximate":1,
    "mz:is_clustr":1,
    "src:geom":"oa",
    "wof:belongsto":[
        85687033,
        102191581,
        404474525,
        85633337,
        101839199
    ],
    "wof:breaches":[],
    "wof:country":"NL",
    "wof:created":1469686968,
    "wof:geomhash":"fabd25a91137fe4a497a6a6616f5c66f",
    "wof:hierarchy":[
        {
            "continent_id":102191581,
            "country_id":85633337,
            "localadmin_id":404474525,
            "locality_id":101839199,
            "postalcode_id":891092941,
            "region_id":85687033
        }
    ],
    "wof:id":891092941,
    "wof:lastmodified":1469686968,
    "wof:name":"5921JG",
    "wof:parent_id":101839199,
    "wof:placetype":"postalcode",
    "wof:repo":"whosonfirst-data-postalcode-nl",
    "wof:superseded_by":[],
    "wof:supersedes":[],
    "wof:tags":[]
},
  "bbox": [
    6.154204368591309,
    51.369869232177734,
    6.155064105987549,
    51.370750427246094
],
  "geometry": {"coordinates":[[[6.15420436859131,51.37022399902344],[6.15428066253662,51.37031173706055],[6.15496349334717,51.37075042724609],[6.15506410598755,51.37057113647461],[6.15500450134277,51.37042999267578],[6.15494918823242,51.37032699584961],[6.15477991104126,51.37002182006836],[6.1547417640686,51.36995315551758],[6.15469455718994,51.36986923217773],[6.15420436859131,51.37022399902344]]],"type":"Polygon"}
}