{
  "id": 890737895,
  "type": "Feature",
  "properties": {
    "clustr:alpha":0.05,
    "clustr:area":103.75,
    "clustr:count":16,
    "clustr:density":0.15,
    "clustr:perimeter":0.15,
    "edtf:cessation":"uuuu",
    "edtf:inception":"uuuu",
    "geom:area":0.0,
    "geom:bbox":"4.4695687294,52.1453132629,4.47055482864,52.1458053589",
    "geom:latitude":52.145557,
    "geom:longitude":4.470063,
    "iso:country":"NL",
    "mz:hierarchy_label":1,
    "mz:is_approximate":1,
    "mz:is_clustr":1,
    "src:geom":"oa",
    "wof:belongsto":[
        85687041,
        102191581,
        404474199,
        85633337,
        101751833
    ],
    "wof:breaches":[],
    "wof:country":"NL",
    "wof:created":1469672860,
    "wof:geomhash":"941d08dcf5419a4622f5577a0e23726e",
    "wof:hierarchy":[
        {
            "continent_id":102191581,
            "country_id":85633337,
            "localadmin_id":404474199,
            "locality_id":101751833,
            "postalcode_id":890737895,
            "region_id":85687041
        }
    ],
    "wof:id":890737895,
    "wof:lastmodified":1469672860,
    "wof:name":"2324XX",
    "wof:parent_id":101751833,
    "wof:placetype":"postalcode",
    "wof:repo":"whosonfirst-data-postalcode-nl",
    "wof:superseded_by":[],
    "wof:supersedes":[],
    "wof:tags":[]
},
  "bbox": [
    4.469568729400635,
    52.14531326293945,
    4.470554828643799,
    52.14580535888672
],
  "geometry": {"coordinates":[[[4.46969366073608,52.14531326293945],[4.46967554092407,52.14536666870117],[4.46958589553833,52.14563369750977],[4.46956872940063,52.14569091796875],[4.47042608261108,52.14580535888672],[4.47044706344604,52.14574813842773],[4.47046518325806,52.14569473266602],[4.4705548286438,52.14541625976562],[4.46969366073608,52.14531326293945]]],"type":"Polygon"}
}