{
  "id": 891046767,
  "type": "Feature",
  "properties": {
    "clustr:alpha":0.05,
    "clustr:area":52.77,
    "clustr:count":8,
    "clustr:density":0.15,
    "clustr:perimeter":1.07,
    "edtf:cessation":"uuuu",
    "edtf:inception":"uuuu",
    "geom:area":0.000007,
    "geom:bbox":"5.76477336884,51.7017440796,5.76966571808,51.7051734924",
    "geom:latitude":51.703795,
    "geom:longitude":5.767517,
    "iso:country":"NL",
    "mz:hierarchy_label":1,
    "mz:is_approximate":1,
    "mz:is_clustr":1,
    "src:geom":"oa",
    "wof:belongsto":[
        102191581,
        404474403,
        85633337,
        85687035
    ],
    "wof:breaches":[],
    "wof:country":"NL",
    "wof:created":1469685255,
    "wof:geomhash":"0bffd9c8f433d20db4f8c6adc7019ee4",
    "wof:hierarchy":[
        {
            "continent_id":102191581,
            "country_id":85633337,
            "localadmin_id":404474403,
            "postalcode_id":891046767,
            "region_id":85687035
        }
    ],
    "wof:id":891046767,
    "wof:lastmodified":1469685255,
    "wof:name":"5451NG",
    "wof:parent_id":404474403,
    "wof:placetype":"postalcode",
    "wof:repo":"whosonfirst-data-postalcode-nl",
    "wof:superseded_by":[],
    "wof:supersedes":[],
    "wof:tags":[]
},
  "bbox": [
    5.764773368835449,
    51.701744079589844,
    5.769665718078613,
    51.70517349243164
],
  "geometry": {"coordinates":[[[5.76966571807861,51.7017936706543],[5.76923131942749,51.70174407958984],[5.76477336883545,51.70492553710938],[5.76496267318726,51.70504379272461],[5.76696014404297,51.70517349243164],[5.7683572769165,51.7044677734375],[5.76859331130981,51.70433807373047],[5.76966571807861,51.7017936706543]]],"type":"Polygon"}
}