{
  "id": 890603893,
  "type": "Feature",
  "properties": {
    "clustr:alpha":0.05,
    "clustr:area":13.19,
    "clustr:count":24,
    "clustr:density":1.82,
    "clustr:perimeter":0.06,
    "edtf:cessation":"uuuu",
    "edtf:inception":"uuuu",
    "geom:area":0.0,
    "geom:bbox":"4.92875242233,52.354839325,4.92910718918,52.3550720215",
    "geom:latitude":52.354956,
    "geom:longitude":4.928936,
    "iso:country":"NL",
    "mz:hierarchy_label":1,
    "mz:is_approximate":1,
    "mz:is_clustr":1,
    "src:geom":"oa",
    "wof:belongsto":[
        85687053,
        102191581,
        404474029,
        85633337,
        101751893
    ],
    "wof:breaches":[],
    "wof:country":"NL",
    "wof:created":1469666985,
    "wof:geomhash":"82e2eb6ef014198e1ca49f648931a0d8",
    "wof:hierarchy":[
        {
            "continent_id":102191581,
            "country_id":85633337,
            "localadmin_id":404474029,
            "locality_id":101751893,
            "postalcode_id":890603893,
            "region_id":85687053
        }
    ],
    "wof:id":890603893,
    "wof:lastmodified":1469666985,
    "wof:name":"1098AA",
    "wof:parent_id":101751893,
    "wof:placetype":"postalcode",
    "wof:repo":"whosonfirst-data-postalcode-nl",
    "wof:superseded_by":[],
    "wof:supersedes":[],
    "wof:tags":[]
},
  "bbox": [
    4.928752422332764,
    52.35483932495117,
    4.929107189178467,
    52.355072021484375
],
  "geometry": {"coordinates":[[[4.92900323867798,52.35492706298828],[4.92910718917847,52.35483932495117],[4.92904806137085,52.35487365722656],[4.92897415161133,52.35491943359375],[4.92881155014038,52.35502624511719],[4.92875242233276,52.35507202148438],[4.92890024185181,52.3549919128418],[4.92900323867798,52.35492706298828]]],"type":"Polygon"}
}