{
  "id": 890696003,
  "type": "Feature",
  "properties": {
    "clustr:alpha":0.05,
    "clustr:area":7.02,
    "clustr:count":34,
    "clustr:density":4.84,
    "clustr:perimeter":0.2,
    "edtf:cessation":"uuuu",
    "edtf:inception":"uuuu",
    "geom:area":0.0,
    "geom:bbox":"4.59444618225,52.4543533325,4.59528875351,52.4551239014",
    "geom:latitude":52.454744,
    "geom:longitude":4.594832,
    "iso:country":"NL",
    "mz:hierarchy_label":1,
    "mz:is_approximate":1,
    "mz:is_clustr":1,
    "src:geom":"oa",
    "wof:belongsto":[
        85687053,
        102191581,
        404474123,
        85633337,
        101754823
    ],
    "wof:breaches":[],
    "wof:country":"NL",
    "wof:created":1469671062,
    "wof:geomhash":"6045f8a91e46978f2dd8a4be47c8e409",
    "wof:hierarchy":[
        {
            "continent_id":102191581,
            "country_id":85633337,
            "localadmin_id":404474123,
            "locality_id":101754823,
            "postalcode_id":890696003,
            "region_id":85687053
        }
    ],
    "wof:id":890696003,
    "wof:lastmodified":1469671062,
    "wof:name":"1973TN",
    "wof:parent_id":101754823,
    "wof:placetype":"postalcode",
    "wof:repo":"whosonfirst-data-postalcode-nl",
    "wof:superseded_by":[],
    "wof:supersedes":[],
    "wof:tags":[]
},
  "bbox": [
    4.594446182250977,
    52.45435333251953,
    4.595288753509521,
    52.45512390136719
],
  "geometry": {"coordinates":[[[4.59458541870117,52.45435333251953],[4.59444618225098,52.45438385009766],[4.59464454650879,52.45479965209961],[4.59519815444946,52.45512390136719],[4.59528875350952,52.45504760742188],[4.59522533416748,52.45498275756836],[4.59509801864624,52.45485687255859],[4.59464883804321,52.45441436767578],[4.59458541870117,52.45435333251953]]],"type":"Polygon"}
}