{
  "id": 890585961,
  "type": "Feature",
  "properties": {
    "clustr:alpha":0.05,
    "clustr:area":23.05,
    "clustr:count":23,
    "clustr:density":1.0,
    "clustr:perimeter":0.06,
    "edtf:cessation":"uuuu",
    "edtf:inception":"uuuu",
    "geom:area":0.0,
    "geom:bbox":"4.87722492218,52.3657646179,4.87772226334,52.3659172058",
    "geom:latitude":52.365843,
    "geom:longitude":4.877466,
    "iso:country":"NL",
    "mz:hierarchy_label":1,
    "mz:is_approximate":1,
    "mz:is_clustr":1,
    "src:geom":"oa",
    "wof:belongsto":[
        85687053,
        102191581,
        404474029,
        85633337,
        101751893
    ],
    "wof:breaches":[],
    "wof:country":"NL",
    "wof:created":1469666136,
    "wof:geomhash":"cb08719309159c9c115e8c41e10c2e07",
    "wof:hierarchy":[
        {
            "continent_id":102191581,
            "country_id":85633337,
            "localadmin_id":404474029,
            "locality_id":101751893,
            "postalcode_id":890585961,
            "region_id":85687053
        }
    ],
    "wof:id":890585961,
    "wof:lastmodified":1469666136,
    "wof:name":"1054AL",
    "wof:parent_id":101751893,
    "wof:placetype":"postalcode",
    "wof:repo":"whosonfirst-data-postalcode-nl",
    "wof:superseded_by":[],
    "wof:supersedes":[],
    "wof:tags":[]
},
  "bbox": [
    4.877224922180176,
    52.36576461791992,
    4.877722263336182,
    52.36591720581055
],
  "geometry": {"coordinates":[[[4.87749433517456,52.36586380004883],[4.87772226333618,52.36591720581055],[4.87764930725098,52.36589050292969],[4.87750291824341,52.3658447265625],[4.87722492218018,52.36576461791992],[4.87729787826538,52.36579895019531],[4.87749433517456,52.36586380004883]]],"type":"Polygon"}
}