{
  "id": 890881745,
  "type": "Feature",
  "properties": {
    "clustr:alpha":0.05,
    "clustr:area":3.78,
    "clustr:count":20,
    "clustr:density":5.29,
    "clustr:perimeter":0.18,
    "edtf:cessation":"uuuu",
    "edtf:inception":"uuuu",
    "geom:area":0.0,
    "geom:bbox":"5.13913488388,52.1070594788,5.13934755325,52.1078643799",
    "geom:latitude":52.107466,
    "geom:longitude":5.139233,
    "iso:country":"NL",
    "mz:hierarchy_label":1,
    "mz:is_approximate":1,
    "mz:is_clustr":1,
    "src:geom":"oa",
    "wof:belongsto":[
        85687039,
        102191581,
        404474007,
        85633337,
        101751827
    ],
    "wof:breaches":[],
    "wof:country":"NL",
    "wof:created":1469678331,
    "wof:geomhash":"cb1e3f8b6b2b9446dd62e89dcb5549cd",
    "wof:hierarchy":[
        {
            "continent_id":102191581,
            "country_id":85633337,
            "localadmin_id":404474007,
            "locality_id":101751827,
            "postalcode_id":890881745,
            "region_id":85687039
        }
    ],
    "wof:id":890881745,
    "wof:lastmodified":1469678331,
    "wof:name":"3571LX",
    "wof:parent_id":101751827,
    "wof:placetype":"postalcode",
    "wof:repo":"whosonfirst-data-postalcode-nl",
    "wof:superseded_by":[],
    "wof:supersedes":[],
    "wof:tags":[]
},
  "bbox": [
    5.139134883880615,
    52.107059478759766,
    5.139347553253174,
    52.10786437988281
],
  "geometry": {"coordinates":[[[5.13925504684448,52.10786437988281],[5.13934755325317,52.10786056518555],[5.13923835754395,52.10712432861328],[5.13922595977783,52.10705947875977],[5.13914060592651,52.10706329345703],[5.13913488388062,52.1071891784668],[5.13915586471558,52.10735321044922],[5.1392126083374,52.10774230957031],[5.13925504684448,52.10786437988281]]],"type":"Polygon"}
}