{
  "id": 907030407,
  "type": "Feature",
  "properties": {
    "clustr:alpha":0.05,
    "clustr:area":13.87,
    "clustr:count":28,
    "clustr:density":2.02,
    "clustr:perimeter":0.09,
    "edtf:cessation":"uuuu",
    "edtf:inception":"uuuu",
    "geom:area":0.0,
    "geom:bbox":"5.47450637817,52.5136680603,5.47490119934,52.5139694214",
    "geom:latitude":52.513825,
    "geom:longitude":5.474682,
    "iso:country":"NL",
    "mz:hierarchy_label":1,
    "mz:is_approximate":1,
    "mz:is_clustr":1,
    "src:geom":"oa",
    "wof:belongsto":[
        85687049,
        102191581,
        404474539,
        85633337,
        101751873
    ],
    "wof:breaches":[],
    "wof:country":"NL",
    "wof:created":1469695811,
    "wof:geomhash":"916b1c5e0d3cc7ae9490478d7c415650",
    "wof:hierarchy":[
        {
            "continent_id":102191581,
            "country_id":85633337,
            "localadmin_id":404474539,
            "locality_id":101751873,
            "postalcode_id":907030407,
            "region_id":85687049
        }
    ],
    "wof:id":907030407,
    "wof:lastmodified":1469695811,
    "wof:name":"8231KB",
    "wof:parent_id":101751873,
    "wof:placetype":"postalcode",
    "wof:repo":"whosonfirst-data-postalcode-nl",
    "wof:superseded_by":[],
    "wof:supersedes":[],
    "wof:tags":[]
},
  "bbox": [
    5.474506378173828,
    52.513668060302734,
    5.47490119934082,
    52.51396942138672
],
  "geometry": {"coordinates":[[[5.47485971450806,52.51366806030273],[5.47474765777588,52.51369094848633],[5.47452306747437,52.51379776000977],[5.47450637817383,52.51396179199219],[5.47451448440552,52.51396942138672],[5.47470188140869,52.51396179199219],[5.47490119934082,52.51369476318359],[5.47485971450806,52.51366806030273]]],"type":"Polygon"}
}