{
  "id": 891153803,
  "type": "Feature",
  "properties": {
    "clustr:alpha":0.05,
    "clustr:area":106.18,
    "clustr:count":8,
    "clustr:density":0.08,
    "clustr:perimeter":0.18,
    "edtf:cessation":"uuuu",
    "edtf:inception":"uuuu",
    "geom:area":0.0,
    "geom:bbox":"5.88255834579,51.7480506897,5.8838558197,51.7489051819",
    "geom:latitude":51.748523,
    "geom:longitude":5.883179,
    "iso:country":"NL",
    "mz:hierarchy_label":1,
    "mz:is_approximate":1,
    "mz:is_clustr":1,
    "src:geom":"oa",
    "wof:belongsto":[
        85687033,
        102191581,
        404474505,
        85633337,
        101839379
    ],
    "wof:breaches":[],
    "wof:country":"NL",
    "wof:created":1469689515,
    "wof:geomhash":"7c0195090e8eb809d24c1d527a61b056",
    "wof:hierarchy":[
        {
            "continent_id":102191581,
            "country_id":85633337,
            "localadmin_id":404474505,
            "locality_id":101839379,
            "postalcode_id":891153803,
            "region_id":85687033
        }
    ],
    "wof:id":891153803,
    "wof:lastmodified":1469689515,
    "wof:name":"6585BA",
    "wof:parent_id":101839379,
    "wof:placetype":"postalcode",
    "wof:repo":"whosonfirst-data-postalcode-nl",
    "wof:superseded_by":[],
    "wof:supersedes":[],
    "wof:tags":[]
},
  "bbox": [
    5.882558345794678,
    51.748050689697266,
    5.883855819702148,
    51.748905181884766
],
  "geometry": {"coordinates":[[[5.88361835479736,51.74890518188477],[5.88385581970215,51.74876403808594],[5.88255834579468,51.74805068969727],[5.88269805908203,51.7484130859375],[5.88361835479736,51.74890518188477]]],"type":"Polygon"}
}