{
  "id": 891176111,
  "type": "Feature",
  "properties": {
    "clustr:alpha":0.05,
    "clustr:area":32.66,
    "clustr:count":20,
    "clustr:density":0.61,
    "clustr:perimeter":0.19,
    "edtf:cessation":"uuuu",
    "edtf:inception":"uuuu",
    "geom:area":0.0,
    "geom:bbox":"5.91036224365,51.9624900818,5.91120672226,51.9633979797",
    "geom:latitude":51.962966,
    "geom:longitude":5.910806,
    "iso:country":"NL",
    "mz:hierarchy_label":1,
    "mz:is_approximate":1,
    "mz:is_clustr":1,
    "src:geom":"oa",
    "wof:belongsto":[
        85687043,
        102191581,
        404473871,
        85633337,
        101751857
    ],
    "wof:breaches":[],
    "wof:country":"NL",
    "wof:created":1469690457,
    "wof:geomhash":"807b20568e06c896a56ea78a0edab6b4",
    "wof:hierarchy":[
        {
            "continent_id":102191581,
            "country_id":85633337,
            "localadmin_id":404473871,
            "locality_id":101751857,
            "postalcode_id":891176111,
            "region_id":85687043
        }
    ],
    "wof:id":891176111,
    "wof:lastmodified":1469690457,
    "wof:name":"6832DK",
    "wof:parent_id":101751857,
    "wof:placetype":"postalcode",
    "wof:repo":"whosonfirst-data-postalcode-nl",
    "wof:superseded_by":[],
    "wof:supersedes":[],
    "wof:tags":[]
},
  "bbox": [
    5.910362243652344,
    51.96249008178711,
    5.911206722259521,
    51.96339797973633
],
  "geometry": {"coordinates":[[[5.91085815429688,51.96302032470703],[5.91044950485229,51.96258163452148],[5.9104061126709,51.9625358581543],[5.91036224365234,51.96249008178711],[5.91049337387085,51.96263122558594],[5.9107551574707,51.96291351318359],[5.91103267669678,51.96321105957031],[5.91120672225952,51.96339797973633],[5.91116333007812,51.96334838867188],[5.91085815429688,51.96302032470703]]],"type":"Polygon"}
}