{
  "id": 891228337,
  "type": "Feature",
  "properties": {
    "clustr:alpha":0.05,
    "clustr:area":38.79,
    "clustr:count":19,
    "clustr:density":0.49,
    "clustr:perimeter":0.42,
    "edtf:cessation":"uuuu",
    "edtf:inception":"uuuu",
    "geom:area":0.0,
    "geom:bbox":"6.47366762161,52.3584671021,6.47594356537,52.3599052429",
    "geom:latitude":52.359061,
    "geom:longitude":6.475129,
    "iso:country":"NL",
    "mz:hierarchy_label":1,
    "mz:is_approximate":1,
    "mz:is_clustr":1,
    "src:geom":"oa",
    "wof:belongsto":[
        85687045,
        102191581,
        404473835,
        85633337,
        101807161
    ],
    "wof:breaches":[],
    "wof:country":"NL",
    "wof:created":1469692536,
    "wof:geomhash":"44a14ac56b57957ec3a45743ee291127",
    "wof:hierarchy":[
        {
            "continent_id":102191581,
            "country_id":85633337,
            "localadmin_id":404473835,
            "locality_id":101807161,
            "postalcode_id":891228337,
            "region_id":85687045
        }
    ],
    "wof:id":891228337,
    "wof:lastmodified":1469692536,
    "wof:name":"7442GJ",
    "wof:parent_id":101807161,
    "wof:placetype":"postalcode",
    "wof:repo":"whosonfirst-data-postalcode-nl",
    "wof:superseded_by":[],
    "wof:supersedes":[],
    "wof:tags":[]
},
  "bbox": [
    6.473667621612549,
    52.35846710205078,
    6.475943565368652,
    52.35990524291992
],
  "geometry": {"coordinates":[[[6.47586250305176,52.35873794555664],[6.47594356536865,52.35859298706055],[6.47594165802002,52.35846710205078],[6.47399568557739,52.35968780517578],[6.47366762161255,52.35990524291992],[6.47502613067627,52.35920715332031],[6.47508478164673,52.35917663574219],[6.47536325454712,52.35903167724609],[6.47556495666504,52.35892486572266],[6.47586250305176,52.35873794555664]]],"type":"Polygon"}
}