{
  "id": 890630957,
  "type": "Feature",
  "properties": {
    "clustr:alpha":0.05,
    "clustr:area":8.39,
    "clustr:count":32,
    "clustr:density":3.81,
    "clustr:perimeter":0.24,
    "edtf:cessation":"uuuu",
    "edtf:inception":"uuuu",
    "geom:area":0.0,
    "geom:bbox":"5.24481964111,52.3578910828,5.24617290497,52.3585968018",
    "geom:latitude":52.358291,
    "geom:longitude":5.245638,
    "iso:country":"NL",
    "mz:hierarchy_label":1,
    "mz:is_approximate":1,
    "mz:is_clustr":1,
    "src:geom":"oa",
    "wof:belongsto":[
        85687049,
        102191581,
        404473729,
        85633337,
        101751877
    ],
    "wof:breaches":[],
    "wof:country":"NL",
    "wof:created":1469668154,
    "wof:geomhash":"b4a6da7ff90a671f2fa9ba8298de5063",
    "wof:hierarchy":[
        {
            "continent_id":102191581,
            "country_id":85633337,
            "localadmin_id":404473729,
            "locality_id":101751877,
            "postalcode_id":890630957,
            "region_id":85687049
        }
    ],
    "wof:id":890630957,
    "wof:lastmodified":1469668154,
    "wof:name":"1325TH",
    "wof:parent_id":101751877,
    "wof:placetype":"postalcode",
    "wof:repo":"whosonfirst-data-postalcode-nl",
    "wof:superseded_by":[],
    "wof:supersedes":[],
    "wof:tags":[]
},
  "bbox": [
    5.244819641113281,
    52.35789108276367,
    5.246172904968262,
    52.35859680175781
],
  "geometry": {"coordinates":[[[5.24592256546021,52.35859680175781],[5.24597930908203,52.35856246948242],[5.24612903594971,52.35842895507812],[5.24617290496826,52.35837936401367],[5.2461199760437,52.35835266113281],[5.2460880279541,52.35834121704102],[5.24514770507812,52.35800552368164],[5.24481964111328,52.35789108276367],[5.24585056304932,52.35857009887695],[5.24592256546021,52.35859680175781]]],"type":"Polygon"}
}