{
  "id": 891289571,
  "type": "Feature",
  "properties": {
    "clustr:alpha":0.05,
    "clustr:area":257.63,
    "clustr:count":15,
    "clustr:density":0.06,
    "clustr:perimeter":0.17,
    "edtf:cessation":"uuuu",
    "edtf:inception":"uuuu",
    "geom:area":0.0,
    "geom:bbox":"6.07633590698,52.6395378113,6.07854747772,52.6398696899",
    "geom:latitude":52.639683,
    "geom:longitude":6.077705,
    "iso:country":"NL",
    "mz:hierarchy_label":1,
    "mz:is_approximate":1,
    "mz:is_clustr":1,
    "src:geom":"oa",
    "wof:belongsto":[
        85687045,
        102191581,
        404474683,
        85633337,
        101807221
    ],
    "wof:breaches":[],
    "wof:country":"NL",
    "wof:created":1469695150,
    "wof:geomhash":"a967f8d5ec950f9c63a5c5b1bf1dc4e2",
    "wof:hierarchy":[
        {
            "continent_id":102191581,
            "country_id":85633337,
            "localadmin_id":404474683,
            "locality_id":101807221,
            "postalcode_id":891289571,
            "region_id":85687045
        }
    ],
    "wof:id":891289571,
    "wof:lastmodified":1469695150,
    "wof:name":"8064EV",
    "wof:parent_id":101807221,
    "wof:placetype":"postalcode",
    "wof:repo":"whosonfirst-data-postalcode-nl",
    "wof:superseded_by":[],
    "wof:supersedes":[],
    "wof:tags":[]
},
  "bbox": [
    6.076335906982422,
    52.6395378112793,
    6.078547477722168,
    52.639869689941406
],
  "geometry": {"coordinates":[[[6.07854747772217,52.63967514038086],[6.07845687866211,52.63956069946289],[6.07800102233887,52.6395378112793],[6.07633590698242,52.63986968994141],[6.07642459869385,52.63986206054688],[6.07854747772217,52.63967514038086]]],"type":"Polygon"}
}