{
  "id": 907110983,
  "type": "Feature",
  "properties": {
    "clustr:alpha":0.05,
    "clustr:area":2.98,
    "clustr:count":15,
    "clustr:density":5.03,
    "clustr:perimeter":0.32,
    "edtf:cessation":"uuuu",
    "edtf:inception":"uuuu",
    "geom:area":0.0,
    "geom:bbox":"6.58124256134,53.199546814,6.58351278305,53.1999740601",
    "geom:latitude":53.199817,
    "geom:longitude":6.582359,
    "iso:country":"NL",
    "mz:hierarchy_label":1,
    "mz:is_approximate":1,
    "mz:is_clustr":1,
    "src:geom":"oa",
    "wof:belongsto":[
        85687059,
        102191581,
        404473713,
        85633337,
        101751909
    ],
    "wof:breaches":[],
    "wof:country":"NL",
    "wof:created":1469699943,
    "wof:geomhash":"c59edfd43415e8b5e90d955515fead3e",
    "wof:hierarchy":[
        {
            "continent_id":102191581,
            "country_id":85633337,
            "localadmin_id":404473713,
            "locality_id":101751909,
            "postalcode_id":907110983,
            "region_id":85687059
        }
    ],
    "wof:id":907110983,
    "wof:lastmodified":1469699943,
    "wof:name":"9722EP",
    "wof:parent_id":101751909,
    "wof:placetype":"postalcode",
    "wof:repo":"whosonfirst-data-postalcode-nl",
    "wof:superseded_by":[],
    "wof:supersedes":[],
    "wof:tags":[]
},
  "bbox": [
    6.581242561340332,
    53.199546813964844,
    6.583512783050537,
    53.199974060058594
],
  "geometry": {"coordinates":[[[6.58351278305054,53.19995498657227],[6.58348417282104,53.19993209838867],[6.58124256134033,53.19954681396484],[6.58212041854858,53.19992828369141],[6.58350563049316,53.19997406005859],[6.58351278305054,53.19995498657227]]],"type":"Polygon"}
}