{
  "id": 890870101,
  "type": "Feature",
  "properties": {
    "clustr:alpha":0.05,
    "clustr:area":3.42,
    "clustr:count":18,
    "clustr:density":5.26,
    "clustr:perimeter":0.15,
    "edtf:cessation":"uuuu",
    "edtf:inception":"uuuu",
    "geom:area":0.0,
    "geom:bbox":"5.02130270004,52.106803894,5.02236413956,52.107006073",
    "geom:latitude":52.10694,
    "geom:longitude":5.021651,
    "iso:country":"NL",
    "mz:hierarchy_label":1,
    "mz:is_approximate":1,
    "mz:is_clustr":1,
    "src:geom":"oa",
    "wof:belongsto":[
        85687039,
        102191581,
        404474007,
        85633337,
        101808427
    ],
    "wof:breaches":[],
    "wof:country":"NL",
    "wof:created":1469677892,
    "wof:geomhash":"b2133fb36392754cbad71e2ed4ac6fe7",
    "wof:hierarchy":[
        {
            "continent_id":102191581,
            "country_id":85633337,
            "localadmin_id":404474007,
            "locality_id":101808427,
            "postalcode_id":890870101,
            "region_id":85687039
        }
    ],
    "wof:id":890870101,
    "wof:lastmodified":1469677892,
    "wof:name":"3451KM",
    "wof:parent_id":101808427,
    "wof:placetype":"postalcode",
    "wof:repo":"whosonfirst-data-postalcode-nl",
    "wof:superseded_by":[],
    "wof:supersedes":[],
    "wof:tags":[]
},
  "bbox": [
    5.021302700042725,
    52.10680389404297,
    5.022364139556885,
    52.10700607299805
],
  "geometry": {"coordinates":[[[5.02130270004272,52.10700607299805],[5.0213303565979,52.10700225830078],[5.02140998840332,52.10698699951172],[5.02148962020874,52.10697174072266],[5.02180862426758,52.10691070556641],[5.02204656600952,52.10686492919922],[5.02236413955688,52.10680389404297],[5.02228450775146,52.10681915283203],[5.02220487594604,52.10683441162109],[5.02130270004272,52.10700607299805]]],"type":"Polygon"}
}