{
  "id": 891121213,
  "type": "Feature",
  "properties": {
    "clustr:alpha":0.05,
    "clustr:area":11.69,
    "clustr:count":12,
    "clustr:density":1.03,
    "clustr:perimeter":0.2,
    "edtf:cessation":"uuuu",
    "edtf:inception":"uuuu",
    "geom:area":0.0,
    "geom:bbox":"5.67968797684,50.8422050476,5.68114328384,50.8422317505",
    "geom:latitude":50.84222,
    "geom:longitude":5.68029,
    "iso:country":"NL",
    "mz:hierarchy_label":1,
    "mz:is_approximate":1,
    "mz:is_clustr":1,
    "src:geom":"oa",
    "wof:belongsto":[
        85687033,
        102191581,
        404474495,
        85633337,
        101751803
    ],
    "wof:breaches":[],
    "wof:country":"NL",
    "wof:created":1469688068,
    "wof:geomhash":"553fd87d41b2bce09ae7369e38b8b13a",
    "wof:hierarchy":[
        {
            "continent_id":102191581,
            "country_id":85633337,
            "localadmin_id":404474495,
            "locality_id":101751803,
            "postalcode_id":891121213,
            "region_id":85687033
        }
    ],
    "wof:id":891121213,
    "wof:lastmodified":1469688068,
    "wof:name":"6213AC",
    "wof:parent_id":101751803,
    "wof:placetype":"postalcode",
    "wof:repo":"whosonfirst-data-postalcode-nl",
    "wof:superseded_by":[],
    "wof:supersedes":[],
    "wof:tags":[]
},
  "bbox": [
    5.679687976837158,
    50.84220504760742,
    5.681143283843994,
    50.84223175048828
],
  "geometry": {"coordinates":[[[5.67978239059448,50.84222030639648],[5.67995452880859,50.84223175048828],[5.68005037307739,50.84223175048828],[5.6802339553833,50.84223175048828],[5.6810450553894,50.84222412109375],[5.68114328384399,50.84222030639648],[5.67968797683716,50.84220504760742],[5.67978239059448,50.84222030639648]]],"type":"Polygon"}
}