{
  "id": 891253297,
  "type": "Feature",
  "properties": {
    "clustr:alpha":0.05,
    "clustr:area":119.84,
    "clustr:count":25,
    "clustr:density":0.21,
    "clustr:perimeter":0.79,
    "edtf:cessation":"uuuu",
    "edtf:inception":"uuuu",
    "geom:area":0.000002,
    "geom:bbox":"6.67776107788,52.3838577271,6.68387746811,52.3848381042",
    "geom:latitude":52.384408,
    "geom:longitude":6.680999,
    "iso:country":"NL",
    "mz:hierarchy_label":1,
    "mz:is_approximate":1,
    "mz:is_clustr":1,
    "src:geom":"oa",
    "wof:belongsto":[
        85687045,
        102191581,
        404473819,
        85633337,
        101751863
    ],
    "wof:breaches":[],
    "wof:country":"NL",
    "wof:created":1469693540,
    "wof:geomhash":"7457594b34dc41b2fd4b0c7f5615685e",
    "wof:hierarchy":[
        {
            "continent_id":102191581,
            "country_id":85633337,
            "localadmin_id":404473819,
            "locality_id":101751863,
            "postalcode_id":891253297,
            "region_id":85687045
        }
    ],
    "wof:id":891253297,
    "wof:lastmodified":1469693540,
    "wof:name":"7608GX",
    "wof:parent_id":101751863,
    "wof:placetype":"postalcode",
    "wof:repo":"whosonfirst-data-postalcode-nl",
    "wof:superseded_by":[],
    "wof:supersedes":[],
    "wof:tags":[]
},
  "bbox": [
    6.677761077880859,
    52.38385772705078,
    6.683877468109131,
    52.38483810424805
],
  "geometry": {"coordinates":[[[6.67888975143433,52.38427734375],[6.67966032028198,52.3845100402832],[6.68340110778809,52.38483810424805],[6.68369102478027,52.38470840454102],[6.68387746810913,52.38455581665039],[6.67776107788086,52.38385772705078],[6.67785024642944,52.38389205932617],[6.67888975143433,52.38427734375]]],"type":"Polygon"}
}