{
  "id": 890722231,
  "type": "Feature",
  "properties": {
    "clustr:alpha":0.05,
    "clustr:area":8.81,
    "clustr:count":8,
    "clustr:density":0.91,
    "clustr:perimeter":0.07,
    "edtf:cessation":"uuuu",
    "edtf:inception":"uuuu",
    "geom:area":0.0,
    "geom:bbox":"4.40167808533,52.205581665,4.40223264694,52.2056465149",
    "geom:latitude":52.205606,
    "geom:longitude":4.401911,
    "iso:country":"NL",
    "mz:hierarchy_label":1,
    "mz:is_approximate":1,
    "mz:is_clustr":1,
    "src:geom":"oa",
    "wof:belongsto":[
        85687041,
        102191581,
        404474191,
        85633337,
        101754663
    ],
    "wof:breaches":[],
    "wof:country":"NL",
    "wof:created":1469672233,
    "wof:geomhash":"95435812506003215c47218a279be8e7",
    "wof:hierarchy":[
        {
            "continent_id":102191581,
            "country_id":85633337,
            "localadmin_id":404474191,
            "locality_id":101754663,
            "postalcode_id":890722231,
            "region_id":85687041
        }
    ],
    "wof:id":890722231,
    "wof:lastmodified":1469672233,
    "wof:name":"2225VC",
    "wof:parent_id":101754663,
    "wof:placetype":"postalcode",
    "wof:repo":"whosonfirst-data-postalcode-nl",
    "wof:superseded_by":[],
    "wof:supersedes":[],
    "wof:tags":[]
},
  "bbox": [
    4.401678085327148,
    52.20558166503906,
    4.402232646942139,
    52.20564651489258
],
  "geometry": {"coordinates":[[[4.40167808532715,52.20558166503906],[4.40199899673462,52.20561981201172],[4.40215969085693,52.20563888549805],[4.40223264694214,52.20564651489258],[4.40191173553467,52.20560073852539],[4.40182399749756,52.20558929443359],[4.40175104141235,52.20558166503906],[4.40167808532715,52.20558166503906]]],"type":"Polygon"}
}