{
  "id": 891240553,
  "type": "Feature",
  "properties": {
    "clustr:alpha":0.05,
    "clustr:area":63.04,
    "clustr:count":20,
    "clustr:density":0.32,
    "clustr:perimeter":0.18,
    "edtf:cessation":"uuuu",
    "edtf:inception":"uuuu",
    "geom:area":0.0,
    "geom:bbox":"6.86902523041,52.213722229,6.87031984329,52.2143554688",
    "geom:latitude":52.214008,
    "geom:longitude":6.869606,
    "iso:country":"NL",
    "mz:hierarchy_label":1,
    "mz:is_approximate":1,
    "mz:is_clustr":1,
    "src:geom":"oa",
    "wof:belongsto":[
        85687045,
        102191581,
        404473827,
        85633337,
        101751871
    ],
    "wof:breaches":[],
    "wof:country":"NL",
    "wof:created":1469693032,
    "wof:geomhash":"2404eff9ec6f44ac55b4d7d72320ca10",
    "wof:hierarchy":[
        {
            "continent_id":102191581,
            "country_id":85633337,
            "localadmin_id":404473827,
            "locality_id":101751871,
            "postalcode_id":891240553,
            "region_id":85687045
        }
    ],
    "wof:id":891240553,
    "wof:lastmodified":1469693032,
    "wof:name":"7545HM",
    "wof:parent_id":101751871,
    "wof:placetype":"postalcode",
    "wof:repo":"whosonfirst-data-postalcode-nl",
    "wof:superseded_by":[],
    "wof:supersedes":[],
    "wof:tags":[]
},
  "bbox": [
    6.869025230407715,
    52.213722229003906,
    6.870319843292236,
    52.21435546875
],
  "geometry": {"coordinates":[[[6.86943769454956,52.21392059326172],[6.86902523040771,52.21372222900391],[6.86906623840332,52.21375274658203],[6.86934518814087,52.21389007568359],[6.87031984329224,52.21435546875],[6.87012958526611,52.21425628662109],[6.86999177932739,52.21418762207031],[6.86943769454956,52.21392059326172]]],"type":"Polygon"}
}