{
  "id": 907023219,
  "type": "Feature",
  "properties": {
    "clustr:alpha":0.05,
    "clustr:area":337.99,
    "clustr:count":8,
    "clustr:density":0.02,
    "clustr:perimeter":0.4,
    "edtf:cessation":"uuuu",
    "edtf:inception":"uuuu",
    "geom:area":0.000002,
    "geom:bbox":"6.32605409622,52.3829689026,6.32980728149,52.3839759827",
    "geom:latitude":52.383512,
    "geom:longitude":6.327728,
    "iso:country":"NL",
    "mz:hierarchy_label":1,
    "mz:is_approximate":1,
    "mz:is_clustr":1,
    "src:geom":"oa",
    "wof:belongsto":[
        85687045,
        102191581,
        404473849,
        85633337,
        101807155
    ],
    "wof:breaches":[],
    "wof:country":"NL",
    "wof:created":1469695422,
    "wof:geomhash":"67c64178b52ea93b86409419489f9c73",
    "wof:hierarchy":[
        {
            "continent_id":102191581,
            "country_id":85633337,
            "localadmin_id":404473849,
            "locality_id":101807155,
            "postalcode_id":907023219,
            "region_id":85687045
        }
    ],
    "wof:id":907023219,
    "wof:lastmodified":1469695422,
    "wof:name":"8106PP",
    "wof:parent_id":101807155,
    "wof:placetype":"postalcode",
    "wof:repo":"whosonfirst-data-postalcode-nl",
    "wof:superseded_by":[],
    "wof:supersedes":[],
    "wof:tags":[]
},
  "bbox": [
    6.326054096221924,
    52.38296890258789,
    6.329807281494141,
    52.383975982666016
],
  "geometry": {"coordinates":[[[6.32640743255615,52.38296890258789],[6.32605409622192,52.38362121582031],[6.32980728149414,52.38397598266602],[6.32926845550537,52.38351440429688],[6.32640743255615,52.38296890258789]]],"type":"Polygon"}
}