{
  "id": 891098239,
  "type": "Feature",
  "properties": {
    "clustr:alpha":0.05,
    "clustr:area":22.15,
    "clustr:count":14,
    "clustr:density":0.63,
    "clustr:perimeter":0.17,
    "edtf:cessation":"uuuu",
    "edtf:inception":"uuuu",
    "geom:area":0.0,
    "geom:bbox":"5.97415542603,51.3254051208,5.97537469864,51.3257255554",
    "geom:latitude":51.325556,
    "geom:longitude":5.974746,
    "iso:country":"NL",
    "mz:hierarchy_label":1,
    "mz:is_approximate":1,
    "mz:is_clustr":1,
    "src:geom":"oa",
    "wof:belongsto":[
        85687033,
        102191581,
        404474487,
        85633337,
        101839303
    ],
    "wof:breaches":[],
    "wof:country":"NL",
    "wof:created":1469687191,
    "wof:geomhash":"e0fa07577f266e96954176fea77951bb",
    "wof:hierarchy":[
        {
            "continent_id":102191581,
            "country_id":85633337,
            "localadmin_id":404474487,
            "locality_id":101839303,
            "postalcode_id":891098239,
            "region_id":85687033
        }
    ],
    "wof:id":891098239,
    "wof:lastmodified":1469687191,
    "wof:name":"5981VM",
    "wof:parent_id":101839303,
    "wof:placetype":"postalcode",
    "wof:repo":"whosonfirst-data-postalcode-nl",
    "wof:superseded_by":[],
    "wof:supersedes":[],
    "wof:tags":[]
},
  "bbox": [
    5.974155426025391,
    51.32540512084961,
    5.975374698638916,
    51.32572555541992
],
  "geometry": {"coordinates":[[[5.97454881668091,51.32566452026367],[5.97481536865234,51.32572555541992],[5.97537469863892,51.32551956176758],[5.97415542602539,51.32540512084961],[5.97422170639038,51.3254508972168],[5.97435569763184,51.32553863525391],[5.97454881668091,51.32566452026367]]],"type":"Polygon"}
}