{
  "id": 907072429,
  "type": "Feature",
  "properties": {
    "clustr:alpha":0.05,
    "clustr:area":29.26,
    "clustr:count":25,
    "clustr:density":0.85,
    "clustr:perimeter":0.56,
    "edtf:cessation":"uuuu",
    "edtf:inception":"uuuu",
    "geom:area":0.000001,
    "geom:bbox":"5.99781799316,53.2870979309,5.99895906448,53.2897567749",
    "geom:latitude":53.288494,
    "geom:longitude":5.998326,
    "iso:country":"NL",
    "mz:hierarchy_label":1,
    "mz:is_approximate":1,
    "mz:is_clustr":1,
    "src:geom":"oa",
    "wof:belongsto":[
        85687055,
        102191581,
        404474681,
        85633337,
        101806109
    ],
    "wof:breaches":[],
    "wof:country":"NL",
    "wof:created":1469697791,
    "wof:geomhash":"27e17e73968646bb48f4f3a7bbc770a3",
    "wof:hierarchy":[
        {
            "continent_id":102191581,
            "country_id":85633337,
            "localadmin_id":404474681,
            "locality_id":101806109,
            "postalcode_id":907072429,
            "region_id":85687055
        }
    ],
    "wof:id":907072429,
    "wof:lastmodified":1469697791,
    "wof:name":"9104BH",
    "wof:parent_id":101806109,
    "wof:placetype":"postalcode",
    "wof:repo":"whosonfirst-data-postalcode-nl",
    "wof:superseded_by":[],
    "wof:supersedes":[],
    "wof:tags":[]
},
  "bbox": [
    5.997817993164062,
    53.2870979309082,
    5.998959064483643,
    53.289756774902344
],
  "geometry": {"coordinates":[[[5.9988431930542,53.28764724731445],[5.99891328811646,53.2873649597168],[5.99895906448364,53.2870979309082],[5.9978404045105,53.28911972045898],[5.99781799316406,53.28975677490234],[5.99864816665649,53.28812408447266],[5.9988431930542,53.28764724731445]]],"type":"Polygon"}
}