{
  "id": 907023263,
  "type": "Feature",
  "properties": {
    "clustr:alpha":0.05,
    "clustr:area":492.82,
    "clustr:count":10,
    "clustr:density":0.02,
    "clustr:perimeter":2.2,
    "edtf:cessation":"uuuu",
    "edtf:inception":"uuuu",
    "geom:area":0.000032,
    "geom:bbox":"6.22064876556,52.3479614258,6.23501634598,52.354221344",
    "geom:latitude":52.350763,
    "geom:longitude":6.228748,
    "iso:country":"NL",
    "mz:hierarchy_label":1,
    "mz:is_approximate":1,
    "mz:is_clustr":1,
    "src:geom":"oa",
    "wof:belongsto":[
        102191581,
        404473849,
        85633337,
        85687045
    ],
    "wof:breaches":[],
    "wof:country":"NL",
    "wof:created":1469695424,
    "wof:geomhash":"9be61144760b15d15404c48aa7a44a5f",
    "wof:hierarchy":[
        {
            "continent_id":102191581,
            "country_id":85633337,
            "localadmin_id":404473849,
            "postalcode_id":907023263,
            "region_id":85687045
        }
    ],
    "wof:id":907023263,
    "wof:lastmodified":1469695424,
    "wof:name":"8107AR",
    "wof:parent_id":404473849,
    "wof:placetype":"postalcode",
    "wof:repo":"whosonfirst-data-postalcode-nl",
    "wof:superseded_by":[],
    "wof:supersedes":[],
    "wof:tags":[]
},
  "bbox": [
    6.220648765563965,
    52.34796142578125,
    6.235016345977783,
    52.35422134399414
],
  "geometry": {"coordinates":[[[6.22466039657593,52.34796142578125],[6.22064876556396,52.34846496582031],[6.23311614990234,52.35422134399414],[6.23501634597778,52.35148239135742],[6.22466039657593,52.34796142578125]]],"type":"Polygon"}
}