{
  "id": 890976117,
  "type": "Feature",
  "properties": {
    "clustr:alpha":0.05,
    "clustr:area":11.23,
    "clustr:count":41,
    "clustr:density":3.65,
    "clustr:perimeter":0.16,
    "edtf:cessation":"uuuu",
    "edtf:inception":"uuuu",
    "geom:area":0.0,
    "geom:bbox":"4.44025373459,51.5333251953,4.44143819809,51.5334625244",
    "geom:latitude":51.533398,
    "geom:longitude":4.440874,
    "iso:country":"NL",
    "mz:hierarchy_label":1,
    "mz:is_approximate":1,
    "mz:is_clustr":1,
    "src:geom":"oa",
    "wof:belongsto":[
        85687035,
        102191581,
        404474587,
        85633337,
        101751815
    ],
    "wof:breaches":[],
    "wof:country":"NL",
    "wof:created":1469682466,
    "wof:geomhash":"e0dd272d7c9779ecaa23e0a4d60a6105",
    "wof:hierarchy":[
        {
            "continent_id":102191581,
            "country_id":85633337,
            "localadmin_id":404474587,
            "locality_id":101751815,
            "postalcode_id":890976117,
            "region_id":85687035
        }
    ],
    "wof:id":890976117,
    "wof:lastmodified":1469682466,
    "wof:name":"4703EX",
    "wof:parent_id":101751815,
    "wof:placetype":"postalcode",
    "wof:repo":"whosonfirst-data-postalcode-nl",
    "wof:superseded_by":[],
    "wof:supersedes":[],
    "wof:tags":[]
},
  "bbox": [
    4.440253734588623,
    51.5333251953125,
    4.4414381980896,
    51.53346252441406
],
  "geometry": {"coordinates":[[[4.44052696228027,51.53335952758789],[4.44089126586914,51.53340148925781],[4.44125604629517,51.53344345092773],[4.4414381980896,51.53346252441406],[4.44134712219238,51.53345108032227],[4.44098234176636,51.53340911865234],[4.44061803817749,51.53336715698242],[4.44025373458862,51.5333251953125],[4.44034481048584,51.5333366394043],[4.44043588638306,51.53334808349609],[4.44052696228027,51.53335952758789]]],"type":"Polygon"}
}