{
  "id": 891243471,
  "type": "Feature",
  "properties": {
    "clustr:alpha":0.05,
    "clustr:area":6.09,
    "clustr:count":11,
    "clustr:density":1.81,
    "clustr:perimeter":0.12,
    "edtf:cessation":"uuuu",
    "edtf:inception":"uuuu",
    "geom:area":0.0,
    "geom:bbox":"6.77729845047,52.2624320984,6.77763843536,52.2629165649",
    "geom:latitude":52.262681,
    "geom:longitude":6.777475,
    "iso:country":"NL",
    "mz:hierarchy_label":1,
    "mz:is_approximate":1,
    "mz:is_clustr":1,
    "src:geom":"oa",
    "wof:belongsto":[
        85687045,
        102191581,
        404473837,
        85633337,
        101751869
    ],
    "wof:breaches":[],
    "wof:country":"NL",
    "wof:created":1469693148,
    "wof:geomhash":"a84f4e6c5174d2c3e7f0b2d79e4c0bd2",
    "wof:hierarchy":[
        {
            "continent_id":102191581,
            "country_id":85633337,
            "localadmin_id":404473837,
            "locality_id":101751869,
            "postalcode_id":891243471,
            "region_id":85687045
        }
    ],
    "wof:id":891243471,
    "wof:lastmodified":1469693148,
    "wof:name":"7555CJ",
    "wof:parent_id":101751869,
    "wof:placetype":"postalcode",
    "wof:repo":"whosonfirst-data-postalcode-nl",
    "wof:superseded_by":[],
    "wof:supersedes":[],
    "wof:tags":[]
},
  "bbox": [
    6.777298450469971,
    52.26243209838867,
    6.77763843536377,
    52.262916564941406
],
  "geometry": {"coordinates":[[[6.77734661102295,52.26290893554688],[6.7774338722229,52.26280975341797],[6.77748155593872,52.26274871826172],[6.77763843536377,52.26243209838867],[6.77759552001953,52.26243209838867],[6.77729845046997,52.26291656494141],[6.77734661102295,52.26290893554688]]],"type":"Polygon"}
}