{
  "id": 890581907,
  "type": "Feature",
  "properties": {
    "clustr:alpha":0.05,
    "clustr:area":11.62,
    "clustr:count":17,
    "clustr:density":1.46,
    "clustr:perimeter":0.09,
    "edtf:cessation":"uuuu",
    "edtf:inception":"uuuu",
    "geom:area":0.0,
    "geom:bbox":"4.9154176712,52.3913841248,4.91575527191,52.3918418884",
    "geom:latitude":52.391608,
    "geom:longitude":4.915588,
    "iso:country":"NL",
    "mz:hierarchy_label":1,
    "mz:is_approximate":1,
    "mz:is_clustr":1,
    "src:geom":"oa",
    "wof:belongsto":[
        85687053,
        102191581,
        404474029,
        85633337,
        101751893
    ],
    "wof:breaches":[],
    "wof:country":"NL",
    "wof:created":1469665950,
    "wof:geomhash":"4c99477aa5a800b3022e12a139752290",
    "wof:hierarchy":[
        {
            "continent_id":102191581,
            "country_id":85633337,
            "localadmin_id":404474029,
            "locality_id":101751893,
            "postalcode_id":890581907,
            "region_id":85687053
        }
    ],
    "wof:id":890581907,
    "wof:lastmodified":1469665950,
    "wof:name":"1032EN",
    "wof:parent_id":101751893,
    "wof:placetype":"postalcode",
    "wof:repo":"whosonfirst-data-postalcode-nl",
    "wof:superseded_by":[],
    "wof:supersedes":[],
    "wof:tags":[]
},
  "bbox": [
    4.915417671203613,
    52.39138412475586,
    4.915755271911621,
    52.391841888427734
],
  "geometry": {"coordinates":[[[4.91575527191162,52.39160919189453],[4.91566801071167,52.39152908325195],[4.91556596755981,52.39143753051758],[4.91549348831177,52.39138412475586],[4.91541767120361,52.39159774780273],[4.91567945480347,52.39184188842773],[4.91575527191162,52.39160919189453]]],"type":"Polygon"}
}