{
  "id": 907094255,
  "type": "Feature",
  "properties": {
    "clustr:alpha":0.05,
    "clustr:area":6.1,
    "clustr:count":25,
    "clustr:density":4.1,
    "clustr:perimeter":0.32,
    "edtf:cessation":"uuuu",
    "edtf:inception":"uuuu",
    "geom:area":0.0,
    "geom:bbox":"6.95416259766,52.9863586426,6.95605707169,52.987197876",
    "geom:latitude":52.986893,
    "geom:longitude":6.955277,
    "iso:country":"NL",
    "mz:hierarchy_label":1,
    "mz:is_approximate":1,
    "mz:is_clustr":1,
    "src:geom":"oa",
    "wof:belongsto":[
        85687059,
        102191581,
        404473731,
        85633337,
        101837895
    ],
    "wof:breaches":[],
    "wof:country":"NL",
    "wof:created":1469699039,
    "wof:geomhash":"256b68d1035a72f1857617836fc0f4a2",
    "wof:hierarchy":[
        {
            "continent_id":102191581,
            "country_id":85633337,
            "localadmin_id":404473731,
            "locality_id":101837895,
            "postalcode_id":907094255,
            "region_id":85687059
        }
    ],
    "wof:id":907094255,
    "wof:lastmodified":1469699039,
    "wof:name":"9501CV",
    "wof:parent_id":101837895,
    "wof:placetype":"postalcode",
    "wof:repo":"whosonfirst-data-postalcode-nl",
    "wof:superseded_by":[],
    "wof:supersedes":[],
    "wof:tags":[]
},
  "bbox": [
    6.95416259765625,
    52.986358642578125,
    6.956057071685791,
    52.98719787597656
],
  "geometry": {"coordinates":[[[6.95605707168579,52.98711776733398],[6.95416259765625,52.98635864257812],[6.95560121536255,52.98719787597656],[6.95600891113281,52.98713302612305],[6.95605707168579,52.98711776733398]]],"type":"Polygon"}
}