{
  "id": 890832093,
  "type": "Feature",
  "properties": {
    "clustr:alpha":0.05,
    "clustr:area":9.71,
    "clustr:count":5,
    "clustr:density":0.51,
    "clustr:perimeter":0.03,
    "edtf:cessation":"uuuu",
    "edtf:inception":"uuuu",
    "geom:area":0.0,
    "geom:bbox":"4.38787412643,51.9149017334,4.38814353943,51.9149513245",
    "geom:latitude":51.914926,
    "geom:longitude":4.388009,
    "iso:country":"NL",
    "mz:hierarchy_label":1,
    "mz:is_approximate":1,
    "mz:is_clustr":1,
    "src:geom":"oa",
    "wof:belongsto":[
        85687041,
        102191581,
        404474253,
        85633337,
        101751845
    ],
    "wof:breaches":[],
    "wof:country":"NL",
    "wof:created":1469676459,
    "wof:geomhash":"a7841c3670af37dc342703c8e64f2540",
    "wof:hierarchy":[
        {
            "continent_id":102191581,
            "country_id":85633337,
            "localadmin_id":404474253,
            "locality_id":101751845,
            "postalcode_id":890832093,
            "region_id":85687041
        }
    ],
    "wof:id":890832093,
    "wof:lastmodified":1469676459,
    "wof:name":"3117SL",
    "wof:parent_id":101751845,
    "wof:placetype":"postalcode",
    "wof:repo":"whosonfirst-data-postalcode-nl",
    "wof:superseded_by":[],
    "wof:supersedes":[],
    "wof:tags":[]
},
  "bbox": [
    4.387874126434326,
    51.91490173339844,
    4.388143539428711,
    51.91495132446289
],
  "geometry": {"coordinates":[[[4.38787412643433,51.91490173339844],[4.38795471191406,51.9149169921875],[4.38814353942871,51.91495132446289],[4.38802671432495,51.9149284362793],[4.38787412643433,51.91490173339844]]],"type":"Polygon"}
}