{
  "id": 891083123,
  "type": "Feature",
  "properties": {
    "clustr:alpha":0.05,
    "clustr:area":6.0,
    "clustr:count":21,
    "clustr:density":3.5,
    "clustr:perimeter":0.24,
    "edtf:cessation":"uuuu",
    "edtf:inception":"uuuu",
    "geom:area":0.0,
    "geom:bbox":"5.61910247803,51.5426483154,5.62022256851,51.5435028076",
    "geom:latitude":51.543045,
    "geom:longitude":5.619786,
    "iso:country":"NL",
    "mz:hierarchy_label":1,
    "mz:is_approximate":1,
    "mz:is_clustr":1,
    "src:geom":"oa",
    "wof:belongsto":[
        85687035,
        102191581,
        404474569,
        85633337,
        101808161
    ],
    "wof:breaches":[],
    "wof:country":"NL",
    "wof:created":1469686609,
    "wof:geomhash":"4fc5b8eb5dc559151100c1b6869b8f23",
    "wof:hierarchy":[
        {
            "continent_id":102191581,
            "country_id":85633337,
            "localadmin_id":404474569,
            "locality_id":101808161,
            "postalcode_id":891083123,
            "region_id":85687035
        }
    ],
    "wof:id":891083123,
    "wof:lastmodified":1469686609,
    "wof:name":"5741DA",
    "wof:parent_id":101808161,
    "wof:placetype":"postalcode",
    "wof:repo":"whosonfirst-data-postalcode-nl",
    "wof:superseded_by":[],
    "wof:supersedes":[],
    "wof:tags":[]
},
  "bbox": [
    5.619102478027344,
    51.54264831542969,
    5.620222568511963,
    51.54350280761719
],
  "geometry": {"coordinates":[[[5.62021923065185,51.54273223876953],[5.62022256851196,51.54264831542969],[5.61910247802734,51.54350280761719],[5.61937570571899,51.54337692260742],[5.61950492858887,51.54329681396484],[5.62009382247925,51.54291534423828],[5.62013721466065,51.54287338256836],[5.62016582489014,51.54284286499023],[5.62018013000488,51.54282760620117],[5.62021923065185,51.54273223876953]]],"type":"Polygon"}
}