{
  "id": 891107495,
  "type": "Feature",
  "properties": {
    "clustr:alpha":0.05,
    "clustr:area":4.62,
    "clustr:count":12,
    "clustr:density":2.6,
    "clustr:perimeter":0.35,
    "edtf:cessation":"uuuu",
    "edtf:inception":"uuuu",
    "geom:area":0.0,
    "geom:bbox":"6.03882074356,51.1207733154,6.0400800705,51.1221466064",
    "geom:latitude":51.121554,
    "geom:longitude":6.039317,
    "iso:country":"NL",
    "mz:hierarchy_label":1,
    "mz:is_approximate":1,
    "mz:is_clustr":1,
    "src:geom":"oa",
    "wof:belongsto":[
        85687033,
        102191581,
        404474581,
        85633337,
        101809605
    ],
    "wof:breaches":[],
    "wof:country":"NL",
    "wof:created":1469687566,
    "wof:geomhash":"66703ad8646e2a8e7272a6157b9e3a24",
    "wof:hierarchy":[
        {
            "continent_id":102191581,
            "country_id":85633337,
            "localadmin_id":404474581,
            "locality_id":101809605,
            "postalcode_id":891107495,
            "region_id":85687033
        }
    ],
    "wof:id":891107495,
    "wof:lastmodified":1469687566,
    "wof:name":"6061BD",
    "wof:parent_id":101809605,
    "wof:placetype":"postalcode",
    "wof:repo":"whosonfirst-data-postalcode-nl",
    "wof:superseded_by":[],
    "wof:supersedes":[],
    "wof:tags":[]
},
  "bbox": [
    6.038820743560791,
    51.12077331542969,
    6.040080070495605,
    51.12214660644531
],
  "geometry": {"coordinates":[[[6.03884887695312,51.1217041015625],[6.03882074356079,51.12177658081055],[6.03906679153442,51.12214660644531],[6.0400800704956,51.12077331542969],[6.03884887695312,51.1217041015625]]],"type":"Polygon"}
}