{
  "id": 891025301,
  "type": "Feature",
  "properties": {
    "clustr:alpha":0.05,
    "clustr:area":14.44,
    "clustr:count":18,
    "clustr:density":1.25,
    "clustr:perimeter":0.34,
    "edtf:cessation":"uuuu",
    "edtf:inception":"uuuu",
    "geom:area":0.0,
    "geom:bbox":"5.35874223709,51.7228240967,5.36065816879,51.7238044739",
    "geom:latitude":51.723353,
    "geom:longitude":5.359689,
    "iso:country":"NL",
    "mz:hierarchy_label":1,
    "mz:is_approximate":1,
    "mz:is_clustr":1,
    "src:geom":"oa",
    "wof:belongsto":[
        85687035,
        102191581,
        404474393,
        85633337,
        101754587
    ],
    "wof:breaches":[],
    "wof:country":"NL",
    "wof:created":1469684441,
    "wof:geomhash":"12087adc5513971788d01a678a0fe8fc",
    "wof:hierarchy":[
        {
            "continent_id":102191581,
            "country_id":85633337,
            "localadmin_id":404474393,
            "locality_id":101754587,
            "postalcode_id":891025301,
            "region_id":85687035
        }
    ],
    "wof:id":891025301,
    "wof:lastmodified":1469684441,
    "wof:name":"5241KP",
    "wof:parent_id":101754587,
    "wof:placetype":"postalcode",
    "wof:repo":"whosonfirst-data-postalcode-nl",
    "wof:superseded_by":[],
    "wof:supersedes":[],
    "wof:tags":[]
},
  "bbox": [
    5.358742237091064,
    51.72282409667969,
    5.360658168792725,
    51.72380447387695
],
  "geometry": {"coordinates":[[[5.35904359817505,51.72373962402344],[5.35915422439575,51.72368621826172],[5.36029577255249,51.72308349609375],[5.36043787002563,51.72300720214844],[5.36050319671631,51.72296524047852],[5.36060810089111,51.72288131713867],[5.36065816879272,51.72282409667969],[5.35956430435181,51.72336196899414],[5.35874223709106,51.72380447387695],[5.35904359817505,51.72373962402344]]],"type":"Polygon"}
}