{
  "id": 890732811,
  "type": "Feature",
  "properties": {
    "clustr:alpha":0.05,
    "clustr:area":24.76,
    "clustr:count":20,
    "clustr:density":0.81,
    "clustr:perimeter":0.1,
    "edtf:cessation":"uuuu",
    "edtf:inception":"uuuu",
    "geom:area":0.0,
    "geom:bbox":"4.4795999527,52.1586074829,4.47985887527,52.1592979431",
    "geom:latitude":52.158941,
    "geom:longitude":4.479728,
    "iso:country":"NL",
    "mz:hierarchy_label":1,
    "mz:is_approximate":1,
    "mz:is_clustr":1,
    "src:geom":"oa",
    "wof:belongsto":[
        85687041,
        102191581,
        404474199,
        85633337,
        101751833
    ],
    "wof:breaches":[],
    "wof:country":"NL",
    "wof:created":1469672676,
    "wof:geomhash":"c72e76ba96612a3ad26b5a388ff47e25",
    "wof:hierarchy":[
        {
            "continent_id":102191581,
            "country_id":85633337,
            "localadmin_id":404474199,
            "locality_id":101751833,
            "postalcode_id":890732811,
            "region_id":85687041
        }
    ],
    "wof:id":890732811,
    "wof:lastmodified":1469672676,
    "wof:name":"2311AJ",
    "wof:parent_id":101751833,
    "wof:placetype":"postalcode",
    "wof:repo":"whosonfirst-data-postalcode-nl",
    "wof:superseded_by":[],
    "wof:supersedes":[],
    "wof:tags":[]
},
  "bbox": [
    4.479599952697754,
    52.158607482910156,
    4.479858875274658,
    52.159297943115234
],
  "geometry": {"coordinates":[[[4.47975730895996,52.15876007080078],[4.47959995269775,52.15929794311523],[4.479651927948,52.15924072265625],[4.47970771789551,52.15907287597656],[4.47982263565063,52.15872192382812],[4.47985887527466,52.15860748291016],[4.4797739982605,52.15871047973633],[4.47975730895996,52.15876007080078]]],"type":"Polygon"}
}