{
  "id": 890781261,
  "type": "Feature",
  "properties": {
    "clustr:alpha":0.05,
    "clustr:area":66.85,
    "clustr:count":10,
    "clustr:density":0.15,
    "clustr:perimeter":0.06,
    "edtf:cessation":"uuuu",
    "edtf:inception":"uuuu",
    "geom:area":0.0,
    "geom:bbox":"4.4719953537,51.9953765869,4.47252416611,51.9956970215",
    "geom:latitude":51.995518,
    "geom:longitude":4.472289,
    "iso:country":"NL",
    "mz:hierarchy_label":1,
    "mz:is_approximate":1,
    "mz:is_clustr":1,
    "src:geom":"oa",
    "wof:belongsto":[
        102191581,
        404474555,
        85633337,
        85687041
    ],
    "wof:breaches":[],
    "wof:country":"NL",
    "wof:created":1469674529,
    "wof:geomhash":"789ba5e090daab29c0dee49b8509c0d8",
    "wof:hierarchy":[
        {
            "continent_id":102191581,
            "country_id":85633337,
            "localadmin_id":404474555,
            "postalcode_id":890781261,
            "region_id":85687041
        }
    ],
    "wof:id":890781261,
    "wof:lastmodified":1469674529,
    "wof:name":"2652EB",
    "wof:parent_id":404474555,
    "wof:placetype":"postalcode",
    "wof:repo":"whosonfirst-data-postalcode-nl",
    "wof:superseded_by":[],
    "wof:supersedes":[],
    "wof:tags":[]
},
  "bbox": [
    4.47199535369873,
    51.99537658691406,
    4.472524166107178,
    51.995697021484375
],
  "geometry": {"coordinates":[[[4.47252416610718,51.99547958374023],[4.47235155105591,51.99537658691406],[4.47212886810303,51.99557495117188],[4.4720401763916,51.99565505981445],[4.47199535369873,51.99569702148438],[4.47252416610718,51.99547958374023]]],"type":"Polygon"}
}