{
  "id": 890656779,
  "type": "Feature",
  "properties": {
    "clustr:alpha":0.05,
    "clustr:area":10.76,
    "clustr:count":21,
    "clustr:density":1.95,
    "clustr:perimeter":0.25,
    "edtf:cessation":"uuuu",
    "edtf:inception":"uuuu",
    "geom:area":0.0,
    "geom:bbox":"4.75936603546,52.4954109192,4.76121091843,52.495716095",
    "geom:latitude":52.495574,
    "geom:longitude":4.760227,
    "iso:country":"NL",
    "mz:hierarchy_label":1,
    "mz:is_approximate":1,
    "mz:is_clustr":1,
    "src:geom":"oa",
    "wof:belongsto":[
        85687053,
        102191581,
        404474143,
        85633337,
        101754827
    ],
    "wof:breaches":[],
    "wof:country":"NL",
    "wof:created":1469669327,
    "wof:geomhash":"4d327f14e6dc03c7af4f4d3fad55e155",
    "wof:hierarchy":[
        {
            "continent_id":102191581,
            "country_id":85633337,
            "localadmin_id":404474143,
            "locality_id":101754827,
            "postalcode_id":890656779,
            "region_id":85687053
        }
    ],
    "wof:id":890656779,
    "wof:lastmodified":1469669327,
    "wof:name":"1561KJ",
    "wof:parent_id":101754827,
    "wof:placetype":"postalcode",
    "wof:repo":"whosonfirst-data-postalcode-nl",
    "wof:superseded_by":[],
    "wof:supersedes":[],
    "wof:tags":[]
},
  "bbox": [
    4.759366035461426,
    52.49541091918945,
    4.761210918426514,
    52.4957160949707
],
  "geometry": {"coordinates":[[[4.75945472717285,52.49570846557617],[4.7600154876709,52.49561309814453],[4.76085662841797,52.4954719543457],[4.76121091842651,52.49541091918945],[4.76113748550415,52.49541854858398],[4.7598237991333,52.49563598632812],[4.75936603546143,52.4957160949707],[4.75945472717285,52.49570846557617]]],"type":"Polygon"}
}