{
  "id": 890649361,
  "type": "Feature",
  "properties": {
    "clustr:alpha":0.05,
    "clustr:area":111.03,
    "clustr:count":29,
    "clustr:density":0.26,
    "clustr:perimeter":1.63,
    "edtf:cessation":"uuuu",
    "edtf:inception":"uuuu",
    "geom:area":0.000002,
    "geom:bbox":"4.94269180298,52.5211219788,4.95433616638,52.5238075256",
    "geom:latitude":52.522791,
    "geom:longitude":4.947186,
    "iso:country":"NL",
    "mz:hierarchy_label":1,
    "mz:is_approximate":1,
    "mz:is_clustr":1,
    "src:geom":"oa",
    "wof:belongsto":[
        85687053,
        102191581,
        404474039,
        85633337,
        101754841
    ],
    "wof:breaches":[],
    "wof:country":"NL",
    "wof:created":1469668956,
    "wof:geomhash":"0424dbf637319adfcade2e43b79a9898",
    "wof:hierarchy":[
        {
            "continent_id":102191581,
            "country_id":85633337,
            "localadmin_id":404474039,
            "locality_id":101754841,
            "postalcode_id":890649361,
            "region_id":85687053
        }
    ],
    "wof:id":890649361,
    "wof:lastmodified":1469668956,
    "wof:name":"1461CB",
    "wof:parent_id":101754841,
    "wof:placetype":"postalcode",
    "wof:repo":"whosonfirst-data-postalcode-nl",
    "wof:superseded_by":[],
    "wof:supersedes":[],
    "wof:tags":[]
},
  "bbox": [
    4.942691802978516,
    52.521121978759766,
    4.954336166381836,
    52.523807525634766
],
  "geometry": {"coordinates":[[[4.94361448287964,52.52380752563477],[4.95279932022095,52.52152633666992],[4.95433616638184,52.52112197875977],[4.94889307022095,52.52228164672852],[4.94665670394897,52.52275848388672],[4.94644165039062,52.52280807495117],[4.94416618347168,52.52333831787109],[4.942786693573,52.52374649047852],[4.94269180297852,52.52379989624023],[4.94361448287964,52.52380752563477]]],"type":"Polygon"}
}