{
  "id": 891188255,
  "type": "Feature",
  "properties": {
    "clustr:alpha":0.05,
    "clustr:area":11.8,
    "clustr:count":35,
    "clustr:density":2.97,
    "clustr:perimeter":0.38,
    "edtf:cessation":"uuuu",
    "edtf:inception":"uuuu",
    "geom:area":0.000001,
    "geom:bbox":"6.09960651398,52.0476760864,6.10049724579,52.0492134094",
    "geom:latitude":52.048512,
    "geom:longitude":6.100101,
    "iso:country":"NL",
    "mz:hierarchy_label":1,
    "mz:is_approximate":1,
    "mz:is_clustr":1,
    "src:geom":"oa",
    "wof:belongsto":[
        85687043,
        102191581,
        404473933,
        85633337,
        101837757
    ],
    "wof:breaches":[],
    "wof:country":"NL",
    "wof:created":1469690939,
    "wof:geomhash":"46558bb4a9d072668e74175185223234",
    "wof:hierarchy":[
        {
            "continent_id":102191581,
            "country_id":85633337,
            "localadmin_id":404473933,
            "locality_id":101837757,
            "postalcode_id":891188255,
            "region_id":85687043
        }
    ],
    "wof:id":891188255,
    "wof:lastmodified":1469690939,
    "wof:name":"6951BB",
    "wof:parent_id":101837757,
    "wof:placetype":"postalcode",
    "wof:repo":"whosonfirst-data-postalcode-nl",
    "wof:superseded_by":[],
    "wof:supersedes":[],
    "wof:tags":[]
},
  "bbox": [
    6.099606513977051,
    52.04767608642578,
    6.100497245788574,
    52.04921340942383
],
  "geometry": {"coordinates":[[[6.10038614273071,52.04816055297852],[6.10036516189575,52.04813766479492],[6.09960651397705,52.04767608642578],[6.09991121292114,52.04912185668945],[6.10047817230225,52.04921340942383],[6.10049724578857,52.04828643798828],[6.10038614273071,52.04816055297852]]],"type":"Polygon"}
}