{
  "id": 891211261,
  "type": "Feature",
  "properties": {
    "clustr:alpha":0.05,
    "clustr:area":65.65,
    "clustr:count":15,
    "clustr:density":0.23,
    "clustr:perimeter":0.22,
    "edtf:cessation":"uuuu",
    "edtf:inception":"uuuu",
    "geom:area":0.0,
    "geom:bbox":"6.31002807617,52.0484848022,6.31163406372,52.0489196777",
    "geom:latitude":52.048689,
    "geom:longitude":6.310855,
    "iso:country":"NL",
    "mz:hierarchy_label":1,
    "mz:is_approximate":1,
    "mz:is_clustr":1,
    "src:geom":"oa",
    "wof:belongsto":[
        85687043,
        102191581,
        404474673,
        85633337,
        101808643
    ],
    "wof:breaches":[],
    "wof:country":"NL",
    "wof:created":1469691880,
    "wof:geomhash":"b2164f106def8a1c574fe77df3c9147d",
    "wof:hierarchy":[
        {
            "continent_id":102191581,
            "country_id":85633337,
            "localadmin_id":404474673,
            "locality_id":101808643,
            "postalcode_id":891211261,
            "region_id":85687043
        }
    ],
    "wof:id":891211261,
    "wof:lastmodified":1469691880,
    "wof:name":"7255XB",
    "wof:parent_id":101808643,
    "wof:placetype":"postalcode",
    "wof:repo":"whosonfirst-data-postalcode-nl",
    "wof:superseded_by":[],
    "wof:supersedes":[],
    "wof:tags":[]
},
  "bbox": [
    6.310028076171875,
    52.048484802246094,
    6.311634063720703,
    52.048919677734375
],
  "geometry": {"coordinates":[[[6.31104946136475,52.04886245727539],[6.31129598617554,52.04882431030273],[6.3116340637207,52.04848480224609],[6.31118726730347,52.04850006103516],[6.31061887741089,52.04854965209961],[6.31002807617188,52.04863357543945],[6.31051778793335,52.04891967773438],[6.31104946136475,52.04886245727539]]],"type":"Polygon"}
}