{
  "id": 890811419,
  "type": "Feature",
  "properties": {
    "clustr:alpha":0.05,
    "clustr:area":8.44,
    "clustr:count":33,
    "clustr:density":3.91,
    "clustr:perimeter":0.17,
    "edtf:cessation":"uuuu",
    "edtf:inception":"uuuu",
    "geom:area":0.0,
    "geom:bbox":"4.50229787827,51.8607826233,4.50273799896,51.8616790771",
    "geom:latitude":51.861206,
    "geom:longitude":4.502518,
    "iso:country":"NL",
    "mz:hierarchy_label":1,
    "mz:is_approximate":1,
    "mz:is_clustr":1,
    "src:geom":"oa",
    "wof:belongsto":[
        85687041,
        102191581,
        404474149,
        85633337,
        101754615
    ],
    "wof:breaches":[],
    "wof:country":"NL",
    "wof:created":1469675646,
    "wof:geomhash":"8b6975ff562b2af38c1e4f0204c4ba5f",
    "wof:hierarchy":[
        {
            "continent_id":102191581,
            "country_id":85633337,
            "localadmin_id":404474149,
            "locality_id":101754615,
            "postalcode_id":890811419,
            "region_id":85687041
        }
    ],
    "wof:id":890811419,
    "wof:lastmodified":1469675646,
    "wof:name":"2994EA",
    "wof:parent_id":101754615,
    "wof:placetype":"postalcode",
    "wof:repo":"whosonfirst-data-postalcode-nl",
    "wof:superseded_by":[],
    "wof:supersedes":[],
    "wof:tags":[]
},
  "bbox": [
    4.502297878265381,
    51.860782623291016,
    4.502737998962402,
    51.86167907714844
],
  "geometry": {"coordinates":[[[4.50264120101929,51.86135482788086],[4.50262641906738,51.86132049560547],[4.50251626968384,51.86107635498047],[4.50229787826538,51.86078262329102],[4.50241422653198,51.86112213134766],[4.5027379989624,51.86167907714844],[4.50264120101929,51.86135482788086]]],"type":"Polygon"}
}