{
  "id": 890935741,
  "type": "Feature",
  "properties": {
    "clustr:alpha":0.05,
    "clustr:area":13.2,
    "clustr:count":35,
    "clustr:density":2.65,
    "clustr:perimeter":0.35,
    "edtf:cessation":"uuuu",
    "edtf:inception":"uuuu",
    "geom:area":0.0,
    "geom:bbox":"5.09188842773,51.9830932617,5.09396886826,51.984046936",
    "geom:latitude":51.983585,
    "geom:longitude":5.093019,
    "iso:country":"NL",
    "mz:hierarchy_label":1,
    "mz:is_approximate":1,
    "mz:is_clustr":1,
    "src:geom":"oa",
    "wof:belongsto":[
        85687039,
        102191581,
        404474271,
        85633337,
        101754607
    ],
    "wof:breaches":[],
    "wof:country":"NL",
    "wof:created":1469680660,
    "wof:geomhash":"5d0435efa0f70e2865de7d92a2904792",
    "wof:hierarchy":[
        {
            "continent_id":102191581,
            "country_id":85633337,
            "localadmin_id":404474271,
            "locality_id":101754607,
            "postalcode_id":890935741,
            "region_id":85687039
        }
    ],
    "wof:id":890935741,
    "wof:lastmodified":1469680660,
    "wof:name":"4132GG",
    "wof:parent_id":101754607,
    "wof:placetype":"postalcode",
    "wof:repo":"whosonfirst-data-postalcode-nl",
    "wof:superseded_by":[],
    "wof:supersedes":[],
    "wof:tags":[]
},
  "bbox": [
    5.091888427734375,
    51.98309326171875,
    5.093968868255615,
    51.984046936035156
],
  "geometry": {"coordinates":[[[5.0930323600769,51.98369979858398],[5.09341335296631,51.98351669311523],[5.09396886825562,51.98309326171875],[5.09326124191284,51.98337554931641],[5.09188842773438,51.98404693603516],[5.09292936325073,51.98374938964844],[5.0930323600769,51.98369979858398]]],"type":"Polygon"}
}