{
  "id": 890663689,
  "type": "Feature",
  "properties": {
    "clustr:alpha":0.05,
    "clustr:area":94.44,
    "clustr:count":18,
    "clustr:density":0.19,
    "clustr:perimeter":0.14,
    "edtf:cessation":"uuuu",
    "edtf:inception":"uuuu",
    "geom:area":0.0,
    "geom:bbox":"4.95319890976,52.6192131042,4.95449209213,52.6198043823",
    "geom:latitude":52.619514,
    "geom:longitude":4.953918,
    "iso:country":"NL",
    "mz:hierarchy_label":1,
    "mz:is_approximate":1,
    "mz:is_clustr":1,
    "src:geom":"oa",
    "wof:belongsto":[
        85687053,
        102191581,
        404474551,
        85633337,
        101837897
    ],
    "wof:breaches":[],
    "wof:country":"NL",
    "wof:created":1469669619,
    "wof:geomhash":"670c48c9d8a9e72542eb9a7d33dcb1f3",
    "wof:hierarchy":[
        {
            "continent_id":102191581,
            "country_id":85633337,
            "localadmin_id":404474551,
            "locality_id":101837897,
            "postalcode_id":890663689,
            "region_id":85687053
        }
    ],
    "wof:id":890663689,
    "wof:lastmodified":1469669619,
    "wof:name":"1633HV",
    "wof:parent_id":101837897,
    "wof:placetype":"postalcode",
    "wof:repo":"whosonfirst-data-postalcode-nl",
    "wof:superseded_by":[],
    "wof:supersedes":[],
    "wof:tags":[]
},
  "bbox": [
    4.953198909759521,
    52.61921310424805,
    4.954492092132568,
    52.61980438232422
],
  "geometry": {"coordinates":[[[4.95404005050659,52.61980438232422],[4.95433187484741,52.6196403503418],[4.95449209213257,52.61951446533203],[4.95319890975952,52.61921310424805],[4.95404005050659,52.61980438232422]]],"type":"Polygon"}
}