{
  "id": 890660113,
  "type": "Feature",
  "properties": {
    "clustr:alpha":0.05,
    "clustr:area":155.56,
    "clustr:count":18,
    "clustr:density":0.12,
    "clustr:perimeter":0.12,
    "edtf:cessation":"uuuu",
    "edtf:inception":"uuuu",
    "geom:area":0.0,
    "geom:bbox":"5.23104333878,52.6879920959,5.23256587982,52.6881713867",
    "geom:latitude":52.688079,
    "geom:longitude":5.231888,
    "iso:country":"NL",
    "mz:hierarchy_label":1,
    "mz:is_approximate":1,
    "mz:is_clustr":1,
    "src:geom":"oa",
    "wof:belongsto":[
        85687053,
        102191581,
        404474187,
        85633337,
        101837923
    ],
    "wof:breaches":[],
    "wof:country":"NL",
    "wof:created":1469669476,
    "wof:geomhash":"692f6b7f79f6e3ff3be6ac45c17972ca",
    "wof:hierarchy":[
        {
            "continent_id":102191581,
            "country_id":85633337,
            "localadmin_id":404474187,
            "locality_id":101837923,
            "postalcode_id":890660113,
            "region_id":85687053
        }
    ],
    "wof:id":890660113,
    "wof:lastmodified":1469669476,
    "wof:name":"1613CN",
    "wof:parent_id":101837923,
    "wof:placetype":"postalcode",
    "wof:repo":"whosonfirst-data-postalcode-nl",
    "wof:superseded_by":[],
    "wof:supersedes":[],
    "wof:tags":[]
},
  "bbox": [
    5.231043338775635,
    52.687992095947266,
    5.232565879821777,
    52.68817138671875
],
  "geometry": {"coordinates":[[[5.23235893249512,52.68817138671875],[5.23250675201416,52.68817138671875],[5.23256587982178,52.68817138671875],[5.23222589492798,52.68807983398438],[5.23138332366943,52.6879997253418],[5.23129463195801,52.68799209594727],[5.23113203048706,52.68799209594727],[5.23104333877563,52.68799209594727],[5.23235893249512,52.68817138671875]]],"type":"Polygon"}
}