{
  "id": 890928323,
  "type": "Feature",
  "properties": {
    "clustr:alpha":0.05,
    "clustr:area":43.5,
    "clustr:count":16,
    "clustr:density":0.37,
    "clustr:perimeter":0.18,
    "edtf:cessation":"uuuu",
    "edtf:inception":"uuuu",
    "geom:area":0.0,
    "geom:bbox":"5.17539548874,52.0395622253,5.17688655853,52.0396690369",
    "geom:latitude":52.039619,
    "geom:longitude":5.1761,
    "iso:country":"NL",
    "mz:hierarchy_label":1,
    "mz:is_approximate":1,
    "mz:is_clustr":1,
    "src:geom":"oa",
    "wof:belongsto":[
        85687039,
        102191581,
        404473987,
        85633337,
        101807003
    ],
    "wof:breaches":[],
    "wof:country":"NL",
    "wof:created":1469680391,
    "wof:geomhash":"0fb9c979a1cfbbd5f7ab970eb0d07b38",
    "wof:hierarchy":[
        {
            "continent_id":102191581,
            "country_id":85633337,
            "localadmin_id":404473987,
            "locality_id":101807003,
            "postalcode_id":890928323,
            "region_id":85687039
        }
    ],
    "wof:id":890928323,
    "wof:lastmodified":1469680391,
    "wof:name":"3993GD",
    "wof:parent_id":101807003,
    "wof:placetype":"postalcode",
    "wof:repo":"whosonfirst-data-postalcode-nl",
    "wof:superseded_by":[],
    "wof:supersedes":[],
    "wof:tags":[]
},
  "bbox": [
    5.175395488739014,
    52.0395622253418,
    5.176886558532715,
    52.039669036865234
],
  "geometry": {"coordinates":[[[5.17575550079346,52.03966903686523],[5.17616558074951,52.03964996337891],[5.17681312561035,52.03958511352539],[5.17688655853271,52.0395622253418],[5.17548704147339,52.03961944580078],[5.17539548873901,52.03963088989258],[5.17575550079346,52.03966903686523]]],"type":"Polygon"}
}