{
  "id": 891173359,
  "type": "Feature",
  "properties": {
    "clustr:alpha":0.05,
    "clustr:area":7.17,
    "clustr:count":25,
    "clustr:density":3.49,
    "clustr:perimeter":0.14,
    "edtf:cessation":"uuuu",
    "edtf:inception":"uuuu",
    "geom:area":0.0,
    "geom:bbox":"5.91817331314,51.9917793274,5.91869831085,51.9923973083",
    "geom:latitude":51.992043,
    "geom:longitude":5.918413,
    "iso:country":"NL",
    "mz:hierarchy_label":1,
    "mz:is_approximate":1,
    "mz:is_clustr":1,
    "src:geom":"oa",
    "wof:belongsto":[
        85687043,
        102191581,
        404473871,
        85633337,
        101751857
    ],
    "wof:breaches":[],
    "wof:country":"NL",
    "wof:created":1469690335,
    "wof:geomhash":"e85bb3e2159f6a84b1d10c11d42d5c4e",
    "wof:hierarchy":[
        {
            "continent_id":102191581,
            "country_id":85633337,
            "localadmin_id":404473871,
            "locality_id":101751857,
            "postalcode_id":891173359,
            "region_id":85687043
        }
    ],
    "wof:id":891173359,
    "wof:lastmodified":1469690335,
    "wof:name":"6821LW",
    "wof:parent_id":101751857,
    "wof:placetype":"postalcode",
    "wof:repo":"whosonfirst-data-postalcode-nl",
    "wof:superseded_by":[],
    "wof:supersedes":[],
    "wof:tags":[]
},
  "bbox": [
    5.918173313140869,
    51.99177932739258,
    5.918698310852051,
    51.99239730834961
],
  "geometry": {"coordinates":[[[5.91851186752319,51.99212646484375],[5.91847276687622,51.9920768737793],[5.91843271255493,51.99202728271484],[5.91834545135498,51.99192810058594],[5.91825008392334,51.99182510375977],[5.91819858551025,51.99177932739258],[5.91817331314087,51.99179077148438],[5.91859197616577,51.99228286743164],[5.91869831085205,51.99239730834961],[5.91867017745972,51.99235534667969],[5.91861581802368,51.99227523803711],[5.91858148574829,51.99222564697266],[5.91851186752319,51.99212646484375]]],"type":"Polygon"}
}