{
  "id": 891072367,
  "type": "Feature",
  "properties": {
    "clustr:alpha":0.05,
    "clustr:area":21.06,
    "clustr:count":22,
    "clustr:density":1.04,
    "clustr:perimeter":0.43,
    "edtf:cessation":"uuuu",
    "edtf:inception":"uuuu",
    "geom:area":0.0,
    "geom:bbox":"5.54508876801,51.4652824402,5.54521036148,51.4677352905",
    "geom:latitude":51.466408,
    "geom:longitude":5.545143,
    "iso:country":"NL",
    "mz:hierarchy_label":1,
    "mz:is_approximate":1,
    "mz:is_clustr":1,
    "src:geom":"oa",
    "wof:belongsto":[
        85687035,
        102191581,
        404474405,
        85633337,
        101809739
    ],
    "wof:breaches":[],
    "wof:country":"NL",
    "wof:created":1469686192,
    "wof:geomhash":"82123d8d87699a10dddfce57c1cf5d4c",
    "wof:hierarchy":[
        {
            "continent_id":102191581,
            "country_id":85633337,
            "localadmin_id":404474405,
            "locality_id":101809739,
            "postalcode_id":891072367,
            "region_id":85687035
        }
    ],
    "wof:id":891072367,
    "wof:lastmodified":1469686192,
    "wof:name":"5672BJ",
    "wof:parent_id":101809739,
    "wof:placetype":"postalcode",
    "wof:repo":"whosonfirst-data-postalcode-nl",
    "wof:superseded_by":[],
    "wof:supersedes":[],
    "wof:tags":[]
},
  "bbox": [
    5.545088768005371,
    51.46528244018555,
    5.545210361480713,
    51.467735290527344
],
  "geometry": {"coordinates":[[[5.54511451721191,51.46669387817383],[5.54508876800537,51.46756362915039],[5.54508876800537,51.46762847900391],[5.54508924484253,51.46773529052734],[5.54521036148071,51.46528244018555],[5.54516839981079,51.46561431884766],[5.54511451721191,51.46669387817383]]],"type":"Polygon"}
}