{
  "id": 891104345,
  "type": "Feature",
  "properties": {
    "clustr:alpha":0.05,
    "clustr:area":127.07,
    "clustr:count":12,
    "clustr:density":0.09,
    "clustr:perimeter":0.12,
    "edtf:cessation":"uuuu",
    "edtf:inception":"uuuu",
    "geom:area":0.0,
    "geom:bbox":"5.78498888016,51.2998428345,5.78629589081,51.3001251221",
    "geom:latitude":51.299989,
    "geom:longitude":5.785666,
    "iso:country":"NL",
    "mz:hierarchy_label":1,
    "mz:is_approximate":1,
    "mz:is_clustr":1,
    "src:geom":"oa",
    "wof:belongsto":[
        85687033,
        102191581,
        404474507,
        85633337,
        101809589
    ],
    "wof:breaches":[],
    "wof:country":"NL",
    "wof:created":1469687453,
    "wof:geomhash":"e19da7465fd459184ba32a6aa798c191",
    "wof:hierarchy":[
        {
            "continent_id":102191581,
            "country_id":85633337,
            "localadmin_id":404474507,
            "locality_id":101809589,
            "postalcode_id":891104345,
            "region_id":85687033
        }
    ],
    "wof:id":891104345,
    "wof:lastmodified":1469687453,
    "wof:name":"6035BL",
    "wof:parent_id":101809589,
    "wof:placetype":"postalcode",
    "wof:repo":"whosonfirst-data-postalcode-nl",
    "wof:superseded_by":[],
    "wof:supersedes":[],
    "wof:tags":[]
},
  "bbox": [
    5.784988880157471,
    51.299842834472656,
    5.786295890808105,
    51.30012512207031
],
  "geometry": {"coordinates":[[[5.78603649139404,51.3000602722168],[5.78498888015747,51.29984283447266],[5.78525114059448,51.29990768432617],[5.78586053848267,51.3000373840332],[5.7862958908081,51.30012512207031],[5.78603649139404,51.3000602722168]]],"type":"Polygon"}
}