{
  "id": 890967101,
  "type": "Feature",
  "properties": {
    "clustr:alpha":0.05,
    "clustr:area":3.18,
    "clustr:count":10,
    "clustr:density":3.14,
    "clustr:perimeter":0.17,
    "edtf:cessation":"uuuu",
    "edtf:inception":"uuuu",
    "geom:area":0.0,
    "geom:bbox":"3.90429067612,51.2725372314,3.90496778488,51.2731018066",
    "geom:latitude":51.272866,
    "geom:longitude":3.90465,
    "iso:country":"NL",
    "mz:hierarchy_label":1,
    "mz:is_approximate":1,
    "mz:is_clustr":1,
    "src:geom":"oa",
    "wof:belongsto":[
        85687037,
        102191581,
        404474329,
        85633337,
        101809797
    ],
    "wof:breaches":[],
    "wof:country":"NL",
    "wof:created":1469682033,
    "wof:geomhash":"7b3f43760ea2ca898cc812e23c1de005",
    "wof:hierarchy":[
        {
            "continent_id":102191581,
            "country_id":85633337,
            "localadmin_id":404474329,
            "locality_id":101809797,
            "postalcode_id":890967101,
            "region_id":85687037
        }
    ],
    "wof:id":890967101,
    "wof:lastmodified":1469682033,
    "wof:name":"4571MD",
    "wof:parent_id":101809797,
    "wof:placetype":"postalcode",
    "wof:repo":"whosonfirst-data-postalcode-nl",
    "wof:superseded_by":[],
    "wof:supersedes":[],
    "wof:tags":[]
},
  "bbox": [
    3.904290676116943,
    51.27253723144531,
    3.904967784881592,
    51.273101806640625
],
  "geometry": {"coordinates":[[[3.90432095527649,51.27259826660156],[3.90459728240967,51.27307510375977],[3.90496778488159,51.27310180664062],[3.90491247177124,51.27296447753906],[3.90483617782593,51.27279663085938],[3.90429067611694,51.27253723144531],[3.90432095527649,51.27259826660156]]],"type":"Polygon"}
}