{
  "id": 907123855,
  "type": "Feature",
  "properties": {
    "clustr:alpha":0.05,
    "clustr:area":11.93,
    "clustr:count":15,
    "clustr:density":1.26,
    "clustr:perimeter":0.33,
    "edtf:cessation":"uuuu",
    "edtf:inception":"uuuu",
    "geom:area":0.0,
    "geom:bbox":"6.73767137527,53.3329620361,6.74008893967,53.3334541321",
    "geom:latitude":53.333205,
    "geom:longitude":6.738855,
    "iso:country":"NL",
    "mz:hierarchy_label":1,
    "mz:is_approximate":1,
    "mz:is_clustr":1,
    "src:geom":"oa",
    "wof:belongsto":[
        85687059,
        102191581,
        404473723,
        85633337,
        101806201
    ],
    "wof:breaches":[],
    "wof:country":"NL",
    "wof:created":1469700512,
    "wof:geomhash":"ddb0e1410e64b6726b1be90f0925fcb3",
    "wof:hierarchy":[
        {
            "continent_id":102191581,
            "country_id":85633337,
            "localadmin_id":404473723,
            "locality_id":101806201,
            "postalcode_id":907123855,
            "region_id":85687059
        }
    ],
    "wof:id":907123855,
    "wof:lastmodified":1469700512,
    "wof:name":"9919JB",
    "wof:parent_id":101806201,
    "wof:placetype":"postalcode",
    "wof:repo":"whosonfirst-data-postalcode-nl",
    "wof:superseded_by":[],
    "wof:supersedes":[],
    "wof:tags":[]
},
  "bbox": [
    6.737671375274658,
    53.33296203613281,
    6.740088939666748,
    53.33345413208008
],
  "geometry": {"coordinates":[[[6.73998308181763,53.33341979980469],[6.73940849304199,53.33330154418945],[6.73898553848267,53.33321380615234],[6.73767137527466,53.33296203613281],[6.737868309021,53.33301162719727],[6.73803472518921,53.33305358886719],[6.73817110061646,53.33308792114258],[6.74008893966675,53.33345413208008],[6.73998308181763,53.33341979980469]]],"type":"Polygon"}
}