{
  "id": 891082489,
  "type": "Feature",
  "properties": {
    "clustr:alpha":0.05,
    "clustr:area":8.65,
    "clustr:count":21,
    "clustr:density":2.43,
    "clustr:perimeter":0.42,
    "edtf:cessation":"uuuu",
    "edtf:inception":"uuuu",
    "geom:area":0.000002,
    "geom:bbox":"5.645611763,51.5122375488,5.64792871475,51.513217926",
    "geom:latitude":51.512724,
    "geom:longitude":5.646696,
    "iso:country":"NL",
    "mz:hierarchy_label":1,
    "mz:is_approximate":1,
    "mz:is_clustr":1,
    "src:geom":"oa",
    "wof:belongsto":[
        85687035,
        102191581,
        404474569,
        85633337,
        101809681
    ],
    "wof:breaches":[],
    "wof:country":"NL",
    "wof:created":1469686582,
    "wof:geomhash":"bbd5d32c01873bf2d3226e5887fc7711",
    "wof:hierarchy":[
        {
            "continent_id":102191581,
            "country_id":85633337,
            "localadmin_id":404474569,
            "locality_id":101809681,
            "postalcode_id":891082489,
            "region_id":85687035
        }
    ],
    "wof:id":891082489,
    "wof:lastmodified":1469686582,
    "wof:name":"5735CW",
    "wof:parent_id":101809681,
    "wof:placetype":"postalcode",
    "wof:repo":"whosonfirst-data-postalcode-nl",
    "wof:superseded_by":[],
    "wof:supersedes":[],
    "wof:tags":[]
},
  "bbox": [
    5.645611763000488,
    51.512237548828125,
    5.647928714752197,
    51.51321792602539
],
  "geometry": {"coordinates":[[[5.64790058135986,51.51271057128906],[5.6479287147522,51.51253128051758],[5.64681768417358,51.51229095458984],[5.64655828475952,51.51223754882812],[5.64632797241211,51.51224517822266],[5.64586544036865,51.51239013671875],[5.64579582214355,51.51245498657227],[5.64572477340698,51.51258850097656],[5.64561176300049,51.51295852661133],[5.64604520797729,51.51321792602539],[5.64772939682007,51.51298141479492],[5.64784383773804,51.5128288269043],[5.64790058135986,51.51271057128906]]],"type":"Polygon"}
}