{
  "id": 891054301,
  "type": "Feature",
  "properties": {
    "clustr:alpha":0.05,
    "clustr:area":10.77,
    "clustr:count":15,
    "clustr:density":1.39,
    "clustr:perimeter":0.16,
    "edtf:cessation":"uuuu",
    "edtf:inception":"uuuu",
    "geom:area":0.0,
    "geom:bbox":"5.30792713165,51.3507728577,5.3084192276,51.3514404297",
    "geom:latitude":51.351122,
    "geom:longitude":5.308131,
    "iso:country":"NL",
    "mz:hierarchy_label":1,
    "mz:is_approximate":1,
    "mz:is_clustr":1,
    "src:geom":"oa",
    "wof:belongsto":[
        85687035,
        102191581,
        404474371,
        85633337,
        101839351
    ],
    "wof:breaches":[],
    "wof:country":"NL",
    "wof:created":1469685521,
    "wof:geomhash":"32e2869ef324e715282ada9e7d0347e8",
    "wof:hierarchy":[
        {
            "continent_id":102191581,
            "country_id":85633337,
            "localadmin_id":404474371,
            "locality_id":101839351,
            "postalcode_id":891054301,
            "region_id":85687035
        }
    ],
    "wof:id":891054301,
    "wof:lastmodified":1469685521,
    "wof:name":"5521MV",
    "wof:parent_id":101839351,
    "wof:placetype":"postalcode",
    "wof:repo":"whosonfirst-data-postalcode-nl",
    "wof:superseded_by":[],
    "wof:supersedes":[],
    "wof:tags":[]
},
  "bbox": [
    5.307927131652832,
    51.350772857666016,
    5.308419227600098,
    51.3514404296875
],
  "geometry": {"coordinates":[[[5.30792713165283,51.35089111328125],[5.30795288085938,51.35101699829102],[5.30798959732056,51.35111236572266],[5.30804300308228,51.35124969482422],[5.30816650390625,51.35134506225586],[5.30823040008545,51.35137176513672],[5.3084192276001,51.3514404296875],[5.30804300308228,51.35077285766602],[5.30800437927246,51.35081100463867],[5.30792713165283,51.35089111328125]]],"type":"Polygon"}
}