{
  "id": 907101649,
  "type": "Feature",
  "properties": {
    "clustr:alpha":0.05,
    "clustr:area":86.42,
    "clustr:count":21,
    "clustr:density":0.24,
    "clustr:perimeter":0.19,
    "edtf:cessation":"uuuu",
    "edtf:inception":"uuuu",
    "geom:area":0.0,
    "geom:bbox":"6.85962486267,53.1044502258,6.86090993881,53.1050224304",
    "geom:latitude":53.104681,
    "geom:longitude":6.86034,
    "iso:country":"NL",
    "mz:hierarchy_label":1,
    "mz:is_approximate":1,
    "mz:is_clustr":1,
    "src:geom":"oa",
    "wof:belongsto":[
        85687059,
        102191581,
        404473737,
        85633337,
        101838023
    ],
    "wof:breaches":[],
    "wof:country":"NL",
    "wof:created":1469699490,
    "wof:geomhash":"566134b1808bebaec34e2d01eeb00088",
    "wof:hierarchy":[
        {
            "continent_id":102191581,
            "country_id":85633337,
            "localadmin_id":404473737,
            "locality_id":101838023,
            "postalcode_id":907101649,
            "region_id":85687059
        }
    ],
    "wof:id":907101649,
    "wof:lastmodified":1469699490,
    "wof:name":"9642PJ",
    "wof:parent_id":101838023,
    "wof:placetype":"postalcode",
    "wof:repo":"whosonfirst-data-postalcode-nl",
    "wof:superseded_by":[],
    "wof:supersedes":[],
    "wof:tags":[]
},
  "bbox": [
    6.859624862670898,
    53.10445022583008,
    6.860909938812256,
    53.10502243041992
],
  "geometry": {"coordinates":[[[6.86090993881226,53.10477828979492],[6.86090660095215,53.10472106933594],[6.86089897155762,53.10466003417969],[6.86087608337402,53.10449981689453],[6.86054086685181,53.10445022583008],[6.86044025421143,53.10445404052734],[6.8596248626709,53.10449981689453],[6.8602123260498,53.10502243041992],[6.86090993881226,53.10477828979492]]],"type":"Polygon"}
}