{
  "id": 891150667,
  "type": "Feature",
  "properties": {
    "clustr:alpha":0.05,
    "clustr:area":39.72,
    "clustr:count":28,
    "clustr:density":0.7,
    "clustr:perimeter":0.17,
    "edtf:cessation":"uuuu",
    "edtf:inception":"uuuu",
    "geom:area":0.0,
    "geom:bbox":"5.77842140198,51.8288230896,5.77902460098,51.8299026489",
    "geom:latitude":51.829362,
    "geom:longitude":5.778722,
    "iso:country":"NL",
    "mz:hierarchy_label":1,
    "mz:is_approximate":1,
    "mz:is_clustr":1,
    "src:geom":"oa",
    "wof:belongsto":[
        85687043,
        102191581,
        404473925,
        85633337,
        101751859
    ],
    "wof:breaches":[],
    "wof:country":"NL",
    "wof:created":1469689381,
    "wof:geomhash":"df9256705b73885c9b8c70e5e1fde432",
    "wof:hierarchy":[
        {
            "continent_id":102191581,
            "country_id":85633337,
            "localadmin_id":404473925,
            "locality_id":101751859,
            "postalcode_id":891150667,
            "region_id":85687043
        }
    ],
    "wof:id":891150667,
    "wof:lastmodified":1469689381,
    "wof:name":"6546RX",
    "wof:parent_id":101751859,
    "wof:placetype":"postalcode",
    "wof:repo":"whosonfirst-data-postalcode-nl",
    "wof:superseded_by":[],
    "wof:supersedes":[],
    "wof:tags":[]
},
  "bbox": [
    5.778421401977539,
    51.82882308959961,
    5.779024600982666,
    51.82990264892578
],
  "geometry": {"coordinates":[[[5.77902460098267,51.82891082763672],[5.77893972396851,51.82886123657227],[5.77878618240356,51.82884216308594],[5.77862405776978,51.82882308959961],[5.77842140197754,51.82985687255859],[5.77850008010864,51.82986831665039],[5.77873373031616,51.82989501953125],[5.77881097793579,51.82990264892578],[5.77902460098267,51.82891082763672]]],"type":"Polygon"}
}