{
  "id": 907045763,
  "type": "Feature",
  "properties": {
    "clustr:alpha":0.05,
    "clustr:area":19.52,
    "clustr:count":7,
    "clustr:density":0.36,
    "clustr:perimeter":0.28,
    "edtf:cessation":"uuuu",
    "edtf:inception":"uuuu",
    "geom:area":0.0,
    "geom:bbox":"6.33486270905,52.9920501709,6.33549594879,52.9933815002",
    "geom:latitude":52.992858,
    "geom:longitude":6.335192,
    "iso:country":"NL",
    "mz:hierarchy_label":1,
    "mz:is_approximate":1,
    "mz:is_clustr":1,
    "src:geom":"oa",
    "wof:belongsto":[
        102191581,
        404473785,
        85633337,
        85687055
    ],
    "wof:breaches":[],
    "wof:country":"NL",
    "wof:created":1469696585,
    "wof:geomhash":"355ad425017cd80f9f8ff3c1d775c8c4",
    "wof:hierarchy":[
        {
            "continent_id":102191581,
            "country_id":85633337,
            "localadmin_id":404473785,
            "postalcode_id":907045763,
            "region_id":85687055
        }
    ],
    "wof:id":907045763,
    "wof:lastmodified":1469696585,
    "wof:name":"8428HB",
    "wof:parent_id":404473785,
    "wof:placetype":"postalcode",
    "wof:repo":"whosonfirst-data-postalcode-nl",
    "wof:superseded_by":[],
    "wof:supersedes":[],
    "wof:tags":[]
},
  "bbox": [
    6.33486270904541,
    52.99205017089844,
    6.335495948791504,
    52.99338150024414
],
  "geometry": {"coordinates":[[[6.33499526977539,52.9929313659668],[6.33486270904541,52.99320220947266],[6.33519506454468,52.99338150024414],[6.33545351028442,52.99232864379883],[6.3354959487915,52.99205017089844],[6.33499526977539,52.9929313659668]]],"type":"Polygon"}
}