{
  "id": 890720035,
  "type": "Feature",
  "properties": {
    "clustr:alpha":0.05,
    "clustr:area":12.56,
    "clustr:count":6,
    "clustr:density":0.48,
    "clustr:perimeter":0.04,
    "edtf:cessation":"uuuu",
    "edtf:inception":"uuuu",
    "geom:area":0.0,
    "geom:bbox":"4.48229980469,52.2274169922,4.48257160187,52.2275924683",
    "geom:latitude":52.227509,
    "geom:longitude":4.482441,
    "iso:country":"NL",
    "mz:hierarchy_label":1,
    "mz:is_approximate":1,
    "mz:is_clustr":1,
    "src:geom":"oa",
    "wof:belongsto":[
        85687041,
        102191581,
        404474545,
        85633337,
        101808461
    ],
    "wof:breaches":[],
    "wof:country":"NL",
    "wof:created":1469672155,
    "wof:geomhash":"28e972fdf2c6f6b77e02ddab62da0fe3",
    "wof:hierarchy":[
        {
            "continent_id":102191581,
            "country_id":85633337,
            "localadmin_id":404474545,
            "locality_id":101808461,
            "postalcode_id":890720035,
            "region_id":85687041
        }
    ],
    "wof:id":890720035,
    "wof:lastmodified":1469672155,
    "wof:name":"2215LN",
    "wof:parent_id":101808461,
    "wof:placetype":"postalcode",
    "wof:repo":"whosonfirst-data-postalcode-nl",
    "wof:superseded_by":[],
    "wof:supersedes":[],
    "wof:tags":[]
},
  "bbox": [
    4.4822998046875,
    52.2274169921875,
    4.482571601867676,
    52.22759246826172
],
  "geometry": {"coordinates":[[[4.4822998046875,52.2274169921875],[4.48240947723389,52.22748947143555],[4.4824628829956,52.22752380371094],[4.48251628875732,52.22755813598633],[4.48257160186768,52.22759246826172],[4.48235321044922,52.22745132446289],[4.4822998046875,52.2274169921875]]],"type":"Polygon"}
}