{
  "id": 890715749,
  "type": "Feature",
  "properties": {
    "clustr:alpha":0.05,
    "clustr:area":2.13,
    "clustr:count":14,
    "clustr:density":6.58,
    "clustr:perimeter":0.02,
    "edtf:cessation":"uuuu",
    "edtf:inception":"uuuu",
    "geom:area":0.0,
    "geom:bbox":"4.50927639008,52.2214050293,4.50936460495,52.2214851379",
    "geom:latitude":52.221441,
    "geom:longitude":4.509325,
    "iso:country":"NL",
    "mz:hierarchy_label":1,
    "mz:is_approximate":1,
    "mz:is_clustr":1,
    "src:geom":"oa",
    "wof:belongsto":[
        85687041,
        102191581,
        404474545,
        85633337,
        101754685
    ],
    "wof:breaches":[],
    "wof:country":"NL",
    "wof:created":1469671970,
    "wof:geomhash":"62d2a2ed148abcb9d9e33e6d8c85816a",
    "wof:hierarchy":[
        {
            "continent_id":102191581,
            "country_id":85633337,
            "localadmin_id":404474545,
            "locality_id":101754685,
            "postalcode_id":890715749,
            "region_id":85687041
        }
    ],
    "wof:id":890715749,
    "wof:lastmodified":1469671970,
    "wof:name":"2171NG",
    "wof:parent_id":101754685,
    "wof:placetype":"postalcode",
    "wof:repo":"whosonfirst-data-postalcode-nl",
    "wof:superseded_by":[],
    "wof:supersedes":[],
    "wof:tags":[]
},
  "bbox": [
    4.509276390075684,
    52.221405029296875,
    4.509364604949951,
    52.22148513793945
],
  "geometry": {"coordinates":[[[4.50936412811279,52.22143936157227],[4.50936460494995,52.22140502929688],[4.5093207359314,52.22141265869141],[4.50929117202759,52.2214241027832],[4.50927639007568,52.22143936157227],[4.50929069519043,52.22145843505859],[4.50931930541992,52.22148513793945],[4.50934886932373,52.22145843505859],[4.50936412811279,52.22143936157227]]],"type":"Polygon"}
}