{
  "id": 891013999,
  "type": "Feature",
  "properties": {
    "clustr:alpha":0.05,
    "clustr:area":8.14,
    "clustr:count":12,
    "clustr:density":1.47,
    "clustr:perimeter":0.2,
    "edtf:cessation":"uuuu",
    "edtf:inception":"uuuu",
    "geom:area":0.0,
    "geom:bbox":"4.90963792801,51.593585968,4.91029548645,51.5943908691",
    "geom:latitude":51.594059,
    "geom:longitude":4.909946,
    "iso:country":"NL",
    "mz:hierarchy_label":1,
    "mz:is_approximate":1,
    "mz:is_clustr":1,
    "src:geom":"oa",
    "wof:belongsto":[
        85687035,
        102191581,
        404474381,
        85633337,
        101839413
    ],
    "wof:breaches":[],
    "wof:country":"NL",
    "wof:created":1469684006,
    "wof:geomhash":"4f51d80b473cc4df4687bfae6a973fce",
    "wof:hierarchy":[
        {
            "continent_id":102191581,
            "country_id":85633337,
            "localadmin_id":404474381,
            "locality_id":101839413,
            "postalcode_id":891013999,
            "region_id":85687035
        }
    ],
    "wof:id":891013999,
    "wof:lastmodified":1469684006,
    "wof:name":"5121HV",
    "wof:parent_id":101839413,
    "wof:placetype":"postalcode",
    "wof:repo":"whosonfirst-data-postalcode-nl",
    "wof:superseded_by":[],
    "wof:supersedes":[],
    "wof:tags":[]
},
  "bbox": [
    4.909637928009033,
    51.59358596801758,
    4.910295486450195,
    51.594390869140625
],
  "geometry": {"coordinates":[[[4.90963792800903,51.5942268371582],[4.90970802307129,51.59426879882812],[4.90984535217285,51.5943489074707],[4.9099178314209,51.59439086914062],[4.9102954864502,51.59358596801758],[4.90976190567017,51.59406661987305],[4.90963792800903,51.5942268371582]]],"type":"Polygon"}
}