{
  "id": 907116289,
  "type": "Feature",
  "properties": {
    "clustr:alpha":0.05,
    "clustr:area":39.46,
    "clustr:count":19,
    "clustr:density":0.48,
    "clustr:perimeter":0.54,
    "edtf:cessation":"uuuu",
    "edtf:inception":"uuuu",
    "geom:area":0.000002,
    "geom:bbox":"6.52511405945,53.2191390991,6.5282459259,53.2208061218",
    "geom:latitude":53.219892,
    "geom:longitude":6.527127,
    "iso:country":"NL",
    "mz:hierarchy_label":1,
    "mz:is_approximate":1,
    "mz:is_clustr":1,
    "src:geom":"oa",
    "wof:belongsto":[
        85687059,
        102191581,
        404473713,
        85633337,
        101751909
    ],
    "wof:breaches":[],
    "wof:country":"NL",
    "wof:created":1469700227,
    "wof:geomhash":"31d1358a05fbaeb175182009483fda9a",
    "wof:hierarchy":[
        {
            "continent_id":102191581,
            "country_id":85633337,
            "localadmin_id":404473713,
            "locality_id":101751909,
            "postalcode_id":907116289,
            "region_id":85687059
        }
    ],
    "wof:id":907116289,
    "wof:lastmodified":1469700227,
    "wof:name":"9743TN",
    "wof:parent_id":101751909,
    "wof:placetype":"postalcode",
    "wof:repo":"whosonfirst-data-postalcode-nl",
    "wof:superseded_by":[],
    "wof:supersedes":[],
    "wof:tags":[]
},
  "bbox": [
    6.525114059448242,
    53.219139099121094,
    6.52824592590332,
    53.22080612182617
],
  "geometry": {"coordinates":[[[6.52823686599731,53.22027206420898],[6.52824592590332,53.22021484375],[6.52812623977661,53.21969604492188],[6.52785873413086,53.21963119506836],[6.52694892883301,53.21945190429688],[6.52511405944824,53.21913909912109],[6.52796840667725,53.22080612182617],[6.52823686599731,53.22027206420898]]],"type":"Polygon"}
}