{
  "id": 890599439,
  "type": "Feature",
  "properties": {
    "clustr:alpha":0.05,
    "clustr:area":152.74,
    "clustr:count":6,
    "clustr:density":0.04,
    "clustr:perimeter":0.11,
    "edtf:cessation":"uuuu",
    "edtf:inception":"uuuu",
    "geom:area":0.0,
    "geom:bbox":"4.86289978027,52.3305702209,4.86432266235,52.3306159973",
    "geom:latitude":52.330599,
    "geom:longitude":4.863641,
    "iso:country":"NL",
    "mz:hierarchy_label":1,
    "mz:is_approximate":1,
    "mz:is_clustr":1,
    "src:geom":"oa",
    "wof:belongsto":[
        85687053,
        102191581,
        404474029,
        85633337,
        101751893
    ],
    "wof:breaches":[],
    "wof:country":"NL",
    "wof:created":1469666733,
    "wof:geomhash":"acb992e990b529482e9494d87619b83e",
    "wof:hierarchy":[
        {
            "continent_id":102191581,
            "country_id":85633337,
            "localadmin_id":404474029,
            "locality_id":101751893,
            "postalcode_id":890599439,
            "region_id":85687053
        }
    ],
    "wof:id":890599439,
    "wof:lastmodified":1469666733,
    "wof:name":"1081GW",
    "wof:parent_id":101751893,
    "wof:placetype":"postalcode",
    "wof:repo":"whosonfirst-data-postalcode-nl",
    "wof:superseded_by":[],
    "wof:supersedes":[],
    "wof:tags":[]
},
  "bbox": [
    4.862899780273438,
    52.330570220947266,
    4.864322662353516,
    52.33061599731445
],
  "geometry": {"coordinates":[[[4.86289978027344,52.33061218261719],[4.86416101455688,52.33061599731445],[4.86432266235352,52.33060836791992],[4.86361885070801,52.33057022094727],[4.86289978027344,52.33061218261719]]],"type":"Polygon"}
}