{
  "id": 890732851,
  "type": "Feature",
  "properties": {
    "clustr:alpha":0.05,
    "clustr:area":33.17,
    "clustr:count":22,
    "clustr:density":0.66,
    "clustr:perimeter":0.5,
    "edtf:cessation":"uuuu",
    "edtf:inception":"uuuu",
    "geom:area":0.000001,
    "geom:bbox":"4.48044633865,52.1573104858,4.48144817352,52.1596031189",
    "geom:latitude":52.158672,
    "geom:longitude":4.481047,
    "iso:country":"NL",
    "mz:hierarchy_label":1,
    "mz:is_approximate":1,
    "mz:is_clustr":1,
    "src:geom":"oa",
    "wof:belongsto":[
        85687041,
        102191581,
        404474199,
        85633337,
        101751833
    ],
    "wof:breaches":[],
    "wof:country":"NL",
    "wof:created":1469672678,
    "wof:geomhash":"e898375d813a81338dff4f5318441aeb",
    "wof:hierarchy":[
        {
            "continent_id":102191581,
            "country_id":85633337,
            "localadmin_id":404474199,
            "locality_id":101751833,
            "postalcode_id":890732851,
            "region_id":85687041
        }
    ],
    "wof:id":890732851,
    "wof:lastmodified":1469672678,
    "wof:name":"2311BG",
    "wof:parent_id":101751833,
    "wof:placetype":"postalcode",
    "wof:repo":"whosonfirst-data-postalcode-nl",
    "wof:superseded_by":[],
    "wof:supersedes":[],
    "wof:tags":[]
},
  "bbox": [
    4.480446338653564,
    52.157310485839844,
    4.481448173522949,
    52.159603118896484
],
  "geometry": {"coordinates":[[[4.48074293136597,52.15960311889648],[4.48125839233398,52.15908813476562],[4.48129558563232,52.15903472900391],[4.4813117980957,52.15898895263672],[4.48139190673828,52.15874481201172],[4.48142242431641,52.15833282470703],[4.48144817352295,52.15731048583984],[4.48044633865356,52.15932083129883],[4.48074293136597,52.15960311889648]]],"type":"Polygon"}
}