{
  "id": 891072677,
  "type": "Feature",
  "properties": {
    "clustr:alpha":0.05,
    "clustr:area":8.22,
    "clustr:count":6,
    "clustr:density":0.73,
    "clustr:perimeter":0.08,
    "edtf:cessation":"uuuu",
    "edtf:inception":"uuuu",
    "geom:area":0.0,
    "geom:bbox":"5.54452610016,51.4664611816,5.5445523262,51.4670791626",
    "geom:latitude":51.466767,
    "geom:longitude":5.544539,
    "iso:country":"NL",
    "mz:hierarchy_label":1,
    "mz:is_approximate":1,
    "mz:is_clustr":1,
    "src:geom":"oa",
    "wof:belongsto":[
        85687035,
        102191581,
        404474405,
        85633337,
        101809739
    ],
    "wof:breaches":[],
    "wof:country":"NL",
    "wof:created":1469686202,
    "wof:geomhash":"cafda52a47677d78ed921e5208449aa1",
    "wof:hierarchy":[
        {
            "continent_id":102191581,
            "country_id":85633337,
            "localadmin_id":404474405,
            "locality_id":101809739,
            "postalcode_id":891072677,
            "region_id":85687035
        }
    ],
    "wof:id":891072677,
    "wof:lastmodified":1469686202,
    "wof:name":"5672XG",
    "wof:parent_id":101809739,
    "wof:placetype":"postalcode",
    "wof:repo":"whosonfirst-data-postalcode-nl",
    "wof:superseded_by":[],
    "wof:supersedes":[],
    "wof:tags":[]
},
  "bbox": [
    5.544526100158691,
    51.466461181640625,
    5.544552326202393,
    51.467079162597656
],
  "geometry": {"coordinates":[[[5.5445384979248,51.46657562255859],[5.54452610015869,51.46707916259766],[5.54453992843628,51.46695327758789],[5.54455232620239,51.46646118164062],[5.5445384979248,51.46657562255859]]],"type":"Polygon"}
}