{
  "id": 891032095,
  "type": "Feature",
  "properties": {
    "clustr:alpha":0.05,
    "clustr:area":145.15,
    "clustr:count":19,
    "clustr:density":0.13,
    "clustr:perimeter":0.17,
    "edtf:cessation":"uuuu",
    "edtf:inception":"uuuu",
    "geom:area":0.0,
    "geom:bbox":"5.36817598343,51.5702934265,5.36951780319,51.5708236694",
    "geom:latitude":51.57052,
    "geom:longitude":5.368912,
    "iso:country":"NL",
    "mz:hierarchy_label":1,
    "mz:is_approximate":1,
    "mz:is_clustr":1,
    "src:geom":"oa",
    "wof:belongsto":[
        85687035,
        102191581,
        404474361,
        85633337,
        101808179
    ],
    "wof:breaches":[],
    "wof:country":"NL",
    "wof:created":1469684690,
    "wof:geomhash":"7856241e35806fb452dfb7104f1828ca",
    "wof:hierarchy":[
        {
            "continent_id":102191581,
            "country_id":85633337,
            "localadmin_id":404474361,
            "locality_id":101808179,
            "postalcode_id":891032095,
            "region_id":85687035
        }
    ],
    "wof:id":891032095,
    "wof:lastmodified":1469684690,
    "wof:name":"5298CP",
    "wof:parent_id":101808179,
    "wof:placetype":"postalcode",
    "wof:repo":"whosonfirst-data-postalcode-nl",
    "wof:superseded_by":[],
    "wof:supersedes":[],
    "wof:tags":[]
},
  "bbox": [
    5.368175983428955,
    51.57029342651367,
    5.369517803192139,
    51.570823669433594
],
  "geometry": {"coordinates":[[[5.36833477020264,51.57029342651367],[5.36817598342896,51.57046508789062],[5.36827707290649,51.57051086425781],[5.36869525909424,51.5706787109375],[5.36891174316406,51.57076263427734],[5.36934423446655,51.57082366943359],[5.36951780319214,51.57035827636719],[5.36833477020264,51.57029342651367]]],"type":"Polygon"}
}