{
  "id": 890969793,
  "type": "Feature",
  "properties": {
    "clustr:alpha":0.05,
    "clustr:area":41.15,
    "clustr:count":12,
    "clustr:density":0.29,
    "clustr:perimeter":0.15,
    "edtf:cessation":"uuuu",
    "edtf:inception":"uuuu",
    "geom:area":0.0,
    "geom:bbox":"4.29750728607,51.4942932129,4.29875802994,51.4943962097",
    "geom:latitude":51.49435,
    "geom:longitude":4.298112,
    "iso:country":"NL",
    "mz:hierarchy_label":1,
    "mz:is_approximate":1,
    "mz:is_clustr":1,
    "src:geom":"oa",
    "wof:belongsto":[
        85687035,
        102191581,
        404474351,
        85633337,
        101839323
    ],
    "wof:breaches":[],
    "wof:country":"NL",
    "wof:created":1469682159,
    "wof:geomhash":"c126af875f24df21ecccf39785fc1684",
    "wof:hierarchy":[
        {
            "continent_id":102191581,
            "country_id":85633337,
            "localadmin_id":404474351,
            "locality_id":101839323,
            "postalcode_id":890969793,
            "region_id":85687035
        }
    ],
    "wof:id":890969793,
    "wof:lastmodified":1469682159,
    "wof:name":"4621JH",
    "wof:parent_id":101839323,
    "wof:placetype":"postalcode",
    "wof:repo":"whosonfirst-data-postalcode-nl",
    "wof:superseded_by":[],
    "wof:supersedes":[],
    "wof:tags":[]
},
  "bbox": [
    4.297507286071777,
    51.494293212890625,
    4.298758029937744,
    51.4943962097168
],
  "geometry": {"coordinates":[[[4.29792976379395,51.49436950683594],[4.29808855056763,51.49435806274414],[4.2985029220581,51.49431991577148],[4.29875802993774,51.49429321289062],[4.29750728607178,51.4943962097168],[4.29759931564331,51.49439239501953],[4.29792976379395,51.49436950683594]]],"type":"Polygon"}
}