{
  "id": 907055819,
  "type": "Feature",
  "properties": {
    "clustr:alpha":0.05,
    "clustr:area":1.37,
    "clustr:count":21,
    "clustr:density":15.38,
    "clustr:perimeter":0.31,
    "edtf:cessation":"uuuu",
    "edtf:inception":"uuuu",
    "geom:area":0.0,
    "geom:bbox":"5.643658638,53.0190658569,5.64490604401,53.0202445984",
    "geom:latitude":53.019606,
    "geom:longitude":5.644111,
    "iso:country":"NL",
    "mz:hierarchy_label":1,
    "mz:is_approximate":1,
    "mz:is_clustr":1,
    "src:geom":"oa",
    "wof:belongsto":[
        85687055,
        102191581,
        404473793,
        85633337,
        101837971
    ],
    "wof:breaches":[],
    "wof:country":"NL",
    "wof:created":1469697057,
    "wof:geomhash":"1d9aa8095e88f1a59f80240be4906782",
    "wof:hierarchy":[
        {
            "continent_id":102191581,
            "country_id":85633337,
            "localadmin_id":404473793,
            "locality_id":101837971,
            "postalcode_id":907055819,
            "region_id":85687055
        }
    ],
    "wof:id":907055819,
    "wof:lastmodified":1469697057,
    "wof:name":"8608XG",
    "wof:parent_id":101837971,
    "wof:placetype":"postalcode",
    "wof:repo":"whosonfirst-data-postalcode-nl",
    "wof:superseded_by":[],
    "wof:supersedes":[],
    "wof:tags":[]
},
  "bbox": [
    5.643658638000488,
    53.019065856933594,
    5.644906044006348,
    53.02024459838867
],
  "geometry": {"coordinates":[[[5.64365911483765,53.0198974609375],[5.64367532730103,53.02009201049805],[5.64369058609009,53.02014923095703],[5.64370584487915,53.02020263671875],[5.64372110366821,53.02024459838867],[5.64490604400635,53.01906585693359],[5.64469766616821,53.01911926269531],[5.64419221878052,53.01929473876953],[5.64411783218384,53.01932144165039],[5.64396905899048,53.01940155029297],[5.64376163482666,53.01954650878906],[5.64371728897095,53.01960754394531],[5.64365863800049,53.0197868347168],[5.64365911483765,53.0198974609375]]],"type":"Polygon"}
}