{
  "id": 890605713,
  "type": "Feature",
  "properties": {
    "clustr:alpha":0.05,
    "clustr:area":1.41,
    "clustr:count":31,
    "clustr:density":21.94,
    "clustr:perimeter":0.02,
    "edtf:cessation":"uuuu",
    "edtf:inception":"uuuu",
    "geom:area":0.0,
    "geom:bbox":"4.9872546196,52.3182830811,4.98729801178,52.3183784485",
    "geom:latitude":52.318337,
    "geom:longitude":4.987274,
    "iso:country":"NL",
    "mz:hierarchy_label":1,
    "mz:is_approximate":1,
    "mz:is_clustr":1,
    "src:geom":"oa",
    "wof:belongsto":[
        85687053,
        102191581,
        404474029,
        85633337,
        101751895
    ],
    "wof:breaches":[],
    "wof:country":"NL",
    "wof:created":1469667063,
    "wof:geomhash":"475d6e97806961a274680fe6a420ec8a",
    "wof:hierarchy":[
        {
            "continent_id":102191581,
            "country_id":85633337,
            "localadmin_id":404474029,
            "locality_id":101751895,
            "postalcode_id":890605713,
            "region_id":85687053
        }
    ],
    "wof:id":890605713,
    "wof:lastmodified":1469667063,
    "wof:name":"1104JL",
    "wof:parent_id":101751895,
    "wof:placetype":"postalcode",
    "wof:repo":"whosonfirst-data-postalcode-nl",
    "wof:superseded_by":[],
    "wof:supersedes":[],
    "wof:tags":[]
},
  "bbox": [
    4.987254619598389,
    52.31828308105469,
    4.987298011779785,
    52.31837844848633
],
  "geometry": {"coordinates":[[[4.98728370666504,52.31837844848633],[4.98729801177979,52.31837844848633],[4.98728370666504,52.31834411621094],[4.98726940155029,52.31830978393555],[4.98725509643555,52.31828308105469],[4.98725461959839,52.31830978393555],[4.98726892471313,52.31834411621094],[4.98728370666504,52.31837844848633]]],"type":"Polygon"}
}