{
  "id": 907126719,
  "type": "Feature",
  "properties": {
    "clustr:alpha":0.05,
    "clustr:area":6.48,
    "clustr:count":6,
    "clustr:density":0.93,
    "clustr:perimeter":1.1,
    "edtf:cessation":"uuuu",
    "edtf:inception":"uuuu",
    "geom:area":0.000003,
    "geom:bbox":"6.33458328247,53.3598976135,6.34077167511,53.36328125",
    "geom:latitude":53.361661,
    "geom:longitude":6.337236,
    "iso:country":"NL",
    "mz:hierarchy_label":1,
    "mz:is_approximate":1,
    "mz:is_clustr":1,
    "src:geom":"oa",
    "wof:belongsto":[
        85687059,
        102191581,
        404474575,
        85633337,
        101803737
    ],
    "wof:breaches":[],
    "wof:country":"NL",
    "wof:created":1469700618,
    "wof:geomhash":"66f87278849b0fe0ec4e868e39670a2d",
    "wof:hierarchy":[
        {
            "continent_id":102191581,
            "country_id":85633337,
            "localadmin_id":404474575,
            "locality_id":101803737,
            "postalcode_id":907126719,
            "region_id":85687059
        }
    ],
    "wof:id":907126719,
    "wof:lastmodified":1469700618,
    "wof:name":"9971AJ",
    "wof:parent_id":101803737,
    "wof:placetype":"postalcode",
    "wof:repo":"whosonfirst-data-postalcode-nl",
    "wof:superseded_by":[],
    "wof:supersedes":[],
    "wof:tags":[]
},
  "bbox": [
    6.334583282470703,
    53.35989761352539,
    6.340771675109863,
    53.36328125
],
  "geometry": {"coordinates":[[[6.3345832824707,53.35989761352539],[6.33468151092529,53.36025619506836],[6.33697557449341,53.36211395263672],[6.34077167510986,53.36328125],[6.3345832824707,53.35989761352539]]],"type":"Polygon"}
}