{
  "id": 890829931,
  "type": "Feature",
  "properties": {
    "clustr:alpha":0.05,
    "clustr:area":9.01,
    "clustr:count":46,
    "clustr:density":5.11,
    "clustr:perimeter":0.1,
    "edtf:cessation":"uuuu",
    "edtf:inception":"uuuu",
    "geom:area":0.0,
    "geom:bbox":"4.49642419815,51.8744354248,4.49665164948,51.8749008179",
    "geom:latitude":51.874707,
    "geom:longitude":4.496522,
    "iso:country":"NL",
    "mz:hierarchy_label":1,
    "mz:is_approximate":1,
    "mz:is_clustr":1,
    "src:geom":"oa",
    "wof:belongsto":[
        85687041,
        102191581,
        404474245,
        85633337,
        101751843
    ],
    "wof:breaches":[],
    "wof:country":"NL",
    "wof:created":1469676379,
    "wof:geomhash":"16b4a3273b2c97df64e13639402d28f3",
    "wof:hierarchy":[
        {
            "continent_id":102191581,
            "country_id":85633337,
            "localadmin_id":404474245,
            "locality_id":101751843,
            "postalcode_id":890829931,
            "region_id":85687041
        }
    ],
    "wof:id":890829931,
    "wof:lastmodified":1469676379,
    "wof:name":"3085WC",
    "wof:parent_id":101751843,
    "wof:placetype":"postalcode",
    "wof:repo":"whosonfirst-data-postalcode-nl",
    "wof:superseded_by":[],
    "wof:supersedes":[],
    "wof:tags":[]
},
  "bbox": [
    4.496424198150635,
    51.87443542480469,
    4.496651649475098,
    51.874900817871094
],
  "geometry": {"coordinates":[[[4.49648809432983,51.87479019165039],[4.49659729003906,51.87455368041992],[4.4966516494751,51.87443542480469],[4.49642419815063,51.87490081787109],[4.49648809432983,51.87479019165039]]],"type":"Polygon"}
}