{
  "id": 907090797,
  "type": "Feature",
  "properties": {
    "clustr:alpha":0.05,
    "clustr:area":54.84,
    "clustr:count":15,
    "clustr:density":0.27,
    "clustr:perimeter":0.08,
    "edtf:cessation":"uuuu",
    "edtf:inception":"uuuu",
    "geom:area":0.0,
    "geom:bbox":"6.45169067383,52.9511985779,6.45228385925,52.9515609741",
    "geom:latitude":52.95137,
    "geom:longitude":6.451972,
    "iso:country":"NL",
    "mz:hierarchy_label":1,
    "mz:is_approximate":1,
    "mz:is_clustr":1,
    "src:geom":"oa",
    "wof:belongsto":[
        85687051,
        102191581,
        404474649,
        85633337,
        101837893
    ],
    "wof:breaches":[],
    "wof:country":"NL",
    "wof:created":1469698834,
    "wof:geomhash":"c843ff405d2fed41231675adec6a621e",
    "wof:hierarchy":[
        {
            "continent_id":102191581,
            "country_id":85633337,
            "localadmin_id":404474649,
            "locality_id":101837893,
            "postalcode_id":907090797,
            "region_id":85687051
        }
    ],
    "wof:id":907090797,
    "wof:lastmodified":1469698834,
    "wof:name":"9422KK",
    "wof:parent_id":101837893,
    "wof:placetype":"postalcode",
    "wof:repo":"whosonfirst-data-postalcode-nl",
    "wof:superseded_by":[],
    "wof:supersedes":[],
    "wof:tags":[]
},
  "bbox": [
    6.451690673828125,
    52.95119857788086,
    6.45228385925293,
    52.951560974121094
],
  "geometry": {"coordinates":[[[6.45174980163574,52.95134735107422],[6.45169067382812,52.95137405395508],[6.45181465148926,52.95156097412109],[6.45188808441162,52.95153427124023],[6.45228385925293,52.95129013061523],[6.45219278335571,52.95119857788086],[6.45174980163574,52.95134735107422]]],"type":"Polygon"}
}