{
  "id": 890625137,
  "type": "Feature",
  "properties": {
    "clustr:alpha":0.05,
    "clustr:area":6.01,
    "clustr:count":10,
    "clustr:density":1.66,
    "clustr:perimeter":0.11,
    "edtf:cessation":"uuuu",
    "edtf:inception":"uuuu",
    "geom:area":0.0,
    "geom:bbox":"5.2507109642,52.3038635254,5.25114059448,52.3044013977",
    "geom:latitude":52.304197,
    "geom:longitude":5.250909,
    "iso:country":"NL",
    "mz:hierarchy_label":1,
    "mz:is_approximate":1,
    "mz:is_clustr":1,
    "src:geom":"oa",
    "wof:belongsto":[
        85687053,
        102191581,
        404474087,
        85633337,
        101837931
    ],
    "wof:breaches":[],
    "wof:country":"NL",
    "wof:created":1469667913,
    "wof:geomhash":"cc2fb1f53668d05c495329a163ff70ae",
    "wof:hierarchy":[
        {
            "continent_id":102191581,
            "country_id":85633337,
            "localadmin_id":404474087,
            "locality_id":101837931,
            "postalcode_id":890625137,
            "region_id":85687053
        }
    ],
    "wof:id":890625137,
    "wof:lastmodified":1469667913,
    "wof:name":"1273XG",
    "wof:parent_id":101837931,
    "wof:placetype":"postalcode",
    "wof:repo":"whosonfirst-data-postalcode-nl",
    "wof:superseded_by":[],
    "wof:supersedes":[],
    "wof:tags":[]
},
  "bbox": [
    5.250710964202881,
    52.303863525390625,
    5.251140594482422,
    52.30440139770508
],
  "geometry": {"coordinates":[[[5.25078582763672,52.30411911010742],[5.25088500976562,52.30440139770508],[5.25105714797974,52.30435562133789],[5.25114059448242,52.3043327331543],[5.25071096420288,52.30386352539062],[5.25078582763672,52.30411911010742]]],"type":"Polygon"}
}