{
  "id": 891032215,
  "type": "Feature",
  "properties": {
    "clustr:alpha":0.05,
    "clustr:area":128.57,
    "clustr:count":14,
    "clustr:density":0.11,
    "clustr:perimeter":0.3,
    "edtf:cessation":"uuuu",
    "edtf:inception":"uuuu",
    "geom:area":0.0,
    "geom:bbox":"5.3649892807,51.5689811707,5.36696481705,51.570186615",
    "geom:latitude":51.569508,
    "geom:longitude":5.36599,
    "iso:country":"NL",
    "mz:hierarchy_label":1,
    "mz:is_approximate":1,
    "mz:is_clustr":1,
    "src:geom":"oa",
    "wof:belongsto":[
        85687035,
        102191581,
        404474361,
        85633337,
        101808179
    ],
    "wof:breaches":[],
    "wof:country":"NL",
    "wof:created":1469684694,
    "wof:geomhash":"c2a9f22fcac055f0df0f3653d845c0a6",
    "wof:hierarchy":[
        {
            "continent_id":102191581,
            "country_id":85633337,
            "localadmin_id":404474361,
            "locality_id":101808179,
            "postalcode_id":891032215,
            "region_id":85687035
        }
    ],
    "wof:id":891032215,
    "wof:lastmodified":1469684694,
    "wof:name":"5298TM",
    "wof:parent_id":101808179,
    "wof:placetype":"postalcode",
    "wof:repo":"whosonfirst-data-postalcode-nl",
    "wof:superseded_by":[],
    "wof:supersedes":[],
    "wof:tags":[]
},
  "bbox": [
    5.364989280700684,
    51.5689811706543,
    5.366964817047119,
    51.570186614990234
],
  "geometry": {"coordinates":[[[5.36607074737549,51.56936645507812],[5.36498928070068,51.5689811706543],[5.36533498764038,51.5692138671875],[5.36696481704712,51.57018661499023],[5.36607074737549,51.56936645507812]]],"type":"Polygon"}
}