{
  "id": 890641933,
  "type": "Feature",
  "properties": {
    "clustr:alpha":0.05,
    "clustr:area":10.62,
    "clustr:count":17,
    "clustr:density":1.6,
    "clustr:perimeter":0.3,
    "edtf:cessation":"uuuu",
    "edtf:inception":"uuuu",
    "geom:area":0.0,
    "geom:bbox":"5.14839506149,52.2832527161,5.14985275269,52.2841644287",
    "geom:latitude":52.283857,
    "geom:longitude":5.149096,
    "iso:country":"NL",
    "mz:hierarchy_label":1,
    "mz:is_approximate":1,
    "mz:is_clustr":1,
    "src:geom":"oa",
    "wof:belongsto":[
        85687053,
        102191581,
        404474051,
        85633337,
        101753097
    ],
    "wof:breaches":[],
    "wof:country":"NL",
    "wof:created":1469668617,
    "wof:geomhash":"2dd681054da6d6e584528705aaced81b",
    "wof:hierarchy":[
        {
            "continent_id":102191581,
            "country_id":85633337,
            "localadmin_id":404474051,
            "locality_id":101753097,
            "postalcode_id":890641933,
            "region_id":85687053
        }
    ],
    "wof:id":890641933,
    "wof:lastmodified":1469668617,
    "wof:name":"1412EC",
    "wof:parent_id":101753097,
    "wof:placetype":"postalcode",
    "wof:repo":"whosonfirst-data-postalcode-nl",
    "wof:superseded_by":[],
    "wof:supersedes":[],
    "wof:tags":[]
},
  "bbox": [
    5.14839506149292,
    52.28325271606445,
    5.149852752685547,
    52.28416442871094
],
  "geometry": {"coordinates":[[[5.14912223815918,52.28415679931641],[5.14985275268555,52.28416442871094],[5.14839506149292,52.28325271606445],[5.14903402328491,52.28414916992188],[5.14912223815918,52.28415679931641]]],"type":"Polygon"}
}