{
  "id": 891201499,
  "type": "Feature",
  "properties": {
    "clustr:alpha":0.05,
    "clustr:area":1.8,
    "clustr:count":56,
    "clustr:density":31.17,
    "clustr:perimeter":0.17,
    "edtf:cessation":"uuuu",
    "edtf:inception":"uuuu",
    "geom:area":0.0,
    "geom:bbox":"6.58116340637,51.9229316711,6.58164834976,51.9235992432",
    "geom:latitude":51.923279,
    "geom:longitude":6.581392,
    "iso:country":"NL",
    "mz:hierarchy_label":1,
    "mz:is_approximate":1,
    "mz:is_clustr":1,
    "src:geom":"oa",
    "wof:belongsto":[
        85687043,
        102191581,
        404473865,
        85633337,
        101808573
    ],
    "wof:breaches":[],
    "wof:country":"NL",
    "wof:created":1469691465,
    "wof:geomhash":"596caefc93854674f83269d850ec6466",
    "wof:hierarchy":[
        {
            "continent_id":102191581,
            "country_id":85633337,
            "localadmin_id":404473865,
            "locality_id":101808573,
            "postalcode_id":891201499,
            "region_id":85687043
        }
    ],
    "wof:id":891201499,
    "wof:lastmodified":1469691465,
    "wof:name":"7121XT",
    "wof:parent_id":101808573,
    "wof:placetype":"postalcode",
    "wof:repo":"whosonfirst-data-postalcode-nl",
    "wof:superseded_by":[],
    "wof:supersedes":[],
    "wof:tags":[]
},
  "bbox": [
    6.58116340637207,
    51.92293167114258,
    6.581648349761963,
    51.92359924316406
],
  "geometry": {"coordinates":[[[6.58116340637207,51.92348861694336],[6.5811972618103,51.92359924316406],[6.58125352859497,51.92359924316406],[6.5813102722168,51.92359924316406],[6.58151340484619,51.92350387573242],[6.58157253265381,51.92346572875977],[6.58163928985596,51.92333221435547],[6.58164405822754,51.92327880859375],[6.58164834976196,51.92322158813477],[6.58161592483521,51.92311477661133],[6.58138942718506,51.92293548583984],[6.58127689361572,51.92293167114258],[6.58121252059937,51.92320251464844],[6.58117294311523,51.92338180541992],[6.58116960525513,51.92341613769531],[6.58116340637207,51.92348861694336]]],"type":"Polygon"}
}