{
  "id": 890818319,
  "type": "Feature",
  "properties": {
    "clustr:alpha":0.05,
    "clustr:area":7.08,
    "clustr:count":22,
    "clustr:density":3.11,
    "clustr:perimeter":0.19,
    "edtf:cessation":"uuuu",
    "edtf:inception":"uuuu",
    "geom:area":0.0,
    "geom:bbox":"4.42473602295,51.9393615723,4.42571401596,51.9400062561",
    "geom:latitude":51.939737,
    "geom:longitude":4.425198,
    "iso:country":"NL",
    "mz:hierarchy_label":1,
    "mz:is_approximate":1,
    "mz:is_clustr":1,
    "src:geom":"oa",
    "wof:belongsto":[
        85687041,
        102191581,
        404474245,
        85633337,
        101751843
    ],
    "wof:breaches":[],
    "wof:country":"NL",
    "wof:created":1469675916,
    "wof:geomhash":"f410d0bbeabaf1b41fd0d5d98571ac94",
    "wof:hierarchy":[
        {
            "continent_id":102191581,
            "country_id":85633337,
            "localadmin_id":404474245,
            "locality_id":101751843,
            "postalcode_id":890818319,
            "region_id":85687041
        }
    ],
    "wof:id":890818319,
    "wof:lastmodified":1469675916,
    "wof:name":"3043EB",
    "wof:parent_id":101751843,
    "wof:placetype":"postalcode",
    "wof:repo":"whosonfirst-data-postalcode-nl",
    "wof:superseded_by":[],
    "wof:supersedes":[],
    "wof:tags":[]
},
  "bbox": [
    4.424736022949219,
    51.939361572265625,
    4.425714015960693,
    51.940006256103516
],
  "geometry": {"coordinates":[[[4.42553758621216,51.9395866394043],[4.42571401596069,51.93936157226562],[4.42473602294922,51.93987274169922],[4.42481470108032,51.93990707397461],[4.42505550384521,51.94000625610352],[4.42548418045044,51.93964004516602],[4.42553758621216,51.9395866394043]]],"type":"Polygon"}
}