{
  "id": 891102907,
  "type": "Feature",
  "properties": {
    "clustr:alpha":0.05,
    "clustr:area":10.25,
    "clustr:count":24,
    "clustr:density":2.34,
    "clustr:perimeter":3.35,
    "edtf:cessation":"uuuu",
    "edtf:inception":"uuuu",
    "geom:area":0.000022,
    "geom:bbox":"5.57987451553,51.2501907349,5.59288358688,51.2627220154",
    "geom:latitude":51.256892,
    "geom:longitude":5.586796,
    "iso:country":"NL",
    "mz:hierarchy_label":1,
    "mz:is_approximate":1,
    "mz:is_clustr":1,
    "src:geom":"oa",
    "wof:belongsto":[
        102191581,
        404474619,
        85633337,
        85687035
    ],
    "wof:breaches":[],
    "wof:country":"NL",
    "wof:created":1469687395,
    "wof:geomhash":"e8a6253cd6fad474ccc7a483740ccf92",
    "wof:hierarchy":[
        {
            "continent_id":102191581,
            "country_id":85633337,
            "localadmin_id":404474619,
            "postalcode_id":891102907,
            "region_id":85687035
        }
    ],
    "wof:id":891102907,
    "wof:lastmodified":1469687395,
    "wof:name":"6021RC",
    "wof:parent_id":404474619,
    "wof:placetype":"postalcode",
    "wof:repo":"whosonfirst-data-postalcode-nl",
    "wof:superseded_by":[],
    "wof:supersedes":[],
    "wof:tags":[]
},
  "bbox": [
    5.579874515533447,
    51.25019073486328,
    5.592883586883545,
    51.26272201538086
],
  "geometry": {"coordinates":[[[5.58005046844482,51.26229476928711],[5.57987451553345,51.26272201538086],[5.5800256729126,51.26266098022461],[5.58383178710938,51.2603874206543],[5.58625936508179,51.25896835327148],[5.58707237243652,51.25814056396484],[5.58997011184692,51.25518798828125],[5.59288358688354,51.25019073486328],[5.59229469299316,51.25067901611328],[5.58019065856934,51.26215744018555],[5.58012533187866,51.2622184753418],[5.58005046844482,51.26229476928711]]],"type":"Polygon"}
}