{
  "id": 890776303,
  "type": "Feature",
  "properties": {
    "clustr:alpha":0.05,
    "clustr:area":5.67,
    "clustr:count":29,
    "clustr:density":5.12,
    "clustr:perimeter":0.1,
    "edtf:cessation":"uuuu",
    "edtf:inception":"uuuu",
    "geom:area":0.0,
    "geom:bbox":"4.34288549423,51.983253479,4.34310722351,51.9837150574",
    "geom:latitude":51.98349,
    "geom:longitude":4.343004,
    "iso:country":"NL",
    "mz:hierarchy_label":1,
    "mz:is_approximate":1,
    "mz:is_clustr":1,
    "src:geom":"oa",
    "wof:belongsto":[
        85687041,
        102191581,
        404474165,
        85633337,
        101752765
    ],
    "wof:breaches":[],
    "wof:country":"NL",
    "wof:created":1469674345,
    "wof:geomhash":"8f5d10928187ffc1bd387167e35cc2be",
    "wof:hierarchy":[
        {
            "continent_id":102191581,
            "country_id":85633337,
            "localadmin_id":404474165,
            "locality_id":101752765,
            "postalcode_id":890776303,
            "region_id":85687041
        }
    ],
    "wof:id":890776303,
    "wof:lastmodified":1469674345,
    "wof:name":"2622CR",
    "wof:parent_id":101752765,
    "wof:placetype":"postalcode",
    "wof:repo":"whosonfirst-data-postalcode-nl",
    "wof:superseded_by":[],
    "wof:supersedes":[],
    "wof:tags":[]
},
  "bbox": [
    4.342885494232178,
    51.983253479003906,
    4.343107223510742,
    51.98371505737305
],
  "geometry": {"coordinates":[[[4.34306621551514,51.98342895507812],[4.34307622909546,51.98340225219727],[4.34310722351074,51.98325347900391],[4.3430700302124,51.98327255249023],[4.34303712844849,51.98334503173828],[4.3429536819458,51.98353576660156],[4.3428955078125,51.98368453979492],[4.34288549423218,51.98371124267578],[4.34291505813599,51.98371505737305],[4.3430061340332,51.98357391357422],[4.34302759170532,51.98352432250977],[4.34306621551514,51.98342895507812]]],"type":"Polygon"}
}