{
  "id": 891051879,
  "type": "Feature",
  "properties": {
    "clustr:alpha":0.05,
    "clustr:area":120.45,
    "clustr:count":20,
    "clustr:density":0.17,
    "clustr:perimeter":0.3,
    "edtf:cessation":"uuuu",
    "edtf:inception":"uuuu",
    "geom:area":0.0,
    "geom:bbox":"5.42001247406,51.4203262329,5.42247104645,51.4210243225",
    "geom:latitude":51.420611,
    "geom:longitude":5.420994,
    "iso:country":"NL",
    "mz:hierarchy_label":1,
    "mz:is_approximate":1,
    "mz:is_clustr":1,
    "src:geom":"oa",
    "wof:belongsto":[
        85687035,
        102191581,
        404474443,
        85633337,
        101754579
    ],
    "wof:breaches":[],
    "wof:country":"NL",
    "wof:created":1469685431,
    "wof:geomhash":"24859417e2e60b8360667a3b51486dc1",
    "wof:hierarchy":[
        {
            "continent_id":102191581,
            "country_id":85633337,
            "localadmin_id":404474443,
            "locality_id":101754579,
            "postalcode_id":891051879,
            "region_id":85687035
        }
    ],
    "wof:id":891051879,
    "wof:lastmodified":1469685431,
    "wof:name":"5502VD",
    "wof:parent_id":101754579,
    "wof:placetype":"postalcode",
    "wof:repo":"whosonfirst-data-postalcode-nl",
    "wof:superseded_by":[],
    "wof:supersedes":[],
    "wof:tags":[]
},
  "bbox": [
    5.420012474060059,
    51.420326232910156,
    5.422471046447754,
    51.421024322509766
],
  "geometry": {"coordinates":[[[5.42010831832886,51.42035293579102],[5.42001247406006,51.42032623291016],[5.4202446937561,51.42041397094727],[5.42059469223022,51.42050933837891],[5.4216456413269,51.42079925537109],[5.42172813415527,51.42082214355469],[5.42222738265991,51.42095947265625],[5.42238187789917,51.42100143432617],[5.42247104644775,51.42102432250977],[5.4211106300354,51.42063522338867],[5.42010831832886,51.42035293579102]]],"type":"Polygon"}
}