{
  "id": 891023353,
  "type": "Feature",
  "properties": {
    "clustr:alpha":0.05,
    "clustr:area":106.09,
    "clustr:count":17,
    "clustr:density":0.16,
    "clustr:perimeter":0.2,
    "edtf:cessation":"uuuu",
    "edtf:inception":"uuuu",
    "geom:area":0.0,
    "geom:bbox":"5.30536413193,51.7064361572,5.30705308914,51.7072982788",
    "geom:latitude":51.706978,
    "geom:longitude":5.306235,
    "iso:country":"NL",
    "mz:hierarchy_label":1,
    "mz:is_approximate":1,
    "mz:is_clustr":1,
    "src:geom":"oa",
    "wof:belongsto":[
        85687035,
        102191581,
        404474393,
        85633337,
        101751809
    ],
    "wof:breaches":[],
    "wof:country":"NL",
    "wof:created":1469684370,
    "wof:geomhash":"46b2cb461d33f98d298677de8d136e60",
    "wof:hierarchy":[
        {
            "continent_id":102191581,
            "country_id":85633337,
            "localadmin_id":404474393,
            "locality_id":101751809,
            "postalcode_id":891023353,
            "region_id":85687035
        }
    ],
    "wof:id":891023353,
    "wof:lastmodified":1469684370,
    "wof:name":"5231ND",
    "wof:parent_id":101751809,
    "wof:placetype":"postalcode",
    "wof:repo":"whosonfirst-data-postalcode-nl",
    "wof:superseded_by":[],
    "wof:supersedes":[],
    "wof:tags":[]
},
  "bbox": [
    5.30536413192749,
    51.70643615722656,
    5.307053089141846,
    51.707298278808594
],
  "geometry": {"coordinates":[[[5.30630970001221,51.707275390625],[5.3064169883728,51.70728302001953],[5.30647611618042,51.7072868347168],[5.30671453475952,51.70729827880859],[5.30683374404907,51.70729446411133],[5.30705308914185,51.70724105834961],[5.30540561676025,51.70643615722656],[5.30536413192749,51.70646286010742],[5.30630970001221,51.707275390625]]],"type":"Polygon"}
}