{
  "id": 891107033,
  "type": "Feature",
  "properties": {
    "clustr:alpha":0.05,
    "clustr:area":4.45,
    "clustr:count":39,
    "clustr:density":8.76,
    "clustr:perimeter":0.4,
    "edtf:cessation":"uuuu",
    "edtf:inception":"uuuu",
    "geom:area":0.000001,
    "geom:bbox":"5.96010541916,51.1809463501,5.9605846405,51.1828651428",
    "geom:latitude":51.181927,
    "geom:longitude":5.960365,
    "iso:country":"NL",
    "mz:hierarchy_label":1,
    "mz:is_approximate":1,
    "mz:is_clustr":1,
    "src:geom":"oa",
    "wof:belongsto":[
        85687033,
        102191581,
        404474511,
        85633337,
        101839225
    ],
    "wof:breaches":[],
    "wof:country":"NL",
    "wof:created":1469687546,
    "wof:geomhash":"e6bfb28eb94fa5754ff14fd1721d39c2",
    "wof:hierarchy":[
        {
            "continent_id":102191581,
            "country_id":85633337,
            "localadmin_id":404474511,
            "locality_id":101839225,
            "postalcode_id":891107033,
            "region_id":85687033
        }
    ],
    "wof:id":891107033,
    "wof:lastmodified":1469687546,
    "wof:name":"6049KN",
    "wof:parent_id":101839225,
    "wof:placetype":"postalcode",
    "wof:repo":"whosonfirst-data-postalcode-nl",
    "wof:superseded_by":[],
    "wof:supersedes":[],
    "wof:tags":[]
},
  "bbox": [
    5.960105419158936,
    51.180946350097656,
    5.96058464050293,
    51.182865142822266
],
  "geometry": {"coordinates":[[[5.96011781692505,51.18230056762695],[5.96026086807251,51.18286514282227],[5.96054172515869,51.18277740478516],[5.9605770111084,51.1826057434082],[5.96058464050293,51.18109893798828],[5.96039533615112,51.18097686767578],[5.96033000946045,51.18094635009766],[5.96011829376221,51.18157577514648],[5.96010541915894,51.18188095092773],[5.96011781692505,51.18230056762695]]],"type":"Polygon"}
}