{
  "id": 891152737,
  "type": "Feature",
  "properties": {
    "clustr:alpha":0.05,
    "clustr:area":0.65,
    "clustr:count":14,
    "clustr:density":21.54,
    "clustr:perimeter":0.19,
    "edtf:cessation":"uuuu",
    "edtf:inception":"uuuu",
    "geom:area":0.0,
    "geom:bbox":"5.939930439,51.8531837463,5.94014787674,51.8541221619",
    "geom:latitude":51.853535,
    "geom:longitude":5.940064,
    "iso:country":"NL",
    "mz:hierarchy_label":1,
    "mz:is_approximate":1,
    "mz:is_clustr":1,
    "src:geom":"oa",
    "wof:belongsto":[
        102191581,
        404473943,
        85633337,
        85687043
    ],
    "wof:breaches":[],
    "wof:country":"NL",
    "wof:created":1469689477,
    "wof:geomhash":"3188cb60eefbe8f5f785d422bcfc8656",
    "wof:hierarchy":[
        {
            "continent_id":102191581,
            "country_id":85633337,
            "localadmin_id":404473943,
            "postalcode_id":891152737,
            "region_id":85687043
        }
    ],
    "wof:id":891152737,
    "wof:lastmodified":1469689477,
    "wof:name":"6576DT",
    "wof:parent_id":404473943,
    "wof:placetype":"postalcode",
    "wof:repo":"whosonfirst-data-postalcode-nl",
    "wof:superseded_by":[],
    "wof:supersedes":[],
    "wof:tags":[]
},
  "bbox": [
    5.939930438995361,
    51.85318374633789,
    5.940147876739502,
    51.854122161865234
],
  "geometry": {"coordinates":[[[5.93996667861938,51.85346603393555],[5.94007682800293,51.85394668579102],[5.94009160995483,51.85400009155273],[5.94010782241821,51.85405731201172],[5.94013595581055,51.85412216186523],[5.9401478767395,51.85345840454102],[5.94011306762695,51.85318374633789],[5.94002103805542,51.85318756103516],[5.93993043899536,51.85319137573242],[5.93996667861938,51.85346603393555]]],"type":"Polygon"}
}