{
  "id": 907053451,
  "type": "Feature",
  "properties": {
    "clustr:alpha":0.05,
    "clustr:area":25.12,
    "clustr:count":6,
    "clustr:density":0.24,
    "clustr:perimeter":0.04,
    "edtf:cessation":"uuuu",
    "edtf:inception":"uuuu",
    "geom:area":0.0,
    "geom:bbox":"5.58468723297,52.8951377869,5.58506917953,52.8953056335",
    "geom:latitude":52.895221,
    "geom:longitude":5.584881,
    "iso:country":"NL",
    "mz:hierarchy_label":1,
    "mz:is_approximate":1,
    "mz:is_clustr":1,
    "src:geom":"oa",
    "wof:belongsto":[
        85687055,
        102191581,
        404474297,
        85633337,
        101806091
    ],
    "wof:breaches":[],
    "wof:country":"NL",
    "wof:created":1469696967,
    "wof:geomhash":"4f018f9481264a182b9804290f057422",
    "wof:hierarchy":[
        {
            "continent_id":102191581,
            "country_id":85633337,
            "localadmin_id":404474297,
            "locality_id":101806091,
            "postalcode_id":907053451,
            "region_id":85687055
        }
    ],
    "wof:id":907053451,
    "wof:lastmodified":1469696967,
    "wof:name":"8561CX",
    "wof:parent_id":101806091,
    "wof:placetype":"postalcode",
    "wof:repo":"whosonfirst-data-postalcode-nl",
    "wof:superseded_by":[],
    "wof:supersedes":[],
    "wof:tags":[]
},
  "bbox": [
    5.584687232971191,
    52.895137786865234,
    5.585069179534912,
    52.89530563354492
],
  "geometry": {"coordinates":[[[5.58484697341919,52.89519500732422],[5.58468723297119,52.89513778686523],[5.58498764038086,52.8952751159668],[5.58506917953491,52.89530563354492],[5.58484697341919,52.89519500732422]]],"type":"Polygon"}
}