{
  "id": 891130745,
  "type": "Feature",
  "properties": {
    "clustr:alpha":0.05,
    "clustr:area":34.35,
    "clustr:count":5,
    "clustr:density":0.15,
    "clustr:perimeter":0.06,
    "edtf:cessation":"uuuu",
    "edtf:inception":"uuuu",
    "geom:area":0.0,
    "geom:bbox":"5.87886667252,50.8661270142,5.87922430038,50.8664283752",
    "geom:latitude":50.866274,
    "geom:longitude":5.87905,
    "iso:country":"NL",
    "mz:hierarchy_label":1,
    "mz:is_approximate":1,
    "mz:is_clustr":1,
    "src:geom":"oa",
    "wof:belongsto":[
        102191581,
        404474529,
        85633337,
        85687033
    ],
    "wof:breaches":[],
    "wof:country":"NL",
    "wof:created":1469688531,
    "wof:geomhash":"3cf523f888f98c9c034d4373d6c11fb3",
    "wof:hierarchy":[
        {
            "continent_id":102191581,
            "country_id":85633337,
            "localadmin_id":404474529,
            "postalcode_id":891130745,
            "region_id":85687033
        }
    ],
    "wof:id":891130745,
    "wof:lastmodified":1469688531,
    "wof:name":"6343RP",
    "wof:parent_id":404474529,
    "wof:placetype":"postalcode",
    "wof:repo":"whosonfirst-data-postalcode-nl",
    "wof:superseded_by":[],
    "wof:supersedes":[],
    "wof:tags":[]
},
  "bbox": [
    5.878866672515869,
    50.866127014160156,
    5.879224300384521,
    50.86642837524414
],
  "geometry": {"coordinates":[[[5.87912702560425,50.86631393432617],[5.87922430038452,50.86625671386719],[5.87905502319336,50.86612701416016],[5.87886667251587,50.86642837524414],[5.87912702560425,50.86631393432617]]],"type":"Polygon"}
}