{
  "id": 907075009,
  "type": "Feature",
  "properties": {
    "clustr:alpha":0.05,
    "clustr:area":21.46,
    "clustr:count":33,
    "clustr:density":1.54,
    "clustr:perimeter":0.28,
    "edtf:cessation":"uuuu",
    "edtf:inception":"uuuu",
    "geom:area":0.000001,
    "geom:bbox":"6.10302448273,53.1095161438,6.10483551025,53.1100997925",
    "geom:latitude":53.109843,
    "geom:longitude":6.103941,
    "iso:country":"NL",
    "mz:hierarchy_label":1,
    "mz:is_approximate":1,
    "mz:is_clustr":1,
    "src:geom":"oa",
    "wof:belongsto":[
        85687055,
        102191581,
        404473791,
        85633337,
        101806135
    ],
    "wof:breaches":[],
    "wof:country":"NL",
    "wof:created":1469697913,
    "wof:geomhash":"69b857c9ae5243873a78376fb0fc8fc4",
    "wof:hierarchy":[
        {
            "continent_id":102191581,
            "country_id":85633337,
            "localadmin_id":404473791,
            "locality_id":101806135,
            "postalcode_id":907075009,
            "region_id":85687055
        }
    ],
    "wof:id":907075009,
    "wof:lastmodified":1469697913,
    "wof:name":"9201SE",
    "wof:parent_id":101806135,
    "wof:placetype":"postalcode",
    "wof:repo":"whosonfirst-data-postalcode-nl",
    "wof:superseded_by":[],
    "wof:supersedes":[],
    "wof:tags":[]
},
  "bbox": [
    6.103024482727051,
    53.10951614379883,
    6.104835510253906,
    53.11009979248047
],
  "geometry": {"coordinates":[[[6.10386848449707,53.10951614379883],[6.10302448272705,53.10994720458984],[6.10336112976074,53.10997772216797],[6.10367012023926,53.11000442504883],[6.10425043106079,53.11005401611328],[6.10483551025391,53.11009979248047],[6.10405158996582,53.10953140258789],[6.10386848449707,53.10951614379883]]],"type":"Polygon"}
}