{
  "id": 890995219,
  "type": "Feature",
  "properties": {
    "clustr:alpha":0.05,
    "clustr:area":21.44,
    "clustr:count":14,
    "clustr:density":0.65,
    "clustr:perimeter":0.17,
    "edtf:cessation":"uuuu",
    "edtf:inception":"uuuu",
    "geom:area":0.0,
    "geom:bbox":"4.85211896896,51.6455726624,4.85327148438,51.6457862854",
    "geom:latitude":51.645669,
    "geom:longitude":4.852626,
    "iso:country":"NL",
    "mz:hierarchy_label":1,
    "mz:is_approximate":1,
    "mz:is_clustr":1,
    "src:geom":"oa",
    "wof:belongsto":[
        85687035,
        102191581,
        404474413,
        85633337,
        101808317
    ],
    "wof:breaches":[],
    "wof:country":"NL",
    "wof:created":1469683279,
    "wof:geomhash":"6c1584132b4f6a6b25496f81b11f037e",
    "wof:hierarchy":[
        {
            "continent_id":102191581,
            "country_id":85633337,
            "localadmin_id":404474413,
            "locality_id":101808317,
            "postalcode_id":890995219,
            "region_id":85687035
        }
    ],
    "wof:id":890995219,
    "wof:lastmodified":1469683279,
    "wof:name":"4901LX",
    "wof:parent_id":101808317,
    "wof:placetype":"postalcode",
    "wof:repo":"whosonfirst-data-postalcode-nl",
    "wof:superseded_by":[],
    "wof:supersedes":[],
    "wof:tags":[]
},
  "bbox": [
    4.852118968963623,
    51.645572662353516,
    4.853271484375,
    51.64578628540039
],
  "geometry": {"coordinates":[[[4.85265159606934,51.64578247070312],[4.85282230377197,51.64578628540039],[4.853271484375,51.64559173583984],[4.85283899307251,51.64558029174805],[4.85211896896362,51.64557266235352],[4.85224103927612,51.64577102661133],[4.85247707366943,51.64577865600586],[4.85265159606934,51.64578247070312]]],"type":"Polygon"}
}