{
  "id": 890732975,
  "type": "Feature",
  "properties": {
    "clustr:alpha":0.05,
    "clustr:area":9.07,
    "clustr:count":13,
    "clustr:density":1.43,
    "clustr:perimeter":0.1,
    "edtf:cessation":"uuuu",
    "edtf:inception":"uuuu",
    "geom:area":0.0,
    "geom:bbox":"4.48562526703,52.1563034058,4.48581075668,52.1568183899",
    "geom:latitude":52.156587,
    "geom:longitude":4.485698,
    "iso:country":"NL",
    "mz:hierarchy_label":1,
    "mz:is_approximate":1,
    "mz:is_clustr":1,
    "src:geom":"oa",
    "wof:belongsto":[
        85687041,
        102191581,
        404474199,
        85633337,
        101751833
    ],
    "wof:breaches":[],
    "wof:country":"NL",
    "wof:created":1469672681,
    "wof:geomhash":"9e77a1fbfbfd7aea2e1b4e53cc2d8328",
    "wof:hierarchy":[
        {
            "continent_id":102191581,
            "country_id":85633337,
            "localadmin_id":404474199,
            "locality_id":101751833,
            "postalcode_id":890732975,
            "region_id":85687041
        }
    ],
    "wof:id":890732975,
    "wof:lastmodified":1469672681,
    "wof:name":"2311GK",
    "wof:parent_id":101751833,
    "wof:placetype":"postalcode",
    "wof:repo":"whosonfirst-data-postalcode-nl",
    "wof:superseded_by":[],
    "wof:supersedes":[],
    "wof:tags":[]
},
  "bbox": [
    4.485625267028809,
    52.15630340576172,
    4.48581075668335,
    52.15681838989258
],
  "geometry": {"coordinates":[[[4.48568964004517,52.15668106079102],[4.48571729660034,52.1566162109375],[4.48574542999268,52.15654373168945],[4.48581075668335,52.15630340576172],[4.48562526702881,52.15666580200195],[4.48562669754028,52.15681838989258],[4.48568964004517,52.15668106079102]]],"type":"Polygon"}
}