{
  "id": 891136407,
  "type": "Feature",
  "properties": {
    "clustr:alpha":0.05,
    "clustr:area":25.66,
    "clustr:count":9,
    "clustr:density":0.35,
    "clustr:perimeter":0.38,
    "edtf:cessation":"uuuu",
    "edtf:inception":"uuuu",
    "geom:area":0.000001,
    "geom:bbox":"5.99661445618,50.8759269714,5.99759817123,50.8784942627",
    "geom:latitude":50.876828,
    "geom:longitude":5.996973,
    "iso:country":"NL",
    "mz:hierarchy_label":1,
    "mz:is_approximate":1,
    "mz:is_clustr":1,
    "src:geom":"oa",
    "wof:belongsto":[
        85687033,
        102191581,
        404474485,
        85633337,
        101839245
    ],
    "wof:breaches":[],
    "wof:country":"NL",
    "wof:created":1469688814,
    "wof:geomhash":"21f6f85af3e6a90b57c855b08c909182",
    "wof:hierarchy":[
        {
            "continent_id":102191581,
            "country_id":85633337,
            "localadmin_id":404474485,
            "locality_id":101839245,
            "postalcode_id":891136407,
            "region_id":85687033
        }
    ],
    "wof:id":891136407,
    "wof:lastmodified":1469688814,
    "wof:name":"6416GM",
    "wof:parent_id":101839245,
    "wof:placetype":"postalcode",
    "wof:repo":"whosonfirst-data-postalcode-nl",
    "wof:superseded_by":[],
    "wof:supersedes":[],
    "wof:tags":[]
},
  "bbox": [
    5.996614456176758,
    50.87592697143555,
    5.997598171234131,
    50.87849426269531
],
  "geometry": {"coordinates":[[[5.99661445617676,50.87594985961914],[5.9966926574707,50.87834930419922],[5.99674797058105,50.87849426269531],[5.99759817123413,50.87592697143555],[5.99661445617676,50.87594985961914]]],"type":"Polygon"}
}