{
  "id": 891047305,
  "type": "Feature",
  "properties": {
    "clustr:alpha":0.05,
    "clustr:area":15.82,
    "clustr:count":23,
    "clustr:density":1.45,
    "clustr:perimeter":0.26,
    "edtf:cessation":"uuuu",
    "edtf:inception":"uuuu",
    "geom:area":0.0,
    "geom:bbox":"5.54433631897,51.6243553162,5.54579639435,51.625",
    "geom:latitude":51.624706,
    "geom:longitude":5.544934,
    "iso:country":"NL",
    "mz:hierarchy_label":1,
    "mz:is_approximate":1,
    "mz:is_clustr":1,
    "src:geom":"oa",
    "wof:belongsto":[
        85687035,
        102191581,
        404474441,
        85633337,
        101808329
    ],
    "wof:breaches":[],
    "wof:country":"NL",
    "wof:created":1469685273,
    "wof:geomhash":"4bffeb2046604a7d4db022bc0102e488",
    "wof:hierarchy":[
        {
            "continent_id":102191581,
            "country_id":85633337,
            "localadmin_id":404474441,
            "locality_id":101808329,
            "postalcode_id":891047305,
            "region_id":85687035
        }
    ],
    "wof:id":891047305,
    "wof:lastmodified":1469685273,
    "wof:name":"5461DZ",
    "wof:parent_id":101808329,
    "wof:placetype":"postalcode",
    "wof:repo":"whosonfirst-data-postalcode-nl",
    "wof:superseded_by":[],
    "wof:supersedes":[],
    "wof:tags":[]
},
  "bbox": [
    5.544336318969727,
    51.62435531616211,
    5.545796394348145,
    51.625
],
  "geometry": {"coordinates":[[[5.54510307312012,51.62496566772461],[5.54560852050781,51.62499237060547],[5.54579639434815,51.625],[5.54550695419312,51.62477493286133],[5.54469680786133,51.62437057495117],[5.54436445236206,51.62435531616211],[5.54433631896973,51.62459564208984],[5.54459714889526,51.62485885620117],[5.54484272003174,51.62491226196289],[5.54497289657593,51.62493896484375],[5.54510307312012,51.62496566772461]]],"type":"Polygon"}
}