{
  "id": 890966469,
  "type": "Feature",
  "properties": {
    "clustr:alpha":0.05,
    "clustr:area":27.09,
    "clustr:count":23,
    "clustr:density":0.85,
    "clustr:perimeter":1.58,
    "edtf:cessation":"uuuu",
    "edtf:inception":"uuuu",
    "geom:area":0.000002,
    "geom:bbox":"4.02132797241,51.245426178,4.03013372421,51.2500076294",
    "geom:latitude":51.247281,
    "geom:longitude":4.024921,
    "iso:country":"NL",
    "mz:hierarchy_label":1,
    "mz:is_approximate":1,
    "mz:is_clustr":1,
    "src:geom":"oa",
    "wof:belongsto":[
        102191581,
        404474307,
        85633337,
        85687037
    ],
    "wof:breaches":[],
    "wof:country":"NL",
    "wof:created":1469682000,
    "wof:geomhash":"3c084ff217ba2244c884c05b37a60163",
    "wof:hierarchy":[
        {
            "continent_id":102191581,
            "country_id":85633337,
            "localadmin_id":404474307,
            "postalcode_id":890966469,
            "region_id":85687037
        }
    ],
    "wof:id":890966469,
    "wof:lastmodified":1469682000,
    "wof:name":"4566BA",
    "wof:parent_id":404474307,
    "wof:placetype":"postalcode",
    "wof:repo":"whosonfirst-data-postalcode-nl",
    "wof:superseded_by":[],
    "wof:supersedes":[],
    "wof:tags":[]
},
  "bbox": [
    4.021327972412109,
    51.245426177978516,
    4.030133724212646,
    51.25000762939453
],
  "geometry": {"coordinates":[[[4.02465009689331,51.24738693237305],[4.02618980407715,51.24810791015625],[4.03013372421265,51.25000762939453],[4.02990436553955,51.2498779296875],[4.02298402786255,51.24598693847656],[4.02132797241211,51.24542617797852],[4.02380323410034,51.24697494506836],[4.02442407608032,51.24728012084961],[4.02465009689331,51.24738693237305]]],"type":"Polygon"}
}