{
  "id": 890655289,
  "type": "Feature",
  "properties": {
    "clustr:alpha":0.05,
    "clustr:area":5.79,
    "clustr:count":14,
    "clustr:density":2.42,
    "clustr:perimeter":0.12,
    "edtf:cessation":"uuuu",
    "edtf:inception":"uuuu",
    "geom:area":0.0,
    "geom:bbox":"4.80691576004,52.4579315186,4.80695390701,52.45860672",
    "geom:latitude":52.458303,
    "geom:longitude":4.806938,
    "iso:country":"NL",
    "mz:hierarchy_label":1,
    "mz:is_approximate":1,
    "mz:is_clustr":1,
    "src:geom":"oa",
    "wof:belongsto":[
        85687053,
        102191581,
        404474143,
        85633337,
        101754825
    ],
    "wof:breaches":[],
    "wof:country":"NL",
    "wof:created":1469669265,
    "wof:geomhash":"3ff36e6a8acb957de880ca39c5fb104f",
    "wof:hierarchy":[
        {
            "continent_id":102191581,
            "country_id":85633337,
            "localadmin_id":404474143,
            "locality_id":101754825,
            "postalcode_id":890655289,
            "region_id":85687053
        }
    ],
    "wof:id":890655289,
    "wof:lastmodified":1469669265,
    "wof:name":"1541AV",
    "wof:parent_id":101754825,
    "wof:placetype":"postalcode",
    "wof:repo":"whosonfirst-data-postalcode-nl",
    "wof:superseded_by":[],
    "wof:supersedes":[],
    "wof:tags":[]
},
  "bbox": [
    4.806915760040283,
    52.45793151855469,
    4.806953907012939,
    52.4586067199707
],
  "geometry": {"coordinates":[[[4.80693531036377,52.45823669433594],[4.8069167137146,52.45855331420898],[4.80691576004028,52.4586067199707],[4.80693197250366,52.45848846435547],[4.8069486618042,52.45834350585938],[4.80694961547852,52.45829010009766],[4.80695295333862,52.45803070068359],[4.80695343017578,52.45798492431641],[4.80695390701294,52.45793151855469],[4.80693531036377,52.45823669433594]]],"type":"Polygon"}
}