{
  "id": 890648719,
  "type": "Feature",
  "properties": {
    "clustr:alpha":0.05,
    "clustr:area":13.74,
    "clustr:count":23,
    "clustr:density":1.67,
    "clustr:perimeter":0.22,
    "edtf:cessation":"uuuu",
    "edtf:inception":"uuuu",
    "geom:area":0.0,
    "geom:bbox":"4.94311141968,52.4996337891,4.94415903091,52.5004463196",
    "geom:latitude":52.50001,
    "geom:longitude":4.943716,
    "iso:country":"NL",
    "mz:hierarchy_label":1,
    "mz:is_approximate":1,
    "mz:is_clustr":1,
    "src:geom":"oa",
    "wof:belongsto":[
        85687053,
        102191581,
        404474111,
        85633337,
        101751889
    ],
    "wof:breaches":[],
    "wof:country":"NL",
    "wof:created":1469668922,
    "wof:geomhash":"ff74127aa8501c8a14912ecae31511f5",
    "wof:hierarchy":[
        {
            "continent_id":102191581,
            "country_id":85633337,
            "localadmin_id":404474111,
            "locality_id":101751889,
            "postalcode_id":890648719,
            "region_id":85687053
        }
    ],
    "wof:id":890648719,
    "wof:lastmodified":1469668922,
    "wof:name":"1448GH",
    "wof:parent_id":101751889,
    "wof:placetype":"postalcode",
    "wof:repo":"whosonfirst-data-postalcode-nl",
    "wof:superseded_by":[],
    "wof:supersedes":[],
    "wof:tags":[]
},
  "bbox": [
    4.943111419677734,
    52.4996337890625,
    4.944159030914307,
    52.50044631958008
],
  "geometry": {"coordinates":[[[4.94397258758545,52.5002326965332],[4.94404458999634,52.50002670288086],[4.94406080245972,52.49997711181641],[4.94414234161377,52.49971771240234],[4.94415903091431,52.49966430664062],[4.94379425048828,52.4996337890625],[4.94311141967773,52.50008392333984],[4.94387912750244,52.50044631958008],[4.94397258758545,52.5002326965332]]],"type":"Polygon"}
}