{
  "id": 891126931,
  "type": "Feature",
  "properties": {
    "clustr:alpha":0.05,
    "clustr:area":6.58,
    "clustr:count":19,
    "clustr:density":2.89,
    "clustr:perimeter":0.36,
    "edtf:cessation":"uuuu",
    "edtf:inception":"uuuu",
    "geom:area":0.0,
    "geom:bbox":"5.70952177048,50.7812538147,5.70954370499,50.7830505371",
    "geom:latitude":50.782231,
    "geom:longitude":5.709534,
    "iso:country":"NL",
    "mz:hierarchy_label":1,
    "mz:is_approximate":1,
    "mz:is_clustr":1,
    "src:geom":"oa",
    "wof:belongsto":[
        85687033,
        102191581,
        404474479,
        85633337,
        101755865
    ],
    "wof:breaches":[],
    "wof:country":"NL",
    "wof:created":1469688273,
    "wof:geomhash":"0a2f91b10889ac28610d42704f4f8435",
    "wof:hierarchy":[
        {
            "continent_id":102191581,
            "country_id":85633337,
            "localadmin_id":404474479,
            "locality_id":101755865,
            "postalcode_id":891126931,
            "region_id":85687033
        }
    ],
    "wof:id":891126931,
    "wof:lastmodified":1469688273,
    "wof:name":"6245EN",
    "wof:parent_id":101755865,
    "wof:placetype":"postalcode",
    "wof:repo":"whosonfirst-data-postalcode-nl",
    "wof:superseded_by":[],
    "wof:supersedes":[],
    "wof:tags":[]
},
  "bbox": [
    5.709521770477295,
    50.781253814697266,
    5.709543704986572,
    50.783050537109375
],
  "geometry": {"coordinates":[[[5.70953559875488,50.78269958496094],[5.70954370498657,50.78189086914062],[5.70954370498657,50.78182983398438],[5.70954084396362,50.78143310546875],[5.70954036712646,50.7813606262207],[5.70953941345215,50.78125381469727],[5.7095308303833,50.78200912475586],[5.70952177047729,50.78281784057617],[5.70952320098877,50.78299713134766],[5.70952367782593,50.78305053710938],[5.70953559875488,50.78269958496094]]],"type":"Polygon"}
}