{
  "id": 890726213,
  "type": "Feature",
  "properties": {
    "clustr:alpha":0.05,
    "clustr:area":12.49,
    "clustr:count":41,
    "clustr:density":3.28,
    "clustr:perimeter":0.09,
    "edtf:cessation":"uuuu",
    "edtf:inception":"uuuu",
    "geom:area":0.0,
    "geom:bbox":"4.37946557999,52.0901832581,4.37981653214,52.0905189514",
    "geom:latitude":52.090374,
    "geom:longitude":4.379638,
    "iso:country":"NL",
    "mz:hierarchy_label":1,
    "mz:is_approximate":1,
    "mz:is_clustr":1,
    "src:geom":"oa",
    "wof:belongsto":[
        85687041,
        102191581,
        404474685,
        85633337,
        101754679
    ],
    "wof:breaches":[],
    "wof:country":"NL",
    "wof:created":1469672392,
    "wof:geomhash":"2d5d98d3e3a7bc7be104d0bd1e30d5ba",
    "wof:hierarchy":[
        {
            "continent_id":102191581,
            "country_id":85633337,
            "localadmin_id":404474685,
            "locality_id":101754679,
            "postalcode_id":890726213,
            "region_id":85687041
        }
    ],
    "wof:id":890726213,
    "wof:lastmodified":1469672392,
    "wof:name":"2261DA",
    "wof:parent_id":101754679,
    "wof:placetype":"postalcode",
    "wof:repo":"whosonfirst-data-postalcode-nl",
    "wof:superseded_by":[],
    "wof:supersedes":[],
    "wof:tags":[]
},
  "bbox": [
    4.379465579986572,
    52.09018325805664,
    4.37981653213501,
    52.090518951416016
],
  "geometry": {"coordinates":[[[4.37981653213501,52.09039306640625],[4.37981653213501,52.09032440185547],[4.37970972061157,52.09024810791016],[4.37961339950562,52.09018325805664],[4.37956237792969,52.09024047851562],[4.37952947616577,52.09027862548828],[4.37946557998657,52.09051895141602],[4.37962627410889,52.09051895141602],[4.37972211837769,52.09048843383789],[4.37981653213501,52.09039306640625]]],"type":"Polygon"}
}