{
  "id": 890853341,
  "type": "Feature",
  "properties": {
    "clustr:alpha":0.05,
    "clustr:area":48.3,
    "clustr:count":18,
    "clustr:density":0.37,
    "clustr:perimeter":0.13,
    "edtf:cessation":"uuuu",
    "edtf:inception":"uuuu",
    "geom:area":0.0,
    "geom:bbox":"4.66812372208,51.8022346497,4.66868972778,51.8029785156",
    "geom:latitude":51.802702,
    "geom:longitude":4.668343,
    "iso:country":"NL",
    "mz:hierarchy_label":1,
    "mz:is_approximate":1,
    "mz:is_clustr":1,
    "src:geom":"oa",
    "wof:belongsto":[
        85687041,
        102191581,
        404474169,
        85633337,
        101751841
    ],
    "wof:breaches":[],
    "wof:country":"NL",
    "wof:created":1469677241,
    "wof:geomhash":"49e375d5ac31e7089a3b77934ced7fd5",
    "wof:hierarchy":[
        {
            "continent_id":102191581,
            "country_id":85633337,
            "localadmin_id":404474169,
            "locality_id":101751841,
            "postalcode_id":890853341,
            "region_id":85687041
        }
    ],
    "wof:id":890853341,
    "wof:lastmodified":1469677241,
    "wof:name":"3314LB",
    "wof:parent_id":101751841,
    "wof:placetype":"postalcode",
    "wof:repo":"whosonfirst-data-postalcode-nl",
    "wof:superseded_by":[],
    "wof:supersedes":[],
    "wof:tags":[]
},
  "bbox": [
    4.668123722076416,
    51.8022346496582,
    4.668689727783203,
    51.802978515625
],
  "geometry": {"coordinates":[[[4.66822052001953,51.80284881591797],[4.66812372207642,51.802978515625],[4.66816329956055,51.80295944213867],[4.66827630996704,51.80281066894531],[4.66829633712769,51.80278396606445],[4.6686897277832,51.8022346496582],[4.66865015029907,51.80228424072266],[4.66857194900513,51.80238723754883],[4.66822052001953,51.80284881591797]]],"type":"Polygon"}
}