{
  "id": 907088167,
  "type": "Feature",
  "properties": {
    "clustr:alpha":0.05,
    "clustr:area":61.21,
    "clustr:count":24,
    "clustr:density":0.39,
    "clustr:perimeter":0.27,
    "edtf:cessation":"uuuu",
    "edtf:inception":"uuuu",
    "geom:area":0.000001,
    "geom:bbox":"6.53595399857,52.9789390564,6.5379281044,52.9798355103",
    "geom:latitude":52.979276,
    "geom:longitude":6.536958,
    "iso:country":"NL",
    "mz:hierarchy_label":1,
    "mz:is_approximate":1,
    "mz:is_clustr":1,
    "src:geom":"oa",
    "wof:belongsto":[
        85687051,
        102191581,
        404473805,
        85633337,
        101751879
    ],
    "wof:breaches":[],
    "wof:country":"NL",
    "wof:created":1469698697,
    "wof:geomhash":"c19e20b116ff624e02eafa4dfd8c207c",
    "wof:hierarchy":[
        {
            "continent_id":102191581,
            "country_id":85633337,
            "localadmin_id":404473805,
            "locality_id":101751879,
            "postalcode_id":907088167,
            "region_id":85687051
        }
    ],
    "wof:id":907088167,
    "wof:lastmodified":1469698697,
    "wof:name":"9405LL",
    "wof:parent_id":101751879,
    "wof:placetype":"postalcode",
    "wof:repo":"whosonfirst-data-postalcode-nl",
    "wof:superseded_by":[],
    "wof:supersedes":[],
    "wof:tags":[]
},
  "bbox": [
    6.535953998565674,
    52.978939056396484,
    6.537928104400635,
    52.979835510253906
],
  "geometry": {"coordinates":[[[6.53732967376709,52.97914886474609],[6.53690719604492,52.97893905639648],[6.53595399856567,52.97893905639648],[6.53624391555786,52.97919845581055],[6.53783893585205,52.97982788085938],[6.53792810440063,52.97983551025391],[6.53732967376709,52.97914886474609]]],"type":"Polygon"}
}