{
  "id": 890886013,
  "type": "Feature",
  "properties": {
    "clustr:alpha":0.05,
    "clustr:area":12.47,
    "clustr:count":25,
    "clustr:density":2.0,
    "clustr:perimeter":0.23,
    "edtf:cessation":"uuuu",
    "edtf:inception":"uuuu",
    "geom:area":0.0,
    "geom:bbox":"5.03229379654,52.1285400391,5.03286123276,52.1295127869",
    "geom:latitude":52.128997,
    "geom:longitude":5.03253,
    "iso:country":"NL",
    "mz:hierarchy_label":1,
    "mz:is_approximate":1,
    "mz:is_clustr":1,
    "src:geom":"oa",
    "wof:belongsto":[
        85687039,
        102191581,
        404474007,
        85633337,
        101751827
    ],
    "wof:breaches":[],
    "wof:country":"NL",
    "wof:created":1469678519,
    "wof:geomhash":"e3e47130fbc69e5808e6d5c6b638e9c2",
    "wof:hierarchy":[
        {
            "continent_id":102191581,
            "country_id":85633337,
            "localadmin_id":404474007,
            "locality_id":101751827,
            "postalcode_id":890886013,
            "region_id":85687039
        }
    ],
    "wof:id":890886013,
    "wof:lastmodified":1469678519,
    "wof:name":"3608VE",
    "wof:parent_id":101751827,
    "wof:placetype":"postalcode",
    "wof:repo":"whosonfirst-data-postalcode-nl",
    "wof:superseded_by":[],
    "wof:supersedes":[],
    "wof:tags":[]
},
  "bbox": [
    5.032293796539307,
    52.1285400390625,
    5.032861232757568,
    52.129512786865234
],
  "geometry": {"coordinates":[[[5.03247833251953,52.12944412231445],[5.03277969360352,52.12915420532227],[5.03286123275757,52.12907409667969],[5.03271532058716,52.12871932983398],[5.03266048431396,52.12868881225586],[5.03259658813477,52.12865829467773],[5.03253221511841,52.12862777709961],[5.03234052658081,52.1285400390625],[5.03229379653931,52.12886047363281],[5.03238153457642,52.12951278686523],[5.03247833251953,52.12944412231445]]],"type":"Polygon"}
}