{
  "id": 891036365,
  "type": "Feature",
  "properties": {
    "clustr:alpha":0.05,
    "clustr:area":215.4,
    "clustr:count":26,
    "clustr:density":0.12,
    "clustr:perimeter":0.17,
    "edtf:cessation":"uuuu",
    "edtf:inception":"uuuu",
    "geom:area":0.0,
    "geom:bbox":"5.49199056625,51.7633666992,5.49392223358,51.7638511658",
    "geom:latitude":51.763634,
    "geom:longitude":5.492695,
    "iso:country":"NL",
    "mz:hierarchy_label":1,
    "mz:is_approximate":1,
    "mz:is_clustr":1,
    "src:geom":"oa",
    "wof:belongsto":[
        85687035,
        102191581,
        404474415,
        85633337,
        101751807
    ],
    "wof:breaches":[],
    "wof:country":"NL",
    "wof:created":1469684875,
    "wof:geomhash":"9fd377ba040884588f4b08554316e937",
    "wof:hierarchy":[
        {
            "continent_id":102191581,
            "country_id":85633337,
            "localadmin_id":404474415,
            "locality_id":101751807,
            "postalcode_id":891036365,
            "region_id":85687035
        }
    ],
    "wof:id":891036365,
    "wof:lastmodified":1469684875,
    "wof:name":"5345PH",
    "wof:parent_id":101751807,
    "wof:placetype":"postalcode",
    "wof:repo":"whosonfirst-data-postalcode-nl",
    "wof:superseded_by":[],
    "wof:supersedes":[],
    "wof:tags":[]
},
  "bbox": [
    5.491990566253662,
    51.76336669921875,
    5.493922233581543,
    51.763851165771484
],
  "geometry": {"coordinates":[[[5.49211740493774,51.76336669921875],[5.49199056625366,51.76366806030273],[5.49368238449097,51.76383972167969],[5.49384260177612,51.76384735107422],[5.49392223358154,51.76385116577148],[5.49211740493774,51.76336669921875]]],"type":"Polygon"}
}