{
  "id": 891228225,
  "type": "Feature",
  "properties": {
    "clustr:alpha":0.05,
    "clustr:area":55.92,
    "clustr:count":11,
    "clustr:density":0.2,
    "clustr:perimeter":0.21,
    "edtf:cessation":"uuuu",
    "edtf:inception":"uuuu",
    "geom:area":0.0,
    "geom:bbox":"6.48853778839,52.362159729,6.48922204971,52.3632202148",
    "geom:latitude":52.362668,
    "geom:longitude":6.488916,
    "iso:country":"NL",
    "mz:hierarchy_label":1,
    "mz:is_approximate":1,
    "mz:is_clustr":1,
    "src:geom":"oa",
    "wof:belongsto":[
        102191581,
        404473835,
        85633337,
        85687045
    ],
    "wof:breaches":[],
    "wof:country":"NL",
    "wof:created":1469692532,
    "wof:geomhash":"8959cfa505e28746790fa9def445d1d3",
    "wof:hierarchy":[
        {
            "continent_id":102191581,
            "country_id":85633337,
            "localadmin_id":404473835,
            "postalcode_id":891228225,
            "region_id":85687045
        }
    ],
    "wof:id":891228225,
    "wof:lastmodified":1469692532,
    "wof:name":"7442BX",
    "wof:parent_id":404473835,
    "wof:placetype":"postalcode",
    "wof:repo":"whosonfirst-data-postalcode-nl",
    "wof:superseded_by":[],
    "wof:supersedes":[],
    "wof:tags":[]
},
  "bbox": [
    6.488537788391113,
    52.362159729003906,
    6.489222049713135,
    52.36322021484375
],
  "geometry": {"coordinates":[[[6.48904180526733,52.36280059814453],[6.48922204971313,52.36241149902344],[6.48914432525635,52.36223220825195],[6.48899412155151,52.36215972900391],[6.48853778839111,52.36321640014648],[6.48863220214844,52.36322021484375],[6.48904180526733,52.36280059814453]]],"type":"Polygon"}
}