{
  "id": 891191545,
  "type": "Feature",
  "properties": {
    "clustr:alpha":0.05,
    "clustr:area":156.14,
    "clustr:count":19,
    "clustr:density":0.12,
    "clustr:perimeter":0.22,
    "edtf:cessation":"uuuu",
    "edtf:inception":"uuuu",
    "geom:area":0.0,
    "geom:bbox":"6.02390050888,52.0045928955,6.02612924576,52.0048522949",
    "geom:latitude":52.004711,
    "geom:longitude":6.024965,
    "iso:country":"NL",
    "mz:hierarchy_label":1,
    "mz:is_approximate":1,
    "mz:is_clustr":1,
    "src:geom":"oa",
    "wof:belongsto":[
        85687043,
        102191581,
        404473933,
        85633337,
        101837831
    ],
    "wof:breaches":[],
    "wof:country":"NL",
    "wof:created":1469691061,
    "wof:geomhash":"7eea3dc3a531c6454df26fb0c99f2bfa",
    "wof:hierarchy":[
        {
            "continent_id":102191581,
            "country_id":85633337,
            "localadmin_id":404473933,
            "locality_id":101837831,
            "postalcode_id":891191545,
            "region_id":85687043
        }
    ],
    "wof:id":891191545,
    "wof:lastmodified":1469691061,
    "wof:name":"6991DX",
    "wof:parent_id":101837831,
    "wof:placetype":"postalcode",
    "wof:repo":"whosonfirst-data-postalcode-nl",
    "wof:superseded_by":[],
    "wof:supersedes":[],
    "wof:tags":[]
},
  "bbox": [
    6.023900508880615,
    52.00459289550781,
    6.026129245758057,
    52.004852294921875
],
  "geometry": {"coordinates":[[[6.02461099624634,52.004638671875],[6.02439069747925,52.00460815429688],[6.0243353843689,52.00460433959961],[6.02390050888062,52.00459289550781],[6.02540874481201,52.00479125976562],[6.0256781578064,52.00482559204102],[6.02612924575806,52.00485229492188],[6.0259108543396,52.00482177734375],[6.02461099624634,52.004638671875]]],"type":"Polygon"}
}