{
  "id": 890620379,
  "type": "Feature",
  "properties": {
    "clustr:alpha":0.05,
    "clustr:area":42.14,
    "clustr:count":18,
    "clustr:density":0.43,
    "clustr:perimeter":0.19,
    "edtf:cessation":"uuuu",
    "edtf:inception":"uuuu",
    "geom:area":0.0,
    "geom:bbox":"5.18286180496,52.2260322571,5.18416547775,52.2266654968",
    "geom:latitude":52.226266,
    "geom:longitude":5.183393,
    "iso:country":"NL",
    "mz:hierarchy_label":1,
    "mz:is_approximate":1,
    "mz:is_clustr":1,
    "src:geom":"oa",
    "wof:belongsto":[
        85687053,
        102191581,
        404474081,
        85633337,
        101751905
    ],
    "wof:breaches":[],
    "wof:country":"NL",
    "wof:created":1469667721,
    "wof:geomhash":"e3c19aacb08d2dc51eb4ae7ef6f23c8a",
    "wof:hierarchy":[
        {
            "continent_id":102191581,
            "country_id":85633337,
            "localadmin_id":404474081,
            "locality_id":101751905,
            "postalcode_id":890620379,
            "region_id":85687053
        }
    ],
    "wof:id":890620379,
    "wof:lastmodified":1469667721,
    "wof:name":"1221HL",
    "wof:parent_id":101751905,
    "wof:placetype":"postalcode",
    "wof:repo":"whosonfirst-data-postalcode-nl",
    "wof:superseded_by":[],
    "wof:supersedes":[],
    "wof:tags":[]
},
  "bbox": [
    5.182861804962158,
    52.22603225708008,
    5.184165477752686,
    52.22666549682617
],
  "geometry": {"coordinates":[[[5.18328762054443,52.22617721557617],[5.18310213088989,52.2260856628418],[5.18303966522217,52.22606658935547],[5.18286180496216,52.22603225708008],[5.18416547775269,52.22666549682617],[5.18365478515625,52.22637939453125],[5.18328762054443,52.22617721557617]]],"type":"Polygon"}
}