{
  "id": 891118851,
  "type": "Feature",
  "properties": {
    "clustr:alpha":0.05,
    "clustr:area":3.0,
    "clustr:count":21,
    "clustr:density":7.0,
    "clustr:perimeter":0.27,
    "edtf:cessation":"uuuu",
    "edtf:inception":"uuuu",
    "geom:area":0.0,
    "geom:bbox":"5.76510095596,50.9660110474,5.76520252228,50.9673156738",
    "geom:latitude":50.966843,
    "geom:longitude":5.765161,
    "iso:country":"NL",
    "mz:hierarchy_label":1,
    "mz:is_approximate":1,
    "mz:is_clustr":1,
    "src:geom":"oa",
    "wof:belongsto":[
        85687033,
        102191581,
        404474521,
        85633337,
        101839317
    ],
    "wof:breaches":[],
    "wof:country":"NL",
    "wof:created":1469687986,
    "wof:geomhash":"144ecece41b37acb6af3efc6a94428cd",
    "wof:hierarchy":[
        {
            "continent_id":102191581,
            "country_id":85633337,
            "localadmin_id":404474521,
            "locality_id":101839317,
            "postalcode_id":891118851,
            "region_id":85687033
        }
    ],
    "wof:id":891118851,
    "wof:lastmodified":1469687986,
    "wof:name":"6171HX",
    "wof:parent_id":101839317,
    "wof:placetype":"postalcode",
    "wof:repo":"whosonfirst-data-postalcode-nl",
    "wof:superseded_by":[],
    "wof:supersedes":[],
    "wof:tags":[]
},
  "bbox": [
    5.765100955963135,
    50.96601104736328,
    5.765202522277832,
    50.967315673828125
],
  "geometry": {"coordinates":[[[5.76510286331177,50.96731567382812],[5.76514577865601,50.96731567382812],[5.76520252227783,50.96731567382812],[5.76520156860352,50.9671630859375],[5.76519203186035,50.96601104736328],[5.76517820358276,50.9660758972168],[5.76510095596313,50.96708297729492],[5.76510286331177,50.96731567382812]]],"type":"Polygon"}
}