{
  "id": 890843883,
  "type": "Feature",
  "properties": {
    "clustr:alpha":0.05,
    "clustr:area":87.68,
    "clustr:count":24,
    "clustr:density":0.27,
    "clustr:perimeter":0.15,
    "edtf:cessation":"uuuu",
    "edtf:inception":"uuuu",
    "geom:area":0.0,
    "geom:bbox":"4.14111614227,51.8272590637,4.14214277267,51.8278198242",
    "geom:latitude":51.82762,
    "geom:longitude":4.141653,
    "iso:country":"NL",
    "mz:hierarchy_label":1,
    "mz:is_approximate":1,
    "mz:is_clustr":1,
    "src:geom":"oa",
    "wof:belongsto":[
        85687041,
        102191581,
        404474183,
        85633337,
        101808501
    ],
    "wof:breaches":[],
    "wof:country":"NL",
    "wof:created":1469676897,
    "wof:geomhash":"bfedbccdb3128b72c12d5bf2dac60f67",
    "wof:hierarchy":[
        {
            "continent_id":102191581,
            "country_id":85633337,
            "localadmin_id":404474183,
            "locality_id":101808501,
            "postalcode_id":890843883,
            "region_id":85687041
        }
    ],
    "wof:id":890843883,
    "wof:lastmodified":1469676897,
    "wof:name":"3224BL",
    "wof:parent_id":101808501,
    "wof:placetype":"postalcode",
    "wof:repo":"whosonfirst-data-postalcode-nl",
    "wof:superseded_by":[],
    "wof:supersedes":[],
    "wof:tags":[]
},
  "bbox": [
    4.141116142272949,
    51.8272590637207,
    4.142142772674561,
    51.82781982421875
],
  "geometry": {"coordinates":[[[4.14111614227295,51.82769775390625],[4.14115715026855,51.82780075073242],[4.14214277267456,51.82781982421875],[4.14207363128662,51.82770156860352],[4.14190721511841,51.82743072509766],[4.14179563522339,51.8272590637207],[4.14111614227295,51.82769775390625]]],"type":"Polygon"}
}