{
  "id": 891136515,
  "type": "Feature",
  "properties": {
    "clustr:alpha":0.05,
    "clustr:area":67.96,
    "clustr:count":20,
    "clustr:density":0.29,
    "clustr:perimeter":0.19,
    "edtf:cessation":"uuuu",
    "edtf:inception":"uuuu",
    "geom:area":0.0,
    "geom:bbox":"5.99728107452,50.8847579956,5.99878406525,50.8852119446",
    "geom:latitude":50.884979,
    "geom:longitude":5.997998,
    "iso:country":"NL",
    "mz:hierarchy_label":1,
    "mz:is_approximate":1,
    "mz:is_clustr":1,
    "src:geom":"oa",
    "wof:belongsto":[
        85687033,
        102191581,
        404474485,
        85633337,
        101839245
    ],
    "wof:breaches":[],
    "wof:country":"NL",
    "wof:created":1469688818,
    "wof:geomhash":"5c7beaf6793c742e02d63fa6bd86b525",
    "wof:hierarchy":[
        {
            "continent_id":102191581,
            "country_id":85633337,
            "localadmin_id":404474485,
            "locality_id":101839245,
            "postalcode_id":891136515,
            "region_id":85687033
        }
    ],
    "wof:id":891136515,
    "wof:lastmodified":1469688818,
    "wof:name":"6416VC",
    "wof:parent_id":101839245,
    "wof:placetype":"postalcode",
    "wof:repo":"whosonfirst-data-postalcode-nl",
    "wof:superseded_by":[],
    "wof:supersedes":[],
    "wof:tags":[]
},
  "bbox": [
    5.997281074523926,
    50.88475799560547,
    5.998784065246582,
    50.88521194458008
],
  "geometry": {"coordinates":[[[5.9978461265564,50.88496398925781],[5.99798727035522,50.88500595092773],[5.998131275177,50.88504409790039],[5.99878406524658,50.88521194458008],[5.9987359046936,50.88518905639648],[5.99862670898438,50.88515472412109],[5.99761152267456,50.88483810424805],[5.99728107452393,50.88475799560547],[5.9978461265564,50.88496398925781]]],"type":"Polygon"}
}