{
  "id": 907038577,
  "type": "Feature",
  "properties": {
    "clustr:alpha":0.05,
    "clustr:area":30.24,
    "clustr:count":6,
    "clustr:density":0.2,
    "clustr:perimeter":2.1,
    "edtf:cessation":"uuuu",
    "edtf:inception":"uuuu",
    "geom:area":0.000006,
    "geom:bbox":"5.77490758896,52.7000045776,5.79053974152,52.7007522583",
    "geom:latitude":52.700298,
    "geom:longitude":5.78039,
    "iso:country":"NL",
    "mz:hierarchy_label":1,
    "mz:is_approximate":1,
    "mz:is_clustr":1,
    "src:geom":"oa",
    "wof:belongsto":[
        102191581,
        404473843,
        85633337,
        85687049
    ],
    "wof:breaches":[],
    "wof:country":"NL",
    "wof:created":1469696212,
    "wof:geomhash":"f15c1c259c33661df5535b9cc2609ee2",
    "wof:hierarchy":[
        {
            "continent_id":102191581,
            "country_id":85633337,
            "localadmin_id":404473843,
            "postalcode_id":907038577,
            "region_id":85687049
        }
    ],
    "wof:id":907038577,
    "wof:lastmodified":1469696212,
    "wof:name":"8305AT",
    "wof:parent_id":404473843,
    "wof:placetype":"postalcode",
    "wof:repo":"whosonfirst-data-postalcode-nl",
    "wof:superseded_by":[],
    "wof:supersedes":[],
    "wof:tags":[]
},
  "bbox": [
    5.77490758895874,
    52.70000457763672,
    5.790539741516113,
    52.70075225830078
],
  "geometry": {"coordinates":[[[5.77507829666138,52.70000457763672],[5.77490758895874,52.70075225830078],[5.79053974151611,52.7002067565918],[5.78169107437134,52.70001220703125],[5.77507829666138,52.70000457763672]]],"type":"Polygon"}
}