{
  "id": 890873705,
  "type": "Feature",
  "properties": {
    "clustr:alpha":0.05,
    "clustr:area":36.96,
    "clustr:count":24,
    "clustr:density":0.65,
    "clustr:perimeter":0.15,
    "edtf:cessation":"uuuu",
    "edtf:inception":"uuuu",
    "geom:area":0.0,
    "geom:bbox":"5.10839748383,52.0972747803,5.1095161438,52.09765625",
    "geom:latitude":52.097495,
    "geom:longitude":5.10888,
    "iso:country":"NL",
    "mz:hierarchy_label":1,
    "mz:is_approximate":1,
    "mz:is_clustr":1,
    "src:geom":"oa",
    "wof:belongsto":[
        85687039,
        102191581,
        404474007,
        85633337,
        101751827
    ],
    "wof:breaches":[],
    "wof:country":"NL",
    "wof:created":1469678024,
    "wof:geomhash":"82ce726e39fbc9684d96e844b7df27d8",
    "wof:hierarchy":[
        {
            "continent_id":102191581,
            "country_id":85633337,
            "localadmin_id":404474007,
            "locality_id":101751827,
            "postalcode_id":890873705,
            "region_id":85687039
        }
    ],
    "wof:id":890873705,
    "wof:lastmodified":1469678024,
    "wof:name":"3513CT",
    "wof:parent_id":101751827,
    "wof:placetype":"postalcode",
    "wof:repo":"whosonfirst-data-postalcode-nl",
    "wof:superseded_by":[],
    "wof:supersedes":[],
    "wof:tags":[]
},
  "bbox": [
    5.108397483825684,
    52.09727478027344,
    5.109516143798828,
    52.09765625
],
  "geometry": {"coordinates":[[[5.10869264602661,52.09756851196289],[5.10943508148193,52.09730529785156],[5.10949611663818,52.09728240966797],[5.10951614379883,52.09727478027344],[5.1085524559021,52.09759902954102],[5.10839748382568,52.09765625],[5.10869264602661,52.09756851196289]]],"type":"Polygon"}
}