{
  "id": 907120677,
  "type": "Feature",
  "properties": {
    "clustr:alpha":0.05,
    "clustr:area":3.92,
    "clustr:count":10,
    "clustr:density":2.55,
    "clustr:perimeter":0.15,
    "edtf:cessation":"uuuu",
    "edtf:inception":"uuuu",
    "geom:area":0.0,
    "geom:bbox":"6.3994140625,53.2629928589,6.40008163452,53.2634963989",
    "geom:latitude":53.263218,
    "geom:longitude":6.399649,
    "iso:country":"NL",
    "mz:hierarchy_label":1,
    "mz:is_approximate":1,
    "mz:is_clustr":1,
    "src:geom":"oa",
    "wof:belongsto":[
        85687059,
        102191581,
        404473753,
        85633337,
        101837985
    ],
    "wof:breaches":[],
    "wof:country":"NL",
    "wof:created":1469700391,
    "wof:geomhash":"aecb19aa39c06e8763f45bca2f90f64d",
    "wof:hierarchy":[
        {
            "continent_id":102191581,
            "country_id":85633337,
            "localadmin_id":404473753,
            "locality_id":101837985,
            "postalcode_id":907120677,
            "region_id":85687059
        }
    ],
    "wof:id":907120677,
    "wof:lastmodified":1469700391,
    "wof:name":"9804RT",
    "wof:parent_id":101837985,
    "wof:placetype":"postalcode",
    "wof:repo":"whosonfirst-data-postalcode-nl",
    "wof:superseded_by":[],
    "wof:supersedes":[],
    "wof:tags":[]
},
  "bbox": [
    6.3994140625,
    53.26299285888672,
    6.400081634521484,
    53.26349639892578
],
  "geometry": {"coordinates":[[[6.39949369430542,53.26303100585938],[6.39942121505737,53.26313018798828],[6.3994140625,53.26345443725586],[6.39941501617432,53.26349639892578],[6.40008163452148,53.26316833496094],[6.39952278137207,53.26299285888672],[6.39949369430542,53.26303100585938]]],"type":"Polygon"}
}