{
  "id": 890700959,
  "type": "Feature",
  "properties": {
    "clustr:alpha":0.05,
    "clustr:area":54.36,
    "clustr:count":18,
    "clustr:density":0.33,
    "clustr:perimeter":0.14,
    "edtf:cessation":"uuuu",
    "edtf:inception":"uuuu",
    "geom:area":0.0,
    "geom:bbox":"4.62888908386,52.3942146301,4.62963628769,52.3952102661",
    "geom:latitude":52.394796,
    "geom:longitude":4.629292,
    "iso:country":"NL",
    "mz:hierarchy_label":1,
    "mz:is_approximate":1,
    "mz:is_clustr":1,
    "src:geom":"oa",
    "wof:belongsto":[
        85687053,
        102191581,
        404474061,
        85633337,
        101751897
    ],
    "wof:breaches":[],
    "wof:country":"NL",
    "wof:created":1469671253,
    "wof:geomhash":"a53a7b38f61f9bfb6d4e3491d067591f",
    "wof:hierarchy":[
        {
            "continent_id":102191581,
            "country_id":85633337,
            "localadmin_id":404474061,
            "locality_id":101751897,
            "postalcode_id":890700959,
            "region_id":85687053
        }
    ],
    "wof:id":890700959,
    "wof:lastmodified":1469671253,
    "wof:name":"2023DP",
    "wof:parent_id":101751897,
    "wof:placetype":"postalcode",
    "wof:repo":"whosonfirst-data-postalcode-nl",
    "wof:superseded_by":[],
    "wof:supersedes":[],
    "wof:tags":[]
},
  "bbox": [
    4.628889083862305,
    52.39421463012695,
    4.629636287689209,
    52.39521026611328
],
  "geometry": {"coordinates":[[[4.62941551208496,52.39508438110352],[4.62963628768921,52.39521026611328],[4.62905979156494,52.39440536499023],[4.6288890838623,52.39421463012695],[4.62941551208496,52.39508438110352]]],"type":"Polygon"}
}