{
  "id": 891044195,
  "type": "Feature",
  "properties": {
    "clustr:alpha":0.05,
    "clustr:area":182.38,
    "clustr:count":18,
    "clustr:density":0.1,
    "clustr:perimeter":1.09,
    "edtf:cessation":"uuuu",
    "edtf:inception":"uuuu",
    "geom:area":0.000006,
    "geom:bbox":"5.70395326614,51.5669898987,5.70817422867,51.5721321106",
    "geom:latitude":51.569057,
    "geom:longitude":5.706165,
    "iso:country":"NL",
    "mz:hierarchy_label":1,
    "mz:is_approximate":1,
    "mz:is_clustr":1,
    "src:geom":"oa",
    "wof:belongsto":[
        102191581,
        404474563,
        85633337,
        85687035
    ],
    "wof:breaches":[],
    "wof:country":"NL",
    "wof:created":1469685164,
    "wof:geomhash":"eacee1c5434e7f2a11e13b92f136edb2",
    "wof:hierarchy":[
        {
            "continent_id":102191581,
            "country_id":85633337,
            "localadmin_id":404474563,
            "postalcode_id":891044195,
            "region_id":85687035
        }
    ],
    "wof:id":891044195,
    "wof:lastmodified":1469685164,
    "wof:name":"5423SB",
    "wof:parent_id":404474563,
    "wof:placetype":"postalcode",
    "wof:repo":"whosonfirst-data-postalcode-nl",
    "wof:superseded_by":[],
    "wof:supersedes":[],
    "wof:tags":[]
},
  "bbox": [
    5.703953266143799,
    51.56698989868164,
    5.708174228668213,
    51.5721321105957
],
  "geometry": {"coordinates":[[[5.70647859573364,51.57032775878906],[5.70817422866821,51.5721321105957],[5.70816659927368,51.57138442993164],[5.70803117752075,51.57112503051758],[5.70609378814697,51.56742095947266],[5.70443439483643,51.56698989868164],[5.7039532661438,51.56718063354492],[5.70478630065918,51.56838226318359],[5.70647859573364,51.57032775878906]]],"type":"Polygon"}
}