{
  "id": 891268541,
  "type": "Feature",
  "properties": {
    "clustr:alpha":0.05,
    "clustr:area":4.91,
    "clustr:count":8,
    "clustr:density":1.63,
    "clustr:perimeter":0.03,
    "edtf:cessation":"uuuu",
    "edtf:inception":"uuuu",
    "geom:area":0.0,
    "geom:bbox":"6.94232463837,52.7888946533,6.94240188599,52.7890930176",
    "geom:latitude":52.788996,
    "geom:longitude":6.942358,
    "iso:country":"NL",
    "mz:hierarchy_label":1,
    "mz:is_approximate":1,
    "mz:is_clustr":1,
    "src:geom":"oa",
    "wof:belongsto":[
        85687051,
        102191581,
        404473809,
        85633337,
        101751881
    ],
    "wof:breaches":[],
    "wof:country":"NL",
    "wof:created":1469694175,
    "wof:geomhash":"7a206dac610b3c0a94ee619937314b79",
    "wof:hierarchy":[
        {
            "continent_id":102191581,
            "country_id":85633337,
            "localadmin_id":404473809,
            "locality_id":101751881,
            "postalcode_id":891268541,
            "region_id":85687051
        }
    ],
    "wof:id":891268541,
    "wof:lastmodified":1469694175,
    "wof:name":"7823GK",
    "wof:parent_id":101751881,
    "wof:placetype":"postalcode",
    "wof:repo":"whosonfirst-data-postalcode-nl",
    "wof:superseded_by":[],
    "wof:supersedes":[],
    "wof:tags":[]
},
  "bbox": [
    6.942324638366699,
    52.78889465332031,
    6.942401885986328,
    52.789093017578125
],
  "geometry": {"coordinates":[[[6.94240188598633,52.78897476196289],[6.94235467910767,52.78890228271484],[6.9423246383667,52.78889465332031],[6.94233131408691,52.78908157348633],[6.94237613677979,52.78909301757812],[6.94240188598633,52.78897476196289]]],"type":"Polygon"}
}