{
  "id": 891019607,
  "type": "Feature",
  "properties": {
    "clustr:alpha":0.05,
    "clustr:area":28.42,
    "clustr:count":29,
    "clustr:density":1.02,
    "clustr:perimeter":0.26,
    "edtf:cessation":"uuuu",
    "edtf:inception":"uuuu",
    "geom:area":0.000001,
    "geom:bbox":"5.08034992218,51.6260566711,5.08130168915,51.6271972656",
    "geom:latitude":51.626482,
    "geom:longitude":5.08083,
    "iso:country":"NL",
    "mz:hierarchy_label":1,
    "mz:is_approximate":1,
    "mz:is_clustr":1,
    "src:geom":"oa",
    "wof:belongsto":[
        85687035,
        102191581,
        404474401,
        85633337,
        101808187
    ],
    "wof:breaches":[],
    "wof:country":"NL",
    "wof:created":1469684223,
    "wof:geomhash":"150a259a305d4f855f481f7c2e8e06c2",
    "wof:hierarchy":[
        {
            "continent_id":102191581,
            "country_id":85633337,
            "localadmin_id":404474401,
            "locality_id":101808187,
            "postalcode_id":891019607,
            "region_id":85687035
        }
    ],
    "wof:id":891019607,
    "wof:lastmodified":1469684223,
    "wof:name":"5175VH",
    "wof:parent_id":101808187,
    "wof:placetype":"postalcode",
    "wof:repo":"whosonfirst-data-postalcode-nl",
    "wof:superseded_by":[],
    "wof:supersedes":[],
    "wof:tags":[]
},
  "bbox": [
    5.080349922180176,
    51.62605667114258,
    5.081301689147949,
    51.627197265625
],
  "geometry": {"coordinates":[[[5.08123350143433,51.62628555297852],[5.08126783370972,51.62617111206055],[5.08130168914795,51.62605667114258],[5.08036756515503,51.6261100769043],[5.08035850524902,51.62616729736328],[5.08034992218018,51.62622451782227],[5.08055257797241,51.62673187255859],[5.08094930648804,51.627197265625],[5.08105897903442,51.62685775756836],[5.08123350143433,51.62628555297852]]],"type":"Polygon"}
}