{
  "id": 890974445,
  "type": "Feature",
  "properties": {
    "clustr:alpha":0.05,
    "clustr:area":12.98,
    "clustr:count":7,
    "clustr:density":0.54,
    "clustr:perimeter":0.3,
    "edtf:cessation":"uuuu",
    "edtf:inception":"uuuu",
    "geom:area":0.0,
    "geom:bbox":"4.07385969162,51.5577964783,4.07589292526,51.5582771301",
    "geom:latitude":51.558092,
    "geom:longitude":4.075012,
    "iso:country":"NL",
    "mz:hierarchy_label":1,
    "mz:is_approximate":1,
    "mz:is_clustr":1,
    "src:geom":"oa",
    "wof:belongsto":[
        102191581,
        404474331,
        85633337,
        85687037
    ],
    "wof:breaches":[],
    "wof:country":"NL",
    "wof:created":1469682382,
    "wof:geomhash":"5124e278a9ec71c00b7dc1397e6a422d",
    "wof:hierarchy":[
        {
            "continent_id":102191581,
            "country_id":85633337,
            "localadmin_id":404474331,
            "postalcode_id":890974445,
            "region_id":85687037
        }
    ],
    "wof:id":890974445,
    "wof:lastmodified":1469682382,
    "wof:name":"4695RL",
    "wof:parent_id":404474331,
    "wof:placetype":"postalcode",
    "wof:repo":"whosonfirst-data-postalcode-nl",
    "wof:superseded_by":[],
    "wof:supersedes":[],
    "wof:tags":[]
},
  "bbox": [
    4.073859691619873,
    51.557796478271484,
    4.075892925262451,
    51.55827713012695
],
  "geometry": {"coordinates":[[[4.07561492919922,51.55801773071289],[4.07571411132812,51.55794143676758],[4.07589292526245,51.55779647827148],[4.07385969161987,51.55820465087891],[4.07527017593384,51.55827713012695],[4.07561492919922,51.55801773071289]]],"type":"Polygon"}
}