{
  "id": 891045123,
  "type": "Feature",
  "properties": {
    "clustr:alpha":0.05,
    "clustr:area":4.14,
    "clustr:count":25,
    "clustr:density":6.04,
    "clustr:perimeter":0.41,
    "edtf:cessation":"uuuu",
    "edtf:inception":"uuuu",
    "geom:area":0.0,
    "geom:bbox":"5.89026165009,51.7174873352,5.89077806473,51.7193222046",
    "geom:latitude":51.718341,
    "geom:longitude":5.890552,
    "iso:country":"NL",
    "mz:hierarchy_label":1,
    "mz:is_approximate":1,
    "mz:is_clustr":1,
    "src:geom":"oa",
    "wof:belongsto":[
        85687035,
        102191581,
        404474597,
        85633337,
        101839723
    ],
    "wof:breaches":[],
    "wof:country":"NL",
    "wof:created":1469685195,
    "wof:geomhash":"febdb050509af2ac7508945e194d3068",
    "wof:hierarchy":[
        {
            "continent_id":102191581,
            "country_id":85633337,
            "localadmin_id":404474597,
            "locality_id":101839723,
            "postalcode_id":891045123,
            "region_id":85687035
        }
    ],
    "wof:id":891045123,
    "wof:lastmodified":1469685195,
    "wof:name":"5431HT",
    "wof:parent_id":101839723,
    "wof:placetype":"postalcode",
    "wof:repo":"whosonfirst-data-postalcode-nl",
    "wof:superseded_by":[],
    "wof:supersedes":[],
    "wof:tags":[]
},
  "bbox": [
    5.890261650085449,
    51.71748733520508,
    5.890778064727783,
    51.719322204589844
],
  "geometry": {"coordinates":[[[5.89074802398682,51.7175407409668],[5.8904275894165,51.71864700317383],[5.89041376113892,51.71870040893555],[5.89026165008545,51.71932220458984],[5.89028978347778,51.71926116943359],[5.89035987854004,51.71906280517578],[5.89057016372681,51.71844863891602],[5.8905839920044,51.7183952331543],[5.89073657989502,51.7177848815918],[5.8907642364502,51.71766662597656],[5.89077806472778,51.71760177612305],[5.89077663421631,51.71748733520508],[5.89074802398682,51.7175407409668]]],"type":"Polygon"}
}