{
  "id": 891081767,
  "type": "Feature",
  "properties": {
    "clustr:alpha":0.05,
    "clustr:area":111.45,
    "clustr:count":16,
    "clustr:density":0.14,
    "clustr:perimeter":0.46,
    "edtf:cessation":"uuuu",
    "edtf:inception":"uuuu",
    "geom:area":0.000001,
    "geom:bbox":"5.75787448883,51.3817825317,5.76142406464,51.3825416565",
    "geom:latitude":51.382114,
    "geom:longitude":5.759885,
    "iso:country":"NL",
    "mz:hierarchy_label":1,
    "mz:is_approximate":1,
    "mz:is_clustr":1,
    "src:geom":"oa",
    "wof:belongsto":[
        85687035,
        102191581,
        404474347,
        85633337,
        101809703
    ],
    "wof:breaches":[],
    "wof:country":"NL",
    "wof:created":1469686552,
    "wof:geomhash":"19557ab7afaf8931e547401fe9c4b98e",
    "wof:hierarchy":[
        {
            "continent_id":102191581,
            "country_id":85633337,
            "localadmin_id":404474347,
            "locality_id":101809703,
            "postalcode_id":891081767,
            "region_id":85687035
        }
    ],
    "wof:id":891081767,
    "wof:lastmodified":1469686552,
    "wof:name":"5725AT",
    "wof:parent_id":101809703,
    "wof:placetype":"postalcode",
    "wof:repo":"whosonfirst-data-postalcode-nl",
    "wof:superseded_by":[],
    "wof:supersedes":[],
    "wof:tags":[]
},
  "bbox": [
    5.757874488830566,
    51.38178253173828,
    5.76142406463623,
    51.38254165649414
],
  "geometry": {"coordinates":[[[5.76142406463623,51.38218307495117],[5.76134920120239,51.38200378417969],[5.75913715362549,51.38178253173828],[5.75787448883057,51.38197708129883],[5.75850772857666,51.38211059570312],[5.76056528091431,51.38254165649414],[5.76142406463623,51.38218307495117]]],"type":"Polygon"}
}