{
  "id": 907044783,
  "type": "Feature",
  "properties": {
    "clustr:alpha":0.05,
    "clustr:area":21.95,
    "clustr:count":11,
    "clustr:density":0.5,
    "clustr:perimeter":0.16,
    "edtf:cessation":"uuuu",
    "edtf:inception":"uuuu",
    "geom:area":0.0,
    "geom:bbox":"6.13527154922,53.0325508118,6.13639640808,53.0329666138",
    "geom:latitude":53.032746,
    "geom:longitude":6.135724,
    "iso:country":"NL",
    "mz:hierarchy_label":1,
    "mz:is_approximate":1,
    "mz:is_clustr":1,
    "src:geom":"oa",
    "wof:belongsto":[
        102191581,
        404473787,
        85633337,
        85687055
    ],
    "wof:breaches":[],
    "wof:country":"NL",
    "wof:created":1469696531,
    "wof:geomhash":"c3e289d2b2b715408c2147b649d5879e",
    "wof:hierarchy":[
        {
            "continent_id":102191581,
            "country_id":85633337,
            "localadmin_id":404473787,
            "postalcode_id":907044783,
            "region_id":85687055
        }
    ],
    "wof:id":907044783,
    "wof:lastmodified":1469696531,
    "wof:name":"8409JV",
    "wof:parent_id":404473787,
    "wof:placetype":"postalcode",
    "wof:repo":"whosonfirst-data-postalcode-nl",
    "wof:superseded_by":[],
    "wof:supersedes":[],
    "wof:tags":[]
},
  "bbox": [
    6.135271549224854,
    53.03255081176758,
    6.136396408081055,
    53.03296661376953
],
  "geometry": {"coordinates":[[[6.13558769226074,53.03274536132812],[6.13639640808105,53.03296661376953],[6.13527154922485,53.03255081176758],[6.13539218902588,53.03264999389648],[6.13558769226074,53.03274536132812]]],"type":"Polygon"}
}