{
  "id": 890990061,
  "type": "Feature",
  "properties": {
    "clustr:alpha":0.05,
    "clustr:area":55.27,
    "clustr:count":26,
    "clustr:density":0.47,
    "clustr:perimeter":0.54,
    "edtf:cessation":"uuuu",
    "edtf:inception":"uuuu",
    "geom:area":0.000002,
    "geom:bbox":"4.70183753967,51.6047401428,4.70490837097,51.606048584",
    "geom:latitude":51.605309,
    "geom:longitude":4.703392,
    "iso:country":"NL",
    "mz:hierarchy_label":1,
    "mz:is_approximate":1,
    "mz:is_clustr":1,
    "src:geom":"oa",
    "wof:belongsto":[
        85687035,
        102191581,
        404474363,
        85633337,
        101754583
    ],
    "wof:breaches":[],
    "wof:country":"NL",
    "wof:created":1469683068,
    "wof:geomhash":"d3986d1c20cf36d2f28c6b5e5f3e4b58",
    "wof:hierarchy":[
        {
            "continent_id":102191581,
            "country_id":85633337,
            "localadmin_id":404474363,
            "locality_id":101754583,
            "postalcode_id":890990061,
            "region_id":85687035
        }
    ],
    "wof:id":890990061,
    "wof:lastmodified":1469683068,
    "wof:name":"4841KC",
    "wof:parent_id":101754583,
    "wof:placetype":"postalcode",
    "wof:repo":"whosonfirst-data-postalcode-nl",
    "wof:superseded_by":[],
    "wof:supersedes":[],
    "wof:tags":[]
},
  "bbox": [
    4.701837539672852,
    51.604740142822266,
    4.70490837097168,
    51.606048583984375
],
  "geometry": {"coordinates":[[[4.70444822311401,51.60499954223633],[4.7018837928772,51.60474014282227],[4.70183753967285,51.60526657104492],[4.70309495925903,51.6057014465332],[4.7042875289917,51.60604858398438],[4.70490837097168,51.60512924194336],[4.70444822311401,51.60499954223633]]],"type":"Polygon"}
}