{
  "id": 890632753,
  "type": "Feature",
  "properties": {
    "clustr:alpha":0.05,
    "clustr:area":13.02,
    "clustr:count":8,
    "clustr:density":0.61,
    "clustr:perimeter":0.07,
    "edtf:cessation":"uuuu",
    "edtf:inception":"uuuu",
    "geom:area":0.0,
    "geom:bbox":"5.2792506218,52.3976974487,5.27958059311,52.3979797363",
    "geom:latitude":52.397846,
    "geom:longitude":5.279405,
    "iso:country":"NL",
    "mz:hierarchy_label":1,
    "mz:is_approximate":1,
    "mz:is_clustr":1,
    "src:geom":"oa",
    "wof:belongsto":[
        85687049,
        102191581,
        404473729,
        85633337,
        101751875
    ],
    "wof:breaches":[],
    "wof:country":"NL",
    "wof:created":1469668231,
    "wof:geomhash":"5500e3b1e8bb3ef350b7588553521b62",
    "wof:hierarchy":[
        {
            "continent_id":102191581,
            "country_id":85633337,
            "localadmin_id":404473729,
            "locality_id":101751875,
            "postalcode_id":890632753,
            "region_id":85687049
        }
    ],
    "wof:id":890632753,
    "wof:lastmodified":1469668231,
    "wof:name":"1334EC",
    "wof:parent_id":101751875,
    "wof:placetype":"postalcode",
    "wof:repo":"whosonfirst-data-postalcode-nl",
    "wof:superseded_by":[],
    "wof:supersedes":[],
    "wof:tags":[]
},
  "bbox": [
    5.279250621795654,
    52.39769744873047,
    5.279580593109131,
    52.397979736328125
],
  "geometry": {"coordinates":[[[5.27934980392456,52.39789581298828],[5.27958059310913,52.39769744873047],[5.27952432632446,52.39774322509766],[5.27948236465454,52.39777755737305],[5.27930402755737,52.39793014526367],[5.27925062179565,52.39797973632812],[5.27934980392456,52.39789581298828]]],"type":"Polygon"}
}