{
  "id": 890996615,
  "type": "Feature",
  "properties": {
    "clustr:alpha":0.05,
    "clustr:area":33.19,
    "clustr:count":25,
    "clustr:density":0.75,
    "clustr:perimeter":0.23,
    "edtf:cessation":"uuuu",
    "edtf:inception":"uuuu",
    "geom:area":0.0,
    "geom:bbox":"4.87399291992,51.6523323059,4.87533521652,51.6528244019",
    "geom:latitude":51.652576,
    "geom:longitude":4.874667,
    "iso:country":"NL",
    "mz:hierarchy_label":1,
    "mz:is_approximate":1,
    "mz:is_clustr":1,
    "src:geom":"oa",
    "wof:belongsto":[
        85687035,
        102191581,
        404474413,
        85633337,
        101808317
    ],
    "wof:breaches":[],
    "wof:country":"NL",
    "wof:created":1469683347,
    "wof:geomhash":"4bdc60e0e6a136f56ba989ad4504ba1a",
    "wof:hierarchy":[
        {
            "continent_id":102191581,
            "country_id":85633337,
            "localadmin_id":404474413,
            "locality_id":101808317,
            "postalcode_id":890996615,
            "region_id":85687035
        }
    ],
    "wof:id":890996615,
    "wof:lastmodified":1469683347,
    "wof:name":"4907AS",
    "wof:parent_id":101808317,
    "wof:placetype":"postalcode",
    "wof:repo":"whosonfirst-data-postalcode-nl",
    "wof:superseded_by":[],
    "wof:supersedes":[],
    "wof:tags":[]
},
  "bbox": [
    4.873992919921875,
    51.6523323059082,
    4.875335216522217,
    51.65282440185547
],
  "geometry": {"coordinates":[[[4.87450408935547,51.65236663818359],[4.87432193756104,51.65238571166992],[4.87399291992188,51.65254974365234],[4.8740062713623,51.65260314941406],[4.87402105331421,51.65265655517578],[4.87410736083984,51.65282440185547],[4.8744945526123,51.65279388427734],[4.87533521652222,51.65271377563477],[4.87530517578125,51.65259552001953],[4.87527656555176,51.65248489379883],[4.87524795532227,51.65237426757812],[4.87486267089844,51.6523323059082],[4.87477111816406,51.65233993530273],[4.87450408935547,51.65236663818359]]],"type":"Polygon"}
}