{
  "id": 891110175,
  "type": "Feature",
  "properties": {
    "clustr:alpha":0.05,
    "clustr:area":881.99,
    "clustr:count":14,
    "clustr:density":0.02,
    "clustr:perimeter":1.26,
    "edtf:cessation":"uuuu",
    "edtf:inception":"uuuu",
    "geom:area":0.000019,
    "geom:bbox":"5.89165353775,51.286605835,5.90165615082,51.2904777527",
    "geom:latitude":51.288618,
    "geom:longitude":5.89685,
    "iso:country":"NL",
    "mz:hierarchy_label":1,
    "mz:is_approximate":1,
    "mz:is_clustr":1,
    "src:geom":"oa",
    "wof:belongsto":[
        102191581,
        404474557,
        85633337,
        85687033
    ],
    "wof:breaches":[],
    "wof:country":"NL",
    "wof:created":1469687656,
    "wof:geomhash":"896d626001af785d4d92e0136187c0d3",
    "wof:hierarchy":[
        {
            "continent_id":102191581,
            "country_id":85633337,
            "localadmin_id":404474557,
            "postalcode_id":891110175,
            "region_id":85687033
        }
    ],
    "wof:id":891110175,
    "wof:lastmodified":1469687656,
    "wof:name":"6089NC",
    "wof:parent_id":404474557,
    "wof:placetype":"postalcode",
    "wof:repo":"whosonfirst-data-postalcode-nl",
    "wof:superseded_by":[],
    "wof:supersedes":[],
    "wof:tags":[]
},
  "bbox": [
    5.891653537750244,
    51.28660583496094,
    5.901656150817871,
    51.29047775268555
],
  "geometry": {"coordinates":[[[5.90058946609497,51.28902816772461],[5.90165615081787,51.28660583496094],[5.89165353775024,51.28859710693359],[5.89366006851196,51.29047775268555],[5.90058946609497,51.28902816772461]]],"type":"Polygon"}
}