{
  "id": 890726509,
  "type": "Feature",
  "properties": {
    "clustr:alpha":0.05,
    "clustr:area":48.96,
    "clustr:count":18,
    "clustr:density":0.37,
    "clustr:perimeter":0.09,
    "edtf:cessation":"uuuu",
    "edtf:inception":"uuuu",
    "geom:area":0.0,
    "geom:bbox":"4.38757514954,52.0935020447,4.38827848434,52.0939178467",
    "geom:latitude":52.093708,
    "geom:longitude":4.387924,
    "iso:country":"NL",
    "mz:hierarchy_label":1,
    "mz:is_approximate":1,
    "mz:is_clustr":1,
    "src:geom":"oa",
    "wof:belongsto":[
        85687041,
        102191581,
        404474685,
        85633337,
        101754679
    ],
    "wof:breaches":[],
    "wof:country":"NL",
    "wof:created":1469672404,
    "wof:geomhash":"c20fa33bebcf9a5d71baf51e12c1536d",
    "wof:hierarchy":[
        {
            "continent_id":102191581,
            "country_id":85633337,
            "localadmin_id":404474685,
            "locality_id":101754679,
            "postalcode_id":890726509,
            "region_id":85687041
        }
    ],
    "wof:id":890726509,
    "wof:lastmodified":1469672404,
    "wof:name":"2262GR",
    "wof:parent_id":101754679,
    "wof:placetype":"postalcode",
    "wof:repo":"whosonfirst-data-postalcode-nl",
    "wof:superseded_by":[],
    "wof:supersedes":[],
    "wof:tags":[]
},
  "bbox": [
    4.387575149536133,
    52.093502044677734,
    4.388278484344482,
    52.09391784667969
],
  "geometry": {"coordinates":[[[4.38816833496094,52.09386825561523],[4.38825464248657,52.09391784667969],[4.38827848434448,52.09391021728516],[4.38810968399048,52.09380340576172],[4.38802623748779,52.09375381469727],[4.38776922225952,52.09360122680664],[4.38760042190552,52.09350204467773],[4.38757514953613,52.09351348876953],[4.38774538040161,52.0936164855957],[4.38816833496094,52.09386825561523]]],"type":"Polygon"}
}