{
  "id": 890736891,
  "type": "Feature",
  "properties": {
    "clustr:alpha":0.05,
    "clustr:area":82.45,
    "clustr:count":20,
    "clustr:density":0.24,
    "clustr:perimeter":0.17,
    "edtf:cessation":"uuuu",
    "edtf:inception":"uuuu",
    "geom:area":0.0,
    "geom:bbox":"4.4759554863,52.1550331116,4.47653627396,52.1565132141",
    "geom:latitude":52.155908,
    "geom:longitude":4.476185,
    "iso:country":"NL",
    "mz:hierarchy_label":1,
    "mz:is_approximate":1,
    "mz:is_clustr":1,
    "src:geom":"oa",
    "wof:belongsto":[
        85687041,
        102191581,
        404474199,
        85633337,
        101751833
    ],
    "wof:breaches":[],
    "wof:country":"NL",
    "wof:created":1469672827,
    "wof:geomhash":"8ca49ac1473a98ababa01c0b55fa376d",
    "wof:hierarchy":[
        {
            "continent_id":102191581,
            "country_id":85633337,
            "localadmin_id":404474199,
            "locality_id":101751833,
            "postalcode_id":890736891,
            "region_id":85687041
        }
    ],
    "wof:id":890736891,
    "wof:lastmodified":1469672827,
    "wof:name":"2321AR",
    "wof:parent_id":101751833,
    "wof:placetype":"postalcode",
    "wof:repo":"whosonfirst-data-postalcode-nl",
    "wof:superseded_by":[],
    "wof:supersedes":[],
    "wof:tags":[]
},
  "bbox": [
    4.475955486297607,
    52.155033111572266,
    4.476536273956299,
    52.15651321411133
],
  "geometry": {"coordinates":[[[4.47598552703857,52.15651321411133],[4.4765362739563,52.15503311157227],[4.47619867324829,52.1557731628418],[4.47617197036743,52.15584564208984],[4.47615671157837,52.15588760375977],[4.47595548629761,52.15644454956055],[4.47598552703857,52.15651321411133]]],"type":"Polygon"}
}