{
  "id": 890850101,
  "type": "Feature",
  "properties": {
    "clustr:alpha":0.05,
    "clustr:area":14.53,
    "clustr:count":20,
    "clustr:density":1.38,
    "clustr:perimeter":0.24,
    "edtf:cessation":"uuuu",
    "edtf:inception":"uuuu",
    "geom:area":0.0,
    "geom:bbox":"4.36532831192,51.7522010803,4.36552000046,51.7533721924",
    "geom:latitude":51.752877,
    "geom:longitude":4.365409,
    "iso:country":"NL",
    "mz:hierarchy_label":1,
    "mz:is_approximate":1,
    "mz:is_clustr":1,
    "src:geom":"oa",
    "wof:belongsto":[
        85687041,
        102191581,
        404474235,
        85633337,
        101808537
    ],
    "wof:breaches":[],
    "wof:country":"NL",
    "wof:created":1469677127,
    "wof:geomhash":"6fd51265ee4c020f09751f6d05545aa9",
    "wof:hierarchy":[
        {
            "continent_id":102191581,
            "country_id":85633337,
            "localadmin_id":404474235,
            "locality_id":101808537,
            "postalcode_id":890850101,
            "region_id":85687041
        }
    ],
    "wof:id":890850101,
    "wof:lastmodified":1469677127,
    "wof:name":"3284AA",
    "wof:parent_id":101808537,
    "wof:placetype":"postalcode",
    "wof:repo":"whosonfirst-data-postalcode-nl",
    "wof:superseded_by":[],
    "wof:supersedes":[],
    "wof:tags":[]
},
  "bbox": [
    4.365328311920166,
    51.752201080322266,
    4.365520000457764,
    51.75337219238281
],
  "geometry": {"coordinates":[[[4.36538648605347,51.75319290161133],[4.36552000045776,51.75337219238281],[4.36534357070923,51.75220108032227],[4.36532831192017,51.75224685668945],[4.36538648605347,51.75319290161133]]],"type":"Polygon"}
}