{
  "id": 890642887,
  "type": "Feature",
  "properties": {
    "clustr:alpha":0.05,
    "clustr:area":5.32,
    "clustr:count":30,
    "clustr:density":5.64,
    "clustr:perimeter":0.21,
    "edtf:cessation":"uuuu",
    "edtf:inception":"uuuu",
    "geom:area":0.0,
    "geom:bbox":"4.81731319427,52.2528419495,4.81763839722,52.2537002563",
    "geom:latitude":52.25339,
    "geom:longitude":4.817447,
    "iso:country":"NL",
    "mz:hierarchy_label":1,
    "mz:is_approximate":1,
    "mz:is_clustr":1,
    "src:geom":"oa",
    "wof:belongsto":[
        85687053,
        102191581,
        404474119,
        85633337,
        101807399
    ],
    "wof:breaches":[],
    "wof:country":"NL",
    "wof:created":1469668671,
    "wof:geomhash":"0d3c36f4e4b807fa3c02b4b6a37104b0",
    "wof:hierarchy":[
        {
            "continent_id":102191581,
            "country_id":85633337,
            "localadmin_id":404474119,
            "locality_id":101807399,
            "postalcode_id":890642887,
            "region_id":85687053
        }
    ],
    "wof:id":890642887,
    "wof:lastmodified":1469668671,
    "wof:name":"1422RJ",
    "wof:parent_id":101807399,
    "wof:placetype":"postalcode",
    "wof:repo":"whosonfirst-data-postalcode-nl",
    "wof:superseded_by":[],
    "wof:supersedes":[],
    "wof:tags":[]
},
  "bbox": [
    4.817313194274902,
    52.25284194946289,
    4.817638397216797,
    52.253700256347656
],
  "geometry": {"coordinates":[[[4.81743001937866,52.25370025634766],[4.81747102737427,52.25370025634766],[4.81751537322998,52.25370025634766],[4.81755781173706,52.25370025634766],[4.81759977340698,52.25370025634766],[4.8176383972168,52.25370025634766],[4.81763648986816,52.25357437133789],[4.81732273101807,52.25284194946289],[4.81732034683228,52.2529296875],[4.81731605529785,52.25310897827148],[4.81731510162354,52.25315093994141],[4.8173131942749,52.25324249267578],[4.81738662719727,52.25370025634766],[4.81743001937866,52.25370025634766]]],"type":"Polygon"}
}