{
  "id": 890682505,
  "type": "Feature",
  "properties": {
    "clustr:alpha":0.05,
    "clustr:area":7.1,
    "clustr:count":27,
    "clustr:density":3.8,
    "clustr:perimeter":0.36,
    "edtf:cessation":"uuuu",
    "edtf:inception":"uuuu",
    "geom:area":0.0,
    "geom:bbox":"4.71860837936,52.629611969,4.72093439102,52.6303863525",
    "geom:latitude":52.629897,
    "geom:longitude":4.720034,
    "iso:country":"NL",
    "mz:hierarchy_label":1,
    "mz:is_approximate":1,
    "mz:is_clustr":1,
    "src:geom":"oa",
    "wof:belongsto":[
        85687053,
        102191581,
        404474025,
        85633337,
        101751887
    ],
    "wof:breaches":[],
    "wof:country":"NL",
    "wof:created":1469670489,
    "wof:geomhash":"44b7501acc4cd4026f77669ab0375a77",
    "wof:hierarchy":[
        {
            "continent_id":102191581,
            "country_id":85633337,
            "localadmin_id":404474025,
            "locality_id":101751887,
            "postalcode_id":890682505,
            "region_id":85687053
        }
    ],
    "wof:id":890682505,
    "wof:lastmodified":1469670489,
    "wof:name":"1816NH",
    "wof:parent_id":101751887,
    "wof:placetype":"postalcode",
    "wof:repo":"whosonfirst-data-postalcode-nl",
    "wof:superseded_by":[],
    "wof:supersedes":[],
    "wof:tags":[]
},
  "bbox": [
    4.718608379364014,
    52.62961196899414,
    4.720934391021729,
    52.63038635253906
],
  "geometry": {"coordinates":[[[4.72064924240112,52.6296501159668],[4.72059202194214,52.62966537475586],[4.720290184021,52.6297721862793],[4.72024726867676,52.62978744506836],[4.71860837936401,52.63038635253906],[4.71876335144043,52.63033676147461],[4.72034454345703,52.62982559204102],[4.72069406509399,52.62970352172852],[4.72093439102173,52.62961196899414],[4.72067260742188,52.62964630126953],[4.72064924240112,52.6296501159668]]],"type":"Polygon"}
}