{
  "id": 891138719,
  "type": "Feature",
  "properties": {
    "clustr:alpha":0.05,
    "clustr:area":56.26,
    "clustr:count":6,
    "clustr:density":0.11,
    "clustr:perimeter":0.24,
    "edtf:cessation":"uuuu",
    "edtf:inception":"uuuu",
    "geom:area":0.000001,
    "geom:bbox":"5.90871667862,50.9612731934,5.90954065323,50.9622802734",
    "geom:latitude":50.961779,
    "geom:longitude":5.909084,
    "iso:country":"NL",
    "mz:hierarchy_label":1,
    "mz:is_approximate":1,
    "mz:is_clustr":1,
    "src:geom":"oa",
    "wof:belongsto":[
        102191581,
        404474513,
        85633337,
        85687033
    ],
    "wof:breaches":[],
    "wof:country":"NL",
    "wof:created":1469688900,
    "wof:geomhash":"2f5a67d834be45028595f7e7e90843a0",
    "wof:hierarchy":[
        {
            "continent_id":102191581,
            "country_id":85633337,
            "localadmin_id":404474513,
            "postalcode_id":891138719,
            "region_id":85687033
        }
    ],
    "wof:id":891138719,
    "wof:lastmodified":1469688900,
    "wof:name":"6439BE",
    "wof:parent_id":404474513,
    "wof:placetype":"postalcode",
    "wof:repo":"whosonfirst-data-postalcode-nl",
    "wof:superseded_by":[],
    "wof:supersedes":[],
    "wof:tags":[]
},
  "bbox": [
    5.908716678619385,
    50.961273193359375,
    5.90954065322876,
    50.9622802734375
],
  "geometry": {"coordinates":[[[5.908766746521,50.9622802734375],[5.90920734405518,50.96220016479492],[5.90954065322876,50.96147918701172],[5.90922498703003,50.96127319335938],[5.90871667861938,50.96162414550781],[5.908766746521,50.9622802734375]]],"type":"Polygon"}
}