{
  "id": 891075827,
  "type": "Feature",
  "properties": {
    "clustr:alpha":0.05,
    "clustr:area":34.04,
    "clustr:count":20,
    "clustr:density":0.59,
    "clustr:perimeter":0.23,
    "edtf:cessation":"uuuu",
    "edtf:inception":"uuuu",
    "geom:area":0.0,
    "geom:bbox":"5.51848697662,51.5189743042,5.51923274994,51.5200538635",
    "geom:latitude":51.519515,
    "geom:longitude":5.518932,
    "iso:country":"NL",
    "mz:hierarchy_label":1,
    "mz:is_approximate":1,
    "mz:is_clustr":1,
    "src:geom":"oa",
    "wof:belongsto":[
        85687035,
        102191581,
        404474429,
        85633337,
        101754565
    ],
    "wof:breaches":[],
    "wof:country":"NL",
    "wof:created":1469686335,
    "wof:geomhash":"e94bb3a704d28713a5ad6734890bc86b",
    "wof:hierarchy":[
        {
            "continent_id":102191581,
            "country_id":85633337,
            "localadmin_id":404474429,
            "locality_id":101754565,
            "postalcode_id":891075827,
            "region_id":85687035
        }
    ],
    "wof:id":891075827,
    "wof:lastmodified":1469686335,
    "wof:name":"5694LE",
    "wof:parent_id":101754565,
    "wof:placetype":"postalcode",
    "wof:repo":"whosonfirst-data-postalcode-nl",
    "wof:superseded_by":[],
    "wof:supersedes":[],
    "wof:tags":[]
},
  "bbox": [
    5.518486976623535,
    51.51897430419922,
    5.519232749938965,
    51.52005386352539
],
  "geometry": {"coordinates":[[[5.51910448074341,51.51946258544922],[5.51923274993896,51.51897430419922],[5.51916122436523,51.51907348632812],[5.51851558685303,51.52001190185547],[5.51848697662354,51.52005386352539],[5.51885795593262,51.51972961425781],[5.51910448074341,51.51946258544922]]],"type":"Polygon"}
}