{
  "id": 891212483,
  "type": "Feature",
  "properties": {
    "clustr:alpha":0.05,
    "clustr:area":245.45,
    "clustr:count":13,
    "clustr:density":0.05,
    "clustr:perimeter":0.33,
    "edtf:cessation":"uuuu",
    "edtf:inception":"uuuu",
    "geom:area":0.000001,
    "geom:bbox":"6.52376699448,52.1388435364,6.5264787674,52.1396789551",
    "geom:latitude":52.139265,
    "geom:longitude":6.524836,
    "iso:country":"NL",
    "mz:hierarchy_label":1,
    "mz:is_approximate":1,
    "mz:is_clustr":1,
    "src:geom":"oa",
    "wof:belongsto":[
        85687043,
        102191581,
        404474671,
        85633337,
        101874269
    ],
    "wof:breaches":[],
    "wof:country":"NL",
    "wof:created":1469691933,
    "wof:geomhash":"892ffc48482a41ab02063860cdea2dc5",
    "wof:hierarchy":[
        {
            "continent_id":102191581,
            "country_id":85633337,
            "localadmin_id":404474671,
            "locality_id":101874269,
            "postalcode_id":891212483,
            "region_id":85687043
        }
    ],
    "wof:id":891212483,
    "wof:lastmodified":1469691933,
    "wof:name":"7274AN",
    "wof:parent_id":101874269,
    "wof:placetype":"postalcode",
    "wof:repo":"whosonfirst-data-postalcode-nl",
    "wof:superseded_by":[],
    "wof:supersedes":[],
    "wof:tags":[]
},
  "bbox": [
    6.523766994476318,
    52.13884353637695,
    6.52647876739502,
    52.139678955078125
],
  "geometry": {"coordinates":[[[6.52597332000732,52.13945388793945],[6.52647876739502,52.13923263549805],[6.52405881881714,52.13884353637695],[6.52376699447632,52.13885498046875],[6.52398443222046,52.13967895507812],[6.52597332000732,52.13945388793945]]],"type":"Polygon"}
}