{
  "id": 891273153,
  "type": "Feature",
  "properties": {
    "clustr:alpha":0.05,
    "clustr:area":11.86,
    "clustr:count":11,
    "clustr:density":0.93,
    "clustr:perimeter":0.21,
    "edtf:cessation":"uuuu",
    "edtf:inception":"uuuu",
    "geom:area":0.0,
    "geom:bbox":"6.99037456512,52.7280883789,6.991543293,52.7288818359",
    "geom:latitude":52.728485,
    "geom:longitude":6.990933,
    "iso:country":"NL",
    "mz:hierarchy_label":1,
    "mz:is_approximate":1,
    "mz:is_clustr":1,
    "src:geom":"oa",
    "wof:belongsto":[
        85687051,
        102191581,
        404473809,
        85633337,
        101837879
    ],
    "wof:breaches":[],
    "wof:country":"NL",
    "wof:created":1469694366,
    "wof:geomhash":"33aa44c2ce24566078f59e35890637b3",
    "wof:hierarchy":[
        {
            "continent_id":102191581,
            "country_id":85633337,
            "localadmin_id":404473809,
            "locality_id":101837879,
            "postalcode_id":891273153,
            "region_id":85687051
        }
    ],
    "wof:id":891273153,
    "wof:lastmodified":1469694366,
    "wof:name":"7891ED",
    "wof:parent_id":101837879,
    "wof:placetype":"postalcode",
    "wof:repo":"whosonfirst-data-postalcode-nl",
    "wof:superseded_by":[],
    "wof:supersedes":[],
    "wof:tags":[]
},
  "bbox": [
    6.990374565124512,
    52.72808837890625,
    6.991543292999268,
    52.7288818359375
],
  "geometry": {"coordinates":[[[6.99052047729492,52.72845458984375],[6.99154329299927,52.7288818359375],[6.99150562286377,52.72866821289062],[6.99046277999878,52.72808837890625],[6.99037456512451,52.72809982299805],[6.99052047729492,52.72845458984375]]],"type":"Polygon"}
}