{
  "id": 891063371,
  "type": "Feature",
  "properties": {
    "clustr:alpha":0.05,
    "clustr:area":0.95,
    "clustr:count":24,
    "clustr:density":25.15,
    "clustr:perimeter":0.04,
    "edtf:cessation":"uuuu",
    "edtf:inception":"uuuu",
    "geom:area":0.0,
    "geom:bbox":"5.48222923279,51.4576644897,5.48230743408,51.4578132629",
    "geom:latitude":51.457738,
    "geom:longitude":5.482268,
    "iso:country":"NL",
    "mz:hierarchy_label":1,
    "mz:is_approximate":1,
    "mz:is_clustr":1,
    "src:geom":"oa",
    "wof:belongsto":[
        85687035,
        102191581,
        404474375,
        85633337,
        101751819
    ],
    "wof:breaches":[],
    "wof:country":"NL",
    "wof:created":1469685861,
    "wof:geomhash":"f1e007a87183244a542b99901aab4a29",
    "wof:hierarchy":[
        {
            "continent_id":102191581,
            "country_id":85633337,
            "localadmin_id":404474375,
            "locality_id":101751819,
            "postalcode_id":891063371,
            "region_id":85687035
        }
    ],
    "wof:id":891063371,
    "wof:lastmodified":1469685861,
    "wof:name":"5623MX",
    "wof:parent_id":101751819,
    "wof:placetype":"postalcode",
    "wof:repo":"whosonfirst-data-postalcode-nl",
    "wof:superseded_by":[],
    "wof:supersedes":[],
    "wof:tags":[]
},
  "bbox": [
    5.482229232788086,
    51.457664489746094,
    5.482307434082031,
    51.45781326293945
],
  "geometry": {"coordinates":[[[5.48222923278809,51.45780944824219],[5.48229598999023,51.45781326293945],[5.48230743408203,51.45766830444336],[5.48227262496948,51.45766448974609],[5.48224067687988,51.45766448974609],[5.48223876953125,51.45768356323242],[5.48223209381104,51.45776748657227],[5.48222923278809,51.45780944824219]]],"type":"Polygon"}
}