{
  "id": 891119893,
  "type": "Feature",
  "properties": {
    "clustr:alpha":0.05,
    "clustr:area":133.77,
    "clustr:count":10,
    "clustr:density":0.07,
    "clustr:perimeter":0.24,
    "edtf:cessation":"uuuu",
    "edtf:inception":"uuuu",
    "geom:area":0.0,
    "geom:bbox":"5.78985643387,50.9434547424,5.7918214798,50.944519043",
    "geom:latitude":50.943835,
    "geom:longitude":5.790721,
    "iso:country":"NL",
    "mz:hierarchy_label":1,
    "mz:is_approximate":1,
    "mz:is_clustr":1,
    "src:geom":"oa",
    "wof:belongsto":[
        85687033,
        102191581,
        404474471,
        85633337,
        101839195
    ],
    "wof:breaches":[],
    "wof:country":"NL",
    "wof:created":1469688021,
    "wof:geomhash":"f6017370b12250411ffb7a7c2fecc983",
    "wof:hierarchy":[
        {
            "continent_id":102191581,
            "country_id":85633337,
            "localadmin_id":404474471,
            "locality_id":101839195,
            "postalcode_id":891119893,
            "region_id":85687033
        }
    ],
    "wof:id":891119893,
    "wof:lastmodified":1469688021,
    "wof:name":"6191BJ",
    "wof:parent_id":101839195,
    "wof:placetype":"postalcode",
    "wof:repo":"whosonfirst-data-postalcode-nl",
    "wof:superseded_by":[],
    "wof:supersedes":[],
    "wof:tags":[]
},
  "bbox": [
    5.789856433868408,
    50.94345474243164,
    5.791821479797363,
    50.94451904296875
],
  "geometry": {"coordinates":[[[5.79064655303955,50.94357299804688],[5.79035997390747,50.94347763061523],[5.78985643386841,50.94345474243164],[5.78998327255249,50.94355392456055],[5.79012060165405,50.94366073608398],[5.79182147979736,50.94451904296875],[5.79064655303955,50.94357299804688]]],"type":"Polygon"}
}