{
  "id": 890814677,
  "type": "Feature",
  "properties": {
    "clustr:alpha":0.05,
    "clustr:area":163.76,
    "clustr:count":30,
    "clustr:density":0.18,
    "clustr:perimeter":0.37,
    "edtf:cessation":"uuuu",
    "edtf:inception":"uuuu",
    "geom:area":0.0,
    "geom:bbox":"4.44241046906,51.9121704102,4.4456782341,51.912689209",
    "geom:latitude":51.912399,
    "geom:longitude":4.444038,
    "iso:country":"NL",
    "mz:hierarchy_label":1,
    "mz:is_approximate":1,
    "mz:is_clustr":1,
    "src:geom":"oa",
    "wof:belongsto":[
        85687041,
        102191581,
        404474245,
        85633337,
        101751843
    ],
    "wof:breaches":[],
    "wof:country":"NL",
    "wof:created":1469675774,
    "wof:geomhash":"5fc72e0c94f70b9c34346814cff9a8ff",
    "wof:hierarchy":[
        {
            "continent_id":102191581,
            "country_id":85633337,
            "localadmin_id":404474245,
            "locality_id":101751843,
            "postalcode_id":890814677,
            "region_id":85687041
        }
    ],
    "wof:id":890814677,
    "wof:lastmodified":1469675774,
    "wof:name":"3026TH",
    "wof:parent_id":101751843,
    "wof:placetype":"postalcode",
    "wof:repo":"whosonfirst-data-postalcode-nl",
    "wof:superseded_by":[],
    "wof:supersedes":[],
    "wof:tags":[]
},
  "bbox": [
    4.442410469055176,
    51.91217041015625,
    4.445678234100342,
    51.912689208984375
],
  "geometry": {"coordinates":[[[4.4443507194519,51.91229248046875],[4.44323635101318,51.91250228881836],[4.44307804107666,51.91253280639648],[4.4425482749939,51.91265487670898],[4.44241046905518,51.91268920898438],[4.44567823410034,51.91217041015625],[4.4443507194519,51.91229248046875]]],"type":"Polygon"}
}