{
  "id": 890653603,
  "type": "Feature",
  "properties": {
    "clustr:alpha":0.05,
    "clustr:area":3.2,
    "clustr:count":48,
    "clustr:density":15.02,
    "clustr:perimeter":0.27,
    "edtf:cessation":"uuuu",
    "edtf:inception":"uuuu",
    "geom:area":0.0,
    "geom:bbox":"4.87142753601,52.436416626,4.87314176559,52.4367485046",
    "geom:latitude":52.436601,
    "geom:longitude":4.872087,
    "iso:country":"NL",
    "mz:hierarchy_label":1,
    "mz:is_approximate":1,
    "mz:is_clustr":1,
    "src:geom":"oa",
    "wof:belongsto":[
        85687053,
        102191581,
        404474105,
        85633337,
        101754851
    ],
    "wof:breaches":[],
    "wof:country":"NL",
    "wof:created":1469669202,
    "wof:geomhash":"00f06a4b5eb69df22c83829cd59a5d18",
    "wof:hierarchy":[
        {
            "continent_id":102191581,
            "country_id":85633337,
            "localadmin_id":404474105,
            "locality_id":101754851,
            "postalcode_id":890653603,
            "region_id":85687053
        }
    ],
    "wof:id":890653603,
    "wof:lastmodified":1469669202,
    "wof:name":"1511CT",
    "wof:parent_id":101754851,
    "wof:placetype":"postalcode",
    "wof:repo":"whosonfirst-data-postalcode-nl",
    "wof:superseded_by":[],
    "wof:supersedes":[],
    "wof:tags":[]
},
  "bbox": [
    4.871427536010742,
    52.43641662597656,
    4.873141765594482,
    52.43674850463867
],
  "geometry": {"coordinates":[[[4.87308740615845,52.43666076660156],[4.87281322479248,52.43659591674805],[4.87204360961914,52.43642807006836],[4.87182807922363,52.43642044067383],[4.8714861869812,52.43641662597656],[4.87145471572876,52.43645858764648],[4.87142753601074,52.43650054931641],[4.87143659591675,52.43674850463867],[4.8730878829956,52.43671035766602],[4.87314176559448,52.43667602539062],[4.87311458587646,52.43666839599609],[4.87308740615845,52.43666076660156]]],"type":"Polygon"}
}