{
  "id": 890952275,
  "type": "Feature",
  "properties": {
    "clustr:alpha":0.05,
    "clustr:area":31.1,
    "clustr:count":9,
    "clustr:density":0.29,
    "clustr:perimeter":1.12,
    "edtf:cessation":"uuuu",
    "edtf:inception":"uuuu",
    "geom:area":0.000005,
    "geom:bbox":"3.4911031723,51.4958534241,3.49825191498,51.4983978271",
    "geom:latitude":51.497353,
    "geom:longitude":3.495039,
    "iso:country":"NL",
    "mz:hierarchy_label":1,
    "mz:is_approximate":1,
    "mz:is_clustr":1,
    "src:geom":"oa",
    "wof:belongsto":[
        85687037,
        102191581,
        404474333,
        85633337,
        101839441
    ],
    "wof:breaches":[],
    "wof:country":"NL",
    "wof:created":1469681297,
    "wof:geomhash":"a91b2fe8e20be198f7c1cab4a3bde7cb",
    "wof:hierarchy":[
        {
            "continent_id":102191581,
            "country_id":85633337,
            "localadmin_id":404474333,
            "locality_id":101839441,
            "postalcode_id":890952275,
            "region_id":85687037
        }
    ],
    "wof:id":890952275,
    "wof:lastmodified":1469681297,
    "wof:name":"4374EG",
    "wof:parent_id":101839441,
    "wof:placetype":"postalcode",
    "wof:repo":"whosonfirst-data-postalcode-nl",
    "wof:superseded_by":[],
    "wof:supersedes":[],
    "wof:tags":[]
},
  "bbox": [
    3.491103172302246,
    51.495853424072266,
    3.498251914978027,
    51.49839782714844
],
  "geometry": {"coordinates":[[[3.49804019927979,51.49644470214844],[3.49825191497803,51.49585342407227],[3.49110317230225,51.49838256835938],[3.49255728721619,51.49839782714844],[3.49505424499512,51.49793243408203],[3.4955677986145,51.49770736694336],[3.49804019927979,51.49644470214844]]],"type":"Polygon"}
}