{
  "id": 890663527,
  "type": "Feature",
  "properties": {
    "clustr:alpha":0.05,
    "clustr:area":10.22,
    "clustr:count":45,
    "clustr:density":4.4,
    "clustr:perimeter":0.43,
    "edtf:cessation":"uuuu",
    "edtf:inception":"uuuu",
    "geom:area":0.000001,
    "geom:bbox":"5.10414552689,52.6500511169,5.10689926147,52.6506690979",
    "geom:latitude":52.650357,
    "geom:longitude":5.105566,
    "iso:country":"NL",
    "mz:hierarchy_label":1,
    "mz:is_approximate":1,
    "mz:is_clustr":1,
    "src:geom":"oa",
    "wof:belongsto":[
        85687053,
        102191581,
        404474083,
        85633337,
        101751883
    ],
    "wof:breaches":[],
    "wof:country":"NL",
    "wof:created":1469669614,
    "wof:geomhash":"113154059a8554ae6f03bfa2ba2607a1",
    "wof:hierarchy":[
        {
            "continent_id":102191581,
            "country_id":85633337,
            "localadmin_id":404474083,
            "locality_id":101751883,
            "postalcode_id":890663527,
            "region_id":85687053
        }
    ],
    "wof:id":890663527,
    "wof:lastmodified":1469669614,
    "wof:name":"1628XV",
    "wof:parent_id":101751883,
    "wof:placetype":"postalcode",
    "wof:repo":"whosonfirst-data-postalcode-nl",
    "wof:superseded_by":[],
    "wof:supersedes":[],
    "wof:tags":[]
},
  "bbox": [
    5.104145526885986,
    52.65005111694336,
    5.106899261474609,
    52.65066909790039
],
  "geometry": {"coordinates":[[[5.10640096664429,52.65005111694336],[5.10631608963013,52.65005111694336],[5.10436630249023,52.65018081665039],[5.10414552688599,52.65045928955078],[5.1043643951416,52.65054321289062],[5.10450839996338,52.65059661865234],[5.10634708404541,52.65066909790039],[5.10672807693481,52.65034103393555],[5.10689926147461,52.65012359619141],[5.10675525665283,52.65007019042969],[5.10665273666382,52.65005111694336],[5.10656881332397,52.65005111694336],[5.10648536682129,52.65005111694336],[5.10640096664429,52.65005111694336]]],"type":"Polygon"}
}