{
  "id": 907087871,
  "type": "Feature",
  "properties": {
    "clustr:alpha":0.05,
    "clustr:area":282.7,
    "clustr:count":9,
    "clustr:density":0.03,
    "clustr:perimeter":0.19,
    "edtf:cessation":"uuuu",
    "edtf:inception":"uuuu",
    "geom:area":0.0,
    "geom:bbox":"6.57061004639,52.9739685059,6.57299232483,52.9742431641",
    "geom:latitude":52.97411,
    "geom:longitude":6.571857,
    "iso:country":"NL",
    "mz:hierarchy_label":1,
    "mz:is_approximate":1,
    "mz:is_clustr":1,
    "src:geom":"oa",
    "wof:belongsto":[
        85687051,
        102191581,
        404473805,
        85633337,
        101751879
    ],
    "wof:breaches":[],
    "wof:country":"NL",
    "wof:created":1469698676,
    "wof:geomhash":"a183434c76560f0b7095467c48f9b740",
    "wof:hierarchy":[
        {
            "continent_id":102191581,
            "country_id":85633337,
            "localadmin_id":404473805,
            "locality_id":101751879,
            "postalcode_id":907087871,
            "region_id":85687051
        }
    ],
    "wof:id":907087871,
    "wof:lastmodified":1469698676,
    "wof:name":"9404LN",
    "wof:parent_id":101751879,
    "wof:placetype":"postalcode",
    "wof:repo":"whosonfirst-data-postalcode-nl",
    "wof:superseded_by":[],
    "wof:supersedes":[],
    "wof:tags":[]
},
  "bbox": [
    6.570610046386719,
    52.973968505859375,
    6.572992324829102,
    52.9742431640625
],
  "geometry": {"coordinates":[[[6.5729923248291,52.9742431640625],[6.57298612594604,52.97413635253906],[6.57269239425659,52.9740104675293],[6.57102012634277,52.97396850585938],[6.57061004638672,52.97418975830078],[6.5729923248291,52.9742431640625]]],"type":"Polygon"}
}