{
  "id": 891115809,
  "type": "Feature",
  "properties": {
    "clustr:alpha":0.05,
    "clustr:area":16.54,
    "clustr:count":34,
    "clustr:density":2.06,
    "clustr:perimeter":0.55,
    "edtf:cessation":"uuuu",
    "edtf:inception":"uuuu",
    "geom:area":0.000002,
    "geom:bbox":"5.89810705185,50.9967422485,5.90167474747,50.9977302551",
    "geom:latitude":50.997222,
    "geom:longitude":5.899715,
    "iso:country":"NL",
    "mz:hierarchy_label":1,
    "mz:is_approximate":1,
    "mz:is_clustr":1,
    "src:geom":"oa",
    "wof:belongsto":[
        85687033,
        102191581,
        404474675,
        85633337,
        101839313
    ],
    "wof:breaches":[],
    "wof:country":"NL",
    "wof:created":1469687866,
    "wof:geomhash":"f41dda1f4187957a272c918269ceff53",
    "wof:hierarchy":[
        {
            "continent_id":102191581,
            "country_id":85633337,
            "localadmin_id":404474675,
            "locality_id":101839313,
            "postalcode_id":891115809,
            "region_id":85687033
        }
    ],
    "wof:id":891115809,
    "wof:lastmodified":1469687866,
    "wof:name":"6137LM",
    "wof:parent_id":101839313,
    "wof:placetype":"postalcode",
    "wof:repo":"whosonfirst-data-postalcode-nl",
    "wof:superseded_by":[],
    "wof:supersedes":[],
    "wof:tags":[]
},
  "bbox": [
    5.898107051849365,
    50.996742248535156,
    5.901674747467041,
    50.99773025512695
],
  "geometry": {"coordinates":[[[5.89847469329834,50.99689865112305],[5.8983473777771,50.99696350097656],[5.89823389053345,50.99703598022461],[5.89810705184937,50.99713516235352],[5.89846467971802,50.99728393554688],[5.90019226074219,50.99761962890625],[5.90167474746704,50.99773025512695],[5.89999866485596,50.99688339233398],[5.89976978302002,50.99680328369141],[5.89959859848022,50.99676895141602],[5.89951324462891,50.99675750732422],[5.89924240112305,50.99674224853516],[5.89907121658325,50.99675369262695],[5.89874458312988,50.99680709838867],[5.89860248565674,50.99685287475586],[5.89847469329834,50.99689865112305]]],"type":"Polygon"}
}