{
  "id": 891183963,
  "type": "Feature",
  "properties": {
    "clustr:alpha":0.05,
    "clustr:area":21.99,
    "clustr:count":7,
    "clustr:density":0.32,
    "clustr:perimeter":0.04,
    "edtf:cessation":"uuuu",
    "edtf:inception":"uuuu",
    "geom:area":0.0,
    "geom:bbox":"6.06359910965,51.9444541931,6.06394672394,51.9445648193",
    "geom:latitude":51.944507,
    "geom:longitude":6.06378,
    "iso:country":"NL",
    "mz:hierarchy_label":1,
    "mz:is_approximate":1,
    "mz:is_clustr":1,
    "src:geom":"oa",
    "wof:belongsto":[
        85687043,
        102191581,
        404473957,
        85633337,
        101809869
    ],
    "wof:breaches":[],
    "wof:country":"NL",
    "wof:created":1469690767,
    "wof:geomhash":"902b5e837709e050e6fac0cf8f90da49",
    "wof:hierarchy":[
        {
            "continent_id":102191581,
            "country_id":85633337,
            "localadmin_id":404473957,
            "locality_id":101809869,
            "postalcode_id":891183963,
            "region_id":85687043
        }
    ],
    "wof:id":891183963,
    "wof:lastmodified":1469690767,
    "wof:name":"6903ZV",
    "wof:parent_id":101809869,
    "wof:placetype":"postalcode",
    "wof:repo":"whosonfirst-data-postalcode-nl",
    "wof:superseded_by":[],
    "wof:supersedes":[],
    "wof:tags":[]
},
  "bbox": [
    6.063599109649658,
    51.944454193115234,
    6.063946723937988,
    51.94456481933594
],
  "geometry": {"coordinates":[[[6.0637731552124,51.94450759887695],[6.0637149810791,51.94452667236328],[6.0636568069458,51.94454574584961],[6.06359910964966,51.94456481933594],[6.0638313293457,51.94449234008789],[6.06388902664185,51.94447326660156],[6.06394672393799,51.94445419311523],[6.0637731552124,51.94450759887695]]],"type":"Polygon"}
}