{
  "id": 891005147,
  "type": "Feature",
  "properties": {
    "clustr:alpha":0.05,
    "clustr:area":0.66,
    "clustr:count":11,
    "clustr:density":16.72,
    "clustr:perimeter":0.22,
    "edtf:cessation":"uuuu",
    "edtf:inception":"uuuu",
    "geom:area":0.0,
    "geom:bbox":"5.05091524124,51.5734863281,5.05111503601,51.5744590759",
    "geom:latitude":51.573972,
    "geom:longitude":5.051014,
    "iso:country":"NL",
    "mz:hierarchy_label":1,
    "mz:is_approximate":1,
    "mz:is_clustr":1,
    "src:geom":"oa",
    "wof:belongsto":[
        85687035,
        102191581,
        404474435,
        85633337,
        101751817
    ],
    "wof:breaches":[],
    "wof:country":"NL",
    "wof:created":1469683666,
    "wof:geomhash":"5e674095b66846fc8b364039105f42d8",
    "wof:hierarchy":[
        {
            "continent_id":102191581,
            "country_id":85633337,
            "localadmin_id":404474435,
            "locality_id":101751817,
            "postalcode_id":891005147,
            "region_id":85687035
        }
    ],
    "wof:id":891005147,
    "wof:lastmodified":1469683666,
    "wof:name":"5042XB",
    "wof:parent_id":101751817,
    "wof:placetype":"postalcode",
    "wof:repo":"whosonfirst-data-postalcode-nl",
    "wof:superseded_by":[],
    "wof:supersedes":[],
    "wof:tags":[]
},
  "bbox": [
    5.050915241241455,
    51.573486328125,
    5.051115036010742,
    51.574459075927734
],
  "geometry": {"coordinates":[[[5.05091524124146,51.5741081237793],[5.0509238243103,51.57413864135742],[5.05101490020752,51.57445907592773],[5.05111503601074,51.57384872436523],[5.05102205276489,51.57352447509766],[5.05100917816162,51.573486328125],[5.05091524124146,51.5741081237793]]],"type":"Polygon"}
}