{
  "id": 891255689,
  "type": "Feature",
  "properties": {
    "clustr:alpha":0.05,
    "clustr:area":214.7,
    "clustr:count":23,
    "clustr:density":0.11,
    "clustr:perimeter":3.17,
    "edtf:cessation":"uuuu",
    "edtf:inception":"uuuu",
    "geom:area":0.000019,
    "geom:bbox":"6.90423727036,52.4064216614,6.92730331421,52.4107017517",
    "geom:latitude":52.408538,
    "geom:longitude":6.9161,
    "iso:country":"NL",
    "mz:hierarchy_label":1,
    "mz:is_approximate":1,
    "mz:is_clustr":1,
    "src:geom":"oa",
    "wof:belongsto":[
        102191581,
        404474665,
        85633337,
        85687045
    ],
    "wof:breaches":[],
    "wof:country":"NL",
    "wof:created":1469693631,
    "wof:geomhash":"0f53fda33ebd1035c6e9042fcd521561",
    "wof:hierarchy":[
        {
            "continent_id":102191581,
            "country_id":85633337,
            "localadmin_id":404474665,
            "postalcode_id":891255689,
            "region_id":85687045
        }
    ],
    "wof:id":891255689,
    "wof:lastmodified":1469693631,
    "wof:name":"7631AB",
    "wof:parent_id":404474665,
    "wof:placetype":"postalcode",
    "wof:repo":"whosonfirst-data-postalcode-nl",
    "wof:superseded_by":[],
    "wof:supersedes":[],
    "wof:tags":[]
},
  "bbox": [
    6.904237270355225,
    52.40642166137695,
    6.927303314208984,
    52.410701751708984
],
  "geometry": {"coordinates":[[[6.90651655197144,52.41057205200195],[6.90868616104126,52.41040802001953],[6.91324377059937,52.40958786010742],[6.91850662231445,52.40875625610352],[6.92730331420898,52.40642166137695],[6.92294406890869,52.40658569335938],[6.90423727035522,52.41055679321289],[6.90449190139771,52.41068649291992],[6.90475702285767,52.41070175170898],[6.90651655197144,52.41057205200195]]],"type":"Polygon"}
}