{
  "id": 890699587,
  "type": "Feature",
  "properties": {
    "clustr:alpha":0.05,
    "clustr:area":4.41,
    "clustr:count":21,
    "clustr:density":4.77,
    "clustr:perimeter":0.18,
    "edtf:cessation":"uuuu",
    "edtf:inception":"uuuu",
    "geom:area":0.0,
    "geom:bbox":"4.61328649521,52.3660697937,4.61395359039,52.3668022156",
    "geom:latitude":52.366464,
    "geom:longitude":4.613625,
    "iso:country":"NL",
    "mz:hierarchy_label":1,
    "mz:is_approximate":1,
    "mz:is_clustr":1,
    "src:geom":"oa",
    "wof:belongsto":[
        85687053,
        102191581,
        404474061,
        85633337,
        101751897
    ],
    "wof:breaches":[],
    "wof:country":"NL",
    "wof:created":1469671198,
    "wof:geomhash":"d6cd6b88ab6da83b831985dd097ec189",
    "wof:hierarchy":[
        {
            "continent_id":102191581,
            "country_id":85633337,
            "localadmin_id":404474061,
            "locality_id":101751897,
            "postalcode_id":890699587,
            "region_id":85687053
        }
    ],
    "wof:id":890699587,
    "wof:lastmodified":1469671198,
    "wof:name":"2014HR",
    "wof:parent_id":101751897,
    "wof:placetype":"postalcode",
    "wof:repo":"whosonfirst-data-postalcode-nl",
    "wof:superseded_by":[],
    "wof:supersedes":[],
    "wof:tags":[]
},
  "bbox": [
    4.61328649520874,
    52.36606979370117,
    4.613953590393066,
    52.36680221557617
],
  "geometry": {"coordinates":[[[4.61395359039307,52.36678314208984],[4.61391258239746,52.36672973632812],[4.61343860626221,52.3662109375],[4.61328649520874,52.36606979370117],[4.61336612701416,52.36623382568359],[4.61389064788818,52.36680221557617],[4.61395359039307,52.36678314208984]]],"type":"Polygon"}
}