{
  "id": 890778543,
  "type": "Feature",
  "properties": {
    "clustr:alpha":0.05,
    "clustr:area":7.87,
    "clustr:count":4,
    "clustr:density":0.51,
    "clustr:perimeter":0.06,
    "edtf:cessation":"uuuu",
    "edtf:inception":"uuuu",
    "geom:area":0.0,
    "geom:bbox":"4.39202547073,52.0451164246,4.39237594604,52.0452957153",
    "geom:latitude":52.045191,
    "geom:longitude":4.392194,
    "iso:country":"NL",
    "mz:hierarchy_label":1,
    "mz:is_approximate":1,
    "mz:is_clustr":1,
    "src:geom":"oa",
    "wof:belongsto":[
        85687041,
        102191581,
        404474687,
        85633337,
        101754635
    ],
    "wof:breaches":[],
    "wof:country":"NL",
    "wof:created":1469674424,
    "wof:geomhash":"652b76e9e04cb4a100b3c63ea22e450d",
    "wof:hierarchy":[
        {
            "continent_id":102191581,
            "country_id":85633337,
            "localadmin_id":404474687,
            "locality_id":101754635,
            "postalcode_id":890778543,
            "region_id":85687041
        }
    ],
    "wof:id":890778543,
    "wof:lastmodified":1469674424,
    "wof:name":"2632GP",
    "wof:parent_id":101754635,
    "wof:placetype":"postalcode",
    "wof:repo":"whosonfirst-data-postalcode-nl",
    "wof:superseded_by":[],
    "wof:supersedes":[],
    "wof:tags":[]
},
  "bbox": [
    4.392025470733643,
    52.04511642456055,
    4.392375946044922,
    52.04529571533203
],
  "geometry": {"coordinates":[[[4.39202547073364,52.04513168334961],[4.39219284057617,52.04529571533203],[4.39237594604492,52.04516983032227],[4.39208841323853,52.04511642456055],[4.39202547073364,52.04513168334961]]],"type":"Polygon"}
}