{
  "id": 907110313,
  "type": "Feature",
  "properties": {
    "clustr:alpha":0.05,
    "clustr:area":42.14,
    "clustr:count":15,
    "clustr:density":0.36,
    "clustr:perimeter":0.05,
    "edtf:cessation":"uuuu",
    "edtf:inception":"uuuu",
    "geom:area":0.0,
    "geom:bbox":"6.57592630386,53.1961593628,6.5763053894,53.1963920593",
    "geom:latitude":53.196298,
    "geom:longitude":6.576076,
    "iso:country":"NL",
    "mz:hierarchy_label":1,
    "mz:is_approximate":1,
    "mz:is_clustr":1,
    "src:geom":"oa",
    "wof:belongsto":[
        85687059,
        102191581,
        404473713,
        85633337,
        101751909
    ],
    "wof:breaches":[],
    "wof:country":"NL",
    "wof:created":1469699906,
    "wof:geomhash":"dcbecd4e737ca908266832cc8cb646aa",
    "wof:hierarchy":[
        {
            "continent_id":102191581,
            "country_id":85633337,
            "localadmin_id":404473713,
            "locality_id":101751909,
            "postalcode_id":907110313,
            "region_id":85687059
        }
    ],
    "wof:id":907110313,
    "wof:lastmodified":1469699906,
    "wof:name":"9721EM",
    "wof:parent_id":101751909,
    "wof:placetype":"postalcode",
    "wof:repo":"whosonfirst-data-postalcode-nl",
    "wof:superseded_by":[],
    "wof:supersedes":[],
    "wof:tags":[]
},
  "bbox": [
    6.575926303863525,
    53.19615936279297,
    6.576305389404297,
    53.19639205932617
],
  "geometry": {"coordinates":[[[6.57596683502197,53.19630432128906],[6.57593393325806,53.19635772705078],[6.57592630386353,53.19637680053711],[6.57602071762085,53.19639205932617],[6.5763053894043,53.19615936279297],[6.57596683502197,53.19630432128906]]],"type":"Polygon"}
}