{
  "id": 891114557,
  "type": "Feature",
  "properties": {
    "clustr:alpha":0.05,
    "clustr:area":53.11,
    "clustr:count":18,
    "clustr:density":0.34,
    "clustr:perimeter":0.17,
    "edtf:cessation":"uuuu",
    "edtf:inception":"uuuu",
    "geom:area":0.0,
    "geom:bbox":"5.90048933029,50.9920845032,5.90177059174,50.9923400879",
    "geom:latitude":50.992213,
    "geom:longitude":5.901189,
    "iso:country":"NL",
    "mz:hierarchy_label":1,
    "mz:is_approximate":1,
    "mz:is_clustr":1,
    "src:geom":"oa",
    "wof:belongsto":[
        85687033,
        102191581,
        404474675,
        85633337,
        101839313
    ],
    "wof:breaches":[],
    "wof:country":"NL",
    "wof:created":1469687825,
    "wof:geomhash":"d0d5e68d723dd6ea9e821c6723c5e12b",
    "wof:hierarchy":[
        {
            "continent_id":102191581,
            "country_id":85633337,
            "localadmin_id":404474675,
            "locality_id":101839313,
            "postalcode_id":891114557,
            "region_id":85687033
        }
    ],
    "wof:id":891114557,
    "wof:lastmodified":1469687825,
    "wof:name":"6132TH",
    "wof:parent_id":101839313,
    "wof:placetype":"postalcode",
    "wof:repo":"whosonfirst-data-postalcode-nl",
    "wof:superseded_by":[],
    "wof:supersedes":[],
    "wof:tags":[]
},
  "bbox": [
    5.900489330291748,
    50.99208450317383,
    5.90177059173584,
    50.992340087890625
],
  "geometry": {"coordinates":[[[5.90088558197021,50.99210739135742],[5.90048933029175,50.99234008789062],[5.90177059173584,50.99229049682617],[5.90164041519165,50.99208450317383],[5.90156888961792,50.99208450317383],[5.90139818191528,50.99208450317383],[5.90108489990234,50.99209594726562],[5.90088558197021,50.99210739135742]]],"type":"Polygon"}
}