{
  "id": 890606269,
  "type": "Feature",
  "properties": {
    "clustr:alpha":0.05,
    "clustr:area":6.65,
    "clustr:count":12,
    "clustr:density":1.81,
    "clustr:perimeter":0.04,
    "edtf:cessation":"uuuu",
    "edtf:inception":"uuuu",
    "geom:area":0.0,
    "geom:bbox":"4.97219228745,52.2963180542,4.97249937057,52.2964096069",
    "geom:latitude":52.29637,
    "geom:longitude":4.97237,
    "iso:country":"NL",
    "mz:hierarchy_label":1,
    "mz:is_approximate":1,
    "mz:is_clustr":1,
    "src:geom":"oa",
    "wof:belongsto":[
        85687053,
        102191581,
        404474029,
        85633337,
        101751895
    ],
    "wof:breaches":[],
    "wof:country":"NL",
    "wof:created":1469667088,
    "wof:geomhash":"328b7dba2c6683b08fb24d9a95fe89e9",
    "wof:hierarchy":[
        {
            "continent_id":102191581,
            "country_id":85633337,
            "localadmin_id":404474029,
            "locality_id":101751895,
            "postalcode_id":890606269,
            "region_id":85687053
        }
    ],
    "wof:id":890606269,
    "wof:lastmodified":1469667088,
    "wof:name":"1106HZ",
    "wof:parent_id":101751895,
    "wof:placetype":"postalcode",
    "wof:repo":"whosonfirst-data-postalcode-nl",
    "wof:superseded_by":[],
    "wof:supersedes":[],
    "wof:tags":[]
},
  "bbox": [
    4.972192287445068,
    52.29631805419922,
    4.972499370574951,
    52.296409606933594
],
  "geometry": {"coordinates":[[[4.97244119644165,52.29637908935547],[4.97223663330078,52.29632568359375],[4.97220706939697,52.29631805419922],[4.97219228744507,52.29631805419922],[4.9724555015564,52.29640960693359],[4.97249937057495,52.29640960693359],[4.97244119644165,52.29637908935547]]],"type":"Polygon"}
}