{
  "id": 891166279,
  "type": "Feature",
  "properties": {
    "clustr:alpha":0.05,
    "clustr:area":2.3,
    "clustr:count":22,
    "clustr:density":9.58,
    "clustr:perimeter":0.17,
    "edtf:cessation":"uuuu",
    "edtf:inception":"uuuu",
    "geom:area":0.0,
    "geom:bbox":"5.66257667542,51.9762001038,5.6628408432,51.9769363403",
    "geom:latitude":51.976574,
    "geom:longitude":5.662691,
    "iso:country":"NL",
    "mz:hierarchy_label":1,
    "mz:is_approximate":1,
    "mz:is_clustr":1,
    "src:geom":"oa",
    "wof:belongsto":[
        85687043,
        102191581,
        404473947,
        85633337,
        101837813
    ],
    "wof:breaches":[],
    "wof:country":"NL",
    "wof:created":1469690035,
    "wof:geomhash":"a202a85d534cc2dbf03d10870424781c",
    "wof:hierarchy":[
        {
            "continent_id":102191581,
            "country_id":85633337,
            "localadmin_id":404473947,
            "locality_id":101837813,
            "postalcode_id":891166279,
            "region_id":85687043
        }
    ],
    "wof:id":891166279,
    "wof:lastmodified":1469690035,
    "wof:name":"6708DV",
    "wof:parent_id":101837813,
    "wof:placetype":"postalcode",
    "wof:repo":"whosonfirst-data-postalcode-nl",
    "wof:superseded_by":[],
    "wof:supersedes":[],
    "wof:tags":[]
},
  "bbox": [
    5.662576675415039,
    51.976200103759766,
    5.662840843200684,
    51.97693634033203
],
  "geometry": {"coordinates":[[[5.66282033920288,51.97620010375977],[5.66277885437012,51.97625350952148],[5.66257667541504,51.9765510559082],[5.66257953643799,51.97674942016602],[5.66258096694946,51.97677612304688],[5.66268014907837,51.97693634033203],[5.66284084320068,51.9762077331543],[5.66282033920288,51.97620010375977]]],"type":"Polygon"}
}