{
  "id": 907099991,
  "type": "Feature",
  "properties": {
    "clustr:alpha":0.05,
    "clustr:area":26.52,
    "clustr:count":30,
    "clustr:density":1.13,
    "clustr:perimeter":0.15,
    "edtf:cessation":"uuuu",
    "edtf:inception":"uuuu",
    "geom:area":0.0,
    "geom:bbox":"6.69888210297,53.2109832764,6.69970560074,53.2112808228",
    "geom:latitude":53.211138,
    "geom:longitude":6.69928,
    "iso:country":"NL",
    "mz:hierarchy_label":1,
    "mz:is_approximate":1,
    "mz:is_clustr":1,
    "src:geom":"oa",
    "wof:belongsto":[
        85687059,
        102191581,
        404473735,
        85633337,
        101806215
    ],
    "wof:breaches":[],
    "wof:country":"NL",
    "wof:created":1469699372,
    "wof:geomhash":"dffbde73c799333571544b58c820fdb6",
    "wof:hierarchy":[
        {
            "continent_id":102191581,
            "country_id":85633337,
            "localadmin_id":404473735,
            "locality_id":101806215,
            "postalcode_id":907099991,
            "region_id":85687059
        }
    ],
    "wof:id":907099991,
    "wof:lastmodified":1469699372,
    "wof:name":"9617DC",
    "wof:parent_id":101806215,
    "wof:placetype":"postalcode",
    "wof:repo":"whosonfirst-data-postalcode-nl",
    "wof:superseded_by":[],
    "wof:supersedes":[],
    "wof:tags":[]
},
  "bbox": [
    6.698882102966309,
    53.21098327636719,
    6.699705600738525,
    53.211280822753906
],
  "geometry": {"coordinates":[[[6.6992244720459,53.21128082275391],[6.69932746887207,53.21128082275391],[6.69967889785767,53.21125411987305],[6.69970560073853,53.21103286743164],[6.69936847686768,53.21100234985352],[6.69891691207886,53.21098327636719],[6.69888210296631,53.21126556396484],[6.69899892807007,53.21127319335938],[6.6992244720459,53.21128082275391]]],"type":"Polygon"}
}