{
  "id": 890692201,
  "type": "Feature",
  "properties": {
    "clustr:alpha":0.05,
    "clustr:area":140.48,
    "clustr:count":13,
    "clustr:density":0.09,
    "clustr:perimeter":0.14,
    "edtf:cessation":"uuuu",
    "edtf:inception":"uuuu",
    "geom:area":0.0,
    "geom:bbox":"4.66703605652,52.4966659546,4.66845273972,52.4973945618",
    "geom:latitude":52.496913,
    "geom:longitude":4.667538,
    "iso:country":"NL",
    "mz:hierarchy_label":1,
    "mz:is_approximate":1,
    "mz:is_clustr":1,
    "src:geom":"oa",
    "wof:belongsto":[
        85687053,
        102191581,
        404474043,
        85633337,
        101754793
    ],
    "wof:breaches":[],
    "wof:country":"NL",
    "wof:created":1469670905,
    "wof:geomhash":"622f818408479d78a6e4ce230b87c162",
    "wof:hierarchy":[
        {
            "continent_id":102191581,
            "country_id":85633337,
            "localadmin_id":404474043,
            "locality_id":101754793,
            "postalcode_id":890692201,
            "region_id":85687053
        }
    ],
    "wof:id":890692201,
    "wof:lastmodified":1469670905,
    "wof:name":"1945VB",
    "wof:parent_id":101754793,
    "wof:placetype":"postalcode",
    "wof:repo":"whosonfirst-data-postalcode-nl",
    "wof:superseded_by":[],
    "wof:supersedes":[],
    "wof:tags":[]
},
  "bbox": [
    4.667036056518555,
    52.496665954589844,
    4.668452739715576,
    52.49739456176758
],
  "geometry": {"coordinates":[[[4.66722679138184,52.49671173095703],[4.66713953018188,52.49666595458984],[4.66706562042236,52.49666595458984],[4.66703605651855,52.49668121337891],[4.66707992553711,52.49671173095703],[4.66845273971558,52.49739456176758],[4.66722679138184,52.49671173095703]]],"type":"Polygon"}
}