{
  "id": 890667835,
  "type": "Feature",
  "properties": {
    "clustr:alpha":0.05,
    "clustr:area":0.14,
    "clustr:count":34,
    "clustr:density":241.39,
    "clustr:perimeter":0.23,
    "edtf:cessation":"uuuu",
    "edtf:inception":"uuuu",
    "geom:area":0.0,
    "geom:bbox":"4.83819198608,52.6602706909,4.83931732178,52.6609573364",
    "geom:latitude":52.66066,
    "geom:longitude":4.838879,
    "iso:country":"NL",
    "mz:hierarchy_label":1,
    "mz:is_approximate":1,
    "mz:is_clustr":1,
    "src:geom":"oa",
    "wof:belongsto":[
        85687053,
        102191581,
        404474075,
        85633337,
        101754815
    ],
    "wof:breaches":[],
    "wof:country":"NL",
    "wof:created":1469669856,
    "wof:geomhash":"b0bd557f3e4f01569f85cfb0761b2a55",
    "wof:hierarchy":[
        {
            "continent_id":102191581,
            "country_id":85633337,
            "localadmin_id":404474075,
            "locality_id":101754815,
            "postalcode_id":890667835,
            "region_id":85687053
        }
    ],
    "wof:id":890667835,
    "wof:lastmodified":1469669856,
    "wof:name":"1702XB",
    "wof:parent_id":101754815,
    "wof:placetype":"postalcode",
    "wof:repo":"whosonfirst-data-postalcode-nl",
    "wof:superseded_by":[],
    "wof:supersedes":[],
    "wof:tags":[]
},
  "bbox": [
    4.838191986083984,
    52.66027069091797,
    4.839317321777344,
    52.66095733642578
],
  "geometry": {"coordinates":[[[4.83931732177734,52.66065979003906],[4.83931493759155,52.66062164306641],[4.83914470672607,52.66027069091797],[4.83902072906494,52.66035079956055],[4.83877086639404,52.6605224609375],[4.83871364593506,52.66056442260742],[4.83819198608398,52.66095733642578],[4.83908462524414,52.66082382202148],[4.83931732177734,52.66065979003906]]],"type":"Polygon"}
}