{
  "id": 891130309,
  "type": "Feature",
  "properties": {
    "clustr:alpha":0.05,
    "clustr:area":20.84,
    "clustr:count":13,
    "clustr:density":0.62,
    "clustr:perimeter":0.87,
    "edtf:cessation":"uuuu",
    "edtf:inception":"uuuu",
    "geom:area":0.000001,
    "geom:bbox":"5.81421899796,50.902381897,5.81897068024,50.905040741",
    "geom:latitude":50.903556,
    "geom:longitude":5.817115,
    "iso:country":"NL",
    "mz:hierarchy_label":1,
    "mz:is_approximate":1,
    "mz:is_clustr":1,
    "src:geom":"oa",
    "wof:belongsto":[
        102191581,
        404474509,
        85633337,
        85687033
    ],
    "wof:breaches":[],
    "wof:country":"NL",
    "wof:created":1469688502,
    "wof:geomhash":"2087f6dc8a9f16fbde01b3cce0967a2c",
    "wof:hierarchy":[
        {
            "continent_id":102191581,
            "country_id":85633337,
            "localadmin_id":404474509,
            "postalcode_id":891130309,
            "region_id":85687033
        }
    ],
    "wof:id":891130309,
    "wof:lastmodified":1469688502,
    "wof:name":"6333EJ",
    "wof:parent_id":404474509,
    "wof:placetype":"postalcode",
    "wof:repo":"whosonfirst-data-postalcode-nl",
    "wof:superseded_by":[],
    "wof:supersedes":[],
    "wof:tags":[]
},
  "bbox": [
    5.814218997955322,
    50.902381896972656,
    5.818970680236816,
    50.9050407409668
],
  "geometry": {"coordinates":[[[5.81897068023682,50.90238189697266],[5.81421899795532,50.9050407409668],[5.81760215759277,50.90351867675781],[5.81781435012817,50.90339279174805],[5.81822443008423,50.90313720703125],[5.81840801239014,50.90299224853516],[5.81883001327515,50.90260696411133],[5.81897068023682,50.90238189697266]]],"type":"Polygon"}
}