{
  "id": 891213143,
  "type": "Feature",
  "properties": {
    "clustr:alpha":0.05,
    "clustr:area":20.02,
    "clustr:count":13,
    "clustr:density":0.65,
    "clustr:perimeter":0.1,
    "edtf:cessation":"uuuu",
    "edtf:inception":"uuuu",
    "geom:area":0.0,
    "geom:bbox":"5.95782566071,52.2142562866,5.95820426941,52.2147293091",
    "geom:latitude":52.2145,
    "geom:longitude":5.95801,
    "iso:country":"NL",
    "mz:hierarchy_label":1,
    "mz:is_approximate":1,
    "mz:is_clustr":1,
    "src:geom":"oa",
    "wof:belongsto":[
        85687043,
        102191581,
        404473867,
        85633337,
        101751853
    ],
    "wof:breaches":[],
    "wof:country":"NL",
    "wof:created":1469691965,
    "wof:geomhash":"8808f594300b232c3efb4a02f99a1a83",
    "wof:hierarchy":[
        {
            "continent_id":102191581,
            "country_id":85633337,
            "localadmin_id":404473867,
            "locality_id":101751853,
            "postalcode_id":891213143,
            "region_id":85687043
        }
    ],
    "wof:id":891213143,
    "wof:lastmodified":1469691965,
    "wof:name":"7311VL",
    "wof:parent_id":101751853,
    "wof:placetype":"postalcode",
    "wof:repo":"whosonfirst-data-postalcode-nl",
    "wof:superseded_by":[],
    "wof:supersedes":[],
    "wof:tags":[]
},
  "bbox": [
    5.957825660705566,
    52.214256286621094,
    5.95820426940918,
    52.21472930908203
],
  "geometry": {"coordinates":[[[5.95788097381592,52.21465682983398],[5.95782566070557,52.21472930908203],[5.95785522460938,52.21469497680664],[5.95817708969116,52.21429443359375],[5.95820426940918,52.21425628662109],[5.95802545547485,52.2144775390625],[5.95788097381592,52.21465682983398]]],"type":"Polygon"}
}