{
  "id": 890641707,
  "type": "Feature",
  "properties": {
    "clustr:alpha":0.05,
    "clustr:area":37.76,
    "clustr:count":24,
    "clustr:density":0.64,
    "clustr:perimeter":0.14,
    "edtf:cessation":"uuuu",
    "edtf:inception":"uuuu",
    "geom:area":0.0,
    "geom:bbox":"5.14573764801,52.3003883362,5.14663314819,52.3008880615",
    "geom:latitude":52.300639,
    "geom:longitude":5.146185,
    "iso:country":"NL",
    "mz:hierarchy_label":1,
    "mz:is_approximate":1,
    "mz:is_clustr":1,
    "src:geom":"oa",
    "wof:belongsto":[
        102191581,
        404474101,
        85633337,
        85687053
    ],
    "wof:breaches":[],
    "wof:country":"NL",
    "wof:created":1469668607,
    "wof:geomhash":"f3401b3f1d883ffd86dbdcd9f12f7ff9",
    "wof:hierarchy":[
        {
            "continent_id":102191581,
            "country_id":85633337,
            "localadmin_id":404474101,
            "postalcode_id":890641707,
            "region_id":85687053
        }
    ],
    "wof:id":890641707,
    "wof:lastmodified":1469668607,
    "wof:name":"1411VS",
    "wof:parent_id":404474101,
    "wof:placetype":"postalcode",
    "wof:repo":"whosonfirst-data-postalcode-nl",
    "wof:superseded_by":[],
    "wof:supersedes":[],
    "wof:tags":[]
},
  "bbox": [
    5.145737648010254,
    52.30038833618164,
    5.146633148193359,
    52.30088806152344
],
  "geometry": {"coordinates":[[[5.14628171920776,52.30044555664062],[5.14598417282104,52.30058670043945],[5.14579486846924,52.30067825317383],[5.14573764801025,52.30070877075195],[5.14596557617188,52.30088806152344],[5.14602899551392,52.30086135864258],[5.14615058898926,52.30080413818359],[5.14663314819336,52.30057144165039],[5.1464033126831,52.30038833618164],[5.14628171920776,52.30044555664062]]],"type":"Polygon"}
}