{
  "id": 890718089,
  "type": "Feature",
  "properties": {
    "clustr:alpha":0.05,
    "clustr:area":61.52,
    "clustr:count":8,
    "clustr:density":0.13,
    "clustr:perimeter":0.17,
    "edtf:cessation":"uuuu",
    "edtf:inception":"uuuu",
    "geom:area":0.0,
    "geom:bbox":"4.42553853989,52.2230987549,4.42664146423,52.223526001",
    "geom:latitude":52.223309,
    "geom:longitude":4.426051,
    "iso:country":"NL",
    "mz:hierarchy_label":1,
    "mz:is_approximate":1,
    "mz:is_clustr":1,
    "src:geom":"oa",
    "wof:belongsto":[
        102191581,
        404474221,
        85633337,
        85687041
    ],
    "wof:breaches":[],
    "wof:country":"NL",
    "wof:created":1469672079,
    "wof:geomhash":"649a86414f67945977b571b89ac3b0af",
    "wof:hierarchy":[
        {
            "continent_id":102191581,
            "country_id":85633337,
            "localadmin_id":404474221,
            "postalcode_id":890718089,
            "region_id":85687041
        }
    ],
    "wof:id":890718089,
    "wof:lastmodified":1469672079,
    "wof:name":"2201ZM",
    "wof:parent_id":404474221,
    "wof:placetype":"postalcode",
    "wof:repo":"whosonfirst-data-postalcode-nl",
    "wof:superseded_by":[],
    "wof:supersedes":[],
    "wof:tags":[]
},
  "bbox": [
    4.425538539886475,
    52.22309875488281,
    4.426641464233398,
    52.22352600097656
],
  "geometry": {"coordinates":[[[4.42553853988647,52.22311782836914],[4.4257640838623,52.22352600097656],[4.4266414642334,52.22346496582031],[4.42628574371338,52.22311782836914],[4.42604398727417,52.22309875488281],[4.42553853988647,52.22311782836914]]],"type":"Polygon"}
}