{
  "id": 890928015,
  "type": "Feature",
  "properties": {
    "clustr:alpha":0.05,
    "clustr:area":62.27,
    "clustr:count":12,
    "clustr:density":0.19,
    "clustr:perimeter":2.01,
    "edtf:cessation":"uuuu",
    "edtf:inception":"uuuu",
    "geom:area":0.000011,
    "geom:bbox":"5.12883234024,52.045337677,5.1339931488,52.0539398193",
    "geom:latitude":52.049196,
    "geom:longitude":5.130956,
    "iso:country":"NL",
    "mz:hierarchy_label":1,
    "mz:is_approximate":1,
    "mz:is_clustr":1,
    "src:geom":"oa",
    "wof:belongsto":[
        102191581,
        404473987,
        85633337,
        85687039
    ],
    "wof:breaches":[],
    "wof:country":"NL",
    "wof:created":1469680381,
    "wof:geomhash":"d222ac3c2c6b9a56ac6d84d2d3da6395",
    "wof:hierarchy":[
        {
            "continent_id":102191581,
            "country_id":85633337,
            "localadmin_id":404473987,
            "postalcode_id":890928015,
            "region_id":85687039
        }
    ],
    "wof:id":890928015,
    "wof:lastmodified":1469680381,
    "wof:name":"3992LR",
    "wof:parent_id":404473987,
    "wof:placetype":"postalcode",
    "wof:repo":"whosonfirst-data-postalcode-nl",
    "wof:superseded_by":[],
    "wof:supersedes":[],
    "wof:tags":[]
},
  "bbox": [
    5.128832340240479,
    52.04533767700195,
    5.133993148803711,
    52.05393981933594
],
  "geometry": {"coordinates":[[[5.1333646774292,52.05333709716797],[5.13399314880371,52.05393981933594],[5.12988901138306,52.04533767700195],[5.12883234024048,52.04573059082031],[5.13013410568237,52.05012130737305],[5.13207292556763,52.05206680297852],[5.13280010223389,52.05279159545898],[5.1333646774292,52.05333709716797]]],"type":"Polygon"}
}