{
  "id": 891165111,
  "type": "Feature",
  "properties": {
    "clustr:alpha":0.05,
    "clustr:area":9.83,
    "clustr:count":17,
    "clustr:density":1.73,
    "clustr:perimeter":0.19,
    "edtf:cessation":"uuuu",
    "edtf:inception":"uuuu",
    "geom:area":0.0,
    "geom:bbox":"5.66481351852,51.9664154053,5.66588878632,51.9669837952",
    "geom:latitude":51.966676,
    "geom:longitude":5.665284,
    "iso:country":"NL",
    "mz:hierarchy_label":1,
    "mz:is_approximate":1,
    "mz:is_clustr":1,
    "src:geom":"oa",
    "wof:belongsto":[
        85687043,
        102191581,
        404473947,
        85633337,
        101837813
    ],
    "wof:breaches":[],
    "wof:country":"NL",
    "wof:created":1469689983,
    "wof:geomhash":"2289a304dad07756b5ced103c56a60d3",
    "wof:hierarchy":[
        {
            "continent_id":102191581,
            "country_id":85633337,
            "localadmin_id":404473947,
            "locality_id":101837813,
            "postalcode_id":891165111,
            "region_id":85687043
        }
    ],
    "wof:id":891165111,
    "wof:lastmodified":1469689983,
    "wof:name":"6701DM",
    "wof:parent_id":101837813,
    "wof:placetype":"postalcode",
    "wof:repo":"whosonfirst-data-postalcode-nl",
    "wof:superseded_by":[],
    "wof:supersedes":[],
    "wof:tags":[]
},
  "bbox": [
    5.66481351852417,
    51.96641540527344,
    5.665888786315918,
    51.966983795166016
],
  "geometry": {"coordinates":[[[5.66481924057007,51.96685028076172],[5.66481351852417,51.9669075012207],[5.66492557525635,51.96698379516602],[5.66514539718628,51.96689224243164],[5.66588878631592,51.96646881103516],[5.66553640365601,51.96641540527344],[5.66544675827026,51.96643829345703],[5.66488885879517,51.96673965454102],[5.66481924057007,51.96685028076172]]],"type":"Polygon"}
}