{
  "id": 890934565,
  "type": "Feature",
  "properties": {
    "clustr:alpha":0.05,
    "clustr:area":95.05,
    "clustr:count":9,
    "clustr:density":0.09,
    "clustr:perimeter":0.53,
    "edtf:cessation":"uuuu",
    "edtf:inception":"uuuu",
    "geom:area":0.0,
    "geom:bbox":"5.30143117905,51.9462966919,5.30520057678,51.9475517273",
    "geom:latitude":51.94696,
    "geom:longitude":5.303259,
    "iso:country":"NL",
    "mz:hierarchy_label":1,
    "mz:is_approximate":1,
    "mz:is_clustr":1,
    "src:geom":"oa",
    "wof:belongsto":[
        102191581,
        404473879,
        85633337,
        85687043
    ],
    "wof:breaches":[],
    "wof:country":"NL",
    "wof:created":1469680613,
    "wof:geomhash":"f37dcd5dd402a3ec6418667bc43ddaf8",
    "wof:hierarchy":[
        {
            "continent_id":102191581,
            "country_id":85633337,
            "localadmin_id":404473879,
            "postalcode_id":890934565,
            "region_id":85687043
        }
    ],
    "wof:id":890934565,
    "wof:lastmodified":1469680613,
    "wof:name":"4111NZ",
    "wof:parent_id":404473879,
    "wof:placetype":"postalcode",
    "wof:repo":"whosonfirst-data-postalcode-nl",
    "wof:superseded_by":[],
    "wof:supersedes":[],
    "wof:tags":[]
},
  "bbox": [
    5.301431179046631,
    51.94629669189453,
    5.305200576782227,
    51.94755172729492
],
  "geometry": {"coordinates":[[[5.3021879196167,51.94735717773438],[5.30274057388306,51.94719314575195],[5.30520057678223,51.94629669189453],[5.30473470687866,51.9464225769043],[5.30143117904663,51.94755172729492],[5.3021879196167,51.94735717773438]]],"type":"Polygon"}
}