{
  "id": 907057505,
  "type": "Feature",
  "properties": {
    "clustr:alpha":0.05,
    "clustr:area":109.81,
    "clustr:count":26,
    "clustr:density":0.24,
    "clustr:perimeter":0.34,
    "edtf:cessation":"uuuu",
    "edtf:inception":"uuuu",
    "geom:area":0.000001,
    "geom:bbox":"5.44125509262,52.9790229797,5.44401073456,52.9796600342",
    "geom:latitude":52.979322,
    "geom:longitude":5.44254,
    "iso:country":"NL",
    "mz:hierarchy_label":1,
    "mz:is_approximate":1,
    "mz:is_clustr":1,
    "src:geom":"oa",
    "wof:belongsto":[
        85687055,
        102191581,
        404473803,
        85633337,
        101807455
    ],
    "wof:breaches":[],
    "wof:country":"NL",
    "wof:created":1469697140,
    "wof:geomhash":"5fec2e9684fcf7d16fc6b7dd6435097f",
    "wof:hierarchy":[
        {
            "continent_id":102191581,
            "country_id":85633337,
            "localadmin_id":404473803,
            "locality_id":101807455,
            "postalcode_id":907057505,
            "region_id":85687055
        }
    ],
    "wof:id":907057505,
    "wof:lastmodified":1469697140,
    "wof:name":"8711CL",
    "wof:parent_id":101807455,
    "wof:placetype":"postalcode",
    "wof:repo":"whosonfirst-data-postalcode-nl",
    "wof:superseded_by":[],
    "wof:supersedes":[],
    "wof:tags":[]
},
  "bbox": [
    5.44125509262085,
    52.97902297973633,
    5.444010734558105,
    52.97966003417969
],
  "geometry": {"coordinates":[[[5.4419355392456,52.97906494140625],[5.44125509262085,52.97927093505859],[5.44216012954712,52.97966003417969],[5.4440107345581,52.97939300537109],[5.44285345077515,52.97902297973633],[5.4419355392456,52.97906494140625]]],"type":"Polygon"}
}