{
  "id": 907091209,
  "type": "Feature",
  "properties": {
    "clustr:alpha":0.05,
    "clustr:area":13.03,
    "clustr:count":14,
    "clustr:density":1.07,
    "clustr:perimeter":0.21,
    "edtf:cessation":"uuuu",
    "edtf:inception":"uuuu",
    "geom:area":0.0,
    "geom:bbox":"6.59744882584,52.8603553772,6.59852600098,52.8610229492",
    "geom:latitude":52.860702,
    "geom:longitude":6.59796,
    "iso:country":"NL",
    "mz:hierarchy_label":1,
    "mz:is_approximate":1,
    "mz:is_clustr":1,
    "src:geom":"oa",
    "wof:belongsto":[
        85687051,
        102191581,
        404474649,
        85633337,
        101808781
    ],
    "wof:breaches":[],
    "wof:country":"NL",
    "wof:created":1469698862,
    "wof:geomhash":"aece640c17aab230cf1a89a3506c14e0",
    "wof:hierarchy":[
        {
            "continent_id":102191581,
            "country_id":85633337,
            "localadmin_id":404474649,
            "locality_id":101808781,
            "postalcode_id":907091209,
            "region_id":85687051
        }
    ],
    "wof:id":907091209,
    "wof:lastmodified":1469698862,
    "wof:name":"9431KS",
    "wof:parent_id":101808781,
    "wof:placetype":"postalcode",
    "wof:repo":"whosonfirst-data-postalcode-nl",
    "wof:superseded_by":[],
    "wof:supersedes":[],
    "wof:tags":[]
},
  "bbox": [
    6.597448825836182,
    52.860355377197266,
    6.598526000976562,
    52.86102294921875
],
  "geometry": {"coordinates":[[[6.59776926040649,52.86083984375],[6.59802579879761,52.86098861694336],[6.5983681678772,52.86102294921875],[6.59846878051758,52.86090469360352],[6.59852600097656,52.86082077026367],[6.59787654876709,52.86042404174805],[6.5974588394165,52.86035537719727],[6.59744882583618,52.86052703857422],[6.59754133224487,52.86065292358398],[6.59764766693115,52.86074066162109],[6.59776926040649,52.86083984375]]],"type":"Polygon"}
}