{
  "id": 890933243,
  "type": "Feature",
  "properties": {
    "clustr:alpha":0.05,
    "clustr:area":0.65,
    "clustr:count":24,
    "clustr:density":37.04,
    "clustr:perimeter":0.22,
    "edtf:cessation":"uuuu",
    "edtf:inception":"uuuu",
    "geom:area":0.0,
    "geom:bbox":"5.22412586212,51.9567298889,5.22486019135,51.9575843811",
    "geom:latitude":51.957204,
    "geom:longitude":5.224528,
    "iso:country":"NL",
    "mz:hierarchy_label":1,
    "mz:is_approximate":1,
    "mz:is_clustr":1,
    "src:geom":"oa",
    "wof:belongsto":[
        85687043,
        102191581,
        404473881,
        85633337,
        101808619
    ],
    "wof:breaches":[],
    "wof:country":"NL",
    "wof:created":1469680567,
    "wof:geomhash":"e7658e06a3a4fed6081aaf673c7eb439",
    "wof:hierarchy":[
        {
            "continent_id":102191581,
            "country_id":85633337,
            "localadmin_id":404473881,
            "locality_id":101808619,
            "postalcode_id":890933243,
            "region_id":85687043
        }
    ],
    "wof:id":890933243,
    "wof:lastmodified":1469680567,
    "wof:name":"4101BV",
    "wof:parent_id":101808619,
    "wof:placetype":"postalcode",
    "wof:repo":"whosonfirst-data-postalcode-nl",
    "wof:superseded_by":[],
    "wof:supersedes":[],
    "wof:tags":[]
},
  "bbox": [
    5.224125862121582,
    51.956729888916016,
    5.224860191345215,
    51.957584381103516
],
  "geometry": {"coordinates":[[[5.22485399246216,51.95747375488281],[5.2246150970459,51.95672988891602],[5.22439479827881,51.95691680908203],[5.22417593002319,51.95721817016602],[5.22412586212158,51.95730590820312],[5.224205493927,51.95735931396484],[5.2244668006897,51.95745849609375],[5.22486019134521,51.95758438110352],[5.22485399246216,51.95747375488281]]],"type":"Polygon"}
}