{
  "id": 890917501,
  "type": "Feature",
  "properties": {
    "clustr:alpha":0.05,
    "clustr:area":30.07,
    "clustr:count":15,
    "clustr:density":0.5,
    "clustr:perimeter":0.3,
    "edtf:cessation":"uuuu",
    "edtf:inception":"uuuu",
    "geom:area":0.0,
    "geom:bbox":"5.51585102081,52.3402481079,5.51658010483,52.341758728",
    "geom:latitude":52.340991,
    "geom:longitude":5.516195,
    "iso:country":"NL",
    "mz:hierarchy_label":1,
    "mz:is_approximate":1,
    "mz:is_clustr":1,
    "src:geom":"oa",
    "wof:belongsto":[
        85687049,
        102191581,
        404473741,
        85633337,
        101808771
    ],
    "wof:breaches":[],
    "wof:country":"NL",
    "wof:created":1469679906,
    "wof:geomhash":"72fc3b59dd3994c8f845ffa2fa2a30e6",
    "wof:hierarchy":[
        {
            "continent_id":102191581,
            "country_id":85633337,
            "localadmin_id":404473741,
            "locality_id":101808771,
            "postalcode_id":890917501,
            "region_id":85687049
        }
    ],
    "wof:id":890917501,
    "wof:lastmodified":1469679906,
    "wof:name":"3893GR",
    "wof:parent_id":101808771,
    "wof:placetype":"postalcode",
    "wof:repo":"whosonfirst-data-postalcode-nl",
    "wof:superseded_by":[],
    "wof:supersedes":[],
    "wof:tags":[]
},
  "bbox": [
    5.515851020812988,
    52.340248107910156,
    5.516580104827881,
    52.341758728027344
],
  "geometry": {"coordinates":[[[5.51592350006104,52.34149169921875],[5.51585102081299,52.34175872802734],[5.51658010482788,52.34024810791016],[5.51643419265747,52.34043884277344],[5.51612758636475,52.34106826782227],[5.51592350006104,52.34149169921875]]],"type":"Polygon"}
}