{
  "id": 891073579,
  "type": "Feature",
  "properties": {
    "clustr:alpha":0.05,
    "clustr:area":67.82,
    "clustr:count":6,
    "clustr:density":0.09,
    "clustr:perimeter":0.11,
    "edtf:cessation":"uuuu",
    "edtf:inception":"uuuu",
    "geom:area":0.0,
    "geom:bbox":"5.40002393723,51.510345459,5.40092372894,51.5108108521",
    "geom:latitude":51.510537,
    "geom:longitude":5.400422,
    "iso:country":"NL",
    "mz:hierarchy_label":1,
    "mz:is_approximate":1,
    "mz:is_clustr":1,
    "src:geom":"oa",
    "wof:belongsto":[
        85687035,
        102191581,
        404474353,
        85633337,
        101754563
    ],
    "wof:breaches":[],
    "wof:country":"NL",
    "wof:created":1469686239,
    "wof:geomhash":"b55409da7e9166314a16f4135f2e5ea9",
    "wof:hierarchy":[
        {
            "continent_id":102191581,
            "country_id":85633337,
            "localadmin_id":404474353,
            "locality_id":101754563,
            "postalcode_id":891073579,
            "region_id":85687035
        }
    ],
    "wof:id":891073579,
    "wof:lastmodified":1469686239,
    "wof:name":"5683HC",
    "wof:parent_id":101754563,
    "wof:placetype":"postalcode",
    "wof:repo":"whosonfirst-data-postalcode-nl",
    "wof:superseded_by":[],
    "wof:supersedes":[],
    "wof:tags":[]
},
  "bbox": [
    5.400023937225342,
    51.510345458984375,
    5.400923728942871,
    51.51081085205078
],
  "geometry": {"coordinates":[[[5.40033912658691,51.51046752929688],[5.40026092529297,51.51043319702148],[5.40002393722534,51.51034545898438],[5.40092372894287,51.51081085205078],[5.40033912658691,51.51046752929688]]],"type":"Polygon"}
}