{
  "id": 891280209,
  "type": "Feature",
  "properties": {
    "clustr:alpha":0.05,
    "clustr:area":24.76,
    "clustr:count":26,
    "clustr:density":1.05,
    "clustr:perimeter":1.43,
    "edtf:cessation":"uuuu",
    "edtf:inception":"uuuu",
    "geom:area":0.000002,
    "geom:bbox":"6.29171562195,52.6720848083,6.29270839691,52.6804504395",
    "geom:latitude":52.675999,
    "geom:longitude":6.292302,
    "iso:country":"NL",
    "mz:hierarchy_label":1,
    "mz:is_approximate":1,
    "mz:is_clustr":1,
    "src:geom":"oa",
    "wof:belongsto":[
        85687051,
        102191581,
        404474601,
        85633337,
        101808785
    ],
    "wof:breaches":[],
    "wof:country":"NL",
    "wof:created":1469694710,
    "wof:geomhash":"7142a6f10d69792c818465dbf1083a20",
    "wof:hierarchy":[
        {
            "continent_id":102191581,
            "country_id":85633337,
            "localadmin_id":404474601,
            "locality_id":101808785,
            "postalcode_id":891280209,
            "region_id":85687051
        }
    ],
    "wof:id":891280209,
    "wof:lastmodified":1469694710,
    "wof:name":"7957BW",
    "wof:parent_id":101808785,
    "wof:placetype":"postalcode",
    "wof:repo":"whosonfirst-data-postalcode-nl",
    "wof:superseded_by":[],
    "wof:supersedes":[],
    "wof:tags":[]
},
  "bbox": [
    6.291715621948242,
    52.67208480834961,
    6.292708396911621,
    52.680450439453125
],
  "geometry": {"coordinates":[[[6.29243850708008,52.6746711730957],[6.29175901412964,52.6722297668457],[6.29171562194824,52.67208480834961],[6.29175233840942,52.67262649536133],[6.29176664352417,52.67282867431641],[6.29177713394165,52.67293548583984],[6.2920184135437,52.67510223388672],[6.29267311096191,52.68045043945312],[6.29270839691162,52.67865371704102],[6.29243850708008,52.6746711730957]]],"type":"Polygon"}
}