{
  "id": 891289585,
  "type": "Feature",
  "properties": {
    "clustr:alpha":0.05,
    "clustr:area":11.63,
    "clustr:count":11,
    "clustr:density":0.95,
    "clustr:perimeter":0.11,
    "edtf:cessation":"uuuu",
    "edtf:inception":"uuuu",
    "geom:area":0.0,
    "geom:bbox":"6.07617855072,52.63904953,6.07687044144,52.639339447",
    "geom:latitude":52.639203,
    "geom:longitude":6.076577,
    "iso:country":"NL",
    "mz:hierarchy_label":1,
    "mz:is_approximate":1,
    "mz:is_clustr":1,
    "src:geom":"oa",
    "wof:belongsto":[
        85687045,
        102191581,
        404474683,
        85633337,
        101807221
    ],
    "wof:breaches":[],
    "wof:country":"NL",
    "wof:created":1469695151,
    "wof:geomhash":"9b5810ad24dbd70f66688d4995fd158b",
    "wof:hierarchy":[
        {
            "continent_id":102191581,
            "country_id":85633337,
            "localadmin_id":404474683,
            "locality_id":101807221,
            "postalcode_id":891289585,
            "region_id":85687045
        }
    ],
    "wof:id":891289585,
    "wof:lastmodified":1469695151,
    "wof:name":"8064GC",
    "wof:parent_id":101807221,
    "wof:placetype":"postalcode",
    "wof:repo":"whosonfirst-data-postalcode-nl",
    "wof:superseded_by":[],
    "wof:supersedes":[],
    "wof:tags":[]
},
  "bbox": [
    6.076178550720215,
    52.6390495300293,
    6.076870441436768,
    52.639339447021484
],
  "geometry": {"coordinates":[[[6.07672023773193,52.63926315307617],[6.07687044143677,52.6390495300293],[6.07660961151123,52.63909912109375],[6.07617855072021,52.63933944702148],[6.07627534866333,52.63932800292969],[6.0763635635376,52.63931655883789],[6.07644367218018,52.63930511474609],[6.07662534713745,52.63927841186523],[6.07672023773193,52.63926315307617]]],"type":"Polygon"}
}