{
  "id": 891170339,
  "type": "Feature",
  "properties": {
    "clustr:alpha":0.05,
    "clustr:area":19.28,
    "clustr:count":32,
    "clustr:density":1.66,
    "clustr:perimeter":0.23,
    "edtf:cessation":"uuuu",
    "edtf:inception":"uuuu",
    "geom:area":0.0,
    "geom:bbox":"5.66105699539,52.002243042,5.66254281998,52.0027923584",
    "geom:latitude":52.002548,
    "geom:longitude":5.661781,
    "iso:country":"NL",
    "mz:hierarchy_label":1,
    "mz:is_approximate":1,
    "mz:is_clustr":1,
    "src:geom":"oa",
    "wof:belongsto":[
        85687043,
        102191581,
        404473893,
        85633337,
        101837743
    ],
    "wof:breaches":[],
    "wof:country":"NL",
    "wof:created":1469690220,
    "wof:geomhash":"e67b235d9dd19c47f5d295e6f1ffc601",
    "wof:hierarchy":[
        {
            "continent_id":102191581,
            "country_id":85633337,
            "localadmin_id":404473893,
            "locality_id":101837743,
            "postalcode_id":891170339,
            "region_id":85687043
        }
    ],
    "wof:id":891170339,
    "wof:lastmodified":1469690220,
    "wof:name":"6721RN",
    "wof:parent_id":101837743,
    "wof:placetype":"postalcode",
    "wof:repo":"whosonfirst-data-postalcode-nl",
    "wof:superseded_by":[],
    "wof:supersedes":[],
    "wof:tags":[]
},
  "bbox": [
    5.661056995391846,
    52.00224304199219,
    5.662542819976807,
    52.00279235839844
],
  "geometry": {"coordinates":[[[5.66120195388794,52.00246047973633],[5.66105699539185,52.00256729125977],[5.66126155853271,52.00266647338867],[5.66228151321411,52.00279235839844],[5.66254281997681,52.00263595581055],[5.66242599487305,52.0025749206543],[5.66230916976929,52.00251388549805],[5.66225051879883,52.00248336791992],[5.66219234466553,52.00245666503906],[5.66150665283203,52.00224304199219],[5.66134691238403,52.00235366821289],[5.66120195388794,52.00246047973633]]],"type":"Polygon"}
}