{
  "id": 890714597,
  "type": "Feature",
  "properties": {
    "clustr:alpha":0.05,
    "clustr:area":24.3,
    "clustr:count":14,
    "clustr:density":0.58,
    "clustr:perimeter":0.13,
    "edtf:cessation":"uuuu",
    "edtf:inception":"uuuu",
    "geom:area":0.0,
    "geom:bbox":"4.56608867645,52.2579994202,4.56678152084,52.2585601807",
    "geom:latitude":52.258278,
    "geom:longitude":4.566434,
    "iso:country":"NL",
    "mz:hierarchy_label":1,
    "mz:is_approximate":1,
    "mz:is_clustr":1,
    "src:geom":"oa",
    "wof:belongsto":[
        85687041,
        102191581,
        404474203,
        85633337,
        101837909
    ],
    "wof:breaches":[],
    "wof:country":"NL",
    "wof:created":1469671924,
    "wof:geomhash":"33f2e1c71048e41cbd39732b98e0b7ca",
    "wof:hierarchy":[
        {
            "continent_id":102191581,
            "country_id":85633337,
            "localadmin_id":404474203,
            "locality_id":101837909,
            "postalcode_id":890714597,
            "region_id":85687041
        }
    ],
    "wof:id":890714597,
    "wof:lastmodified":1469671924,
    "wof:name":"2161TN",
    "wof:parent_id":101837909,
    "wof:placetype":"postalcode",
    "wof:repo":"whosonfirst-data-postalcode-nl",
    "wof:superseded_by":[],
    "wof:supersedes":[],
    "wof:tags":[]
},
  "bbox": [
    4.566088676452637,
    52.257999420166016,
    4.566781520843506,
    52.25856018066406
],
  "geometry": {"coordinates":[[[4.56646394729614,52.2582893371582],[4.56640625,52.25824356079102],[4.56616067886353,52.25805282592773],[4.56608867645264,52.25799942016602],[4.56620407104492,52.25809860229492],[4.56649255752563,52.25833511352539],[4.56660795211792,52.25842666625977],[4.56678152084351,52.25856018066406],[4.56668043136597,52.25847244262695],[4.56646394729614,52.2582893371582]]],"type":"Polygon"}
}