{
  "id": 891254021,
  "type": "Feature",
  "properties": {
    "clustr:alpha":0.05,
    "clustr:area":2111.77,
    "clustr:count":6,
    "clustr:density":0.0,
    "clustr:perimeter":3.56,
    "edtf:cessation":"uuuu",
    "edtf:inception":"uuuu",
    "geom:area":0.00002,
    "geom:bbox":"6.62391757965,52.3330459595,6.64673471451,52.352558136",
    "geom:latitude":52.341236,
    "geom:longitude":6.63709,
    "iso:country":"NL",
    "mz:hierarchy_label":1,
    "mz:is_approximate":1,
    "mz:is_clustr":1,
    "src:geom":"oa",
    "wof:belongsto":[
        85687045,
        102191581,
        404473819,
        85633337,
        101751863
    ],
    "wof:breaches":[],
    "wof:country":"NL",
    "wof:created":1469693568,
    "wof:geomhash":"c6a42467e06d66e2601de58436b267a9",
    "wof:hierarchy":[
        {
            "continent_id":102191581,
            "country_id":85633337,
            "localadmin_id":404473819,
            "locality_id":101751863,
            "postalcode_id":891254021,
            "region_id":85687045
        }
    ],
    "wof:id":891254021,
    "wof:lastmodified":1469693568,
    "wof:name":"7609PP",
    "wof:parent_id":101751863,
    "wof:placetype":"postalcode",
    "wof:repo":"whosonfirst-data-postalcode-nl",
    "wof:superseded_by":[],
    "wof:supersedes":[],
    "wof:tags":[]
},
  "bbox": [
    6.623917579650879,
    52.333045959472656,
    6.646734714508057,
    52.35255813598633
],
  "geometry": {"coordinates":[[[6.63974809646606,52.33979797363281],[6.64673471450806,52.3331184387207],[6.64673233032227,52.33304595947266],[6.64080333709717,52.33715438842773],[6.62391757965088,52.35255813598633],[6.63974809646606,52.33979797363281]]],"type":"Polygon"}
}