{
  "id": 891011843,
  "type": "Feature",
  "properties": {
    "clustr:alpha":0.05,
    "clustr:area":39.33,
    "clustr:count":15,
    "clustr:density":0.38,
    "clustr:perimeter":0.28,
    "edtf:cessation":"uuuu",
    "edtf:inception":"uuuu",
    "geom:area":0.000001,
    "geom:bbox":"5.25201272964,51.4642410278,5.25367307663,51.4651222229",
    "geom:latitude":51.464731,
    "geom:longitude":5.252638,
    "iso:country":"NL",
    "mz:hierarchy_label":1,
    "mz:is_approximate":1,
    "mz:is_clustr":1,
    "src:geom":"oa",
    "wof:belongsto":[
        85687035,
        102191581,
        404474407,
        85633337,
        101809731
    ],
    "wof:breaches":[],
    "wof:country":"NL",
    "wof:created":1469683932,
    "wof:geomhash":"550b470564363febab0cbbbe78a03fdb",
    "wof:hierarchy":[
        {
            "continent_id":102191581,
            "country_id":85633337,
            "localadmin_id":404474407,
            "locality_id":101809731,
            "postalcode_id":891011843,
            "region_id":85687035
        }
    ],
    "wof:id":891011843,
    "wof:lastmodified":1469683932,
    "wof:name":"5091GV",
    "wof:parent_id":101809731,
    "wof:placetype":"postalcode",
    "wof:repo":"whosonfirst-data-postalcode-nl",
    "wof:superseded_by":[],
    "wof:supersedes":[],
    "wof:tags":[]
},
  "bbox": [
    5.252012729644775,
    51.46424102783203,
    5.253673076629639,
    51.46512222290039
],
  "geometry": {"coordinates":[[[5.25201272964478,51.46463012695312],[5.25201988220215,51.46477127075195],[5.25216197967529,51.46487045288086],[5.25237703323364,51.46492004394531],[5.25367307662964,51.46512222290039],[5.25229215621948,51.46424102783203],[5.25201272964478,51.46463012695312]]],"type":"Polygon"}
}