{
  "id": 891099767,
  "type": "Feature",
  "properties": {
    "clustr:alpha":0.05,
    "clustr:area":12.87,
    "clustr:count":13,
    "clustr:density":1.01,
    "clustr:perimeter":0.35,
    "edtf:cessation":"uuuu",
    "edtf:inception":"uuuu",
    "geom:area":0.0,
    "geom:bbox":"6.05097293854,51.2919998169,6.05320310593,51.2927474976",
    "geom:latitude":51.292444,
    "geom:longitude":6.051945,
    "iso:country":"NL",
    "mz:hierarchy_label":1,
    "mz:is_approximate":1,
    "mz:is_clustr":1,
    "src:geom":"oa",
    "wof:belongsto":[
        85687033,
        102191581,
        404474491,
        85633337,
        101809553
    ],
    "wof:breaches":[],
    "wof:country":"NL",
    "wof:created":1469687254,
    "wof:geomhash":"1a6358cb2ac00dfa3299982ec5fdf62c",
    "wof:hierarchy":[
        {
            "continent_id":102191581,
            "country_id":85633337,
            "localadmin_id":404474491,
            "locality_id":101809553,
            "postalcode_id":891099767,
            "region_id":85687033
        }
    ],
    "wof:id":891099767,
    "wof:lastmodified":1469687254,
    "wof:name":"5995XZ",
    "wof:parent_id":101809553,
    "wof:placetype":"postalcode",
    "wof:repo":"whosonfirst-data-postalcode-nl",
    "wof:superseded_by":[],
    "wof:supersedes":[],
    "wof:tags":[]
},
  "bbox": [
    6.050972938537598,
    51.29199981689453,
    6.053203105926514,
    51.292747497558594
],
  "geometry": {"coordinates":[[[6.05107402801514,51.29272842407227],[6.05172443389893,51.29256057739258],[6.05320310592651,51.29199981689453],[6.05266904830933,51.29217910766602],[6.05124664306641,51.29265594482422],[6.0509729385376,51.29274749755859],[6.05107402801514,51.29272842407227]]],"type":"Polygon"}
}