{
  "id": 891107953,
  "type": "Feature",
  "properties": {
    "clustr:alpha":0.05,
    "clustr:area":88.65,
    "clustr:count":16,
    "clustr:density":0.18,
    "clustr:perimeter":0.1,
    "edtf:cessation":"uuuu",
    "edtf:inception":"uuuu",
    "geom:area":0.0,
    "geom:bbox":"5.94113683701,51.1590423584,5.94219255447,51.1592712402",
    "geom:latitude":51.159178,
    "geom:longitude":5.941615,
    "iso:country":"NL",
    "mz:hierarchy_label":1,
    "mz:is_approximate":1,
    "mz:is_clustr":1,
    "src:geom":"oa",
    "wof:belongsto":[
        85687033,
        102191581,
        404474559,
        85633337,
        101839217
    ],
    "wof:breaches":[],
    "wof:country":"NL",
    "wof:created":1469687581,
    "wof:geomhash":"3e342f9a09669687b212cd0046d7f690",
    "wof:hierarchy":[
        {
            "continent_id":102191581,
            "country_id":85633337,
            "localadmin_id":404474559,
            "locality_id":101839217,
            "postalcode_id":891107953,
            "region_id":85687033
        }
    ],
    "wof:id":891107953,
    "wof:lastmodified":1469687581,
    "wof:name":"6067AC",
    "wof:parent_id":101839217,
    "wof:placetype":"postalcode",
    "wof:repo":"whosonfirst-data-postalcode-nl",
    "wof:superseded_by":[],
    "wof:supersedes":[],
    "wof:tags":[]
},
  "bbox": [
    5.941136837005615,
    51.15904235839844,
    5.942192554473877,
    51.159271240234375
],
  "geometry": {"coordinates":[[[5.94145536422729,51.15904235839844],[5.94136428833008,51.15908432006836],[5.94118213653565,51.15917205810547],[5.94113683700562,51.15919494628906],[5.9417986869812,51.15927124023438],[5.94219255447388,51.15925598144531],[5.94145536422729,51.15904235839844]]],"type":"Polygon"}
}