{
  "id": 890962733,
  "type": "Feature",
  "properties": {
    "clustr:alpha":0.05,
    "clustr:area":11.42,
    "clustr:count":21,
    "clustr:density":1.84,
    "clustr:perimeter":0.23,
    "edtf:cessation":"uuuu",
    "edtf:inception":"uuuu",
    "geom:area":0.000001,
    "geom:bbox":"3.38564562798,51.3087692261,3.38686490059,51.309513092",
    "geom:latitude":51.309127,
    "geom:longitude":3.386216,
    "iso:country":"NL",
    "mz:hierarchy_label":1,
    "mz:is_approximate":1,
    "mz:is_clustr":1,
    "src:geom":"oa",
    "wof:belongsto":[
        85687037,
        102191581,
        404474629,
        85633337,
        101809825
    ],
    "wof:breaches":[],
    "wof:country":"NL",
    "wof:created":1469681794,
    "wof:geomhash":"8446b66aad429f7125a12a7aeb1310ec",
    "wof:hierarchy":[
        {
            "continent_id":102191581,
            "country_id":85633337,
            "localadmin_id":404474629,
            "locality_id":101809825,
            "postalcode_id":890962733,
            "region_id":85687037
        }
    ],
    "wof:id":890962733,
    "wof:lastmodified":1469681794,
    "wof:name":"4524CD",
    "wof:parent_id":101809825,
    "wof:placetype":"postalcode",
    "wof:repo":"whosonfirst-data-postalcode-nl",
    "wof:superseded_by":[],
    "wof:supersedes":[],
    "wof:tags":[]
},
  "bbox": [
    3.385645627975464,
    51.30876922607422,
    3.386864900588989,
    51.309513092041016
],
  "geometry": {"coordinates":[[[3.38564562797546,51.3090934753418],[3.38574934005737,51.30926513671875],[3.3863160610199,51.30951309204102],[3.38652157783508,51.30938720703125],[3.38671708106995,51.30918502807617],[3.38686490058899,51.30901718139648],[3.38596725463867,51.30876922607422],[3.38576221466064,51.30895233154297],[3.38564562797546,51.3090934753418]]],"type":"Polygon"}
}