{
  "id": 907054615,
  "type": "Feature",
  "properties": {
    "clustr:alpha":0.05,
    "clustr:area":41.71,
    "clustr:count":23,
    "clustr:density":0.55,
    "clustr:perimeter":0.3,
    "edtf:cessation":"uuuu",
    "edtf:inception":"uuuu",
    "geom:area":0.000001,
    "geom:bbox":"5.66644620895,53.0356025696,5.66829156876,53.0366020203",
    "geom:latitude":53.036114,
    "geom:longitude":5.667379,
    "iso:country":"NL",
    "mz:hierarchy_label":1,
    "mz:is_approximate":1,
    "mz:is_clustr":1,
    "src:geom":"oa",
    "wof:belongsto":[
        85687055,
        102191581,
        404473793,
        85633337,
        101837971
    ],
    "wof:breaches":[],
    "wof:country":"NL",
    "wof:created":1469697018,
    "wof:geomhash":"ee1403c9f720bfaa4a04b2f9e152decd",
    "wof:hierarchy":[
        {
            "continent_id":102191581,
            "country_id":85633337,
            "localadmin_id":404473793,
            "locality_id":101837971,
            "postalcode_id":907054615,
            "region_id":85687055
        }
    ],
    "wof:id":907054615,
    "wof:lastmodified":1469697018,
    "wof:name":"8603CJ",
    "wof:parent_id":101837971,
    "wof:placetype":"postalcode",
    "wof:repo":"whosonfirst-data-postalcode-nl",
    "wof:superseded_by":[],
    "wof:supersedes":[],
    "wof:tags":[]
},
  "bbox": [
    5.666446208953857,
    53.03560256958008,
    5.668291568756104,
    53.03660202026367
],
  "geometry": {"coordinates":[[[5.66682434082031,53.03660202026367],[5.66735601425171,53.03641510009766],[5.6682915687561,53.03587341308594],[5.66787242889404,53.03560256958008],[5.66770887374878,53.03567504882812],[5.66644620895386,53.03635406494141],[5.66682434082031,53.03660202026367]]],"type":"Polygon"}
}