{
  "id": 890670691,
  "type": "Feature",
  "properties": {
    "clustr:alpha":0.05,
    "clustr:area":57.32,
    "clustr:count":32,
    "clustr:density":0.56,
    "clustr:perimeter":0.22,
    "edtf:cessation":"uuuu",
    "edtf:inception":"uuuu",
    "geom:area":0.000001,
    "geom:bbox":"4.79916763306,52.6843948364,4.80028820038,52.6851730347",
    "geom:latitude":52.684794,
    "geom:longitude":4.799796,
    "iso:country":"NL",
    "mz:hierarchy_label":1,
    "mz:is_approximate":1,
    "mz:is_clustr":1,
    "src:geom":"oa",
    "wof:belongsto":[
        85687053,
        102191581,
        404474093,
        85633337,
        101754843
    ],
    "wof:breaches":[],
    "wof:country":"NL",
    "wof:created":1469670003,
    "wof:geomhash":"ac18814551ea2d8f9cc6f08b6abc3557",
    "wof:hierarchy":[
        {
            "continent_id":102191581,
            "country_id":85633337,
            "localadmin_id":404474093,
            "locality_id":101754843,
            "postalcode_id":890670691,
            "region_id":85687053
        }
    ],
    "wof:id":890670691,
    "wof:lastmodified":1469670003,
    "wof:name":"1722KT",
    "wof:parent_id":101754843,
    "wof:placetype":"postalcode",
    "wof:repo":"whosonfirst-data-postalcode-nl",
    "wof:superseded_by":[],
    "wof:supersedes":[],
    "wof:tags":[]
},
  "bbox": [
    4.799167633056641,
    52.68439483642578,
    4.800288200378418,
    52.68517303466797
],
  "geometry": {"coordinates":[[[4.79964780807495,52.68439483642578],[4.79916763305664,52.68494033813477],[4.7992115020752,52.68495941162109],[4.79977226257324,52.6850700378418],[4.80028820037842,52.68517303466797],[4.80013465881348,52.68449783325195],[4.79964780807495,52.68439483642578]]],"type":"Polygon"}
}