{
  "id": 890977767,
  "type": "Feature",
  "properties": {
    "clustr:alpha":0.05,
    "clustr:area":12.08,
    "clustr:count":19,
    "clustr:density":1.57,
    "clustr:perimeter":0.21,
    "edtf:cessation":"uuuu",
    "edtf:inception":"uuuu",
    "geom:area":0.0,
    "geom:bbox":"4.44373416901,51.5168151855,4.44423913956,51.5175971985",
    "geom:latitude":51.517332,
    "geom:longitude":4.444064,
    "iso:country":"NL",
    "mz:hierarchy_label":1,
    "mz:is_approximate":1,
    "mz:is_clustr":1,
    "src:geom":"oa",
    "wof:belongsto":[
        85687035,
        102191581,
        404474587,
        85633337,
        101751815
    ],
    "wof:breaches":[],
    "wof:country":"NL",
    "wof:created":1469682525,
    "wof:geomhash":"a486ce3d7a795b6ed967dbe96db640c0",
    "wof:hierarchy":[
        {
            "continent_id":102191581,
            "country_id":85633337,
            "localadmin_id":404474587,
            "locality_id":101751815,
            "postalcode_id":890977767,
            "region_id":85687035
        }
    ],
    "wof:id":890977767,
    "wof:lastmodified":1469682525,
    "wof:name":"4708EE",
    "wof:parent_id":101751815,
    "wof:placetype":"postalcode",
    "wof:repo":"whosonfirst-data-postalcode-nl",
    "wof:superseded_by":[],
    "wof:supersedes":[],
    "wof:tags":[]
},
  "bbox": [
    4.443734169006348,
    51.516815185546875,
    4.444239139556885,
    51.51759719848633
],
  "geometry": {"coordinates":[[[4.44416046142578,51.51759719848633],[4.44423913955688,51.51759338378906],[4.44422388076782,51.51690673828125],[4.44422197341919,51.51681518554688],[4.44373416900635,51.51757431030273],[4.44397115707397,51.51759338378906],[4.44406270980835,51.51759719848633],[4.44416046142578,51.51759719848633]]],"type":"Polygon"}
}