{
  "id": 890946123,
  "type": "Feature",
  "properties": {
    "clustr:alpha":0.05,
    "clustr:area":49.02,
    "clustr:count":29,
    "clustr:density":0.59,
    "clustr:perimeter":0.22,
    "edtf:cessation":"uuuu",
    "edtf:inception":"uuuu",
    "geom:area":0.0,
    "geom:bbox":"4.03307628632,51.6506385803,4.03447151184,51.6512832642",
    "geom:latitude":51.650917,
    "geom:longitude":4.033621,
    "iso:country":"NL",
    "mz:hierarchy_label":1,
    "mz:is_approximate":1,
    "mz:is_clustr":1,
    "src:geom":"oa",
    "wof:belongsto":[
        85687037,
        102191581,
        404474591,
        85633337,
        101808417
    ],
    "wof:breaches":[],
    "wof:country":"NL",
    "wof:created":1469681062,
    "wof:geomhash":"d30ab5f8d941977626371e2605b1eebd",
    "wof:hierarchy":[
        {
            "continent_id":102191581,
            "country_id":85633337,
            "localadmin_id":404474591,
            "locality_id":101808417,
            "postalcode_id":890946123,
            "region_id":85687037
        }
    ],
    "wof:id":890946123,
    "wof:lastmodified":1469681062,
    "wof:name":"4307BH",
    "wof:parent_id":101808417,
    "wof:placetype":"postalcode",
    "wof:repo":"whosonfirst-data-postalcode-nl",
    "wof:superseded_by":[],
    "wof:supersedes":[],
    "wof:tags":[]
},
  "bbox": [
    4.033076286315918,
    51.650638580322266,
    4.03447151184082,
    51.651283264160156
],
  "geometry": {"coordinates":[[[4.03345251083374,51.65073394775391],[4.03307628631592,51.65100860595703],[4.0332088470459,51.65128326416016],[4.03351068496704,51.65115737915039],[4.03396940231323,51.65090942382812],[4.03447151184082,51.65063858032227],[4.03345251083374,51.65073394775391]]],"type":"Polygon"}
}