{
  "id": 890719401,
  "type": "Feature",
  "properties": {
    "clustr:alpha":0.05,
    "clustr:area":8.26,
    "clustr:count":20,
    "clustr:density":2.42,
    "clustr:perimeter":0.05,
    "edtf:cessation":"uuuu",
    "edtf:inception":"uuuu",
    "geom:area":0.0,
    "geom:bbox":"4.49395036697,52.2543563843,4.49421215057,52.254573822",
    "geom:latitude":52.254465,
    "geom:longitude":4.494082,
    "iso:country":"NL",
    "mz:hierarchy_label":1,
    "mz:is_approximate":1,
    "mz:is_clustr":1,
    "src:geom":"oa",
    "wof:belongsto":[
        85687041,
        102191581,
        404474223,
        85633337,
        101803693
    ],
    "wof:breaches":[],
    "wof:country":"NL",
    "wof:created":1469672133,
    "wof:geomhash":"e2e3c0219f1ec957c767baa54b73ab74",
    "wof:hierarchy":[
        {
            "continent_id":102191581,
            "country_id":85633337,
            "localadmin_id":404474223,
            "locality_id":101803693,
            "postalcode_id":890719401,
            "region_id":85687041
        }
    ],
    "wof:id":890719401,
    "wof:lastmodified":1469672133,
    "wof:name":"2211NV",
    "wof:parent_id":101803693,
    "wof:placetype":"postalcode",
    "wof:repo":"whosonfirst-data-postalcode-nl",
    "wof:superseded_by":[],
    "wof:supersedes":[],
    "wof:tags":[]
},
  "bbox": [
    4.493950366973877,
    52.254356384277344,
    4.49421215057373,
    52.254573822021484
],
  "geometry": {"coordinates":[[[4.49408006668091,52.25452041625977],[4.4941234588623,52.25454711914062],[4.4941816329956,52.25457382202148],[4.49421215057373,52.25451278686523],[4.49415493011475,52.25445938110352],[4.4940824508667,52.25440216064453],[4.49399566650391,52.25435638427734],[4.49395036697388,52.25442886352539],[4.49400806427002,52.25447463989258],[4.49408006668091,52.25452041625977]]],"type":"Polygon"}
}