{
  "id": 890779459,
  "type": "Feature",
  "properties": {
    "clustr:alpha":0.05,
    "clustr:area":30.45,
    "clustr:count":28,
    "clustr:density":0.92,
    "clustr:perimeter":0.15,
    "edtf:cessation":"uuuu",
    "edtf:inception":"uuuu",
    "geom:area":0.0,
    "geom:bbox":"4.44173908234,52.0100708008,4.44243955612,52.0107536316",
    "geom:latitude":52.010406,
    "geom:longitude":4.442075,
    "iso:country":"NL",
    "mz:hierarchy_label":1,
    "mz:is_approximate":1,
    "mz:is_clustr":1,
    "src:geom":"oa",
    "wof:belongsto":[
        85687041,
        102191581,
        404474687,
        85633337,
        101808469
    ],
    "wof:breaches":[],
    "wof:country":"NL",
    "wof:created":1469674462,
    "wof:geomhash":"600e6ae30879357b4f8694edc5bf3ce9",
    "wof:hierarchy":[
        {
            "continent_id":102191581,
            "country_id":85633337,
            "localadmin_id":404474687,
            "locality_id":101808469,
            "postalcode_id":890779459,
            "region_id":85687041
        }
    ],
    "wof:id":890779459,
    "wof:lastmodified":1469674462,
    "wof:name":"2641ME",
    "wof:parent_id":101808469,
    "wof:placetype":"postalcode",
    "wof:repo":"whosonfirst-data-postalcode-nl",
    "wof:superseded_by":[],
    "wof:supersedes":[],
    "wof:tags":[]
},
  "bbox": [
    4.441739082336426,
    52.01007080078125,
    4.442439556121826,
    52.0107536315918
],
  "geometry": {"coordinates":[[[4.44189786911011,52.01034164428711],[4.44187021255493,52.01038360595703],[4.44173908233643,52.01065063476562],[4.44199562072754,52.0107536315918],[4.44221782684326,52.01049041748047],[4.44241094589233,52.01024627685547],[4.44243955612183,52.01019668579102],[4.44212436676025,52.01007080078125],[4.44189786911011,52.01034164428711]]],"type":"Polygon"}
}