{
  "id": 891009061,
  "type": "Feature",
  "properties": {
    "clustr:alpha":0.05,
    "clustr:area":1.39,
    "clustr:count":25,
    "clustr:density":18.02,
    "clustr:perimeter":0.12,
    "edtf:cessation":"uuuu",
    "edtf:inception":"uuuu",
    "geom:area":0.0,
    "geom:bbox":"5.1877322197,51.5796813965,5.18815326691,51.5802268982",
    "geom:latitude":51.579978,
    "geom:longitude":5.187902,
    "iso:country":"NL",
    "mz:hierarchy_label":1,
    "mz:is_approximate":1,
    "mz:is_clustr":1,
    "src:geom":"oa",
    "wof:belongsto":[
        85687035,
        102191581,
        404474411,
        85633337,
        101808311
    ],
    "wof:breaches":[],
    "wof:country":"NL",
    "wof:created":1469683821,
    "wof:geomhash":"fd3dcd41275c1a79b9bcbe9dac4d8ae3",
    "wof:hierarchy":[
        {
            "continent_id":102191581,
            "country_id":85633337,
            "localadmin_id":404474411,
            "locality_id":101808311,
            "postalcode_id":891009061,
            "region_id":85687035
        }
    ],
    "wof:id":891009061,
    "wof:lastmodified":1469683821,
    "wof:name":"5061EN",
    "wof:parent_id":101808311,
    "wof:placetype":"postalcode",
    "wof:repo":"whosonfirst-data-postalcode-nl",
    "wof:superseded_by":[],
    "wof:supersedes":[],
    "wof:tags":[]
},
  "bbox": [
    5.187732219696045,
    51.579681396484375,
    5.188153266906738,
    51.58022689819336
],
  "geometry": {"coordinates":[[[5.1877326965332,51.58012008666992],[5.18773221969604,51.58022689819336],[5.18784856796265,51.58009338378906],[5.18805122375488,51.57984924316406],[5.18812417984009,51.57973480224609],[5.18815326690674,51.57968139648438],[5.1878490447998,51.57997512817383],[5.18774747848511,51.58010101318359],[5.1877326965332,51.58012008666992]]],"type":"Polygon"}
}