{
  "id": 890966217,
  "type": "Feature",
  "properties": {
    "clustr:alpha":0.05,
    "clustr:area":37.41,
    "clustr:count":7,
    "clustr:density":0.19,
    "clustr:perimeter":0.22,
    "edtf:cessation":"uuuu",
    "edtf:inception":"uuuu",
    "geom:area":0.0,
    "geom:bbox":"4.070104599,51.2764930725,4.07175636292,51.276638031",
    "geom:latitude":51.276582,
    "geom:longitude":4.071116,
    "iso:country":"NL",
    "mz:hierarchy_label":1,
    "mz:is_approximate":1,
    "mz:is_clustr":1,
    "src:geom":"oa",
    "wof:belongsto":[
        102191581,
        404474307,
        85633337,
        85687037
    ],
    "wof:breaches":[],
    "wof:country":"NL",
    "wof:created":1469681989,
    "wof:geomhash":"81894c77781ab0846afb3e5a0a73c0fa",
    "wof:hierarchy":[
        {
            "continent_id":102191581,
            "country_id":85633337,
            "localadmin_id":404474307,
            "postalcode_id":890966217,
            "region_id":85687037
        }
    ],
    "wof:id":890966217,
    "wof:lastmodified":1469681989,
    "wof:name":"4562BH",
    "wof:parent_id":404474307,
    "wof:placetype":"postalcode",
    "wof:repo":"whosonfirst-data-postalcode-nl",
    "wof:superseded_by":[],
    "wof:supersedes":[],
    "wof:tags":[]
},
  "bbox": [
    4.070104598999023,
    51.276493072509766,
    4.071756362915039,
    51.27663803100586
],
  "geometry": {"coordinates":[[[4.07127904891968,51.27663803100586],[4.07160949707031,51.27660751342773],[4.07175636291504,51.27649307250977],[4.07039165496826,51.27659225463867],[4.07010459899902,51.27661514282227],[4.07097816467285,51.27663421630859],[4.07127904891968,51.27663803100586]]],"type":"Polygon"}
}