{
  "id": 890631095,
  "type": "Feature",
  "properties": {
    "clustr:alpha":0.05,
    "clustr:area":0.42,
    "clustr:count":19,
    "clustr:density":44.91,
    "clustr:perimeter":0.06,
    "edtf:cessation":"uuuu",
    "edtf:inception":"uuuu",
    "geom:area":0.0,
    "geom:bbox":"5.23834609985,52.3737487793,5.23861074448,52.3739204407",
    "geom:latitude":52.373836,
    "geom:longitude":5.238461,
    "iso:country":"NL",
    "mz:hierarchy_label":1,
    "mz:is_approximate":1,
    "mz:is_clustr":1,
    "src:geom":"oa",
    "wof:belongsto":[
        85687049,
        102191581,
        404473729,
        85633337,
        101751877
    ],
    "wof:breaches":[],
    "wof:country":"NL",
    "wof:created":1469668159,
    "wof:geomhash":"7a58510d58d6440f491b089e6846a45f",
    "wof:hierarchy":[
        {
            "continent_id":102191581,
            "country_id":85633337,
            "localadmin_id":404473729,
            "locality_id":101751877,
            "postalcode_id":890631095,
            "region_id":85687049
        }
    ],
    "wof:id":890631095,
    "wof:lastmodified":1469668159,
    "wof:name":"1326CT",
    "wof:parent_id":101751877,
    "wof:placetype":"postalcode",
    "wof:repo":"whosonfirst-data-postalcode-nl",
    "wof:superseded_by":[],
    "wof:supersedes":[],
    "wof:tags":[]
},
  "bbox": [
    5.238346099853516,
    52.373748779296875,
    5.238610744476318,
    52.37392044067383
],
  "geometry": {"coordinates":[[[5.23837280273438,52.37391662597656],[5.2383770942688,52.37392044067383],[5.23861074447632,52.37387466430664],[5.23860263824463,52.37385940551758],[5.23859453201294,52.37384414672852],[5.23849201202393,52.37374877929688],[5.23834609985352,52.373779296875],[5.23836517333984,52.3739013671875],[5.23836898803711,52.37390899658203],[5.23837280273438,52.37391662597656]]],"type":"Polygon"}
}