{
  "id": 891161355,
  "type": "Feature",
  "properties": {
    "clustr:alpha":0.05,
    "clustr:area":0.14,
    "clustr:count":6,
    "clustr:density":41.71,
    "clustr:perimeter":0.05,
    "edtf:cessation":"uuuu",
    "edtf:inception":"uuuu",
    "geom:area":0.0,
    "geom:bbox":"5.83537912369,51.918636322,5.83539867401,51.918888092",
    "geom:latitude":51.91875,
    "geom:longitude":5.835388,
    "iso:country":"NL",
    "mz:hierarchy_label":1,
    "mz:is_approximate":1,
    "mz:is_clustr":1,
    "src:geom":"oa",
    "wof:belongsto":[
        85687043,
        102191581,
        404474651,
        85633337,
        101808683
    ],
    "wof:breaches":[],
    "wof:country":"NL",
    "wof:created":1469689838,
    "wof:geomhash":"0c7bae738ddf8249ae968bef6566de6f",
    "wof:hierarchy":[
        {
            "continent_id":102191581,
            "country_id":85633337,
            "localadmin_id":404474651,
            "locality_id":101808683,
            "postalcode_id":891161355,
            "region_id":85687043
        }
    ],
    "wof:id":891161355,
    "wof:lastmodified":1469689838,
    "wof:name":"6662GJ",
    "wof:parent_id":101808683,
    "wof:placetype":"postalcode",
    "wof:repo":"whosonfirst-data-postalcode-nl",
    "wof:superseded_by":[],
    "wof:supersedes":[],
    "wof:tags":[]
},
  "bbox": [
    5.835379123687744,
    51.918636322021484,
    5.83539867401123,
    51.918888092041016
],
  "geometry": {"coordinates":[[[5.83537912368774,51.91863632202148],[5.83538293838501,51.91868591308594],[5.83539867401123,51.91888809204102],[5.83539485931396,51.91883850097656],[5.8353910446167,51.91878890991211],[5.83538722991943,51.91873931884766],[5.83537912368774,51.91863632202148]]],"type":"Polygon"}
}