{
  "id": 891216379,
  "type": "Feature",
  "properties": {
    "clustr:alpha":0.05,
    "clustr:area":122.25,
    "clustr:count":57,
    "clustr:density":0.47,
    "clustr:perimeter":0.48,
    "edtf:cessation":"uuuu",
    "edtf:inception":"uuuu",
    "geom:area":0.000002,
    "geom:bbox":"5.99022531509,52.2343482971,5.99397993088,52.2358512878",
    "geom:latitude":52.235079,
    "geom:longitude":5.991759,
    "iso:country":"NL",
    "mz:hierarchy_label":1,
    "mz:is_approximate":1,
    "mz:is_clustr":1,
    "src:geom":"oa",
    "wof:belongsto":[
        102191581,
        404473867,
        85633337,
        85687043
    ],
    "wof:breaches":[],
    "wof:country":"NL",
    "wof:created":1469692088,
    "wof:geomhash":"b0ebe5d569001528315d0dc62664774f",
    "wof:hierarchy":[
        {
            "continent_id":102191581,
            "country_id":85633337,
            "localadmin_id":404473867,
            "postalcode_id":891216379,
            "region_id":85687043
        }
    ],
    "wof:id":891216379,
    "wof:lastmodified":1469692088,
    "wof:name":"7323ST",
    "wof:parent_id":404473867,
    "wof:placetype":"postalcode",
    "wof:repo":"whosonfirst-data-postalcode-nl",
    "wof:superseded_by":[],
    "wof:supersedes":[],
    "wof:tags":[]
},
  "bbox": [
    5.990225315093994,
    52.23434829711914,
    5.993979930877686,
    52.2358512878418
],
  "geometry": {"coordinates":[[[5.99022531509399,52.2358512878418],[5.9923620223999,52.23539352416992],[5.99285078048706,52.23528671264648],[5.99397993087769,52.23503112792969],[5.99105978012085,52.23434829711914],[5.99022531509399,52.2358512878418]]],"type":"Polygon"}
}