{
  "id": 890700641,
  "type": "Feature",
  "properties": {
    "clustr:alpha":0.05,
    "clustr:area":1.69,
    "clustr:count":22,
    "clustr:density":13.03,
    "clustr:perimeter":0.05,
    "edtf:cessation":"uuuu",
    "edtf:inception":"uuuu",
    "geom:area":0.0,
    "geom:bbox":"4.6527466774,52.4055747986,4.65296030045,52.4057884216",
    "geom:latitude":52.405706,
    "geom:longitude":4.652873,
    "iso:country":"NL",
    "mz:hierarchy_label":1,
    "mz:is_approximate":1,
    "mz:is_clustr":1,
    "src:geom":"oa",
    "wof:belongsto":[
        85687053,
        102191581,
        404474061,
        85633337,
        101751897
    ],
    "wof:breaches":[],
    "wof:country":"NL",
    "wof:created":1469671239,
    "wof:geomhash":"9adac3a4738f2c1620100ee81535cfe7",
    "wof:hierarchy":[
        {
            "continent_id":102191581,
            "country_id":85633337,
            "localadmin_id":404474061,
            "locality_id":101751897,
            "postalcode_id":890700641,
            "region_id":85687053
        }
    ],
    "wof:id":890700641,
    "wof:lastmodified":1469671239,
    "wof:name":"2022PE",
    "wof:parent_id":101751897,
    "wof:placetype":"postalcode",
    "wof:repo":"whosonfirst-data-postalcode-nl",
    "wof:superseded_by":[],
    "wof:supersedes":[],
    "wof:tags":[]
},
  "bbox": [
    4.652746677398682,
    52.405574798583984,
    4.652960300445557,
    52.40578842163086
],
  "geometry": {"coordinates":[[[4.65294361114502,52.40575408935547],[4.65285301208496,52.40566635131836],[4.65274667739868,52.40557479858398],[4.652907371521,52.4057731628418],[4.65296030044556,52.40578842163086],[4.65294361114502,52.40575408935547]]],"type":"Polygon"}
}