{
  "id": 907094791,
  "type": "Feature",
  "properties": {
    "clustr:alpha":0.05,
    "clustr:area":29.66,
    "clustr:count":14,
    "clustr:density":0.47,
    "clustr:perimeter":0.43,
    "edtf:cessation":"uuuu",
    "edtf:inception":"uuuu",
    "geom:area":0.000001,
    "geom:bbox":"6.96571397781,52.9949836731,6.96797800064,52.9964447021",
    "geom:latitude":52.995724,
    "geom:longitude":6.967011,
    "iso:country":"NL",
    "mz:hierarchy_label":1,
    "mz:is_approximate":1,
    "mz:is_clustr":1,
    "src:geom":"oa",
    "wof:belongsto":[
        85687059,
        102191581,
        404473731,
        85633337,
        101837895
    ],
    "wof:breaches":[],
    "wof:country":"NL",
    "wof:created":1469699072,
    "wof:geomhash":"01c0c5a3ea608d8f4a015e7eb68373f7",
    "wof:hierarchy":[
        {
            "continent_id":102191581,
            "country_id":85633337,
            "localadmin_id":404473731,
            "locality_id":101837895,
            "postalcode_id":907094791,
            "region_id":85687059
        }
    ],
    "wof:id":907094791,
    "wof:lastmodified":1469699072,
    "wof:name":"9502CC",
    "wof:parent_id":101837895,
    "wof:placetype":"postalcode",
    "wof:repo":"whosonfirst-data-postalcode-nl",
    "wof:superseded_by":[],
    "wof:supersedes":[],
    "wof:tags":[]
},
  "bbox": [
    6.965713977813721,
    52.9949836730957,
    6.967978000640869,
    52.99644470214844
],
  "geometry": {"coordinates":[[[6.96755647659302,52.99620819091797],[6.96797800064087,52.99574279785156],[6.96571397781372,52.9949836730957],[6.96733808517456,52.99644470214844],[6.96755647659302,52.99620819091797]]],"type":"Polygon"}
}