{
  "id": 890628527,
  "type": "Feature",
  "properties": {
    "clustr:alpha":0.05,
    "clustr:area":21.98,
    "clustr:count":21,
    "clustr:density":0.96,
    "clustr:perimeter":0.17,
    "edtf:cessation":"uuuu",
    "edtf:inception":"uuuu",
    "geom:area":0.0,
    "geom:bbox":"5.24640417099,52.3782081604,5.24724721909,52.3788146973",
    "geom:latitude":52.378501,
    "geom:longitude":5.246833,
    "iso:country":"NL",
    "mz:hierarchy_label":1,
    "mz:is_approximate":1,
    "mz:is_clustr":1,
    "src:geom":"oa",
    "wof:belongsto":[
        85687049,
        102191581,
        404473729,
        85633337,
        101751877
    ],
    "wof:breaches":[],
    "wof:country":"NL",
    "wof:created":1469668055,
    "wof:geomhash":"f615a5629e70de5c30dcf0736057e7bf",
    "wof:hierarchy":[
        {
            "continent_id":102191581,
            "country_id":85633337,
            "localadmin_id":404473729,
            "locality_id":101751877,
            "postalcode_id":890628527,
            "region_id":85687049
        }
    ],
    "wof:id":890628527,
    "wof:lastmodified":1469668055,
    "wof:name":"1318DE",
    "wof:parent_id":101751877,
    "wof:placetype":"postalcode",
    "wof:repo":"whosonfirst-data-postalcode-nl",
    "wof:superseded_by":[],
    "wof:supersedes":[],
    "wof:tags":[]
},
  "bbox": [
    5.24640417098999,
    52.37820816040039,
    5.247247219085693,
    52.378814697265625
],
  "geometry": {"coordinates":[[[5.24685287475586,52.37820816040039],[5.24668741226196,52.37836837768555],[5.2465410232544,52.37852096557617],[5.2464451789856,52.37862777709961],[5.24640417098999,52.3786735534668],[5.2468318939209,52.37881469726562],[5.24687957763672,52.37876129150391],[5.2471776008606,52.37837982177734],[5.24724721908569,52.37826919555664],[5.24685287475586,52.37820816040039]]],"type":"Polygon"}
}