{
  "id": 890915453,
  "type": "Feature",
  "properties": {
    "clustr:alpha":0.05,
    "clustr:area":0.0,
    "clustr:count":23,
    "clustr:density":5432.05,
    "clustr:perimeter":0.47,
    "edtf:cessation":"uuuu",
    "edtf:inception":"uuuu",
    "geom:area":0.000001,
    "geom:bbox":"5.60856246948,52.2628440857,5.60927772522,52.2649040222",
    "geom:latitude":52.263924,
    "geom:longitude":5.608885,
    "iso:country":"NL",
    "mz:hierarchy_label":1,
    "mz:is_approximate":1,
    "mz:is_clustr":1,
    "src:geom":"oa",
    "wof:belongsto":[
        85687043,
        102191581,
        404473929,
        85633337,
        101837827
    ],
    "wof:breaches":[],
    "wof:country":"NL",
    "wof:created":1469679833,
    "wof:geomhash":"f8ee33cdf3625ef8c895873295ef866c",
    "wof:hierarchy":[
        {
            "continent_id":102191581,
            "country_id":85633337,
            "localadmin_id":404473929,
            "locality_id":101837827,
            "postalcode_id":890915453,
            "region_id":85687043
        }
    ],
    "wof:id":890915453,
    "wof:lastmodified":1469679833,
    "wof:name":"3881CC",
    "wof:parent_id":101837827,
    "wof:placetype":"postalcode",
    "wof:repo":"whosonfirst-data-postalcode-nl",
    "wof:superseded_by":[],
    "wof:supersedes":[],
    "wof:tags":[]
},
  "bbox": [
    5.608562469482422,
    52.26284408569336,
    5.609277725219727,
    52.2649040222168
],
  "geometry": {"coordinates":[[[5.60856819152832,52.26403045654297],[5.60867071151733,52.26422119140625],[5.60871410369873,52.2642936706543],[5.60900640487671,52.26474380493164],[5.60908031463623,52.26483917236328],[5.60913705825806,52.2649040222168],[5.60927772521973,52.26395416259766],[5.60856246948242,52.26284408569336],[5.60856246948242,52.26398086547852],[5.60856819152832,52.26403045654297]]],"type":"Polygon"}
}