{
  "id": 890861441,
  "type": "Feature",
  "properties": {
    "clustr:alpha":0.05,
    "clustr:area":26.26,
    "clustr:count":24,
    "clustr:density":0.91,
    "clustr:perimeter":0.35,
    "edtf:cessation":"uuuu",
    "edtf:inception":"uuuu",
    "geom:area":0.0,
    "geom:bbox":"4.88019800186,51.8249740601,4.88046216965,51.8265647888",
    "geom:latitude":51.82559,
    "geom:longitude":4.880298,
    "iso:country":"NL",
    "mz:hierarchy_label":1,
    "mz:is_approximate":1,
    "mz:is_clustr":1,
    "src:geom":"oa",
    "wof:belongsto":[
        85687041,
        102191581,
        404474169,
        85633337,
        101837689
    ],
    "wof:breaches":[],
    "wof:country":"NL",
    "wof:created":1469677545,
    "wof:geomhash":"f150df142e6a30b7d5723c1a9215c1d2",
    "wof:hierarchy":[
        {
            "continent_id":102191581,
            "country_id":85633337,
            "localadmin_id":404474169,
            "locality_id":101837689,
            "postalcode_id":890861441,
            "region_id":85687041
        }
    ],
    "wof:id":890861441,
    "wof:lastmodified":1469677545,
    "wof:name":"3372EB",
    "wof:parent_id":101837689,
    "wof:placetype":"postalcode",
    "wof:repo":"whosonfirst-data-postalcode-nl",
    "wof:superseded_by":[],
    "wof:supersedes":[],
    "wof:tags":[]
},
  "bbox": [
    4.880198001861572,
    51.824974060058594,
    4.880462169647217,
    51.82656478881836
],
  "geometry": {"coordinates":[[[4.88025522232056,51.82505035400391],[4.88022804260254,51.82517242431641],[4.88019847869873,51.82650375366211],[4.88019800186157,51.82656478881836],[4.88025426864624,51.82640075683594],[4.88046216964722,51.82497406005859],[4.88025522232056,51.82505035400391]]],"type":"Polygon"}
}