{
  "id": 890984715,
  "type": "Feature",
  "properties": {
    "clustr:alpha":0.05,
    "clustr:area":24.2,
    "clustr:count":35,
    "clustr:density":1.45,
    "clustr:perimeter":0.51,
    "edtf:cessation":"uuuu",
    "edtf:inception":"uuuu",
    "geom:area":0.000001,
    "geom:bbox":"4.75332593918,51.5797348022,4.75597524643,51.5814590454",
    "geom:latitude":51.580573,
    "geom:longitude":4.754589,
    "iso:country":"NL",
    "mz:hierarchy_label":1,
    "mz:is_approximate":1,
    "mz:is_clustr":1,
    "src:geom":"oa",
    "wof:belongsto":[
        85687035,
        102191581,
        404474363,
        85633337,
        101751811
    ],
    "wof:breaches":[],
    "wof:country":"NL",
    "wof:created":1469682833,
    "wof:geomhash":"513a40b98579bf18c24d1578cd8073e9",
    "wof:hierarchy":[
        {
            "continent_id":102191581,
            "country_id":85633337,
            "localadmin_id":404474363,
            "locality_id":101751811,
            "postalcode_id":890984715,
            "region_id":85687035
        }
    ],
    "wof:id":890984715,
    "wof:lastmodified":1469682833,
    "wof:name":"4812XG",
    "wof:parent_id":101751811,
    "wof:placetype":"postalcode",
    "wof:repo":"whosonfirst-data-postalcode-nl",
    "wof:superseded_by":[],
    "wof:supersedes":[],
    "wof:tags":[]
},
  "bbox": [
    4.753325939178467,
    51.579734802246094,
    4.755975246429443,
    51.581459045410156
],
  "geometry": {"coordinates":[[[4.75435256958008,51.58017349243164],[4.75425148010254,51.58012390136719],[4.75411415100098,51.58005905151367],[4.75362205505371,51.57984924316406],[4.75332593917847,51.57973480224609],[4.75428009033203,51.5805778503418],[4.75473403930664,51.58091735839844],[4.75597524642944,51.58145904541016],[4.75591897964478,51.58141326904297],[4.75456428527832,51.58034133911133],[4.75435256958008,51.58017349243164]]],"type":"Polygon"}
}