{
  "id": 907068387,
  "type": "Feature",
  "properties": {
    "clustr:alpha":0.05,
    "clustr:area":1.63,
    "clustr:count":5,
    "clustr:density":3.06,
    "clustr:perimeter":0.08,
    "edtf:cessation":"uuuu",
    "edtf:inception":"uuuu",
    "geom:area":0.0,
    "geom:bbox":"5.71530771255,53.1310577393,5.71559906006,53.1315040588",
    "geom:latitude":53.131241,
    "geom:longitude":5.715422,
    "iso:country":"NL",
    "mz:hierarchy_label":1,
    "mz:is_approximate":1,
    "mz:is_clustr":1,
    "src:geom":"oa",
    "wof:belongsto":[
        102191581,
        404473817,
        85633337,
        85687055
    ],
    "wof:breaches":[],
    "wof:country":"NL",
    "wof:created":1469697588,
    "wof:geomhash":"7e4e27c1aa8d45cbfc3ccb5fd31c22b5",
    "wof:hierarchy":[
        {
            "continent_id":102191581,
            "country_id":85633337,
            "localadmin_id":404473817,
            "postalcode_id":907068387,
            "region_id":85687055
        }
    ],
    "wof:id":907068387,
    "wof:lastmodified":1469697588,
    "wof:name":"9022BA",
    "wof:parent_id":404473817,
    "wof:placetype":"postalcode",
    "wof:repo":"whosonfirst-data-postalcode-nl",
    "wof:superseded_by":[],
    "wof:supersedes":[],
    "wof:tags":[]
},
  "bbox": [
    5.715307712554932,
    53.13105773925781,
    5.715599060058594,
    53.13150405883789
],
  "geometry": {"coordinates":[[[5.71530771255493,53.13116455078125],[5.7153582572937,53.13150405883789],[5.71559906005859,53.13105773925781],[5.71552181243896,53.13108444213867],[5.71530771255493,53.13116455078125]]],"type":"Polygon"}
}