{
  "id": 890602527,
  "type": "Feature",
  "properties": {
    "clustr:alpha":0.05,
    "clustr:area":13.12,
    "clustr:count":13,
    "clustr:density":0.99,
    "clustr:perimeter":0.35,
    "edtf:cessation":"uuuu",
    "edtf:inception":"uuuu",
    "geom:area":0.0,
    "geom:bbox":"4.93671607971,52.3585205078,4.93737792969,52.3600730896",
    "geom:latitude":52.359081,
    "geom:longitude":4.937112,
    "iso:country":"NL",
    "mz:hierarchy_label":1,
    "mz:is_approximate":1,
    "mz:is_clustr":1,
    "src:geom":"oa",
    "wof:belongsto":[
        85687053,
        102191581,
        404474029,
        85633337,
        101751893
    ],
    "wof:breaches":[],
    "wof:country":"NL",
    "wof:created":1469666932,
    "wof:geomhash":"9ab29ea18ee2680f386c4282236ffa20",
    "wof:hierarchy":[
        {
            "continent_id":102191581,
            "country_id":85633337,
            "localadmin_id":404474029,
            "locality_id":101751893,
            "postalcode_id":890602527,
            "region_id":85687053
        }
    ],
    "wof:id":890602527,
    "wof:lastmodified":1469666932,
    "wof:name":"1094NM",
    "wof:parent_id":101751893,
    "wof:placetype":"postalcode",
    "wof:repo":"whosonfirst-data-postalcode-nl",
    "wof:superseded_by":[],
    "wof:supersedes":[],
    "wof:tags":[]
},
  "bbox": [
    4.936716079711914,
    52.3585205078125,
    4.9373779296875,
    52.36007308959961
],
  "geometry": {"coordinates":[[[4.93727445602417,52.35857391357422],[4.93671607971191,52.36006164550781],[4.93671607971191,52.36007308959961],[4.9373779296875,52.3585205078125],[4.93727445602417,52.35857391357422]]],"type":"Polygon"}
}