{
  "id": 891022153,
  "type": "Feature",
  "properties": {
    "clustr:alpha":0.05,
    "clustr:area":19.47,
    "clustr:count":17,
    "clustr:density":0.87,
    "clustr:perimeter":0.09,
    "edtf:cessation":"uuuu",
    "edtf:inception":"uuuu",
    "geom:area":0.0,
    "geom:bbox":"5.29230594635,51.6977348328,5.29296350479,51.6979293823",
    "geom:latitude":51.697832,
    "geom:longitude":5.292633,
    "iso:country":"NL",
    "mz:hierarchy_label":1,
    "mz:is_approximate":1,
    "mz:is_clustr":1,
    "src:geom":"oa",
    "wof:belongsto":[
        85687035,
        102191581,
        404474393,
        85633337,
        101751809
    ],
    "wof:breaches":[],
    "wof:country":"NL",
    "wof:created":1469684320,
    "wof:geomhash":"8cb91e04026571a0ebd545c86c576cb1",
    "wof:hierarchy":[
        {
            "continent_id":102191581,
            "country_id":85633337,
            "localadmin_id":404474393,
            "locality_id":101751809,
            "postalcode_id":891022153,
            "region_id":85687035
        }
    ],
    "wof:id":891022153,
    "wof:lastmodified":1469684320,
    "wof:name":"5223AE",
    "wof:parent_id":101751809,
    "wof:placetype":"postalcode",
    "wof:repo":"whosonfirst-data-postalcode-nl",
    "wof:superseded_by":[],
    "wof:supersedes":[],
    "wof:tags":[]
},
  "bbox": [
    5.292305946350098,
    51.69773483276367,
    5.29296350479126,
    51.69792938232422
],
  "geometry": {"coordinates":[[[5.29278802871704,51.69777297973633],[5.29244804382324,51.69785690307617],[5.2923059463501,51.69789505004883],[5.29232788085938,51.69792938232422],[5.29256916046143,51.69786834716797],[5.29296350479126,51.69776916503906],[5.2929425239563,51.69773483276367],[5.29278802871704,51.69777297973633]]],"type":"Polygon"}
}