{
  "id": 891236861,
  "type": "Feature",
  "properties": {
    "clustr:alpha":0.05,
    "clustr:area":62.04,
    "clustr:count":16,
    "clustr:density":0.26,
    "clustr:perimeter":0.18,
    "edtf:cessation":"uuuu",
    "edtf:inception":"uuuu",
    "geom:area":0.0,
    "geom:bbox":"6.90023326874,52.2402572632,6.90069818497,52.2417831421",
    "geom:latitude":52.240864,
    "geom:longitude":6.900488,
    "iso:country":"NL",
    "mz:hierarchy_label":1,
    "mz:is_approximate":1,
    "mz:is_clustr":1,
    "src:geom":"oa",
    "wof:belongsto":[
        85687045,
        102191581,
        404473827,
        85633337,
        101751871
    ],
    "wof:breaches":[],
    "wof:country":"NL",
    "wof:created":1469692882,
    "wof:geomhash":"befcbfe0df7b807c47e9da77bc2b5e67",
    "wof:hierarchy":[
        {
            "continent_id":102191581,
            "country_id":85633337,
            "localadmin_id":404473827,
            "locality_id":101751871,
            "postalcode_id":891236861,
            "region_id":85687045
        }
    ],
    "wof:id":891236861,
    "wof:lastmodified":1469692882,
    "wof:name":"7523CG",
    "wof:parent_id":101751871,
    "wof:placetype":"postalcode",
    "wof:repo":"whosonfirst-data-postalcode-nl",
    "wof:superseded_by":[],
    "wof:supersedes":[],
    "wof:tags":[]
},
  "bbox": [
    6.900233268737793,
    52.240257263183594,
    6.900698184967041,
    52.241783142089844
],
  "geometry": {"coordinates":[[[6.90054225921631,52.24025726318359],[6.90023326873779,52.24178314208984],[6.90027570724487,52.24168014526367],[6.90033674240112,52.24153137207031],[6.90069818496704,52.24048233032227],[6.90054225921631,52.24025726318359]]],"type":"Polygon"}
}