{
  "id": 891232979,
  "type": "Feature",
  "properties": {
    "clustr:alpha":0.05,
    "clustr:area":212.35,
    "clustr:count":29,
    "clustr:density":0.14,
    "clustr:perimeter":5.28,
    "edtf:cessation":"uuuu",
    "edtf:inception":"uuuu",
    "geom:area":0.000082,
    "geom:bbox":"6.53183937073,52.1795158386,6.55541610718,52.1985931396",
    "geom:latitude":52.187227,
    "geom:longitude":6.542083,
    "iso:country":"NL",
    "mz:hierarchy_label":1,
    "mz:is_approximate":1,
    "mz:is_clustr":1,
    "src:geom":"oa",
    "wof:belongsto":[
        102191581,
        404474653,
        85633337,
        85687045
    ],
    "wof:breaches":[],
    "wof:country":"NL",
    "wof:created":1469692723,
    "wof:geomhash":"8a0663222dceb5ed56395f27e7352eff",
    "wof:hierarchy":[
        {
            "continent_id":102191581,
            "country_id":85633337,
            "localadmin_id":404474653,
            "postalcode_id":891232979,
            "region_id":85687045
        }
    ],
    "wof:id":891232979,
    "wof:lastmodified":1469692723,
    "wof:name":"7478RM",
    "wof:parent_id":404474653,
    "wof:placetype":"postalcode",
    "wof:repo":"whosonfirst-data-postalcode-nl",
    "wof:superseded_by":[],
    "wof:supersedes":[],
    "wof:tags":[]
},
  "bbox": [
    6.531839370727539,
    52.17951583862305,
    6.555416107177734,
    52.19859313964844
],
  "geometry": {"coordinates":[[[6.55514860153198,52.19859313964844],[6.55541610717773,52.19829177856445],[6.53857374191284,52.18109130859375],[6.5360517501831,52.17951583862305],[6.53372764587402,52.17971038818359],[6.53331995010376,52.17977905273438],[6.53246450424194,52.1800651550293],[6.53220844268799,52.18034362792969],[6.53204393386841,52.18077087402344],[6.53183937072754,52.18135452270508],[6.55331420898438,52.19789886474609],[6.55514860153198,52.19859313964844]]],"type":"Polygon"}
}