{
  "id": 890712807,
  "type": "Feature",
  "properties": {
    "clustr:alpha":0.05,
    "clustr:area":61.5,
    "clustr:count":14,
    "clustr:density":0.23,
    "clustr:perimeter":0.09,
    "edtf:cessation":"uuuu",
    "edtf:inception":"uuuu",
    "geom:area":0.0,
    "geom:bbox":"4.60903072357,52.2688789368,4.60964250565,52.2694778442",
    "geom:latitude":52.269216,
    "geom:longitude":4.609422,
    "iso:country":"NL",
    "mz:hierarchy_label":1,
    "mz:is_approximate":1,
    "mz:is_clustr":1,
    "src:geom":"oa",
    "wof:belongsto":[
        85687053,
        102191581,
        404474065,
        85633337,
        101803713
    ],
    "wof:breaches":[],
    "wof:country":"NL",
    "wof:created":1469671836,
    "wof:geomhash":"8cd1dde57ad8fd4d45389df90b9e6dab",
    "wof:hierarchy":[
        {
            "continent_id":102191581,
            "country_id":85633337,
            "localadmin_id":404474065,
            "locality_id":101803713,
            "postalcode_id":890712807,
            "region_id":85687053
        }
    ],
    "wof:id":890712807,
    "wof:lastmodified":1469671836,
    "wof:name":"2151ER",
    "wof:parent_id":101803713,
    "wof:placetype":"postalcode",
    "wof:repo":"whosonfirst-data-postalcode-nl",
    "wof:superseded_by":[],
    "wof:supersedes":[],
    "wof:tags":[]
},
  "bbox": [
    4.609030723571777,
    52.26887893676758,
    4.609642505645752,
    52.26947784423828
],
  "geometry": {"coordinates":[[[4.6095871925354,52.26943969726562],[4.60964250564575,52.26947784423828],[4.60960102081299,52.26928329467773],[4.60949611663818,52.26920700073242],[4.60944271087646,52.26916885375977],[4.60928678512573,52.26905822753906],[4.60913038253784,52.26894760131836],[4.60903072357178,52.26887893676758],[4.6095871925354,52.26943969726562]]],"type":"Polygon"}
}