{
  "id": 891144881,
  "type": "Feature",
  "properties": {
    "clustr:alpha":0.05,
    "clustr:area":3.1,
    "clustr:count":7,
    "clustr:density":2.26,
    "clustr:perimeter":0.05,
    "edtf:cessation":"uuuu",
    "edtf:inception":"uuuu",
    "geom:area":0.0,
    "geom:bbox":"5.86445474625,51.8415679932,5.86457490921,51.8418273926",
    "geom:latitude":51.8417,
    "geom:longitude":5.864505,
    "iso:country":"NL",
    "mz:hierarchy_label":1,
    "mz:is_approximate":1,
    "mz:is_clustr":1,
    "src:geom":"oa",
    "wof:belongsto":[
        85687043,
        102191581,
        404473925,
        85633337,
        101751859
    ],
    "wof:breaches":[],
    "wof:country":"NL",
    "wof:created":1469689119,
    "wof:geomhash":"b8fdd5aca4998537c7d08b486297e8dd",
    "wof:hierarchy":[
        {
            "continent_id":102191581,
            "country_id":85633337,
            "localadmin_id":404473925,
            "locality_id":101751859,
            "postalcode_id":891144881,
            "region_id":85687043
        }
    ],
    "wof:id":891144881,
    "wof:lastmodified":1469689119,
    "wof:name":"6524AB",
    "wof:parent_id":101751859,
    "wof:placetype":"postalcode",
    "wof:repo":"whosonfirst-data-postalcode-nl",
    "wof:superseded_by":[],
    "wof:supersedes":[],
    "wof:tags":[]
},
  "bbox": [
    5.864454746246338,
    51.84156799316406,
    5.864574909210205,
    51.841827392578125
],
  "geometry": {"coordinates":[[[5.86448812484741,51.84170150756836],[5.8644700050354,51.84176635742188],[5.86445474624634,51.84182739257812],[5.86457490921021,51.84156799316406],[5.86448812484741,51.84170150756836]]],"type":"Polygon"}
}