{
  "id": 890662955,
  "type": "Feature",
  "properties": {
    "clustr:alpha":0.05,
    "clustr:area":0.21,
    "clustr:count":23,
    "clustr:density":111.03,
    "clustr:perimeter":0.18,
    "edtf:cessation":"uuuu",
    "edtf:inception":"uuuu",
    "geom:area":0.0,
    "geom:bbox":"5.07581758499,52.6534347534,5.07683324814,52.6538772583",
    "geom:latitude":52.653616,
    "geom:longitude":5.076329,
    "iso:country":"NL",
    "mz:hierarchy_label":1,
    "mz:is_approximate":1,
    "mz:is_clustr":1,
    "src:geom":"oa",
    "wof:belongsto":[
        85687053,
        102191581,
        404474083,
        85633337,
        101751883
    ],
    "wof:breaches":[],
    "wof:country":"NL",
    "wof:created":1469669592,
    "wof:geomhash":"f40e8284d5037cd2a86ddccf4a322d07",
    "wof:hierarchy":[
        {
            "continent_id":102191581,
            "country_id":85633337,
            "localadmin_id":404474083,
            "locality_id":101751883,
            "postalcode_id":890662955,
            "region_id":85687053
        }
    ],
    "wof:id":890662955,
    "wof:lastmodified":1469669592,
    "wof:name":"1628CC",
    "wof:parent_id":101751883,
    "wof:placetype":"postalcode",
    "wof:repo":"whosonfirst-data-postalcode-nl",
    "wof:superseded_by":[],
    "wof:supersedes":[],
    "wof:tags":[]
},
  "bbox": [
    5.075817584991455,
    52.65343475341797,
    5.076833248138428,
    52.65387725830078
],
  "geometry": {"coordinates":[[[5.07682657241821,52.65343475341797],[5.07608604431152,52.65345001220703],[5.07581758499146,52.65353775024414],[5.07585430145264,52.65358734130859],[5.07589387893677,52.65362930297852],[5.0759334564209,52.65367126464844],[5.07597303390503,52.65371322631836],[5.07601451873779,52.65375137329102],[5.07610416412354,52.65380477905273],[5.07624292373657,52.65385818481445],[5.07630920410156,52.65387725830078],[5.07658672332764,52.65375137329102],[5.07675361633301,52.65359115600586],[5.07683324813843,52.65349578857422],[5.07682657241821,52.65343475341797]]],"type":"Polygon"}
}