{
  "id": 890880059,
  "type": "Feature",
  "properties": {
    "clustr:alpha":0.05,
    "clustr:area":2.64,
    "clustr:count":16,
    "clustr:density":6.06,
    "clustr:perimeter":0.08,
    "edtf:cessation":"uuuu",
    "edtf:inception":"uuuu",
    "geom:area":0.0,
    "geom:bbox":"5.09909534454,52.1103401184,5.09951448441,52.110584259",
    "geom:latitude":52.110467,
    "geom:longitude":5.0993,
    "iso:country":"NL",
    "mz:hierarchy_label":1,
    "mz:is_approximate":1,
    "mz:is_clustr":1,
    "src:geom":"oa",
    "wof:belongsto":[
        85687039,
        102191581,
        404474007,
        85633337,
        101751827
    ],
    "wof:breaches":[],
    "wof:country":"NL",
    "wof:created":1469678266,
    "wof:geomhash":"390a4b763d744b957a58882519808d72",
    "wof:hierarchy":[
        {
            "continent_id":102191581,
            "country_id":85633337,
            "localadmin_id":404474007,
            "locality_id":101751827,
            "postalcode_id":890880059,
            "region_id":85687039
        }
    ],
    "wof:id":890880059,
    "wof:lastmodified":1469678266,
    "wof:name":"3554CE",
    "wof:parent_id":101751827,
    "wof:placetype":"postalcode",
    "wof:repo":"whosonfirst-data-postalcode-nl",
    "wof:superseded_by":[],
    "wof:supersedes":[],
    "wof:tags":[]
},
  "bbox": [
    5.099095344543457,
    52.1103401184082,
    5.099514484405518,
    52.1105842590332
],
  "geometry": {"coordinates":[[[5.09914636611938,52.11055755615234],[5.09921932220459,52.11051559448242],[5.09945440292358,52.11037826538086],[5.09951448440552,52.1103401184082],[5.09909534454346,52.1105842590332],[5.09911060333252,52.11057662963867],[5.09912586212158,52.11056900024414],[5.09914636611938,52.11055755615234]]],"type":"Polygon"}
}