{
  "id": 891226081,
  "type": "Feature",
  "properties": {
    "clustr:alpha":0.05,
    "clustr:area":230.01,
    "clustr:count":22,
    "clustr:density":0.1,
    "clustr:perimeter":0.23,
    "edtf:cessation":"uuuu",
    "edtf:inception":"uuuu",
    "geom:area":0.000001,
    "geom:bbox":"6.2113032341,52.2542762756,6.21356678009,52.2548828125",
    "geom:latitude":52.254562,
    "geom:longitude":6.212322,
    "iso:country":"NL",
    "mz:hierarchy_label":1,
    "mz:is_approximate":1,
    "mz:is_clustr":1,
    "src:geom":"oa",
    "wof:belongsto":[
        85687045,
        102191581,
        404473825,
        85633337,
        101751865
    ],
    "wof:breaches":[],
    "wof:country":"NL",
    "wof:created":1469692454,
    "wof:geomhash":"cbd9f9c07058fe2d9c1c1f0e6354f4e5",
    "wof:hierarchy":[
        {
            "continent_id":102191581,
            "country_id":85633337,
            "localadmin_id":404473825,
            "locality_id":101751865,
            "postalcode_id":891226081,
            "region_id":85687045
        }
    ],
    "wof:id":891226081,
    "wof:lastmodified":1469692454,
    "wof:name":"7423EK",
    "wof:parent_id":101751865,
    "wof:placetype":"postalcode",
    "wof:repo":"whosonfirst-data-postalcode-nl",
    "wof:superseded_by":[],
    "wof:supersedes":[],
    "wof:tags":[]
},
  "bbox": [
    6.211303234100342,
    52.254276275634766,
    6.213566780090332,
    52.2548828125
],
  "geometry": {"coordinates":[[[6.21332263946533,52.25452041625977],[6.21343803405762,52.25442886352539],[6.213538646698,52.25432205200195],[6.21356678009033,52.25427627563477],[6.21147680282593,52.2545051574707],[6.21130323410034,52.25463104248047],[6.2114691734314,52.2548828125],[6.21332263946533,52.25452041625977]]],"type":"Polygon"}
}