{
  "id": 891033409,
  "type": "Feature",
  "properties": {
    "clustr:alpha":0.05,
    "clustr:area":79.77,
    "clustr:count":34,
    "clustr:density":0.43,
    "clustr:perimeter":0.33,
    "edtf:cessation":"uuuu",
    "edtf:inception":"uuuu",
    "geom:area":0.000001,
    "geom:bbox":"5.19681215286,51.7982673645,5.19811487198,51.7997436523",
    "geom:latitude":51.798955,
    "geom:longitude":5.197439,
    "iso:country":"NL",
    "mz:hierarchy_label":1,
    "mz:is_approximate":1,
    "mz:is_clustr":1,
    "src:geom":"oa",
    "wof:belongsto":[
        102191581,
        404473955,
        85633337,
        85687043
    ],
    "wof:breaches":[],
    "wof:country":"NL",
    "wof:created":1469684749,
    "wof:geomhash":"e09a48ae5181fdcfae0fdc9de3f34597",
    "wof:hierarchy":[
        {
            "continent_id":102191581,
            "country_id":85633337,
            "localadmin_id":404473955,
            "postalcode_id":891033409,
            "region_id":85687043
        }
    ],
    "wof:id":891033409,
    "wof:lastmodified":1469684749,
    "wof:name":"5311GM",
    "wof:parent_id":404473955,
    "wof:placetype":"postalcode",
    "wof:repo":"whosonfirst-data-postalcode-nl",
    "wof:superseded_by":[],
    "wof:supersedes":[],
    "wof:tags":[]
},
  "bbox": [
    5.196812152862549,
    51.79826736450195,
    5.19811487197876,
    51.79974365234375
],
  "geometry": {"coordinates":[[[5.19755268096924,51.79974365234375],[5.19764709472656,51.79949951171875],[5.19803857803345,51.7984733581543],[5.19811487197876,51.79826736450195],[5.19707155227661,51.79853439331055],[5.19681215286255,51.79923248291016],[5.19685649871826,51.79928588867188],[5.19755268096924,51.79974365234375]]],"type":"Polygon"}
}