{
  "id": 907117517,
  "type": "Feature",
  "properties": {
    "clustr:alpha":0.05,
    "clustr:area":37.78,
    "clustr:count":11,
    "clustr:density":0.29,
    "clustr:perimeter":0.49,
    "edtf:cessation":"uuuu",
    "edtf:inception":"uuuu",
    "geom:area":0.0,
    "geom:bbox":"6.60903310776,53.1655693054,6.61043262482,53.1677589417",
    "geom:latitude":53.16651,
    "geom:longitude":6.609808,
    "iso:country":"NL",
    "mz:hierarchy_label":1,
    "mz:is_approximate":1,
    "mz:is_clustr":1,
    "src:geom":"oa",
    "wof:belongsto":[
        85687059,
        102191581,
        404473717,
        85633337,
        101754889
    ],
    "wof:breaches":[],
    "wof:country":"NL",
    "wof:created":1469700278,
    "wof:geomhash":"7b74d5ce3b96abe733c93ae131ed4b16",
    "wof:hierarchy":[
        {
            "continent_id":102191581,
            "country_id":85633337,
            "localadmin_id":404473717,
            "locality_id":101754889,
            "postalcode_id":907117517,
            "region_id":85687059
        }
    ],
    "wof:id":907117517,
    "wof:lastmodified":1469700278,
    "wof:name":"9752CK",
    "wof:parent_id":101754889,
    "wof:placetype":"postalcode",
    "wof:repo":"whosonfirst-data-postalcode-nl",
    "wof:superseded_by":[],
    "wof:supersedes":[],
    "wof:tags":[]
},
  "bbox": [
    6.609033107757568,
    53.16556930541992,
    6.610432624816895,
    53.16775894165039
],
  "geometry": {"coordinates":[[[6.61014318466187,53.16580581665039],[6.60903310775757,53.16775894165039],[6.60926342010498,53.16744995117188],[6.60964298248291,53.16690444946289],[6.6104326248169,53.16556930541992],[6.61014318466187,53.16580581665039]]],"type":"Polygon"}
}