{
  "id": 890978855,
  "type": "Feature",
  "properties": {
    "clustr:alpha":0.05,
    "clustr:area":182.2,
    "clustr:count":25,
    "clustr:density":0.14,
    "clustr:perimeter":0.46,
    "edtf:cessation":"uuuu",
    "edtf:inception":"uuuu",
    "geom:area":0.000002,
    "geom:bbox":"4.55559682846,51.5359687805,4.55944395065,51.5366744995",
    "geom:latitude":51.536335,
    "geom:longitude":4.557626,
    "iso:country":"NL",
    "mz:hierarchy_label":1,
    "mz:is_approximate":1,
    "mz:is_clustr":1,
    "src:geom":"oa",
    "wof:belongsto":[
        85687035,
        102191581,
        404474417,
        85633337,
        101809675
    ],
    "wof:breaches":[],
    "wof:country":"NL",
    "wof:created":1469682566,
    "wof:geomhash":"0a2e18619583e75139ee5a91cb20a8b8",
    "wof:hierarchy":[
        {
            "continent_id":102191581,
            "country_id":85633337,
            "localadmin_id":404474417,
            "locality_id":101809675,
            "postalcode_id":890978855,
            "region_id":85687035
        }
    ],
    "wof:id":890978855,
    "wof:lastmodified":1469682566,
    "wof:name":"4715AK",
    "wof:parent_id":101809675,
    "wof:placetype":"postalcode",
    "wof:repo":"whosonfirst-data-postalcode-nl",
    "wof:superseded_by":[],
    "wof:supersedes":[],
    "wof:tags":[]
},
  "bbox": [
    4.555596828460693,
    51.53596878051758,
    4.559443950653076,
    51.53667449951172
],
  "geometry": {"coordinates":[[[4.5562219619751,51.53622436523438],[4.55559682846069,51.536376953125],[4.55654525756836,51.53656005859375],[4.5575361251831,51.53667449951172],[4.55918455123901,51.53646850585938],[4.55944395065308,51.53623580932617],[4.5593147277832,51.53621673583984],[4.55767393112183,51.53596878051758],[4.5562219619751,51.53622436523438]]],"type":"Polygon"}
}