{
  "id": 890910605,
  "type": "Feature",
  "properties": {
    "clustr:alpha":0.05,
    "clustr:area":39.33,
    "clustr:count":10,
    "clustr:density":0.25,
    "clustr:perimeter":0.09,
    "edtf:cessation":"uuuu",
    "edtf:inception":"uuuu",
    "geom:area":0.0,
    "geom:bbox":"5.6272726059,52.3311843872,5.62789916992,52.3315734863",
    "geom:latitude":52.331391,
    "geom:longitude":5.627529,
    "iso:country":"NL",
    "mz:hierarchy_label":1,
    "mz:is_approximate":1,
    "mz:is_clustr":1,
    "src:geom":"oa",
    "wof:belongsto":[
        85687043,
        102191581,
        404473907,
        85633337,
        101837779
    ],
    "wof:breaches":[],
    "wof:country":"NL",
    "wof:created":1469679647,
    "wof:geomhash":"73d3f76995f3528a213f00f2518ee253",
    "wof:hierarchy":[
        {
            "continent_id":102191581,
            "country_id":85633337,
            "localadmin_id":404473907,
            "locality_id":101837779,
            "postalcode_id":890910605,
            "region_id":85687043
        }
    ],
    "wof:id":890910605,
    "wof:lastmodified":1469679647,
    "wof:name":"3843BT",
    "wof:parent_id":101837779,
    "wof:placetype":"postalcode",
    "wof:repo":"whosonfirst-data-postalcode-nl",
    "wof:superseded_by":[],
    "wof:supersedes":[],
    "wof:tags":[]
},
  "bbox": [
    5.627272605895996,
    52.33118438720703,
    5.627899169921875,
    52.331573486328125
],
  "geometry": {"coordinates":[[[5.62762022018433,52.33152389526367],[5.62789916992188,52.33157348632812],[5.62732791900635,52.33118438720703],[5.62730026245117,52.33124923706055],[5.627272605896,52.33131408691406],[5.62762022018433,52.33152389526367]]],"type":"Polygon"}
}