{
  "id": 907086473,
  "type": "Feature",
  "properties": {
    "clustr:alpha":0.05,
    "clustr:area":0.75,
    "clustr:count":10,
    "clustr:density":13.27,
    "clustr:perimeter":0.21,
    "edtf:cessation":"uuuu",
    "edtf:inception":"uuuu",
    "geom:area":0.0,
    "geom:bbox":"6.54952430725,53.000541687,6.55005264282,53.0014724731",
    "geom:latitude":53.000981,
    "geom:longitude":6.549807,
    "iso:country":"NL",
    "mz:hierarchy_label":1,
    "mz:is_approximate":1,
    "mz:is_clustr":1,
    "src:geom":"oa",
    "wof:belongsto":[
        85687051,
        102191581,
        404473805,
        85633337,
        101751879
    ],
    "wof:breaches":[],
    "wof:country":"NL",
    "wof:created":1469698599,
    "wof:geomhash":"4b0de6ccba8f11b366055204abc85b43",
    "wof:hierarchy":[
        {
            "continent_id":102191581,
            "country_id":85633337,
            "localadmin_id":404473805,
            "locality_id":101751879,
            "postalcode_id":907086473,
            "region_id":85687051
        }
    ],
    "wof:id":907086473,
    "wof:lastmodified":1469698599,
    "wof:name":"9402BT",
    "wof:parent_id":101751879,
    "wof:placetype":"postalcode",
    "wof:repo":"whosonfirst-data-postalcode-nl",
    "wof:superseded_by":[],
    "wof:supersedes":[],
    "wof:tags":[]
},
  "bbox": [
    6.549524307250977,
    53.00054168701172,
    6.550052642822266,
    53.00147247314453
],
  "geometry": {"coordinates":[[[6.55005264282227,53.00061416625977],[6.55005073547363,53.00054168701172],[6.54979419708252,53.00096893310547],[6.54966592788696,53.00118255615234],[6.54953718185425,53.00139999389648],[6.54952430725098,53.00147247314453],[6.55005264282227,53.00061416625977]]],"type":"Polygon"}
}