{
  "id": 891014281,
  "type": "Feature",
  "properties": {
    "clustr:alpha":0.05,
    "clustr:area":2.05,
    "clustr:count":16,
    "clustr:density":7.82,
    "clustr:perimeter":0.28,
    "edtf:cessation":"uuuu",
    "edtf:inception":"uuuu",
    "geom:area":0.0,
    "geom:bbox":"4.90718460083,51.5896224976,4.90794897079,51.5907478333",
    "geom:latitude":51.590298,
    "geom:longitude":4.9076,
    "iso:country":"NL",
    "mz:hierarchy_label":1,
    "mz:is_approximate":1,
    "mz:is_clustr":1,
    "src:geom":"oa",
    "wof:belongsto":[
        85687035,
        102191581,
        404474381,
        85633337,
        101839413
    ],
    "wof:breaches":[],
    "wof:country":"NL",
    "wof:created":1469684015,
    "wof:geomhash":"48494dfa8a89070b03bed16857ee995e",
    "wof:hierarchy":[
        {
            "continent_id":102191581,
            "country_id":85633337,
            "localadmin_id":404474381,
            "locality_id":101839413,
            "postalcode_id":891014281,
            "region_id":85687035
        }
    ],
    "wof:id":891014281,
    "wof:lastmodified":1469684015,
    "wof:name":"5121VR",
    "wof:parent_id":101839413,
    "wof:placetype":"postalcode",
    "wof:repo":"whosonfirst-data-postalcode-nl",
    "wof:superseded_by":[],
    "wof:supersedes":[],
    "wof:tags":[]
},
  "bbox": [
    4.907184600830078,
    51.589622497558594,
    4.907948970794678,
    51.59074783325195
],
  "geometry": {"coordinates":[[[4.90767860412598,51.59070205688477],[4.90770626068115,51.59059143066406],[4.90771961212158,51.59053802490234],[4.90784311294556,51.59004592895508],[4.90786790847778,51.58994674682617],[4.90789461135864,51.58983993530273],[4.90790987014771,51.58977890014648],[4.90792226791382,51.58972930908203],[4.90793561935425,51.58967590332031],[4.90794897079468,51.58962249755859],[4.90718460083008,51.59052276611328],[4.90766668319702,51.59074783325195],[4.90767860412598,51.59070205688477]]],"type":"Polygon"}
}