{
  "id": 891253711,
  "type": "Feature",
  "properties": {
    "clustr:alpha":0.05,
    "clustr:area":26.96,
    "clustr:count":17,
    "clustr:density":0.63,
    "clustr:perimeter":0.18,
    "edtf:cessation":"uuuu",
    "edtf:inception":"uuuu",
    "geom:area":0.0,
    "geom:bbox":"6.62631559372,52.3379249573,6.62735414505,52.3385658264",
    "geom:latitude":52.338226,
    "geom:longitude":6.626777,
    "iso:country":"NL",
    "mz:hierarchy_label":1,
    "mz:is_approximate":1,
    "mz:is_clustr":1,
    "src:geom":"oa",
    "wof:belongsto":[
        85687045,
        102191581,
        404473819,
        85633337,
        101751863
    ],
    "wof:breaches":[],
    "wof:country":"NL",
    "wof:created":1469693557,
    "wof:geomhash":"a20d4f5d3935d385efe56a1cf09c269c",
    "wof:hierarchy":[
        {
            "continent_id":102191581,
            "country_id":85633337,
            "localadmin_id":404473819,
            "locality_id":101751863,
            "postalcode_id":891253711,
            "region_id":85687045
        }
    ],
    "wof:id":891253711,
    "wof:lastmodified":1469693557,
    "wof:name":"7609BD",
    "wof:parent_id":101751863,
    "wof:placetype":"postalcode",
    "wof:repo":"whosonfirst-data-postalcode-nl",
    "wof:superseded_by":[],
    "wof:supersedes":[],
    "wof:tags":[]
},
  "bbox": [
    6.626315593719482,
    52.33792495727539,
    6.627354145050049,
    52.338565826416016
],
  "geometry": {"coordinates":[[[6.62631559371948,52.33856582641602],[6.62682867050171,52.33855056762695],[6.62735414505005,52.33792495727539],[6.62695789337158,52.33792877197266],[6.62667942047119,52.33793258666992],[6.62647819519043,52.33808898925781],[6.62631559371948,52.33856582641602]]],"type":"Polygon"}
}