{
  "id": 890597707,
  "type": "Feature",
  "properties": {
    "clustr:alpha":0.05,
    "clustr:area":17.07,
    "clustr:count":16,
    "clustr:density":0.94,
    "clustr:perimeter":0.25,
    "edtf:cessation":"uuuu",
    "edtf:inception":"uuuu",
    "geom:area":0.0,
    "geom:bbox":"4.86996459961,52.3484382629,4.87007141113,52.3500404358",
    "geom:latitude":52.34917,
    "geom:longitude":4.870014,
    "iso:country":"NL",
    "mz:hierarchy_label":1,
    "mz:is_approximate":1,
    "mz:is_clustr":1,
    "src:geom":"oa",
    "wof:belongsto":[
        85687053,
        102191581,
        404474029,
        85633337,
        101751893
    ],
    "wof:breaches":[],
    "wof:country":"NL",
    "wof:created":1469666649,
    "wof:geomhash":"a5553df88c328dd5827f89195b1a4952",
    "wof:hierarchy":[
        {
            "continent_id":102191581,
            "country_id":85633337,
            "localadmin_id":404474029,
            "locality_id":101751893,
            "postalcode_id":890597707,
            "region_id":85687053
        }
    ],
    "wof:id":890597707,
    "wof:lastmodified":1469666649,
    "wof:name":"1077PN",
    "wof:parent_id":101751893,
    "wof:placetype":"postalcode",
    "wof:repo":"whosonfirst-data-postalcode-nl",
    "wof:superseded_by":[],
    "wof:supersedes":[],
    "wof:tags":[]
},
  "bbox": [
    4.869964599609375,
    52.34843826293945,
    4.870071411132812,
    52.350040435791016
],
  "geometry": {"coordinates":[[[4.87007141113281,52.34843826293945],[4.87005615234375,52.34846496582031],[4.87002468109131,52.34863662719727],[4.86996698379517,52.34983062744141],[4.86996603012085,52.34990310668945],[4.86996459960938,52.35004043579102],[4.8699803352356,52.34995651245117],[4.87001657485962,52.349365234375],[4.87007141113281,52.34843826293945]]],"type":"Polygon"}
}