{
  "id": 890600135,
  "type": "Feature",
  "properties": {
    "clustr:alpha":0.05,
    "clustr:area":4.73,
    "clustr:count":31,
    "clustr:density":6.55,
    "clustr:perimeter":0.07,
    "edtf:cessation":"uuuu",
    "edtf:inception":"uuuu",
    "geom:area":0.0,
    "geom:bbox":"4.88392162323,52.3263282776,4.88398456573,52.3268203735",
    "geom:latitude":52.326598,
    "geom:longitude":4.883956,
    "iso:country":"NL",
    "mz:hierarchy_label":1,
    "mz:is_approximate":1,
    "mz:is_clustr":1,
    "src:geom":"oa",
    "wof:belongsto":[
        85687053,
        102191581,
        404474029,
        85633337,
        101751893
    ],
    "wof:breaches":[],
    "wof:country":"NL",
    "wof:created":1469666783,
    "wof:geomhash":"c9574abb1e238cd54c63c7f1bbf026d5",
    "wof:hierarchy":[
        {
            "continent_id":102191581,
            "country_id":85633337,
            "localadmin_id":404474029,
            "locality_id":101751893,
            "postalcode_id":890600135,
            "region_id":85687053
        }
    ],
    "wof:id":890600135,
    "wof:lastmodified":1469666783,
    "wof:name":"1083BV",
    "wof:parent_id":101751893,
    "wof:placetype":"postalcode",
    "wof:repo":"whosonfirst-data-postalcode-nl",
    "wof:superseded_by":[],
    "wof:supersedes":[],
    "wof:tags":[]
},
  "bbox": [
    4.88392162322998,
    52.32632827758789,
    4.883984565734863,
    52.326820373535156
],
  "geometry": {"coordinates":[[[4.88398456573486,52.32644271850586],[4.88395643234253,52.32632827758789],[4.88394117355347,52.32637023925781],[4.88392162322998,52.32678604125977],[4.88398027420044,52.32682037353516],[4.88398456573486,52.32644271850586]]],"type":"Polygon"}
}