{
  "id": 907049327,
  "type": "Feature",
  "properties": {
    "clustr:alpha":0.05,
    "clustr:area":438.94,
    "clustr:count":11,
    "clustr:density":0.03,
    "clustr:perimeter":0.47,
    "edtf:cessation":"uuuu",
    "edtf:inception":"uuuu",
    "geom:area":0.000002,
    "geom:bbox":"5.88354873657,52.9943313599,5.88858413696,52.9957466125",
    "geom:latitude":52.995056,
    "geom:longitude":5.885795,
    "iso:country":"NL",
    "mz:hierarchy_label":1,
    "mz:is_approximate":1,
    "mz:is_clustr":1,
    "src:geom":"oa",
    "wof:belongsto":[
        102191581,
        404473745,
        85633337,
        85687055
    ],
    "wof:breaches":[],
    "wof:country":"NL",
    "wof:created":1469696765,
    "wof:geomhash":"fd33784a5ea6461406f059a2d01e854b",
    "wof:hierarchy":[
        {
            "continent_id":102191581,
            "country_id":85633337,
            "localadmin_id":404473745,
            "postalcode_id":907049327,
            "region_id":85687055
        }
    ],
    "wof:id":907049327,
    "wof:lastmodified":1469696765,
    "wof:name":"8468BC",
    "wof:parent_id":404473745,
    "wof:placetype":"postalcode",
    "wof:repo":"whosonfirst-data-postalcode-nl",
    "wof:superseded_by":[],
    "wof:supersedes":[],
    "wof:tags":[]
},
  "bbox": [
    5.883548736572266,
    52.99433135986328,
    5.888584136962891,
    52.99574661254883
],
  "geometry": {"coordinates":[[[5.88474082946777,52.99436950683594],[5.88354873657227,52.99433135986328],[5.8854079246521,52.99541854858398],[5.88661623001099,52.99556732177734],[5.8881368637085,52.99571228027344],[5.88858413696289,52.99574661254883],[5.88474082946777,52.99436950683594]]],"type":"Polygon"}
}