{
  "id": 891266563,
  "type": "Feature",
  "properties": {
    "clustr:alpha":0.05,
    "clustr:area":32.65,
    "clustr:count":12,
    "clustr:density":0.37,
    "clustr:perimeter":0.22,
    "edtf:cessation":"uuuu",
    "edtf:inception":"uuuu",
    "geom:area":0.0,
    "geom:bbox":"6.61785030365,52.6464195251,6.61896753311,52.6472511292",
    "geom:latitude":52.646858,
    "geom:longitude":6.618359,
    "iso:country":"NL",
    "mz:hierarchy_label":1,
    "mz:is_approximate":1,
    "mz:is_clustr":1,
    "src:geom":"oa",
    "wof:belongsto":[
        85687045,
        102191581,
        404473831,
        85633337,
        101807211
    ],
    "wof:breaches":[],
    "wof:country":"NL",
    "wof:created":1469694079,
    "wof:geomhash":"89bcd8274b255dac9fe4063a88d2e386",
    "wof:hierarchy":[
        {
            "continent_id":102191581,
            "country_id":85633337,
            "localadmin_id":404473831,
            "locality_id":101807211,
            "postalcode_id":891266563,
            "region_id":85687045
        }
    ],
    "wof:id":891266563,
    "wof:lastmodified":1469694079,
    "wof:name":"7782ST",
    "wof:parent_id":101807211,
    "wof:placetype":"postalcode",
    "wof:repo":"whosonfirst-data-postalcode-nl",
    "wof:superseded_by":[],
    "wof:supersedes":[],
    "wof:tags":[]
},
  "bbox": [
    6.617850303649902,
    52.646419525146484,
    6.618967533111572,
    52.64725112915039
],
  "geometry": {"coordinates":[[[6.61814308166504,52.64725112915039],[6.61856174468994,52.64707946777344],[6.61896753311157,52.64677810668945],[6.61825752258301,52.64641952514648],[6.6178503036499,52.64708709716797],[6.61814308166504,52.64725112915039]]],"type":"Polygon"}
}