{
  "id": 890828107,
  "type": "Feature",
  "properties": {
    "clustr:alpha":0.05,
    "clustr:area":16.53,
    "clustr:count":10,
    "clustr:density":0.61,
    "clustr:perimeter":0.09,
    "edtf:cessation":"uuuu",
    "edtf:inception":"uuuu",
    "geom:area":0.0,
    "geom:bbox":"4.48829269409,51.8952903748,4.48900175095,51.8953895569",
    "geom:latitude":51.895346,
    "geom:longitude":4.48861,
    "iso:country":"NL",
    "mz:hierarchy_label":1,
    "mz:is_approximate":1,
    "mz:is_clustr":1,
    "src:geom":"oa",
    "wof:belongsto":[
        85687041,
        102191581,
        404474245,
        85633337,
        101751843
    ],
    "wof:breaches":[],
    "wof:country":"NL",
    "wof:created":1469676302,
    "wof:geomhash":"cbb51f40bd80c0f0719d4dec708122c0",
    "wof:hierarchy":[
        {
            "continent_id":102191581,
            "country_id":85633337,
            "localadmin_id":404474245,
            "locality_id":101751843,
            "postalcode_id":890828107,
            "region_id":85687041
        }
    ],
    "wof:id":890828107,
    "wof:lastmodified":1469676302,
    "wof:name":"3081NG",
    "wof:parent_id":101751843,
    "wof:placetype":"postalcode",
    "wof:repo":"whosonfirst-data-postalcode-nl",
    "wof:superseded_by":[],
    "wof:supersedes":[],
    "wof:tags":[]
},
  "bbox": [
    4.488292694091797,
    51.89529037475586,
    4.489001750946045,
    51.895389556884766
],
  "geometry": {"coordinates":[[[4.48843145370483,51.89533233642578],[4.48852777481079,51.89535522460938],[4.48861122131348,51.89536285400391],[4.48876667022705,51.8953742980957],[4.48892498016357,51.8953857421875],[4.48900175094604,51.89538955688477],[4.4882926940918,51.89529037475586],[4.48843145370483,51.89533233642578]]],"type":"Polygon"}
}