{
  "id": 890683923,
  "type": "Feature",
  "properties": {
    "clustr:alpha":0.05,
    "clustr:area":74.59,
    "clustr:count":23,
    "clustr:density":0.31,
    "clustr:perimeter":0.19,
    "edtf:cessation":"uuuu",
    "edtf:inception":"uuuu",
    "geom:area":0.0,
    "geom:bbox":"4.74676513672,52.6542434692,4.74801874161,52.6550369263",
    "geom:latitude":52.654543,
    "geom:longitude":4.747361,
    "iso:country":"NL",
    "mz:hierarchy_label":1,
    "mz:is_approximate":1,
    "mz:is_clustr":1,
    "src:geom":"oa",
    "wof:belongsto":[
        85687053,
        102191581,
        404474025,
        85633337,
        101751887
    ],
    "wof:breaches":[],
    "wof:country":"NL",
    "wof:created":1469670544,
    "wof:geomhash":"6307f67703c594de1778ee147cbc488e",
    "wof:hierarchy":[
        {
            "continent_id":102191581,
            "country_id":85633337,
            "localadmin_id":404474025,
            "locality_id":101751887,
            "postalcode_id":890683923,
            "region_id":85687053
        }
    ],
    "wof:id":890683923,
    "wof:lastmodified":1469670544,
    "wof:name":"1825EE",
    "wof:parent_id":101751887,
    "wof:placetype":"postalcode",
    "wof:repo":"whosonfirst-data-postalcode-nl",
    "wof:superseded_by":[],
    "wof:supersedes":[],
    "wof:tags":[]
},
  "bbox": [
    4.74676513671875,
    52.65424346923828,
    4.748018741607666,
    52.65503692626953
],
  "geometry": {"coordinates":[[[4.7474250793457,52.65472412109375],[4.74801874160767,52.65503692626953],[4.74781799316406,52.65481567382812],[4.74736022949219,52.65433120727539],[4.74723482131958,52.65424346923828],[4.74715518951416,52.65425109863281],[4.74676513671875,52.654296875],[4.7474250793457,52.65472412109375]]],"type":"Polygon"}
}