{
  "id": 890682267,
  "type": "Feature",
  "properties": {
    "clustr:alpha":0.05,
    "clustr:area":87.01,
    "clustr:count":17,
    "clustr:density":0.2,
    "clustr:perimeter":0.26,
    "edtf:cessation":"uuuu",
    "edtf:inception":"uuuu",
    "geom:area":0.0,
    "geom:bbox":"4.72898006439,52.6377220154,4.73092985153,52.638507843",
    "geom:latitude":52.63818,
    "geom:longitude":4.729716,
    "iso:country":"NL",
    "mz:hierarchy_label":1,
    "mz:is_approximate":1,
    "mz:is_clustr":1,
    "src:geom":"oa",
    "wof:belongsto":[
        85687053,
        102191581,
        404474025,
        85633337,
        101751887
    ],
    "wof:breaches":[],
    "wof:country":"NL",
    "wof:created":1469670480,
    "wof:geomhash":"c2966baa9270ee140ace4b144cdd93fa",
    "wof:hierarchy":[
        {
            "continent_id":102191581,
            "country_id":85633337,
            "localadmin_id":404474025,
            "locality_id":101751887,
            "postalcode_id":890682267,
            "region_id":85687053
        }
    ],
    "wof:id":890682267,
    "wof:lastmodified":1469670480,
    "wof:name":"1816CG",
    "wof:parent_id":101751887,
    "wof:placetype":"postalcode",
    "wof:repo":"whosonfirst-data-postalcode-nl",
    "wof:superseded_by":[],
    "wof:supersedes":[],
    "wof:tags":[]
},
  "bbox": [
    4.72898006439209,
    52.63772201538086,
    4.730929851531982,
    52.63850784301758
],
  "geometry": {"coordinates":[[[4.72903442382812,52.63840484619141],[4.72898006439209,52.63850784301758],[4.73092985153198,52.63772201538086],[4.73085451126099,52.63774490356445],[4.73054456710815,52.63785171508789],[4.72989082336426,52.63807678222656],[4.72980690002441,52.63810729980469],[4.72973489761353,52.63813400268555],[4.72903442382812,52.63840484619141]]],"type":"Polygon"}
}