{
  "id": 891205571,
  "type": "Feature",
  "properties": {
    "clustr:alpha":0.05,
    "clustr:area":11.47,
    "clustr:count":8,
    "clustr:density":0.7,
    "clustr:perimeter":0.07,
    "edtf:cessation":"uuuu",
    "edtf:inception":"uuuu",
    "geom:area":0.0,
    "geom:bbox":"6.19784641266,52.1413955688,6.19811105728,52.1417922974",
    "geom:latitude":52.141555,
    "geom:longitude":6.197996,
    "iso:country":"NL",
    "mz:hierarchy_label":1,
    "mz:is_approximate":1,
    "mz:is_clustr":1,
    "src:geom":"oa",
    "wof:belongsto":[
        85687043,
        102191581,
        404473961,
        85633337,
        101837807
    ],
    "wof:breaches":[],
    "wof:country":"NL",
    "wof:created":1469691638,
    "wof:geomhash":"845900bb5bce6c0944296ad250323db0",
    "wof:hierarchy":[
        {
            "continent_id":102191581,
            "country_id":85633337,
            "localadmin_id":404473961,
            "locality_id":101837807,
            "postalcode_id":891205571,
            "region_id":85687043
        }
    ],
    "wof:id":891205571,
    "wof:lastmodified":1469691638,
    "wof:name":"7201KT",
    "wof:parent_id":101837807,
    "wof:placetype":"postalcode",
    "wof:repo":"whosonfirst-data-postalcode-nl",
    "wof:superseded_by":[],
    "wof:supersedes":[],
    "wof:tags":[]
},
  "bbox": [
    6.197846412658691,
    52.141395568847656,
    6.198111057281494,
    52.14179229736328
],
  "geometry": {"coordinates":[[[6.19811105728149,52.1414909362793],[6.19792032241821,52.14139556884766],[6.19784641265869,52.14145278930664],[6.19805288314819,52.14179229736328],[6.19811105728149,52.1414909362793]]],"type":"Polygon"}
}