{
  "id": 907076819,
  "type": "Feature",
  "properties": {
    "clustr:alpha":0.05,
    "clustr:area":13.63,
    "clustr:count":27,
    "clustr:density":1.98,
    "clustr:perimeter":0.56,
    "edtf:cessation":"uuuu",
    "edtf:inception":"uuuu",
    "geom:area":0.000001,
    "geom:bbox":"6.09987592697,53.1196937561,6.10064077377,53.122253418",
    "geom:latitude":53.120788,
    "geom:longitude":6.100198,
    "iso:country":"NL",
    "mz:hierarchy_label":1,
    "mz:is_approximate":1,
    "mz:is_clustr":1,
    "src:geom":"oa",
    "wof:belongsto":[
        85687055,
        102191581,
        404473791,
        85633337,
        101806135
    ],
    "wof:breaches":[],
    "wof:country":"NL",
    "wof:created":1469698033,
    "wof:geomhash":"13504e6753beb8064e5d7e0ee60a3ae2",
    "wof:hierarchy":[
        {
            "continent_id":102191581,
            "country_id":85633337,
            "localadmin_id":404473791,
            "locality_id":101806135,
            "postalcode_id":907076819,
            "region_id":85687055
        }
    ],
    "wof:id":907076819,
    "wof:lastmodified":1469698033,
    "wof:name":"9207AN",
    "wof:parent_id":101806135,
    "wof:placetype":"postalcode",
    "wof:repo":"whosonfirst-data-postalcode-nl",
    "wof:superseded_by":[],
    "wof:supersedes":[],
    "wof:tags":[]
},
  "bbox": [
    6.099875926971436,
    53.119693756103516,
    6.100640773773193,
    53.12225341796875
],
  "geometry": {"coordinates":[[[6.10064077377319,53.12052917480469],[6.10063409805298,53.12047576904297],[6.10057926177979,53.12034606933594],[6.10055303573608,53.12028503417969],[6.10048055648804,53.12016677856445],[6.10044717788696,53.1201171875],[6.1002893447876,53.11996841430664],[6.1000804901123,53.11982727050781],[6.09987592697144,53.11969375610352],[6.10001850128174,53.12225341796875],[6.10005235671997,53.12219619750977],[6.10011434555054,53.1220703125],[6.10056161880493,53.1208381652832],[6.10064077377319,53.12052917480469]]],"type":"Polygon"}
}