{
  "id": 891234327,
  "type": "Feature",
  "properties": {
    "clustr:alpha":0.05,
    "clustr:area":123.6,
    "clustr:count":18,
    "clustr:density":0.15,
    "clustr:perimeter":0.53,
    "edtf:cessation":"uuuu",
    "edtf:inception":"uuuu",
    "geom:area":0.000002,
    "geom:bbox":"6.71055221558,52.2613677979,6.71426010132,52.2624931335",
    "geom:latitude":52.261837,
    "geom:longitude":6.712378,
    "iso:country":"NL",
    "mz:hierarchy_label":1,
    "mz:is_approximate":1,
    "mz:is_clustr":1,
    "src:geom":"oa",
    "wof:belongsto":[
        85687045,
        102191581,
        404474653,
        85633337,
        101807169
    ],
    "wof:breaches":[],
    "wof:country":"NL",
    "wof:created":1469692782,
    "wof:geomhash":"5448da2afa8ab4240f51bf4ba70e0d62",
    "wof:hierarchy":[
        {
            "continent_id":102191581,
            "country_id":85633337,
            "localadmin_id":404474653,
            "locality_id":101807169,
            "postalcode_id":891234327,
            "region_id":85687045
        }
    ],
    "wof:id":891234327,
    "wof:lastmodified":1469692782,
    "wof:name":"7491CD",
    "wof:parent_id":101807169,
    "wof:placetype":"postalcode",
    "wof:repo":"whosonfirst-data-postalcode-nl",
    "wof:superseded_by":[],
    "wof:supersedes":[],
    "wof:tags":[]
},
  "bbox": [
    6.710552215576172,
    52.26136779785156,
    6.714260101318359,
    52.26249313354492
],
  "geometry": {"coordinates":[[[6.71119594573975,52.26142120361328],[6.71090459823608,52.26147842407227],[6.71065711975098,52.26153564453125],[6.71055221557617,52.26182556152344],[6.71426010131836,52.26249313354492],[6.71344470977783,52.26167678833008],[6.71328163146973,52.26161575317383],[6.71301507949829,52.26151657104492],[6.71220827102661,52.26136779785156],[6.71119594573975,52.26142120361328]]],"type":"Polygon"}
}