{
  "id": 907040597,
  "type": "Feature",
  "properties": {
    "clustr:alpha":0.05,
    "clustr:area":201.4,
    "clustr:count":9,
    "clustr:density":0.04,
    "clustr:perimeter":0.19,
    "edtf:cessation":"uuuu",
    "edtf:inception":"uuuu",
    "geom:area":0.000001,
    "geom:bbox":"5.62511062622,52.6665763855,5.62704706192,52.6673278809",
    "geom:latitude":52.666932,
    "geom:longitude":5.626148,
    "iso:country":"NL",
    "mz:hierarchy_label":1,
    "mz:is_approximate":1,
    "mz:is_clustr":1,
    "src:geom":"oa",
    "wof:belongsto":[
        85687049,
        102191581,
        404473857,
        85633337,
        101807251
    ],
    "wof:breaches":[],
    "wof:country":"NL",
    "wof:created":1469696321,
    "wof:geomhash":"9115cb1a213e84eb131b9eede841a3c7",
    "wof:hierarchy":[
        {
            "continent_id":102191581,
            "country_id":85633337,
            "localadmin_id":404473857,
            "locality_id":101807251,
            "postalcode_id":907040597,
            "region_id":85687049
        }
    ],
    "wof:id":907040597,
    "wof:lastmodified":1469696321,
    "wof:name":"8322AG",
    "wof:parent_id":101807251,
    "wof:placetype":"postalcode",
    "wof:repo":"whosonfirst-data-postalcode-nl",
    "wof:superseded_by":[],
    "wof:supersedes":[],
    "wof:tags":[]
},
  "bbox": [
    5.625110626220703,
    52.66657638549805,
    5.627047061920166,
    52.667327880859375
],
  "geometry": {"coordinates":[[[5.62684392929077,52.66732788085938],[5.62698030471802,52.66726303100586],[5.62704706192017,52.66722869873047],[5.62610816955566,52.66657638549805],[5.6251106262207,52.66680908203125],[5.62684392929077,52.66732788085938]]],"type":"Polygon"}
}