{
  "id": 890698571,
  "type": "Feature",
  "properties": {
    "clustr:alpha":0.05,
    "clustr:area":5.07,
    "clustr:count":9,
    "clustr:density":1.77,
    "clustr:perimeter":0.29,
    "edtf:cessation":"uuuu",
    "edtf:inception":"uuuu",
    "geom:area":0.0,
    "geom:bbox":"4.62410545349,52.37342453,4.62606477737,52.3739395142",
    "geom:latitude":52.373683,
    "geom:longitude":4.625172,
    "iso:country":"NL",
    "mz:hierarchy_label":1,
    "mz:is_approximate":1,
    "mz:is_clustr":1,
    "src:geom":"oa",
    "wof:belongsto":[
        85687053,
        102191581,
        404474061,
        85633337,
        101751897
    ],
    "wof:breaches":[],
    "wof:country":"NL",
    "wof:created":1469671157,
    "wof:geomhash":"3be860d12051ccc86b3ccb0f29a7a538",
    "wof:hierarchy":[
        {
            "continent_id":102191581,
            "country_id":85633337,
            "localadmin_id":404474061,
            "locality_id":101751897,
            "postalcode_id":890698571,
            "region_id":85687053
        }
    ],
    "wof:id":890698571,
    "wof:lastmodified":1469671157,
    "wof:name":"2012EW",
    "wof:parent_id":101751897,
    "wof:placetype":"postalcode",
    "wof:repo":"whosonfirst-data-postalcode-nl",
    "wof:superseded_by":[],
    "wof:supersedes":[],
    "wof:tags":[]
},
  "bbox": [
    4.624105453491211,
    52.3734245300293,
    4.626064777374268,
    52.373939514160156
],
  "geometry": {"coordinates":[[[4.62414646148682,52.37392807006836],[4.62410545349121,52.37393951416016],[4.62424516677856,52.3739128112793],[4.62539339065552,52.37367248535156],[4.62606477737427,52.3734245300293],[4.62414646148682,52.37392807006836]]],"type":"Polygon"}
}