{
  "id": 890992517,
  "type": "Feature",
  "properties": {
    "clustr:alpha":0.05,
    "clustr:area":64.07,
    "clustr:count":20,
    "clustr:density":0.31,
    "clustr:perimeter":0.16,
    "edtf:cessation":"uuuu",
    "edtf:inception":"uuuu",
    "geom:area":0.0,
    "geom:bbox":"4.65453529358,51.5824584961,4.65585041046,51.5829849243",
    "geom:latitude":51.58269,
    "geom:longitude":4.655168,
    "iso:country":"NL",
    "mz:hierarchy_label":1,
    "mz:is_approximate":1,
    "mz:is_clustr":1,
    "src:geom":"oa",
    "wof:belongsto":[
        85687035,
        102191581,
        404474377,
        85633337,
        101839355
    ],
    "wof:breaches":[],
    "wof:country":"NL",
    "wof:created":1469683170,
    "wof:geomhash":"315f82dafb5cbeb9e2ff0b2221605dfa",
    "wof:hierarchy":[
        {
            "continent_id":102191581,
            "country_id":85633337,
            "localadmin_id":404474377,
            "locality_id":101839355,
            "postalcode_id":890992517,
            "region_id":85687035
        }
    ],
    "wof:id":890992517,
    "wof:lastmodified":1469683170,
    "wof:name":"4871VN",
    "wof:parent_id":101839355,
    "wof:placetype":"postalcode",
    "wof:repo":"whosonfirst-data-postalcode-nl",
    "wof:superseded_by":[],
    "wof:supersedes":[],
    "wof:tags":[]
},
  "bbox": [
    4.654535293579102,
    51.58245849609375,
    4.655850410461426,
    51.582984924316406
],
  "geometry": {"coordinates":[[[4.65510225296021,51.58298492431641],[4.65585041046143,51.5826416015625],[4.65558815002441,51.58259201049805],[4.65550088882446,51.58257675170898],[4.6545352935791,51.58245849609375],[4.65510225296021,51.58298492431641]]],"type":"Polygon"}
}