{
  "id": 890643021,
  "type": "Feature",
  "properties": {
    "clustr:alpha":0.05,
    "clustr:area":11.76,
    "clustr:count":17,
    "clustr:density":1.45,
    "clustr:perimeter":0.22,
    "edtf:cessation":"uuuu",
    "edtf:inception":"uuuu",
    "geom:area":0.0,
    "geom:bbox":"4.80737829208,52.251209259,4.80883836746,52.2517051697",
    "geom:latitude":52.251504,
    "geom:longitude":4.807885,
    "iso:country":"NL",
    "mz:hierarchy_label":1,
    "mz:is_approximate":1,
    "mz:is_clustr":1,
    "src:geom":"oa",
    "wof:belongsto":[
        102191581,
        404474119,
        85633337,
        85687053
    ],
    "wof:breaches":[],
    "wof:country":"NL",
    "wof:created":1469668674,
    "wof:geomhash":"0a7366c08778dbf03225e30d4034c365",
    "wof:hierarchy":[
        {
            "continent_id":102191581,
            "country_id":85633337,
            "localadmin_id":404474119,
            "postalcode_id":890643021,
            "region_id":85687053
        }
    ],
    "wof:id":890643021,
    "wof:lastmodified":1469668674,
    "wof:name":"1422WT",
    "wof:parent_id":404474119,
    "wof:placetype":"postalcode",
    "wof:repo":"whosonfirst-data-postalcode-nl",
    "wof:superseded_by":[],
    "wof:supersedes":[],
    "wof:tags":[]
},
  "bbox": [
    4.80737829208374,
    52.2512092590332,
    4.808838367462158,
    52.251705169677734
],
  "geometry": {"coordinates":[[[4.80750799179077,52.25157928466797],[4.80743217468262,52.25160217285156],[4.80737829208374,52.25170516967773],[4.80883836746216,52.2512092590332],[4.80831527709961,52.2513542175293],[4.80771160125732,52.25152206420898],[4.8076024055481,52.25155258178711],[4.80750799179077,52.25157928466797]]],"type":"Polygon"}
}