{
  "id": 890861057,
  "type": "Feature",
  "properties": {
    "clustr:alpha":0.05,
    "clustr:area":105.84,
    "clustr:count":29,
    "clustr:density":0.27,
    "clustr:perimeter":0.13,
    "edtf:cessation":"uuuu",
    "edtf:inception":"uuuu",
    "geom:area":0.0,
    "geom:bbox":"4.82877063751,51.8278007507,4.82988977432,51.828125",
    "geom:latitude":51.827979,
    "geom:longitude":4.82947,
    "iso:country":"NL",
    "mz:hierarchy_label":1,
    "mz:is_approximate":1,
    "mz:is_clustr":1,
    "src:geom":"oa",
    "wof:belongsto":[
        85687041,
        102191581,
        404474181,
        85633337,
        101754651
    ],
    "wof:breaches":[],
    "wof:country":"NL",
    "wof:created":1469677527,
    "wof:geomhash":"b5caecd212c67f71adedc183b14dc00f",
    "wof:hierarchy":[
        {
            "continent_id":102191581,
            "country_id":85633337,
            "localadmin_id":404474181,
            "locality_id":101754651,
            "postalcode_id":890861057,
            "region_id":85687041
        }
    ],
    "wof:id":890861057,
    "wof:lastmodified":1469677527,
    "wof:name":"3371HA",
    "wof:parent_id":101754651,
    "wof:placetype":"postalcode",
    "wof:repo":"whosonfirst-data-postalcode-nl",
    "wof:superseded_by":[],
    "wof:supersedes":[],
    "wof:tags":[]
},
  "bbox": [
    4.828770637512207,
    51.82780075073242,
    4.82988977432251,
    51.828125
],
  "geometry": {"coordinates":[[[4.82985687255859,51.828125],[4.82988977432251,51.82780075073242],[4.82877063751221,51.82798767089844],[4.8288426399231,51.82802963256836],[4.82891511917114,51.82804107666016],[4.82898712158203,51.82804870605469],[4.82985687255859,51.828125]]],"type":"Polygon"}
}