{
  "id": 907049369,
  "type": "Feature",
  "properties": {
    "clustr:alpha":0.05,
    "clustr:area":40.49,
    "clustr:count":42,
    "clustr:density":1.04,
    "clustr:perimeter":1.15,
    "edtf:cessation":"uuuu",
    "edtf:inception":"uuuu",
    "geom:area":0.000012,
    "geom:bbox":"5.99241781235,52.8809661865,5.99814367294,52.8841362",
    "geom:latitude":52.882703,
    "geom:longitude":5.995531,
    "iso:country":"NL",
    "mz:hierarchy_label":1,
    "mz:is_approximate":1,
    "mz:is_clustr":1,
    "src:geom":"oa",
    "wof:belongsto":[
        85687055,
        102191581,
        404473801,
        85633337,
        101808823
    ],
    "wof:breaches":[],
    "wof:country":"NL",
    "wof:created":1469696766,
    "wof:geomhash":"adcbfca9971601d5a15209d8441c940c",
    "wof:hierarchy":[
        {
            "continent_id":102191581,
            "country_id":85633337,
            "localadmin_id":404473801,
            "locality_id":101808823,
            "postalcode_id":907049369,
            "region_id":85687055
        }
    ],
    "wof:id":907049369,
    "wof:lastmodified":1469696766,
    "wof:name":"8471AD",
    "wof:parent_id":101808823,
    "wof:placetype":"postalcode",
    "wof:repo":"whosonfirst-data-postalcode-nl",
    "wof:superseded_by":[],
    "wof:supersedes":[],
    "wof:tags":[]
},
  "bbox": [
    5.992417812347412,
    52.88096618652344,
    5.998143672943115,
    52.88413619995117
],
  "geometry": {"coordinates":[[[5.99797487258911,52.88328552246094],[5.99801969528198,52.88324737548828],[5.99810171127319,52.88317489624023],[5.99814367294312,52.88313674926758],[5.99806833267212,52.88150024414062],[5.99706840515137,52.88096618652344],[5.99603748321533,52.88113021850586],[5.99270009994507,52.88263320922852],[5.99241781234741,52.88301849365234],[5.9929895401001,52.88413619995117],[5.99528694152832,52.88406753540039],[5.99765634536743,52.88346481323242],[5.99797487258911,52.88328552246094]]],"type":"Polygon"}
}