{
  "id": 907076697,
  "type": "Feature",
  "properties": {
    "clustr:alpha":0.05,
    "clustr:area":79.64,
    "clustr:count":13,
    "clustr:density":0.16,
    "clustr:perimeter":0.08,
    "edtf:cessation":"uuuu",
    "edtf:inception":"uuuu",
    "geom:area":0.0,
    "geom:bbox":"6.05415296555,53.0942153931,6.05492067337,53.0945777893",
    "geom:latitude":53.094417,
    "geom:longitude":6.054571,
    "iso:country":"NL",
    "mz:hierarchy_label":1,
    "mz:is_approximate":1,
    "mz:is_clustr":1,
    "src:geom":"oa",
    "wof:belongsto":[
        85687055,
        102191581,
        404473791,
        85633337,
        101806135
    ],
    "wof:breaches":[],
    "wof:country":"NL",
    "wof:created":1469698019,
    "wof:geomhash":"2abce203cd2db6223fc63442ebbd9ef0",
    "wof:hierarchy":[
        {
            "continent_id":102191581,
            "country_id":85633337,
            "localadmin_id":404473791,
            "locality_id":101806135,
            "postalcode_id":907076697,
            "region_id":85687055
        }
    ],
    "wof:id":907076697,
    "wof:lastmodified":1469698019,
    "wof:name":"9205DE",
    "wof:parent_id":101806135,
    "wof:placetype":"postalcode",
    "wof:repo":"whosonfirst-data-postalcode-nl",
    "wof:superseded_by":[],
    "wof:supersedes":[],
    "wof:tags":[]
},
  "bbox": [
    6.054152965545654,
    53.094215393066406,
    6.054920673370361,
    53.09457778930664
],
  "geometry": {"coordinates":[[[6.05428171157837,53.0944938659668],[6.05415296554565,53.09457778930664],[6.05448484420776,53.09450531005859],[6.05464935302734,53.09445571899414],[6.05473232269287,53.09442901611328],[6.05492067337036,53.09421539306641],[6.05428171157837,53.0944938659668]]],"type":"Polygon"}
}