{
  "id": 891187289,
  "type": "Feature",
  "properties": {
    "clustr:alpha":0.05,
    "clustr:area":2.37,
    "clustr:count":13,
    "clustr:density":5.48,
    "clustr:perimeter":0.13,
    "edtf:cessation":"uuuu",
    "edtf:inception":"uuuu",
    "geom:area":0.0,
    "geom:bbox":"5.97555732727,51.9423446655,5.97626924515,51.9426765442",
    "geom:latitude":51.94249,
    "geom:longitude":5.97583,
    "iso:country":"NL",
    "mz:hierarchy_label":1,
    "mz:is_approximate":1,
    "mz:is_clustr":1,
    "src:geom":"oa",
    "wof:belongsto":[
        85687043,
        102191581,
        404473949,
        85633337,
        101837821
    ],
    "wof:breaches":[],
    "wof:country":"NL",
    "wof:created":1469690904,
    "wof:geomhash":"167735eb434042cc3f7f4acb33650802",
    "wof:hierarchy":[
        {
            "continent_id":102191581,
            "country_id":85633337,
            "localadmin_id":404473949,
            "locality_id":101837821,
            "postalcode_id":891187289,
            "region_id":85687043
        }
    ],
    "wof:id":891187289,
    "wof:lastmodified":1469690904,
    "wof:name":"6932PB",
    "wof:parent_id":101837821,
    "wof:placetype":"postalcode",
    "wof:repo":"whosonfirst-data-postalcode-nl",
    "wof:superseded_by":[],
    "wof:supersedes":[],
    "wof:tags":[]
},
  "bbox": [
    5.975557327270508,
    51.942344665527344,
    5.976269245147705,
    51.94267654418945
],
  "geometry": {"coordinates":[[[5.9755711555481,51.94244384765625],[5.97555732727051,51.9425048828125],[5.97561645507812,51.94257736206055],[5.97571992874146,51.94267654418945],[5.97626924514771,51.94244003295898],[5.97591972351074,51.94238662719727],[5.97559881210327,51.94234466552734],[5.97558498382568,51.94239044189453],[5.9755711555481,51.94244384765625]]],"type":"Polygon"}
}