{
  "id": 907034755,
  "type": "Feature",
  "properties": {
    "clustr:alpha":0.05,
    "clustr:area":7.55,
    "clustr:count":16,
    "clustr:density":2.12,
    "clustr:perimeter":0.12,
    "edtf:cessation":"uuuu",
    "edtf:inception":"uuuu",
    "geom:area":0.0,
    "geom:bbox":"5.90351772308,52.5622673035,5.9036359787,52.5629348755",
    "geom:latitude":52.562639,
    "geom:longitude":5.903571,
    "iso:country":"NL",
    "mz:hierarchy_label":1,
    "mz:is_approximate":1,
    "mz:is_clustr":1,
    "src:geom":"oa",
    "wof:belongsto":[
        85687045,
        102191581,
        404473839,
        85633337,
        101837847
    ],
    "wof:breaches":[],
    "wof:country":"NL",
    "wof:created":1469696034,
    "wof:geomhash":"194fede59c1a9663d061e1a76fefc676",
    "wof:hierarchy":[
        {
            "continent_id":102191581,
            "country_id":85633337,
            "localadmin_id":404473839,
            "locality_id":101837847,
            "postalcode_id":907034755,
            "region_id":85687045
        }
    ],
    "wof:id":907034755,
    "wof:lastmodified":1469696034,
    "wof:name":"8262RG",
    "wof:parent_id":101837847,
    "wof:placetype":"postalcode",
    "wof:repo":"whosonfirst-data-postalcode-nl",
    "wof:superseded_by":[],
    "wof:supersedes":[],
    "wof:tags":[]
},
  "bbox": [
    5.903517723083496,
    52.5622673034668,
    5.90363597869873,
    52.56293487548828
],
  "geometry": {"coordinates":[[[5.90357637405396,52.56262588500977],[5.90363597869873,52.5622673034668],[5.90361881256104,52.56235504150391],[5.9036111831665,52.56239700317383],[5.90358686447144,52.56253051757812],[5.9035177230835,52.56293487548828],[5.90352916717529,52.56288909912109],[5.90353870391846,52.56284713745117],[5.90357637405396,52.56262588500977]]],"type":"Polygon"}
}