{
  "id": 890960831,
  "type": "Feature",
  "properties": {
    "clustr:alpha":0.05,
    "clustr:area":101.49,
    "clustr:count":25,
    "clustr:density":0.25,
    "clustr:perimeter":0.47,
    "edtf:cessation":"uuuu",
    "edtf:inception":"uuuu",
    "geom:area":0.000002,
    "geom:bbox":"3.70065164566,51.5739898682,3.70251941681,51.5761260986",
    "geom:latitude":51.575018,
    "geom:longitude":3.701539,
    "iso:country":"NL",
    "mz:hierarchy_label":1,
    "mz:is_approximate":1,
    "mz:is_clustr":1,
    "src:geom":"oa",
    "wof:belongsto":[
        85687037,
        102191581,
        404474603,
        85633337,
        101808377
    ],
    "wof:breaches":[],
    "wof:country":"NL",
    "wof:created":1469681705,
    "wof:geomhash":"63ce10385020f2c9ef0fc695b3a3890c",
    "wof:hierarchy":[
        {
            "continent_id":102191581,
            "country_id":85633337,
            "localadmin_id":404474603,
            "locality_id":101808377,
            "postalcode_id":890960831,
            "region_id":85687037
        }
    ],
    "wof:id":890960831,
    "wof:lastmodified":1469681705,
    "wof:name":"4493AB",
    "wof:parent_id":101808377,
    "wof:placetype":"postalcode",
    "wof:repo":"whosonfirst-data-postalcode-nl",
    "wof:superseded_by":[],
    "wof:supersedes":[],
    "wof:tags":[]
},
  "bbox": [
    3.7006516456604,
    51.57398986816406,
    3.702519416809082,
    51.57612609863281
],
  "geometry": {"coordinates":[[[3.70222616195679,51.57507705688477],[3.7022500038147,51.57505798339844],[3.70227599143982,51.57503509521484],[3.70247364044189,51.57484817504883],[3.70251941680908,51.57478713989258],[3.70142364501953,51.57398986816406],[3.7006516456604,51.57612609863281],[3.70129871368408,51.5757942199707],[3.70144724845886,51.57567977905273],[3.70222616195679,51.57507705688477]]],"type":"Polygon"}
}