{
  "id": 890751415,
  "type": "Feature",
  "properties": {
    "clustr:alpha":0.05,
    "clustr:area":11.3,
    "clustr:count":16,
    "clustr:density":1.42,
    "clustr:perimeter":0.24,
    "edtf:cessation":"uuuu",
    "edtf:inception":"uuuu",
    "geom:area":0.0,
    "geom:bbox":"4.36498260498,52.0479164124,4.36660194397,52.0483627319",
    "geom:latitude":52.048112,
    "geom:longitude":4.36584,
    "iso:country":"NL",
    "mz:hierarchy_label":1,
    "mz:is_approximate":1,
    "mz:is_clustr":1,
    "src:geom":"oa",
    "wof:belongsto":[
        85687041,
        102191581,
        404474165,
        85633337,
        101752765
    ],
    "wof:breaches":[],
    "wof:country":"NL",
    "wof:created":1469673401,
    "wof:geomhash":"c95a16b03cbad7524f2d653f6ae70e56",
    "wof:hierarchy":[
        {
            "continent_id":102191581,
            "country_id":85633337,
            "localadmin_id":404474165,
            "locality_id":101752765,
            "postalcode_id":890751415,
            "region_id":85687041
        }
    ],
    "wof:id":890751415,
    "wof:lastmodified":1469673401,
    "wof:name":"2496WT",
    "wof:parent_id":101752765,
    "wof:placetype":"postalcode",
    "wof:repo":"whosonfirst-data-postalcode-nl",
    "wof:superseded_by":[],
    "wof:supersedes":[],
    "wof:tags":[]
},
  "bbox": [
    4.364982604980469,
    52.047916412353516,
    4.366601943969727,
    52.048362731933594
],
  "geometry": {"coordinates":[[[4.36508512496948,52.04811477661133],[4.3660135269165,52.04830169677734],[4.36636543273926,52.04836273193359],[4.36660194396973,52.04812622070312],[4.36640644073486,52.04800796508789],[4.36511516571045,52.04791641235352],[4.36498260498047,52.04799270629883],[4.36508512496948,52.04811477661133]]],"type":"Polygon"}
}