{
  "id": 907064345,
  "type": "Feature",
  "properties": {
    "clustr:alpha":0.05,
    "clustr:area":2.64,
    "clustr:count":15,
    "clustr:density":5.67,
    "clustr:perimeter":0.18,
    "edtf:cessation":"uuuu",
    "edtf:inception":"uuuu",
    "geom:area":0.0,
    "geom:bbox":"5.80900621414,53.2046012878,5.80943202972,53.2053718567",
    "geom:latitude":53.204917,
    "geom:longitude":5.809271,
    "iso:country":"NL",
    "mz:hierarchy_label":1,
    "mz:is_approximate":1,
    "mz:is_clustr":1,
    "src:geom":"oa",
    "wof:belongsto":[
        85687055,
        102191581,
        404473775,
        85633337,
        101751907
    ],
    "wof:breaches":[],
    "wof:country":"NL",
    "wof:created":1469697417,
    "wof:geomhash":"bfd08b759997a0bdb93034e38c24eb6a",
    "wof:hierarchy":[
        {
            "continent_id":102191581,
            "country_id":85633337,
            "localadmin_id":404473775,
            "locality_id":101751907,
            "postalcode_id":907064345,
            "region_id":85687055
        }
    ],
    "wof:id":907064345,
    "wof:lastmodified":1469697417,
    "wof:name":"8921KX",
    "wof:parent_id":101751907,
    "wof:placetype":"postalcode",
    "wof:repo":"whosonfirst-data-postalcode-nl",
    "wof:superseded_by":[],
    "wof:supersedes":[],
    "wof:tags":[]
},
  "bbox": [
    5.809006214141846,
    53.2046012878418,
    5.809432029724121,
    53.20537185668945
],
  "geometry": {"coordinates":[[[5.80942678451538,53.20486068725586],[5.80939197540283,53.20475387573242],[5.80902004241943,53.2046012878418],[5.80900621414185,53.20467376708984],[5.80938625335693,53.20531845092773],[5.80943202972412,53.20537185668945],[5.80942678451538,53.20486068725586]]],"type":"Polygon"}
}