{
  "id": 891165459,
  "type": "Feature",
  "properties": {
    "clustr:alpha":0.05,
    "clustr:area":63.08,
    "clustr:count":8,
    "clustr:density":0.13,
    "clustr:perimeter":0.09,
    "edtf:cessation":"uuuu",
    "edtf:inception":"uuuu",
    "geom:area":0.0,
    "geom:bbox":"5.6832857132,51.9696807861,5.68375921249,51.9703826904",
    "geom:latitude":51.97003,
    "geom:longitude":5.683527,
    "iso:country":"NL",
    "mz:hierarchy_label":1,
    "mz:is_approximate":1,
    "mz:is_clustr":1,
    "src:geom":"oa",
    "wof:belongsto":[
        85687043,
        102191581,
        404473947,
        85633337,
        101837813
    ],
    "wof:breaches":[],
    "wof:country":"NL",
    "wof:created":1469690003,
    "wof:geomhash":"094df2bcfc948346b6750195afc9307b",
    "wof:hierarchy":[
        {
            "continent_id":102191581,
            "country_id":85633337,
            "localadmin_id":404473947,
            "locality_id":101837813,
            "postalcode_id":891165459,
            "region_id":85687043
        }
    ],
    "wof:id":891165459,
    "wof:lastmodified":1469690003,
    "wof:name":"6703GX",
    "wof:parent_id":101837813,
    "wof:placetype":"postalcode",
    "wof:repo":"whosonfirst-data-postalcode-nl",
    "wof:superseded_by":[],
    "wof:supersedes":[],
    "wof:tags":[]
},
  "bbox": [
    5.683285713195801,
    51.96968078613281,
    5.683759212493896,
    51.97038269042969
],
  "geometry": {"coordinates":[[[5.68331432342529,51.97032928466797],[5.6832857131958,51.97038269042969],[5.68363237380981,51.96989440917969],[5.6837592124939,51.96968078613281],[5.68331432342529,51.97032928466797]]],"type":"Polygon"}
}