{
  "id": 890630259,
  "type": "Feature",
  "properties": {
    "clustr:alpha":0.05,
    "clustr:area":8.53,
    "clustr:count":12,
    "clustr:density":1.41,
    "clustr:perimeter":0.09,
    "edtf:cessation":"uuuu",
    "edtf:inception":"uuuu",
    "geom:area":0.0,
    "geom:bbox":"5.20526599884,52.3640213013,5.20573759079,52.3643684387",
    "geom:latitude":52.364225,
    "geom:longitude":5.20545,
    "iso:country":"NL",
    "mz:hierarchy_label":1,
    "mz:is_approximate":1,
    "mz:is_clustr":1,
    "src:geom":"oa",
    "wof:belongsto":[
        85687049,
        102191581,
        404473729,
        85633337,
        101751877
    ],
    "wof:breaches":[],
    "wof:country":"NL",
    "wof:created":1469668130,
    "wof:geomhash":"d36828b896e24d04d6b90136c2226007",
    "wof:hierarchy":[
        {
            "continent_id":102191581,
            "country_id":85633337,
            "localadmin_id":404473729,
            "locality_id":101751877,
            "postalcode_id":890630259,
            "region_id":85687049
        }
    ],
    "wof:id":890630259,
    "wof:lastmodified":1469668130,
    "wof:name":"1324LW",
    "wof:parent_id":101751877,
    "wof:placetype":"postalcode",
    "wof:repo":"whosonfirst-data-postalcode-nl",
    "wof:superseded_by":[],
    "wof:supersedes":[],
    "wof:tags":[]
},
  "bbox": [
    5.205265998840332,
    52.36402130126953,
    5.205737590789795,
    52.3643684387207
],
  "geometry": {"coordinates":[[[5.20537233352661,52.36429977416992],[5.20573759078979,52.3643684387207],[5.20526599884033,52.36402130126953],[5.20527315139771,52.36407089233398],[5.20528411865234,52.36412048339844],[5.20537233352661,52.36429977416992]]],"type":"Polygon"}
}