{
  "id": 890705271,
  "type": "Feature",
  "properties": {
    "clustr:alpha":0.05,
    "clustr:area":2.18,
    "clustr:count":40,
    "clustr:density":18.32,
    "clustr:perimeter":0.19,
    "edtf:cessation":"uuuu",
    "edtf:inception":"uuuu",
    "geom:area":0.0,
    "geom:bbox":"4.52891683578,52.3709106445,4.52986097336,52.3715209961",
    "geom:latitude":52.371157,
    "geom:longitude":4.529505,
    "iso:country":"NL",
    "mz:hierarchy_label":1,
    "mz:is_approximate":1,
    "mz:is_clustr":1,
    "src:geom":"oa",
    "wof:belongsto":[
        85687053,
        102191581,
        404474135,
        85633337,
        101808813
    ],
    "wof:breaches":[],
    "wof:country":"NL",
    "wof:created":1469671485,
    "wof:geomhash":"b150619b455749a60794bb3e98c24be7",
    "wof:hierarchy":[
        {
            "continent_id":102191581,
            "country_id":85633337,
            "localadmin_id":404474135,
            "locality_id":101808813,
            "postalcode_id":890705271,
            "region_id":85687053
        }
    ],
    "wof:id":890705271,
    "wof:lastmodified":1469671485,
    "wof:name":"2042GS",
    "wof:parent_id":101808813,
    "wof:placetype":"postalcode",
    "wof:repo":"whosonfirst-data-postalcode-nl",
    "wof:superseded_by":[],
    "wof:supersedes":[],
    "wof:tags":[]
},
  "bbox": [
    4.528916835784912,
    52.37091064453125,
    4.529860973358154,
    52.37152099609375
],
  "geometry": {"coordinates":[[[4.52979803085327,52.37097549438477],[4.52978467941284,52.37091064453125],[4.52896213531494,52.37101745605469],[4.52891683578491,52.37104797363281],[4.52892112731934,52.37107467651367],[4.52986097335815,52.37152099609375],[4.52983093261719,52.37114715576172],[4.52979803085327,52.37097549438477]]],"type":"Polygon"}
}