{
  "id": 890956589,
  "type": "Feature",
  "properties": {
    "clustr:alpha":0.05,
    "clustr:area":35.32,
    "clustr:count":17,
    "clustr:density":0.48,
    "clustr:perimeter":0.16,
    "edtf:cessation":"uuuu",
    "edtf:inception":"uuuu",
    "geom:area":0.0,
    "geom:bbox":"3.95876789093,51.4743766785,3.95968651772,51.4748420715",
    "geom:latitude":51.474559,
    "geom:longitude":3.959146,
    "iso:country":"NL",
    "mz:hierarchy_label":1,
    "mz:is_approximate":1,
    "mz:is_clustr":1,
    "src:geom":"oa",
    "wof:belongsto":[
        85687037,
        102191581,
        404474309,
        85633337,
        101809217
    ],
    "wof:breaches":[],
    "wof:country":"NL",
    "wof:created":1469681469,
    "wof:geomhash":"8f4c0e273c55cc21d11f58e66c2b2905",
    "wof:hierarchy":[
        {
            "continent_id":102191581,
            "country_id":85633337,
            "localadmin_id":404474309,
            "locality_id":101809217,
            "postalcode_id":890956589,
            "region_id":85687037
        }
    ],
    "wof:id":890956589,
    "wof:lastmodified":1469681469,
    "wof:name":"4421KX",
    "wof:parent_id":101809217,
    "wof:placetype":"postalcode",
    "wof:repo":"whosonfirst-data-postalcode-nl",
    "wof:superseded_by":[],
    "wof:supersedes":[],
    "wof:tags":[]
},
  "bbox": [
    3.958767890930176,
    51.4743766784668,
    3.959686517715454,
    51.4748420715332
],
  "geometry": {"coordinates":[[[3.95898389816284,51.4743766784668],[3.95886158943176,51.47460174560547],[3.9587836265564,51.47479629516602],[3.95876789093018,51.4748420715332],[3.95968651771545,51.47446823120117],[3.95962929725647,51.47445678710938],[3.95948600769043,51.47443008422852],[3.9594144821167,51.47441864013672],[3.95927119255066,51.47439956665039],[3.95898389816284,51.4743766784668]]],"type":"Polygon"}
}