{
  "id": 890811667,
  "type": "Feature",
  "properties": {
    "clustr:alpha":0.05,
    "clustr:area":60.55,
    "clustr:count":14,
    "clustr:density":0.23,
    "clustr:perimeter":0.4,
    "edtf:cessation":"uuuu",
    "edtf:inception":"uuuu",
    "geom:area":0.000001,
    "geom:bbox":"4.57470417023,51.8288459778,4.57712745667,51.8299293518",
    "geom:latitude":51.829361,
    "geom:longitude":4.576008,
    "iso:country":"NL",
    "mz:hierarchy_label":1,
    "mz:is_approximate":1,
    "mz:is_clustr":1,
    "src:geom":"oa",
    "wof:belongsto":[
        102191581,
        404474291,
        85633337,
        85687041
    ],
    "wof:breaches":[],
    "wof:country":"NL",
    "wof:created":1469675655,
    "wof:geomhash":"ca54c5c22dbf1b026cda893cb2fbdd2c",
    "wof:hierarchy":[
        {
            "continent_id":102191581,
            "country_id":85633337,
            "localadmin_id":404474291,
            "postalcode_id":890811667,
            "region_id":85687041
        }
    ],
    "wof:id":890811667,
    "wof:lastmodified":1469675655,
    "wof:name":"2995XC",
    "wof:parent_id":404474291,
    "wof:placetype":"postalcode",
    "wof:repo":"whosonfirst-data-postalcode-nl",
    "wof:superseded_by":[],
    "wof:supersedes":[],
    "wof:tags":[]
},
  "bbox": [
    4.574704170227051,
    51.8288459777832,
    4.577127456665039,
    51.82992935180664
],
  "geometry": {"coordinates":[[[4.57662963867188,51.8288459777832],[4.57633972167969,51.82896041870117],[4.57470417022705,51.82963180541992],[4.575035572052,51.82992935180664],[4.57710933685303,51.82924652099609],[4.57712745666504,51.82888793945312],[4.57662963867188,51.8288459777832]]],"type":"Polygon"}
}