{
  "id": 890955115,
  "type": "Feature",
  "properties": {
    "clustr:alpha":0.05,
    "clustr:area":87.52,
    "clustr:count":18,
    "clustr:density":0.21,
    "clustr:perimeter":0.12,
    "edtf:cessation":"uuuu",
    "edtf:inception":"uuuu",
    "geom:area":0.0,
    "geom:bbox":"4.05058574677,51.4933433533,4.05180454254,51.4935264587",
    "geom:latitude":51.493438,
    "geom:longitude":4.051222,
    "iso:country":"NL",
    "mz:hierarchy_label":1,
    "mz:is_approximate":1,
    "mz:is_clustr":1,
    "src:geom":"oa",
    "wof:belongsto":[
        85687037,
        102191581,
        404474323,
        85633337,
        101809781
    ],
    "wof:breaches":[],
    "wof:country":"NL",
    "wof:created":1469681402,
    "wof:geomhash":"b50bad063a80542f103e4acc714dfe93",
    "wof:hierarchy":[
        {
            "continent_id":102191581,
            "country_id":85633337,
            "localadmin_id":404474323,
            "locality_id":101809781,
            "postalcode_id":890955115,
            "region_id":85687037
        }
    ],
    "wof:id":890955115,
    "wof:lastmodified":1469681402,
    "wof:name":"4401CJ",
    "wof:parent_id":101809781,
    "wof:placetype":"postalcode",
    "wof:repo":"whosonfirst-data-postalcode-nl",
    "wof:superseded_by":[],
    "wof:supersedes":[],
    "wof:tags":[]
},
  "bbox": [
    4.050585746765137,
    51.493343353271484,
    4.051804542541504,
    51.493526458740234
],
  "geometry": {"coordinates":[[[4.051589012146,51.49349975585938],[4.05173254013062,51.4935188293457],[4.0518045425415,51.49352645874023],[4.05133152008057,51.49344253540039],[4.05124568939209,51.49343109130859],[4.05072927474976,51.49336242675781],[4.05058574676514,51.49334335327148],[4.05080080032349,51.49338150024414],[4.05087232589722,51.49339294433594],[4.051589012146,51.49349975585938]]],"type":"Polygon"}
}