{
  "id": 891000217,
  "type": "Feature",
  "properties": {
    "clustr:alpha":0.05,
    "clustr:area":6.87,
    "clustr:count":47,
    "clustr:density":6.84,
    "clustr:perimeter":0.27,
    "edtf:cessation":"uuuu",
    "edtf:inception":"uuuu",
    "geom:area":0.0,
    "geom:bbox":"5.08795022964,51.5663909912,5.0888338089,51.5674171448",
    "geom:latitude":51.566808,
    "geom:longitude":5.08833,
    "iso:country":"NL",
    "mz:hierarchy_label":1,
    "mz:is_approximate":1,
    "mz:is_clustr":1,
    "src:geom":"oa",
    "wof:belongsto":[
        85687035,
        102191581,
        404474435,
        85633337,
        101751817
    ],
    "wof:breaches":[],
    "wof:country":"NL",
    "wof:created":1469683482,
    "wof:geomhash":"6d98ec03fb912ee5c76a76e3560ae639",
    "wof:hierarchy":[
        {
            "continent_id":102191581,
            "country_id":85633337,
            "localadmin_id":404474435,
            "locality_id":101751817,
            "postalcode_id":891000217,
            "region_id":85687035
        }
    ],
    "wof:id":891000217,
    "wof:lastmodified":1469683482,
    "wof:name":"5014HG",
    "wof:parent_id":101751817,
    "wof:placetype":"postalcode",
    "wof:repo":"whosonfirst-data-postalcode-nl",
    "wof:superseded_by":[],
    "wof:supersedes":[],
    "wof:tags":[]
},
  "bbox": [
    5.087950229644775,
    51.56639099121094,
    5.088833808898926,
    51.56741714477539
],
  "geometry": {"coordinates":[[[5.0885009765625,51.5669059753418],[5.08883380889893,51.56642150878906],[5.0883936882019,51.56639099121094],[5.08795022964478,51.56687545776367],[5.0881175994873,51.56741714477539],[5.08845281600952,51.56697463989258],[5.0885009765625,51.5669059753418]]],"type":"Polygon"}
}