{
  "id": 890701927,
  "type": "Feature",
  "properties": {
    "clustr:alpha":0.05,
    "clustr:area":39.82,
    "clustr:count":13,
    "clustr:density":0.33,
    "clustr:perimeter":0.15,
    "edtf:cessation":"uuuu",
    "edtf:inception":"uuuu",
    "geom:area":0.0,
    "geom:bbox":"4.65445947647,52.4102592468,4.65568876266,52.4104576111",
    "geom:latitude":52.41035,
    "geom:longitude":4.654999,
    "iso:country":"NL",
    "mz:hierarchy_label":1,
    "mz:is_approximate":1,
    "mz:is_clustr":1,
    "src:geom":"oa",
    "wof:belongsto":[
        85687053,
        102191581,
        404474061,
        85633337,
        101751897
    ],
    "wof:breaches":[],
    "wof:country":"NL",
    "wof:created":1469671298,
    "wof:geomhash":"1721c5be2ce1a153517b4f0e9ca3bba0",
    "wof:hierarchy":[
        {
            "continent_id":102191581,
            "country_id":85633337,
            "localadmin_id":404474061,
            "locality_id":101751897,
            "postalcode_id":890701927,
            "region_id":85687053
        }
    ],
    "wof:id":890701927,
    "wof:lastmodified":1469671298,
    "wof:name":"2025CM",
    "wof:parent_id":101751897,
    "wof:placetype":"postalcode",
    "wof:repo":"whosonfirst-data-postalcode-nl",
    "wof:superseded_by":[],
    "wof:supersedes":[],
    "wof:tags":[]
},
  "bbox": [
    4.654459476470947,
    52.41025924682617,
    4.655688762664795,
    52.410457611083984
],
  "geometry": {"coordinates":[[[4.6553544998169,52.41040420532227],[4.65445947647095,52.41025924682617],[4.65475654602051,52.41031646728516],[4.65483856201172,52.41033172607422],[4.65560722351074,52.41044616699219],[4.65568876266479,52.41045761108398],[4.6553544998169,52.41040420532227]]],"type":"Polygon"}
}