{
  "id": 891224115,
  "type": "Feature",
  "properties": {
    "clustr:alpha":0.05,
    "clustr:area":11.33,
    "clustr:count":24,
    "clustr:density":2.12,
    "clustr:perimeter":0.23,
    "edtf:cessation":"uuuu",
    "edtf:inception":"uuuu",
    "geom:area":0.0,
    "geom:bbox":"6.14936590195,52.2767448425,6.15054988861,52.2775382996",
    "geom:latitude":52.277049,
    "geom:longitude":6.14982,
    "iso:country":"NL",
    "mz:hierarchy_label":1,
    "mz:is_approximate":1,
    "mz:is_clustr":1,
    "src:geom":"oa",
    "wof:belongsto":[
        85687045,
        102191581,
        404473825,
        85633337,
        101751865
    ],
    "wof:breaches":[],
    "wof:country":"NL",
    "wof:created":1469692381,
    "wof:geomhash":"3ea840df3505dcef56dba5a0662e271a",
    "wof:hierarchy":[
        {
            "continent_id":102191581,
            "country_id":85633337,
            "localadmin_id":404473825,
            "locality_id":101751865,
            "postalcode_id":891224115,
            "region_id":85687045
        }
    ],
    "wof:id":891224115,
    "wof:lastmodified":1469692381,
    "wof:name":"7414CW",
    "wof:parent_id":101751865,
    "wof:placetype":"postalcode",
    "wof:repo":"whosonfirst-data-postalcode-nl",
    "wof:superseded_by":[],
    "wof:supersedes":[],
    "wof:tags":[]
},
  "bbox": [
    6.149365901947021,
    52.2767448425293,
    6.15054988861084,
    52.27753829956055
],
  "geometry": {"coordinates":[[[6.14942359924316,52.27679824829102],[6.14936590194702,52.27683639526367],[6.14980983734131,52.27710342407227],[6.15029859542847,52.27739715576172],[6.15054988861084,52.27753829956055],[6.14951086044312,52.2767448425293],[6.14942359924316,52.27679824829102]]],"type":"Polygon"}
}