{
  "id": 891078521,
  "type": "Feature",
  "properties": {
    "clustr:alpha":0.05,
    "clustr:area":18.27,
    "clustr:count":11,
    "clustr:density":0.6,
    "clustr:perimeter":0.15,
    "edtf:cessation":"uuuu",
    "edtf:inception":"uuuu",
    "geom:area":0.0,
    "geom:bbox":"5.64058589935,51.4692764282,5.64166259766,51.469543457",
    "geom:latitude":51.469418,
    "geom:longitude":5.641137,
    "iso:country":"NL",
    "mz:hierarchy_label":1,
    "mz:is_approximate":1,
    "mz:is_clustr":1,
    "src:geom":"oa",
    "wof:belongsto":[
        85687035,
        102191581,
        404474389,
        85633337,
        101751805
    ],
    "wof:breaches":[],
    "wof:country":"NL",
    "wof:created":1469686429,
    "wof:geomhash":"1475a7e97596ceb629fadcf3870cb344",
    "wof:hierarchy":[
        {
            "continent_id":102191581,
            "country_id":85633337,
            "localadmin_id":404474389,
            "locality_id":101751805,
            "postalcode_id":891078521,
            "region_id":85687035
        }
    ],
    "wof:id":891078521,
    "wof:lastmodified":1469686429,
    "wof:name":"5706TP",
    "wof:parent_id":101751805,
    "wof:placetype":"postalcode",
    "wof:repo":"whosonfirst-data-postalcode-nl",
    "wof:superseded_by":[],
    "wof:supersedes":[],
    "wof:tags":[]
},
  "bbox": [
    5.640585899353027,
    51.469276428222656,
    5.64166259765625,
    51.46954345703125
],
  "geometry": {"coordinates":[[[5.64083003997803,51.46934509277344],[5.64129018783569,51.46946334838867],[5.64137125015259,51.469482421875],[5.64166259765625,51.46954345703125],[5.64144659042358,51.46949005126953],[5.64058589935303,51.46927642822266],[5.64067792892456,51.46930313110352],[5.64083003997803,51.46934509277344]]],"type":"Polygon"}
}