{
  "id": 907040893,
  "type": "Feature",
  "properties": {
    "clustr:alpha":0.05,
    "clustr:area":4.66,
    "clustr:count":30,
    "clustr:density":6.44,
    "clustr:perimeter":0.21,
    "edtf:cessation":"uuuu",
    "edtf:inception":"uuuu",
    "geom:area":0.0,
    "geom:bbox":"5.96308755875,52.6792297363,5.96444797516,52.679523468",
    "geom:latitude":52.679382,
    "geom:longitude":5.963604,
    "iso:country":"NL",
    "mz:hierarchy_label":1,
    "mz:is_approximate":1,
    "mz:is_clustr":1,
    "src:geom":"oa",
    "wof:belongsto":[
        85687045,
        102191581,
        404474621,
        85633337,
        101808745
    ],
    "wof:breaches":[],
    "wof:country":"NL",
    "wof:created":1469696334,
    "wof:geomhash":"b1763fd0e89d0af65f35550bcee833c9",
    "wof:hierarchy":[
        {
            "continent_id":102191581,
            "country_id":85633337,
            "localadmin_id":404474621,
            "locality_id":101808745,
            "postalcode_id":907040893,
            "region_id":85687045
        }
    ],
    "wof:id":907040893,
    "wof:lastmodified":1469696334,
    "wof:name":"8325EG",
    "wof:parent_id":101808745,
    "wof:placetype":"postalcode",
    "wof:repo":"whosonfirst-data-postalcode-nl",
    "wof:superseded_by":[],
    "wof:supersedes":[],
    "wof:tags":[]
},
  "bbox": [
    5.963087558746338,
    52.679229736328125,
    5.964447975158691,
    52.67952346801758
],
  "geometry": {"coordinates":[[[5.96368646621704,52.67952346801758],[5.96444797515869,52.67934799194336],[5.96406316757202,52.67931365966797],[5.96330833435059,52.67924499511719],[5.96311569213867,52.67922973632812],[5.96308755874634,52.67948150634766],[5.96312618255615,52.67948532104492],[5.9632043838501,52.67949295043945],[5.96364688873291,52.67952346801758],[5.96368646621704,52.67952346801758]]],"type":"Polygon"}
}