{
  "id": 890991833,
  "type": "Feature",
  "properties": {
    "clustr:alpha":0.05,
    "clustr:area":111.53,
    "clustr:count":14,
    "clustr:density":0.13,
    "clustr:perimeter":0.24,
    "edtf:cessation":"uuuu",
    "edtf:inception":"uuuu",
    "geom:area":0.0,
    "geom:bbox":"4.85625123978,51.5070381165,4.85825920105,51.5075531006",
    "geom:latitude":51.50724,
    "geom:longitude":4.857276,
    "iso:country":"NL",
    "mz:hierarchy_label":1,
    "mz:is_approximate":1,
    "mz:is_clustr":1,
    "src:geom":"oa",
    "wof:belongsto":[
        85687035,
        102191581,
        404474637,
        85633337,
        101808175
    ],
    "wof:breaches":[],
    "wof:country":"NL",
    "wof:created":1469683146,
    "wof:geomhash":"0f8fb52f002510559d0b9bb16d876a9a",
    "wof:hierarchy":[
        {
            "continent_id":102191581,
            "country_id":85633337,
            "localadmin_id":404474637,
            "locality_id":101808175,
            "postalcode_id":890991833,
            "region_id":85687035
        }
    ],
    "wof:id":890991833,
    "wof:lastmodified":1469683146,
    "wof:name":"4861AE",
    "wof:parent_id":101808175,
    "wof:placetype":"postalcode",
    "wof:repo":"whosonfirst-data-postalcode-nl",
    "wof:superseded_by":[],
    "wof:supersedes":[],
    "wof:tags":[]
},
  "bbox": [
    4.856251239776611,
    51.50703811645508,
    4.858259201049805,
    51.50755310058594
],
  "geometry": {"coordinates":[[[4.85687398910522,51.50725936889648],[4.85625123977661,51.50755310058594],[4.85675668716431,51.50743865966797],[4.85805702209473,51.50710296630859],[4.8582592010498,51.50704193115234],[4.85775518417358,51.50703811645508],[4.85687398910522,51.50725936889648]]],"type":"Polygon"}
}