{
  "id": 891268195,
  "type": "Feature",
  "properties": {
    "clustr:alpha":0.05,
    "clustr:area":40.31,
    "clustr:count":21,
    "clustr:density":0.52,
    "clustr:perimeter":0.13,
    "edtf:cessation":"uuuu",
    "edtf:inception":"uuuu",
    "geom:area":0.0,
    "geom:bbox":"6.8927488327,52.7946472168,6.89337491989,52.7952232361",
    "geom:latitude":52.794963,
    "geom:longitude":6.893081,
    "iso:country":"NL",
    "mz:hierarchy_label":1,
    "mz:is_approximate":1,
    "mz:is_clustr":1,
    "src:geom":"oa",
    "wof:belongsto":[
        85687051,
        102191581,
        404473809,
        85633337,
        101751881
    ],
    "wof:breaches":[],
    "wof:country":"NL",
    "wof:created":1469694161,
    "wof:geomhash":"b7027c1810c31185bb7b80baf8924058",
    "wof:hierarchy":[
        {
            "continent_id":102191581,
            "country_id":85633337,
            "localadmin_id":404473809,
            "locality_id":101751881,
            "postalcode_id":891268195,
            "region_id":85687051
        }
    ],
    "wof:id":891268195,
    "wof:lastmodified":1469694161,
    "wof:name":"7815XH",
    "wof:parent_id":101751881,
    "wof:placetype":"postalcode",
    "wof:repo":"whosonfirst-data-postalcode-nl",
    "wof:superseded_by":[],
    "wof:supersedes":[],
    "wof:tags":[]
},
  "bbox": [
    6.892748832702637,
    52.794647216796875,
    6.893374919891357,
    52.795223236083984
],
  "geometry": {"coordinates":[[[6.8931131362915,52.79522323608398],[6.89315700531006,52.79521560668945],[6.89337491989136,52.79464721679688],[6.89274883270264,52.79498672485352],[6.89275026321411,52.79502105712891],[6.8931131362915,52.79522323608398]]],"type":"Polygon"}
}