{
  "id": 891020965,
  "type": "Feature",
  "properties": {
    "clustr:alpha":0.05,
    "clustr:area":5.23,
    "clustr:count":24,
    "clustr:density":4.59,
    "clustr:perimeter":0.09,
    "edtf:cessation":"uuuu",
    "edtf:inception":"uuuu",
    "geom:area":0.0,
    "geom:bbox":"5.33408212662,51.6936264038,5.33427476883,51.6940193176",
    "geom:latitude":51.693821,
    "geom:longitude":5.334181,
    "iso:country":"NL",
    "mz:hierarchy_label":1,
    "mz:is_approximate":1,
    "mz:is_clustr":1,
    "src:geom":"oa",
    "wof:belongsto":[
        85687035,
        102191581,
        404474393,
        85633337,
        101751809
    ],
    "wof:breaches":[],
    "wof:country":"NL",
    "wof:created":1469684279,
    "wof:geomhash":"f3ee46da3fb5a28fa0b3825640fd0662",
    "wof:hierarchy":[
        {
            "continent_id":102191581,
            "country_id":85633337,
            "localadmin_id":404474393,
            "locality_id":101751809,
            "postalcode_id":891020965,
            "region_id":85687035
        }
    ],
    "wof:id":891020965,
    "wof:lastmodified":1469684279,
    "wof:name":"5213HA",
    "wof:parent_id":101751809,
    "wof:placetype":"postalcode",
    "wof:repo":"whosonfirst-data-postalcode-nl",
    "wof:superseded_by":[],
    "wof:supersedes":[],
    "wof:tags":[]
},
  "bbox": [
    5.334082126617432,
    51.693626403808594,
    5.334274768829346,
    51.69401931762695
],
  "geometry": {"coordinates":[[[5.33414554595947,51.69401931762695],[5.33417558670044,51.69394302368164],[5.33420562744141,51.69386672973633],[5.33423566818237,51.69379043579102],[5.33427476882935,51.69363403320312],[5.33421182632446,51.69362640380859],[5.33418130874634,51.69370269775391],[5.33408212661743,51.69401168823242],[5.33410358428955,51.69401550292969],[5.33414554595947,51.69401931762695]]],"type":"Polygon"}
}