{
  "id": 891161873,
  "type": "Feature",
  "properties": {
    "clustr:alpha":0.05,
    "clustr:area":111.54,
    "clustr:count":6,
    "clustr:density":0.05,
    "clustr:perimeter":0.1,
    "edtf:cessation":"uuuu",
    "edtf:inception":"uuuu",
    "geom:area":0.0,
    "geom:bbox":"5.86996650696,51.8659667969,5.87115001678,51.8662109375",
    "geom:latitude":51.866102,
    "geom:longitude":5.870573,
    "iso:country":"NL",
    "mz:hierarchy_label":1,
    "mz:is_approximate":1,
    "mz:is_clustr":1,
    "src:geom":"oa",
    "wof:belongsto":[
        85687043,
        102191581,
        404473925,
        85633337,
        101808623
    ],
    "wof:breaches":[],
    "wof:country":"NL",
    "wof:created":1469689856,
    "wof:geomhash":"83339bc2c45c79ee1ad6be729b00e633",
    "wof:hierarchy":[
        {
            "continent_id":102191581,
            "country_id":85633337,
            "localadmin_id":404473925,
            "locality_id":101808623,
            "postalcode_id":891161873,
            "region_id":85687043
        }
    ],
    "wof:id":891161873,
    "wof:lastmodified":1469689856,
    "wof:name":"6663EJ",
    "wof:parent_id":101808623,
    "wof:placetype":"postalcode",
    "wof:repo":"whosonfirst-data-postalcode-nl",
    "wof:superseded_by":[],
    "wof:supersedes":[],
    "wof:tags":[]
},
  "bbox": [
    5.869966506958008,
    51.865966796875,
    5.871150016784668,
    51.8662109375
],
  "geometry": {"coordinates":[[[5.87021732330322,51.86601638793945],[5.86996650695801,51.865966796875],[5.8704719543457,51.8661003112793],[5.87068176269531,51.86614227294922],[5.87096118927002,51.86618804931641],[5.87115001678467,51.8662109375],[5.87021732330322,51.86601638793945]]],"type":"Polygon"}
}