{
  "id": 890807135,
  "type": "Feature",
  "properties": {
    "clustr:alpha":0.05,
    "clustr:area":99.52,
    "clustr:count":13,
    "clustr:density":0.13,
    "clustr:perimeter":0.18,
    "edtf:cessation":"uuuu",
    "edtf:inception":"uuuu",
    "geom:area":0.0,
    "geom:bbox":"4.68283319473,51.8853034973,4.68393182755,51.8863563538",
    "geom:latitude":51.885772,
    "geom:longitude":4.683437,
    "iso:country":"NL",
    "mz:hierarchy_label":1,
    "mz:is_approximate":1,
    "mz:is_clustr":1,
    "src:geom":"oa",
    "wof:belongsto":[
        85687041,
        102191581,
        404474219,
        85633337,
        101837723
    ],
    "wof:breaches":[],
    "wof:country":"NL",
    "wof:created":1469675490,
    "wof:geomhash":"ef94dc20bf0195a4458428db642d08ef",
    "wof:hierarchy":[
        {
            "continent_id":102191581,
            "country_id":85633337,
            "localadmin_id":404474219,
            "locality_id":101837723,
            "postalcode_id":890807135,
            "region_id":85687041
        }
    ],
    "wof:id":890807135,
    "wof:lastmodified":1469675490,
    "wof:name":"2957RB",
    "wof:parent_id":101837723,
    "wof:placetype":"postalcode",
    "wof:repo":"whosonfirst-data-postalcode-nl",
    "wof:superseded_by":[],
    "wof:supersedes":[],
    "wof:tags":[]
},
  "bbox": [
    4.682833194732666,
    51.88530349731445,
    4.683931827545166,
    51.886356353759766
],
  "geometry": {"coordinates":[[[4.68377017974854,51.88541412353516],[4.68302488327026,51.88615417480469],[4.68283319473267,51.88635635375977],[4.68291425704956,51.88628387451172],[4.68328952789307,51.88594818115234],[4.68340015411377,51.88584518432617],[4.68393182754517,51.88530349731445],[4.68385124206543,51.88534927368164],[4.68377017974854,51.88541412353516]]],"type":"Polygon"}
}