{
  "id": 891011357,
  "type": "Feature",
  "properties": {
    "clustr:alpha":0.05,
    "clustr:area":4.39,
    "clustr:count":9,
    "clustr:density":2.05,
    "clustr:perimeter":0.09,
    "edtf:cessation":"uuuu",
    "edtf:inception":"uuuu",
    "geom:area":0.0,
    "geom:bbox":"5.15787506104,51.5070152283,5.15828037262,51.5074729919",
    "geom:latitude":51.507191,
    "geom:longitude":5.15802,
    "iso:country":"NL",
    "mz:hierarchy_label":1,
    "mz:is_approximate":1,
    "mz:is_clustr":1,
    "src:geom":"oa",
    "wof:belongsto":[
        102191581,
        404474397,
        85633337,
        85687035
    ],
    "wof:breaches":[],
    "wof:country":"NL",
    "wof:created":1469683916,
    "wof:geomhash":"f0d3315070a267bba99687079028e118",
    "wof:hierarchy":[
        {
            "continent_id":102191581,
            "country_id":85633337,
            "localadmin_id":404474397,
            "postalcode_id":891011357,
            "region_id":85687035
        }
    ],
    "wof:id":891011357,
    "wof:lastmodified":1469683916,
    "wof:name":"5084GC",
    "wof:parent_id":404474397,
    "wof:placetype":"postalcode",
    "wof:repo":"whosonfirst-data-postalcode-nl",
    "wof:superseded_by":[],
    "wof:supersedes":[],
    "wof:tags":[]
},
  "bbox": [
    5.157875061035156,
    51.507015228271484,
    5.158280372619629,
    51.50747299194336
],
  "geometry": {"coordinates":[[[5.15787649154663,51.50713348388672],[5.15787506103516,51.50747299194336],[5.15814971923828,51.50720596313477],[5.15823698043823,51.50711441040039],[5.15828037261963,51.5070686340332],[5.15797805786133,51.50701522827148],[5.15787649154663,51.50713348388672]]],"type":"Polygon"}
}