{
  "id": 890858375,
  "type": "Feature",
  "properties": {
    "clustr:alpha":0.05,
    "clustr:area":101.28,
    "clustr:count":14,
    "clustr:density":0.14,
    "clustr:perimeter":0.2,
    "edtf:cessation":"uuuu",
    "edtf:inception":"uuuu",
    "geom:area":0.0,
    "geom:bbox":"4.63054132462,51.8384170532,4.63186120987,51.8393707275",
    "geom:latitude":51.838964,
    "geom:longitude":4.631105,
    "iso:country":"NL",
    "mz:hierarchy_label":1,
    "mz:is_approximate":1,
    "mz:is_clustr":1,
    "src:geom":"oa",
    "wof:belongsto":[
        85687041,
        102191581,
        404474185,
        85633337,
        101754633
    ],
    "wof:breaches":[],
    "wof:country":"NL",
    "wof:created":1469677427,
    "wof:geomhash":"0f93cd819503a54cf293d139694eb494",
    "wof:hierarchy":[
        {
            "continent_id":102191581,
            "country_id":85633337,
            "localadmin_id":404474185,
            "locality_id":101754633,
            "postalcode_id":890858375,
            "region_id":85687041
        }
    ],
    "wof:id":890858375,
    "wof:lastmodified":1469677427,
    "wof:name":"3343BK",
    "wof:parent_id":101754633,
    "wof:placetype":"postalcode",
    "wof:repo":"whosonfirst-data-postalcode-nl",
    "wof:superseded_by":[],
    "wof:supersedes":[],
    "wof:tags":[]
},
  "bbox": [
    4.630541324615479,
    51.838417053222656,
    4.631861209869385,
    51.83937072753906
],
  "geometry": {"coordinates":[[[4.63079071044922,51.83907699584961],[4.63054132461548,51.83925628662109],[4.6305980682373,51.83932876586914],[4.63065528869629,51.83937072753906],[4.63094758987427,51.83922958374023],[4.63186120986938,51.83841705322266],[4.63156890869141,51.83854293823242],[4.63079071044922,51.83907699584961]]],"type":"Polygon"}
}